{"type":"FeatureCollection","features":[{"type":"Feature","properties":{"agency_name":"Metro St. Louis","route_id":"19597","agency_id":"70006","route_short_name":"9","route_long_name":"Oakville","route_type":3,"route_color":"#FFFFFF","route_text_color":"#000000"},"geometry":{"type":"MultiLineString","coordinates":[[[-90.31876,38.59278],[-90.3194,38.59258],[-90.31876,38.59278],[-90.31856,38.59279],[-90.31844,38.59259],[-90.31842,38.59252],[-90.31846,38.59199],[-90.31844,38.59174],[-90.3184,38.59153],[-90.31831,38.5912],[-90.31822,38.59048],[-90.31816,38.59024],[-90.31808,38.59004],[-90.31789,38.58976],[-90.31773,38.58959],[-90.31755,38.58945],[-90.31616,38.58866],[-90.31402,38.58629],[-90.31257,38.58464],[-90.31251,38.58443],[-90.31245,38.58412],[-90.31245,38.58395],[-90.31259,38.58325],[-90.3126,38.58308],[-90.31257,38.58286],[-90.31251,38.58266],[-90.31241,38.58243],[-90.31228,38.58224],[-90.31148,38.58136],[-90.31136,38.58119],[-90.3111,38.58072],[-90.31039,38.5786],[-90.31026,38.57828],[-90.30958,38.57731],[-90.30869,38.57568],[-90.30859,38.57525],[-90.30854,38.57481],[-90.30849,38.57461],[-90.30836,38.57437],[-90.3082,38.57415],[-90.30629,38.57196],[-90.30615,38.57182],[-90.30599,38.57169],[-90.30508,38.57109],[-90.30483,38.5709],[-90.30363,38.56978],[-90.30228,38.56864],[-90.30155,38.56794],[-90.29656,38.56381],[-90.29589,38.56312],[-90.29491,38.56381],[-90.29406,38.56418],[-90.29236,38.56241],[-90.29216,38.56226],[-90.29191,38.56212],[-90.29167,38.56204],[-90.29112,38.5619],[-90.29032,38.56179],[-90.2867,38.56159],[-90.28616,38.56152],[-90.28517,38.56132],[-90.2849,38.56124],[-90.28423,38.56101],[-90.28371,38.56079],[-90.28345,38.56066],[-90.28314,38.56048],[-90.28262,38.56015],[-90.27892,38.55739],[-90.27866,38.55721],[-90.27839,38.55707],[-90.27806,38.55695],[-90.27785,38.55689],[-90.27743,38.55682],[-90.27676,38.5568],[-90.27476,38.5568],[-90.27439,38.55678],[-90.27383,38.5567],[-90.27358,38.55665],[-90.27307,38.55651],[-90.27276,38.5564],[-90.27231,38.5562],[-90.272,38.55603],[-90.27173,38.55585],[-90.27138,38.55557],[-90.27111,38.55532],[-90.27092,38.55511],[-90.27068,38.55478],[-90.27049,38.55445],[-90.27033,38.55411],[-90.27022,38.55368],[-90.27015,38.5531],[-90.27016,38.5527],[-90.27083,38.54916],[-90.27087,38.54873],[-90.27088,38.54702],[-90.27085,38.54682],[-90.27075,38.54649],[-90.27054,38.54602],[-90.27044,38.54586],[-90.27031,38.54572],[-90.27012,38.54556],[-90.26736,38.5438],[-90.2663,38.54302],[-90.26534,38.54238],[-90.26437,38.54178],[-90.26637,38.54002],[-90.266,38.53978],[-90.26592,38.53977],[-90.26584,38.53981],[-90.26581,38.53986],[-90.26581,38.5399],[-90.26584,38.53998],[-90.26637,38.54002],[-90.27105,38.53589],[-90.27126,38.53573],[-90.27445,38.53392],[-90.27533,38.53339],[-90.27644,38.53279],[-90.27667,38.53261],[-90.27676,38.5325],[-90.277,38.53215],[-90.27706,38.53203],[-90.2771,38.53189],[-90.27712,38.53173],[-90.27719,38.52813],[-90.27729,38.52473],[-90.27729,38.52328],[-90.27734,38.52302],[-90.2774,38.52286],[-90.27758,38.52257],[-90.27777,38.52233],[-90.28019,38.51983],[-90.28524,38.51451],[-90.28546,38.51432],[-90.28566,38.51417],[-90.28611,38.5139],[-90.28642,38.51376],[-90.28668,38.51367],[-90.28693,38.5136],[-90.28812,38.51343],[-90.28843,38.51337],[-90.28871,38.5133],[-90.28907,38.51318],[-90.2896,38.51294],[-90.29001,38.51265],[-90.29032,38.51237],[-90.29202,38.51078],[-90.29349,38.50938],[-90.29383,38.50905],[-90.29404,38.50882],[-90.29422,38.50858],[-90.29518,38.50698],[-90.29597,38.50562],[-90.29737,38.50318],[-90.2978,38.50237],[-90.29854,38.50112],[-90.29894,38.50038],[-90.30061,38.49742],[-90.30073,38.49731],[-90.30082,38.49718],[-90.30091,38.49698],[-90.30129,38.49625],[-90.30256,38.49399],[-90.30292,38.49338],[-90.3021,38.4931],[-90.30178,38.49303],[-90.30133,38.49299],[-90.30092,38.49302],[-90.30048,38.49309],[-90.29963,38.49332],[-90.29935,38.49337],[-90.299,38.49339],[-90.29872,38.49338],[-90.29849,38.49335],[-90.29799,38.49325],[-90.29689,38.4929],[-90.2943,38.49199],[-90.29241,38.49136],[-90.29112,38.49098],[-90.28798,38.49012],[-90.28762,38.48993],[-90.28712,38.4896],[-90.28694,38.48944],[-90.28675,38.4892],[-90.28664,38.48903],[-90.28655,38.48885],[-90.28645,38.48858],[-90.28635,38.48841],[-90.28621,38.48827],[-90.28603,38.48817],[-90.28584,38.48811],[-90.28573,38.48809],[-90.28552,38.48809],[-90.28426,38.48837],[-90.28439,38.48913],[-90.28441,38.48935],[-90.28487,38.49165],[-90.28483,38.49215],[-90.28463,38.49229],[-90.28393,38.49316],[-90.28167,38.49221],[-90.28162,38.4919],[-90.28161,38.49169],[-90.28173,38.49146],[-90.28193,38.49127],[-90.28211,38.49119],[-90.28243,38.49114],[-90.28274,38.49119],[-90.28421,38.4917],[-90.28442,38.49172],[-90.2847,38.49167]],[[-90.28411,38.48784],[-90.28426,38.48837],[-90.28401,38.48752],[-90.28539,38.48741],[-90.28561,38.48744],[-90.28592,38.48754],[-90.2862,38.48771],[-90.28635,38.48787],[-90.28641,38.48796],[-90.28646,38.48806],[-90.28672,38.4888],[-90.28683,38.489],[-90.28696,38.48918],[-90.28727,38.48948],[-90.28763,38.48973],[-90.28792,38.48986],[-90.28813,38.48993],[-90.29289,38.49129],[-90.29417,38.49172],[-90.29796,38.49305],[-90.29839,38.49316],[-90.29884,38.49319],[-90.29917,38.49318],[-90.2995,38.49313],[-90.30038,38.4929],[-90.30081,38.49284],[-90.30124,38.49284],[-90.3019,38.4929],[-90.30211,38.49289],[-90.3024,38.49282],[-90.3025,38.49277],[-90.30272,38.49253],[-90.30286,38.49223],[-90.30293,38.49215],[-90.30323,38.49215],[-90.30361,38.49167],[-90.30377,38.49115],[-90.30385,38.49065],[-90.30403,38.4885],[-90.30423,38.48571],[-90.30433,38.48469],[-90.30448,38.48264],[-90.3045,38.48171],[-90.30441,38.4777],[-90.30439,38.47583],[-90.3044,38.47426],[-90.30442,38.47305],[-90.30447,38.4723],[-90.30466,38.47135],[-90.30495,38.4703],[-90.30595,38.47037],[-90.30752,38.4704],[-90.30861,38.4696],[-90.30859,38.46933],[-90.30853,38.46912],[-90.30836,38.46887],[-90.30821,38.46872],[-90.30802,38.46858],[-90.30774,38.46843],[-90.30738,38.46831],[-90.30704,38.46824],[-90.30681,38.46821],[-90.30659,38.46822],[-90.30556,38.4682],[-90.30524,38.46929]]]}},{"type":"Feature","properties":{"stop_id":"10467","stop_code":"10467","stop_name":"MARCEAU @ ALABAMA SB","stop_desc":"FAR SIDE MARCEAU @ ALABAMA SB","wheelchair_boarding":2,"routes":[{"route_id":"19597","agency_id":"70006","route_short_name":"9","route_long_name":"Oakville","route_type":3,"route_color":"#FFFFFF","route_text_color":"#000000"}],"agency_name":"Metro St. Louis"},"geometry":{"type":"Point","coordinates":[-90.27002,38.54541]}},{"type":"Feature","properties":{"stop_id":"10469","stop_code":"10469","stop_name":"MARCEAU @ MINNESOTA SB","stop_desc":"FAR SIDE MARCEAU @ MINNESOTA SB","wheelchair_boarding":2,"routes":[{"route_id":"19597","agency_id":"70006","route_short_name":"9","route_long_name":"Oakville","route_type":3,"route_color":"#FFFFFF","route_text_color":"#000000"}],"agency_name":"Metro St. Louis"},"geometry":{"type":"Point","coordinates":[-90.26582,38.54262]}},{"type":"Feature","properties":{"stop_id":"10472","stop_code":"10472","stop_name":"BROADWAY @ RIVER CITY CASINO SB","stop_desc":"FAR SIDE BROADWAY @ RIVER CITY CASINO SB","wheelchair_boarding":2,"routes":[{"route_id":"19597","agency_id":"70006","route_short_name":"9","route_long_name":"Oakville","route_type":3,"route_color":"#FFFFFF","route_text_color":"#000000"}],"agency_name":"Metro St. Louis"},"geometry":{"type":"Point","coordinates":[-90.26997,38.53691]}},{"type":"Feature","properties":{"stop_id":"10474","stop_code":"10474","stop_name":"BROADWAY @ WEISS SB","stop_desc":"FAR SIDE BROADWAY @ WEISS SB","wheelchair_boarding":1,"routes":[{"route_id":"19597","agency_id":"70006","route_short_name":"9","route_long_name":"Oakville","route_type":3,"route_color":"#FFFFFF","route_text_color":"#000000"}],"agency_name":"Metro St. Louis"},"geometry":{"type":"Point","coordinates":[-90.27337,38.5346]}},{"type":"Feature","properties":{"stop_id":"10475","stop_code":"10475","stop_name":"BROADWAY @ GOETZ SB","stop_desc":"FAR SIDE BROADWAY @ GOETZ SB","wheelchair_boarding":1,"routes":[{"route_id":"19597","agency_id":"70006","route_short_name":"9","route_long_name":"Oakville","route_type":3,"route_color":"#FFFFFF","route_text_color":"#000000"}],"agency_name":"Metro St. Louis"},"geometry":{"type":"Point","coordinates":[-90.27651,38.53281]}},{"type":"Feature","properties":{"stop_id":"10479","stop_code":"10479","stop_name":"BROADWAY @ HOLDEN SB","stop_desc":"FAR SIDE BROADWAY @ HOLDEN SB","wheelchair_boarding":1,"routes":[{"route_id":"19597","agency_id":"70006","route_short_name":"9","route_long_name":"Oakville","route_type":3,"route_color":"#FFFFFF","route_text_color":"#000000"}],"agency_name":"Metro St. Louis"},"geometry":{"type":"Point","coordinates":[-90.27723,38.529]}},{"type":"Feature","properties":{"stop_id":"10481","stop_code":"10481","stop_name":"BROADWAY @ RIPA SB","stop_desc":"FAR SIDE BROADWAY @ RIPA SB","wheelchair_boarding":2,"routes":[{"route_id":"19597","agency_id":"70006","route_short_name":"9","route_long_name":"Oakville","route_type":3,"route_color":"#FFFFFF","route_text_color":"#000000"}],"agency_name":"Metro St. Louis"},"geometry":{"type":"Point","coordinates":[-90.27735,38.52401]}},{"type":"Feature","properties":{"stop_id":"10482","stop_code":"10482","stop_name":"KINGSTON @ CLYDE SB","stop_desc":"FAR SIDE KINGSTON @ CLYDE SB","wheelchair_boarding":2,"routes":[{"route_id":"19597","agency_id":"70006","route_short_name":"9","route_long_name":"Oakville","route_type":3,"route_color":"#FFFFFF","route_text_color":"#000000"}],"agency_name":"Metro St. Louis"},"geometry":{"type":"Point","coordinates":[-90.28001,38.5201]}},{"type":"Feature","properties":{"stop_id":"10483","stop_code":"10483","stop_name":"KINGSTON @ CARRINGTON SB","stop_desc":"FAR SIDE KINGSTON @ CARRINGTON SB","wheelchair_boarding":2,"routes":[{"route_id":"19597","agency_id":"70006","route_short_name":"9","route_long_name":"Oakville","route_type":3,"route_color":"#FFFFFF","route_text_color":"#000000"}],"agency_name":"Metro St. Louis"},"geometry":{"type":"Point","coordinates":[-90.28104,38.51902]}},{"type":"Feature","properties":{"stop_id":"10485","stop_code":"10485","stop_name":"KINGSTON @ PENTONVILLE SB","stop_desc":"FAR SIDE KINGSTON @ PENTONVILLE SB","wheelchair_boarding":2,"routes":[{"route_id":"19597","agency_id":"70006","route_short_name":"9","route_long_name":"Oakville","route_type":3,"route_color":"#FFFFFF","route_text_color":"#000000"}],"agency_name":"Metro St. Louis"},"geometry":{"type":"Point","coordinates":[-90.28266,38.51731]}},{"type":"Feature","properties":{"stop_id":"10488","stop_code":"10488","stop_name":"KINGSTON @ TACOMA SB","stop_desc":"NEAR SIDE KINGSTON @ TACOMA SB","wheelchair_boarding":2,"routes":[{"route_id":"19597","agency_id":"70006","route_short_name":"9","route_long_name":"Oakville","route_type":3,"route_color":"#FFFFFF","route_text_color":"#000000"}],"agency_name":"Metro St. Louis"},"geometry":{"type":"Point","coordinates":[-90.28517,38.51466]}},{"type":"Feature","properties":{"stop_id":"10489","stop_code":"10489","stop_name":"KINGSTON @ GENEVA SB","stop_desc":"NEAR SIDE KINGSTON @ GENEVA SB","wheelchair_boarding":2,"routes":[{"route_id":"19597","agency_id":"70006","route_short_name":"9","route_long_name":"Oakville","route_type":3,"route_color":"#FFFFFF","route_text_color":"#000000"}],"agency_name":"Metro St. Louis"},"geometry":{"type":"Point","coordinates":[-90.28716,38.51361]}},{"type":"Feature","properties":{"stop_id":"15614","stop_code":"15614","stop_name":"GEBHARDT @ DELOAK SB","stop_desc":"NEAR SIDE GEBHARDT @ DELOAK SB","wheelchair_boarding":1,"routes":[{"route_id":"19597","agency_id":"70006","route_short_name":"9","route_long_name":"Oakville","route_type":3,"route_color":"#FFFFFF","route_text_color":"#000000"}],"agency_name":"Metro St. Louis"},"geometry":{"type":"Point","coordinates":[-90.30865,38.46975]}},{"type":"Feature","properties":{"stop_id":"16303","stop_code":"16303","stop_name":"SHREWSBURY-LANSDOWNE I-44 TRANSIT CENTER","wheelchair_boarding":1,"routes":[{"route_id":"19597","agency_id":"70006","route_short_name":"9","route_long_name":"Oakville","route_type":3,"route_color":"#FFFFFF","route_text_color":"#000000"},{"route_id":"19615","agency_id":"70006","route_short_name":"56","route_long_name":"Kirkwood-Webster","route_type":3,"route_color":"#FFFFFF","route_text_color":"#000000"}],"agency_name":"Metro St. Louis"},"geometry":{"type":"Point","coordinates":[-90.31943,38.59258]}},{"type":"Feature","properties":{"stop_id":"16373","stop_code":"16373","stop_name":"RIVER DES PERES @ LOUGHBOROUGH SB","stop_desc":"NEAR SIDE RIVER DES PERES @ LOUGHBOROUGH SB","wheelchair_boarding":2,"routes":[{"route_id":"19597","agency_id":"70006","route_short_name":"9","route_long_name":"Oakville","route_type":3,"route_color":"#FFFFFF","route_text_color":"#000000"}],"agency_name":"Metro St. Louis"},"geometry":{"type":"Point","coordinates":[-90.30872,38.57569]}},{"type":"Feature","properties":{"stop_id":"16376","stop_code":"16376","stop_name":"RIVER DES PERES @ OLDE ENGLISH SB","stop_desc":"FAR SIDE RIVER DES PERES @ OLDE ENGLISH SB","wheelchair_boarding":2,"routes":[{"route_id":"19597","agency_id":"70006","route_short_name":"9","route_long_name":"Oakville","route_type":3,"route_color":"#FFFFFF","route_text_color":"#000000"}],"agency_name":"Metro St. Louis"},"geometry":{"type":"Point","coordinates":[-90.30166,38.56804]}},{"type":"Feature","properties":{"stop_id":"3203","stop_code":"3203","stop_name":"GERMANIA @ GRAVOIS SB","stop_desc":"FAR SIDE GERMANIA @ GRAVOIS SB","wheelchair_boarding":2,"routes":[{"route_id":"19597","agency_id":"70006","route_short_name":"9","route_long_name":"Oakville","route_type":3,"route_color":"#FFFFFF","route_text_color":"#000000"}],"agency_name":"Metro St. Louis"},"geometry":{"type":"Point","coordinates":[-90.29373,38.56368]}},{"type":"Feature","properties":{"stop_id":"3204","stop_code":"3204","stop_name":"GERMANIA @ STOLLE SB","stop_desc":"FAR SIDE GERMANIA @ STOLLE SB","wheelchair_boarding":2,"routes":[{"route_id":"19597","agency_id":"70006","route_short_name":"9","route_long_name":"Oakville","route_type":3,"route_color":"#FFFFFF","route_text_color":"#000000"}],"agency_name":"Metro St. Louis"},"geometry":{"type":"Point","coordinates":[-90.29207,38.56209]}},{"type":"Feature","properties":{"stop_id":"3206","stop_code":"3206","stop_name":"GERMANIA @ TESSON SB","stop_desc":"FAR SIDE GERMANIA @ TESSON SB","wheelchair_boarding":2,"routes":[{"route_id":"19597","agency_id":"70006","route_short_name":"9","route_long_name":"Oakville","route_type":3,"route_color":"#FFFFFF","route_text_color":"#000000"}],"agency_name":"Metro St. Louis"},"geometry":{"type":"Point","coordinates":[-90.28781,38.56158]}},{"type":"Feature","properties":{"stop_id":"3207","stop_code":"3207","stop_name":"GERMANIA @ MORGANFORD SB","stop_desc":"FAR SIDE GERMANIA @ MORGANFORD SB","wheelchair_boarding":1,"routes":[{"route_id":"19597","agency_id":"70006","route_short_name":"9","route_long_name":"Oakville","route_type":3,"route_color":"#FFFFFF","route_text_color":"#000000"}],"agency_name":"Metro St. Louis"},"geometry":{"type":"Point","coordinates":[-90.2821,38.55967]}},{"type":"Feature","properties":{"stop_id":"3209","stop_code":"3209","stop_name":"GERMANIA @ SHARP SB","stop_desc":"FAR SIDE GERMANIA @ SHARP SB","wheelchair_boarding":1,"routes":[{"route_id":"19597","agency_id":"70006","route_short_name":"9","route_long_name":"Oakville","route_type":3,"route_color":"#FFFFFF","route_text_color":"#000000"}],"agency_name":"Metro St. Louis"},"geometry":{"type":"Point","coordinates":[-90.27923,38.55755]}},{"type":"Feature","properties":{"stop_id":"3212","stop_code":"3212","stop_name":"GERMANIA @ I-55 SB","stop_desc":"NEAR SIDE GERMANIA @ I-55 SB","wheelchair_boarding":2,"routes":[{"route_id":"19597","agency_id":"70006","route_short_name":"9","route_long_name":"Oakville","route_type":3,"route_color":"#FFFFFF","route_text_color":"#000000"}],"agency_name":"Metro St. Louis"},"geometry":{"type":"Point","coordinates":[-90.27033,38.55391]}},{"type":"Feature","properties":{"stop_id":"3923","stop_code":"3923","stop_name":"TELEGRAPH @ BRILLIANT SB","stop_desc":"NEAR SIDE TELEGRAPH @ BRILLIANT SB","wheelchair_boarding":1,"routes":[{"route_id":"19597","agency_id":"70006","route_short_name":"9","route_long_name":"Oakville","route_type":3,"route_color":"#FFFFFF","route_text_color":"#000000"}],"agency_name":"Metro St. Louis"},"geometry":{"type":"Point","coordinates":[-90.29443,38.50835]}},{"type":"Feature","properties":{"stop_id":"3924","stop_code":"3924","stop_name":"TELEGRAPH RD @ SYLVANWOOD TERR SB","stop_desc":"NEAR SIDE TELEGRAPH RD @ SYLVANWOOD TERR SB","wheelchair_boarding":2,"routes":[{"route_id":"19597","agency_id":"70006","route_short_name":"9","route_long_name":"Oakville","route_type":3,"route_color":"#FFFFFF","route_text_color":"#000000"}],"agency_name":"Metro St. Louis"},"geometry":{"type":"Point","coordinates":[-90.29595,38.50582]}},{"type":"Feature","properties":{"stop_id":"3925","stop_code":"3925","stop_name":"TELEGRAPH @ FRANVIEW PLAZA SB","stop_desc":"MID-BLOCK TELEGRAPH @ FRANVIEW PLAZA SB","wheelchair_boarding":1,"routes":[{"route_id":"19597","agency_id":"70006","route_short_name":"9","route_long_name":"Oakville","route_type":3,"route_color":"#FFFFFF","route_text_color":"#000000"}],"agency_name":"Metro St. Louis"},"geometry":{"type":"Point","coordinates":[-90.29715,38.50375]}},{"type":"Feature","properties":{"stop_id":"393","stop_code":"393","stop_name":"CATALAN TRANSIT CENTER","wheelchair_boarding":1,"routes":[{"route_id":"19597","agency_id":"70006","route_short_name":"9","route_long_name":"Oakville","route_type":3,"route_color":"#FFFFFF","route_text_color":"#000000"}],"agency_name":"Metro St. Louis"},"geometry":{"type":"Point","coordinates":[-90.26596,38.54006]}},{"type":"Feature","properties":{"stop_id":"414","stop_code":"414","stop_name":"TELEGRAPH @ KINGSTON SB","stop_desc":"FAR SIDE TELEGRAPH @ KINGSTON SB","wheelchair_boarding":2,"routes":[{"route_id":"19597","agency_id":"70006","route_short_name":"9","route_long_name":"Oakville","route_type":3,"route_color":"#FFFFFF","route_text_color":"#000000"}],"agency_name":"Metro St. Louis"},"geometry":{"type":"Point","coordinates":[-90.2914,38.51149]}},{"type":"Feature","properties":{"stop_id":"5621","stop_code":"5621","stop_name":"KINSWOOD @ MARTIGNEY SB","stop_desc":"NEAR SIDE KINSWOOD @ MARTIGNEY SB","wheelchair_boarding":2,"routes":[{"route_id":"19597","agency_id":"70006","route_short_name":"9","route_long_name":"Oakville","route_type":3,"route_color":"#FFFFFF","route_text_color":"#000000"}],"agency_name":"Metro St. Louis"},"geometry":{"type":"Point","coordinates":[-90.30285,38.49234]}},{"type":"Feature","properties":{"stop_id":"5625","stop_code":"5625","stop_name":"KINSWOOD @ GATEWAY ACCESSIBLE HOUSING WB","stop_desc":"NEAR SIDE KINSWOOD @ GATEWAY ACCESSIBLE HOUSING WB","wheelchair_boarding":2,"routes":[{"route_id":"19597","agency_id":"70006","route_short_name":"9","route_long_name":"Oakville","route_type":3,"route_color":"#FFFFFF","route_text_color":"#000000"}],"agency_name":"Metro St. Louis"},"geometry":{"type":"Point","coordinates":[-90.2866,38.48862]}},{"type":"Feature","properties":{"stop_id":"5626","stop_code":"5626","stop_name":"KOCH @ KINSWOOD SB","stop_desc":"NEAR SIDE KOCH @ KINSWOOD SB","wheelchair_boarding":2,"routes":[{"route_id":"19597","agency_id":"70006","route_short_name":"9","route_long_name":"Oakville","route_type":3,"route_color":"#FFFFFF","route_text_color":"#000000"}],"agency_name":"Metro St. Louis"},"geometry":{"type":"Point","coordinates":[-90.28425,38.48777]}},{"type":"Feature","properties":{"stop_id":"5637","stop_code":"5637","stop_name":"JEFFERSON @ VETERANS HOSPITAL BUILDING 51","stop_desc":"NEAR SIDE JEFFERSON @ VETERANS HOSPITAL BUILDING 51","wheelchair_boarding":1,"routes":[{"route_id":"19597","agency_id":"70006","route_short_name":"9","route_long_name":"Oakville","route_type":3,"route_color":"#FFFFFF","route_text_color":"#000000"}],"agency_name":"Metro St. Louis"},"geometry":{"type":"Point","coordinates":[-90.28202,38.49234]}},{"type":"Feature","properties":{"stop_id":"5640","stop_code":"5640","stop_name":"KINSWOOD @ SUNRISE HEIGHTS WB","stop_desc":"NEAR SIDE KINSWOOD @ SUNRISE HEIGHTS WB","wheelchair_boarding":1,"routes":[{"route_id":"19597","agency_id":"70006","route_short_name":"9","route_long_name":"Oakville","route_type":3,"route_color":"#FFFFFF","route_text_color":"#000000"}],"agency_name":"Metro St. Louis"},"geometry":{"type":"Point","coordinates":[-90.29314,38.49142]}},{"type":"Feature","properties":{"stop_id":"8143","stop_code":"8143","stop_name":"TELEGRAPH @ LIN-TEL SB","stop_desc":"FAR SIDE TELEGRAPH @ LIN-TEL SB","wheelchair_boarding":2,"routes":[{"route_id":"19597","agency_id":"70006","route_short_name":"9","route_long_name":"Oakville","route_type":3,"route_color":"#FFFFFF","route_text_color":"#000000"}],"agency_name":"Metro St. Louis"},"geometry":{"type":"Point","coordinates":[-90.29918,38.50021]}},{"type":"Feature","properties":{"stop_id":"8145","stop_code":"8145","stop_name":"TELEGRAPH @ BARRACKSVIEW SB","stop_desc":"NEAR SIDE TELEGRAPH @ BARRACKSVIEW SB","wheelchair_boarding":2,"routes":[{"route_id":"19597","agency_id":"70006","route_short_name":"9","route_long_name":"Oakville","route_type":3,"route_color":"#FFFFFF","route_text_color":"#000000"}],"agency_name":"Metro St. Louis"},"geometry":{"type":"Point","coordinates":[-90.30028,38.49827]}},{"type":"Feature","properties":{"stop_id":"8146","stop_code":"8146","stop_name":"TELEGRAPH @ KINSWOOD SB","stop_desc":"FAR SIDE TELEGRAPH @ KINSWOOD SB","wheelchair_boarding":2,"routes":[{"route_id":"19597","agency_id":"70006","route_short_name":"9","route_long_name":"Oakville","route_type":3,"route_color":"#FFFFFF","route_text_color":"#000000"}],"agency_name":"Metro St. Louis"},"geometry":{"type":"Point","coordinates":[-90.30382,38.49151]}},{"type":"Feature","properties":{"stop_id":"8147","stop_code":"8147","stop_name":"TELEGRAPH @ GOLDEN VALLEY SB","stop_desc":"NEAR SIDE TELEGRAPH @ GOLDEN VALLEY SB","wheelchair_boarding":2,"routes":[{"route_id":"19597","agency_id":"70006","route_short_name":"9","route_long_name":"Oakville","route_type":3,"route_color":"#FFFFFF","route_text_color":"#000000"}],"agency_name":"Metro St. Louis"},"geometry":{"type":"Point","coordinates":[-90.30411,38.48875]}},{"type":"Feature","properties":{"stop_id":"8148","stop_code":"8148","stop_name":"TELEGRAPH @ MISSOURI PLAZA SB","stop_desc":"MID-BLOCK TELEGRAPH @ MISSOURI PLAZA SB","wheelchair_boarding":2,"routes":[{"route_id":"19597","agency_id":"70006","route_short_name":"9","route_long_name":"Oakville","route_type":3,"route_color":"#FFFFFF","route_text_color":"#000000"}],"agency_name":"Metro St. Louis"},"geometry":{"type":"Point","coordinates":[-90.3043,38.4864]}},{"type":"Feature","properties":{"stop_id":"8149","stop_code":"8149","stop_name":"TELEGRAPH @ FORDER SB","stop_desc":"FAR SIDE TELEGRAPH @ FORDER SB","wheelchair_boarding":2,"routes":[{"route_id":"19597","agency_id":"70006","route_short_name":"9","route_long_name":"Oakville","route_type":3,"route_color":"#FFFFFF","route_text_color":"#000000"}],"agency_name":"Metro St. Louis"},"geometry":{"type":"Point","coordinates":[-90.30442,38.48475]}},{"type":"Feature","properties":{"stop_id":"8150","stop_code":"8150","stop_name":"TELEGRAPH @ ROLENS SB","stop_desc":"NEAR SIDE TELEGRAPH @ ROLENS SB","wheelchair_boarding":2,"routes":[{"route_id":"19597","agency_id":"70006","route_short_name":"9","route_long_name":"Oakville","route_type":3,"route_color":"#FFFFFF","route_text_color":"#000000"}],"agency_name":"Metro St. Louis"},"geometry":{"type":"Point","coordinates":[-90.3046,38.48214]}},{"type":"Feature","properties":{"stop_id":"8152","stop_code":"8152","stop_name":"TELEGRAPH @ YAEGER SB","stop_desc":"FAR SIDE TELEGRAPH @ YAEGER SB","wheelchair_boarding":2,"routes":[{"route_id":"19597","agency_id":"70006","route_short_name":"9","route_long_name":"Oakville","route_type":3,"route_color":"#FFFFFF","route_text_color":"#000000"}],"agency_name":"Metro St. Louis"},"geometry":{"type":"Point","coordinates":[-90.30452,38.4772]}},{"type":"Feature","properties":{"stop_id":"8154","stop_code":"8154","stop_name":"5453 TELEGRAPH SB","stop_desc":"NEAR SIDE 5453 TELEGRAPH SB","wheelchair_boarding":2,"routes":[{"route_id":"19597","agency_id":"70006","route_short_name":"9","route_long_name":"Oakville","route_type":3,"route_color":"#FFFFFF","route_text_color":"#000000"}],"agency_name":"Metro St. Louis"},"geometry":{"type":"Point","coordinates":[-90.30452,38.4737]}},{"type":"Feature","properties":{"stop_id":"8155","stop_code":"8155","stop_name":"TELEGRAPH @ BAUMGARTNER NB","stop_desc":"FAR SIDE TELEGRAPH @ BAUMGARTNER NB","wheelchair_boarding":1,"routes":[{"route_id":"19597","agency_id":"70006","route_short_name":"9","route_long_name":"Oakville","route_type":3,"route_color":"#FFFFFF","route_text_color":"#000000"}],"agency_name":"Metro St. Louis"},"geometry":{"type":"Point","coordinates":[-90.30459,38.47118]}},{"type":"Feature","properties":{"stop_id":"8179","stop_code":"8179","stop_name":"TELEGRAPH @ BAUMGARTNER SB","stop_desc":"NEAR SIDE TELEGRAPH @ BAUMGARTNER SB","wheelchair_boarding":2,"routes":[{"route_id":"19597","agency_id":"70006","route_short_name":"9","route_long_name":"Oakville","route_type":3,"route_color":"#FFFFFF","route_text_color":"#000000"}],"agency_name":"Metro St. Louis"},"geometry":{"type":"Point","coordinates":[-90.30495,38.47079]}}]}