{"type":"FeatureCollection","features":[{"type":"Feature","properties":{"agency_name":"Metro St. Louis","route_id":"19618","agency_id":"70006","route_short_name":"59","route_long_name":"Oakland","route_type":3,"route_color":"#FFFFFF","route_text_color":"#000000"},"geometry":{"type":"MultiLineString","coordinates":[[[-90.25985,38.63585],[-90.25986,38.63575],[-90.25987,38.63603],[-90.25984,38.63624],[-90.25977,38.63625],[-90.25955,38.63612],[-90.25954,38.63585],[-90.25955,38.63571],[-90.26026,38.63302],[-90.26356,38.63309],[-90.26332,38.63429],[-90.2632,38.63476],[-90.26589,38.63504],[-90.26653,38.63508],[-90.26661,38.63459],[-90.26662,38.63429],[-90.2666,38.63404],[-90.26642,38.63271],[-90.26616,38.63175],[-90.26606,38.63157],[-90.26582,38.63121],[-90.26568,38.63106],[-90.26521,38.63034],[-90.26514,38.63019],[-90.26498,38.62996],[-90.26484,38.62972],[-90.26472,38.62945],[-90.26464,38.62919],[-90.2645,38.62896],[-90.26453,38.62878],[-90.26573,38.62887],[-90.26587,38.62892],[-90.26606,38.62895],[-90.26939,38.62928],[-90.27102,38.62943],[-90.27118,38.62944],[-90.27128,38.62942],[-90.28067,38.63032],[-90.28078,38.63036],[-90.28093,38.63038],[-90.28403,38.63069],[-90.28439,38.63072],[-90.28453,38.6307],[-90.28496,38.63074],[-90.28577,38.6307],[-90.28599,38.63059],[-90.29033,38.62879],[-90.29075,38.62864],[-90.29097,38.62859],[-90.29162,38.62853],[-90.29204,38.62853],[-90.29289,38.62858],[-90.29577,38.62929],[-90.2965,38.62944],[-90.29723,38.62954],[-90.29846,38.62967],[-90.29902,38.62979],[-90.29955,38.62994],[-90.30005,38.63015],[-90.30039,38.63032],[-90.30264,38.63157],[-90.30299,38.63179],[-90.30314,38.63185],[-90.30363,38.63213],[-90.30402,38.63232],[-90.30397,38.6326],[-90.30452,38.63266],[-90.305,38.63291],[-90.30582,38.63337],[-90.30595,38.63348],[-90.30599,38.63355],[-90.31087,38.63401],[-90.31187,38.63412],[-90.31428,38.63373]]]}},{"type":"Feature","properties":{"stop_id":"13386","stop_code":"13386","stop_name":"HIGHLAND TERRACE @ RICHMOND CENTER SB","stop_desc":"FAR SIDE HIGHLAND TERRACE @ RICHMOND CENTER SB","wheelchair_boarding":2,"routes":[{"route_id":"19618","agency_id":"70006","route_short_name":"59","route_long_name":"Oakland","route_type":3,"route_color":"#FFFFFF","route_text_color":"#000000"}],"agency_name":"Metro St. Louis"},"geometry":{"type":"Point","coordinates":[-90.31436,38.63335]}},{"type":"Feature","properties":{"stop_id":"13402","stop_code":"13402","stop_name":"CLAYTON @ KRAFT WB","stop_desc":"FAR SIDE CLAYTON @ KRAFT WB","wheelchair_boarding":2,"routes":[{"route_id":"19618","agency_id":"70006","route_short_name":"59","route_long_name":"Oakland","route_type":3,"route_color":"#FFFFFF","route_text_color":"#000000"}],"agency_name":"Metro St. Louis"},"geometry":{"type":"Point","coordinates":[-90.30051,38.63039]}},{"type":"Feature","properties":{"stop_id":"14792","stop_code":"14792","stop_name":"CENTRAL WEST END TRANSIT CENTER","wheelchair_boarding":1,"routes":[{"route_id":"19592","agency_id":"70006","route_short_name":"1","route_long_name":"Gold","route_type":3,"route_color":"#FFFFFF","route_text_color":"#000000"},{"route_id":"19596","agency_id":"70006","route_short_name":"8","route_long_name":"Shaw-Cherokee","route_type":3,"route_color":"#FFFFFF","route_text_color":"#000000"},{"route_id":"19598","agency_id":"70006","route_short_name":"10","route_long_name":"Gravois-Lindell","route_type":3,"route_color":"#FFFFFF","route_text_color":"#000000"},{"route_id":"19600","agency_id":"70006","route_short_name":"13","route_long_name":"Union","route_type":3,"route_color":"#FFFFFF","route_text_color":"#000000"},{"route_id":"19618","agency_id":"70006","route_short_name":"59","route_long_name":"Oakland","route_type":3,"route_color":"#FFFFFF","route_text_color":"#000000"},{"route_id":"19632","agency_id":"70006","route_short_name":"95","route_long_name":"Kingshighway","route_type":3,"route_color":"#FFFFFF","route_text_color":"#000000"}],"agency_name":"Metro St. Louis"},"geometry":{"type":"Point","coordinates":[-90.25999,38.63568]}},{"type":"Feature","properties":{"stop_id":"15482","stop_code":"15482","stop_name":"OAKLAND @ HIGHLANDER WB","stop_desc":"MID-BLOCK OAKLAND @ HIGHLANDER WB","wheelchair_boarding":2,"routes":[{"route_id":"19618","agency_id":"70006","route_short_name":"59","route_long_name":"Oakland","route_type":3,"route_color":"#FFFFFF","route_text_color":"#000000"}],"agency_name":"Metro St. Louis"},"geometry":{"type":"Point","coordinates":[-90.27866,38.63019]}},{"type":"Feature","properties":{"stop_id":"15787","stop_code":"15787","stop_name":"EUCLID @ BARNES JEWISH HOSPITAL PLAZA NB","stop_desc":"FAR SIDE EUCLID @ BARNES JEWISH HOSPITAL PLAZA NB","wheelchair_boarding":1,"routes":[{"route_id":"19618","agency_id":"70006","route_short_name":"59","route_long_name":"Oakland","route_type":3,"route_color":"#FFFFFF","route_text_color":"#000000"},{"route_id":"19632","agency_id":"70006","route_short_name":"95","route_long_name":"Kingshighway","route_type":3,"route_color":"#FFFFFF","route_text_color":"#000000"}],"agency_name":"Metro St. Louis"},"geometry":{"type":"Point","coordinates":[-90.26321,38.63461]}},{"type":"Feature","properties":{"stop_id":"5336","stop_code":"5336","stop_name":"BARNES JEWISH HOSPITAL PLAZA WB","stop_desc":"MID-BLOCK BARNES JEWISH HOSPITAL PLAZA WB","wheelchair_boarding":1,"routes":[{"route_id":"19618","agency_id":"70006","route_short_name":"59","route_long_name":"Oakland","route_type":3,"route_color":"#FFFFFF","route_text_color":"#000000"},{"route_id":"19632","agency_id":"70006","route_short_name":"95","route_long_name":"Kingshighway","route_type":3,"route_color":"#FFFFFF","route_text_color":"#000000"}],"agency_name":"Metro St. Louis"},"geometry":{"type":"Point","coordinates":[-90.26495,38.63483]}},{"type":"Feature","properties":{"stop_id":"5339","stop_code":"5339","stop_name":"OAKLAND @ KINGSHIGHWAY WB","stop_desc":"FAR SIDE OAKLAND @ KINGSHIGHWAY WB","wheelchair_boarding":1,"routes":[{"route_id":"19618","agency_id":"70006","route_short_name":"59","route_long_name":"Oakland","route_type":3,"route_color":"#FFFFFF","route_text_color":"#000000"}],"agency_name":"Metro St. Louis"},"geometry":{"type":"Point","coordinates":[-90.26524,38.62887]}},{"type":"Feature","properties":{"stop_id":"5340","stop_code":"5340","stop_name":"OAKLAND @ SLU HIGH SCHOOL WB","stop_desc":"NEAR SIDE OAKLAND @ SLU HIGH SCHOOL WB","wheelchair_boarding":1,"routes":[{"route_id":"19618","agency_id":"70006","route_short_name":"59","route_long_name":"Oakland","route_type":3,"route_color":"#FFFFFF","route_text_color":"#000000"}],"agency_name":"Metro St. Louis"},"geometry":{"type":"Point","coordinates":[-90.26763,38.62911]}},{"type":"Feature","properties":{"stop_id":"5341","stop_code":"5341","stop_name":"OAKLAND @ ST. LOUIS SCIENCE CENTER WB","stop_desc":"NEAR SIDE OAKLAND @ ST. LOUIS SCIENCE CENTER WB","wheelchair_boarding":1,"routes":[{"route_id":"19618","agency_id":"70006","route_short_name":"59","route_long_name":"Oakland","route_type":3,"route_color":"#FFFFFF","route_text_color":"#000000"}],"agency_name":"Metro St. Louis"},"geometry":{"type":"Point","coordinates":[-90.26926,38.62927]}},{"type":"Feature","properties":{"stop_id":"5343","stop_code":"5343","stop_name":"OAKLAND @ MACKLIND WB","stop_desc":"NEAR SIDE OAKLAND @ MACKLIND WB","wheelchair_boarding":1,"routes":[{"route_id":"19618","agency_id":"70006","route_short_name":"59","route_long_name":"Oakland","route_type":3,"route_color":"#FFFFFF","route_text_color":"#000000"}],"agency_name":"Metro St. Louis"},"geometry":{"type":"Point","coordinates":[-90.27428,38.62976]}},{"type":"Feature","properties":{"stop_id":"5354","stop_code":"5354","stop_name":"CLAYTON @ SKINKER WB","stop_desc":"FAR SIDE CLAYTON @ SKINKER WB","wheelchair_boarding":2,"routes":[{"route_id":"19601","agency_id":"70006","route_short_name":"16","route_long_name":"City Limits","route_type":3,"route_color":"#FFFFFF","route_text_color":"#000000"},{"route_id":"19618","agency_id":"70006","route_short_name":"59","route_long_name":"Oakland","route_type":3,"route_color":"#FFFFFF","route_text_color":"#000000"}],"agency_name":"Metro St. Louis"},"geometry":{"type":"Point","coordinates":[-90.30552,38.63357]}},{"type":"Feature","properties":{"stop_id":"5356","stop_code":"5356","stop_name":"CLAYTON @ DEMUN WB","stop_desc":"NEAR SIDE CLAYTON @ DEMUN WB","wheelchair_boarding":1,"routes":[{"route_id":"19601","agency_id":"70006","route_short_name":"16","route_long_name":"City Limits","route_type":3,"route_color":"#FFFFFF","route_text_color":"#000000"},{"route_id":"19618","agency_id":"70006","route_short_name":"59","route_long_name":"Oakland","route_type":3,"route_color":"#FFFFFF","route_text_color":"#000000"}],"agency_name":"Metro St. Louis"},"geometry":{"type":"Point","coordinates":[-90.30916,38.63394]}},{"type":"Feature","properties":{"stop_id":"5357","stop_code":"5357","stop_name":"CLAYTON @ SEMINARY PLACE WB","stop_desc":"FAR SIDE CLAYTON @ SEMINARY PLACE WB","wheelchair_boarding":2,"routes":[{"route_id":"19618","agency_id":"70006","route_short_name":"59","route_long_name":"Oakland","route_type":3,"route_color":"#FFFFFF","route_text_color":"#000000"}],"agency_name":"Metro St. Louis"},"geometry":{"type":"Point","coordinates":[-90.3121,38.63422]}},{"type":"Feature","properties":{"stop_id":"5369","stop_code":"5369","stop_name":"CLAYTON @ HAMPTON WB","stop_desc":"FAR SIDE CLAYTON @ HAMPTON WB","wheelchair_boarding":1,"routes":[{"route_id":"19618","agency_id":"70006","route_short_name":"59","route_long_name":"Oakland","route_type":3,"route_color":"#FFFFFF","route_text_color":"#000000"}],"agency_name":"Metro St. Louis"},"geometry":{"type":"Point","coordinates":[-90.28739,38.63007]}},{"type":"Feature","properties":{"stop_id":"5371","stop_code":"5371","stop_name":"CLAYTON @ GRAHAM WB","stop_desc":"FAR SIDE CLAYTON @ GRAHAM WB","wheelchair_boarding":1,"routes":[{"route_id":"19618","agency_id":"70006","route_short_name":"59","route_long_name":"Oakland","route_type":3,"route_color":"#FFFFFF","route_text_color":"#000000"}],"agency_name":"Metro St. Louis"},"geometry":{"type":"Point","coordinates":[-90.2915,38.62855]}},{"type":"Feature","properties":{"stop_id":"5375","stop_code":"5375","stop_name":"CLAYTON @ LOUISVILLE WB","stop_desc":"NEAR SIDE CLAYTON @ LOUISVILLE WB","wheelchair_boarding":1,"routes":[{"route_id":"19618","agency_id":"70006","route_short_name":"59","route_long_name":"Oakland","route_type":3,"route_color":"#FFFFFF","route_text_color":"#000000"}],"agency_name":"Metro St. Louis"},"geometry":{"type":"Point","coordinates":[-90.29654,38.62949]}},{"type":"Feature","properties":{"stop_id":"8531","stop_code":"8531","stop_name":"TAYLOR @ MCKINLEY SB","stop_desc":"NEAR SIDE TAYLOR @ MCKINLEY SB","wheelchair_boarding":1,"routes":[{"route_id":"19596","agency_id":"70006","route_short_name":"8","route_long_name":"Shaw-Cherokee","route_type":3,"route_color":"#FFFFFF","route_text_color":"#000000"},{"route_id":"19618","agency_id":"70006","route_short_name":"59","route_long_name":"Oakland","route_type":3,"route_color":"#FFFFFF","route_text_color":"#000000"},{"route_id":"19632","agency_id":"70006","route_short_name":"95","route_long_name":"Kingshighway","route_type":3,"route_color":"#FFFFFF","route_text_color":"#000000"}],"agency_name":"Metro St. Louis"},"geometry":{"type":"Point","coordinates":[-90.26005,38.63412]}},{"type":"Feature","properties":{"stop_id":"8532","stop_code":"8532","stop_name":"CLAYTON @ TAYLOR WB","stop_desc":"FAR SIDE CLAYTON @ TAYLOR WB","wheelchair_boarding":2,"routes":[{"route_id":"19618","agency_id":"70006","route_short_name":"59","route_long_name":"Oakland","route_type":3,"route_color":"#FFFFFF","route_text_color":"#000000"},{"route_id":"19632","agency_id":"70006","route_short_name":"95","route_long_name":"Kingshighway","route_type":3,"route_color":"#FFFFFF","route_text_color":"#000000"}],"agency_name":"Metro St. Louis"},"geometry":{"type":"Point","coordinates":[-90.26083,38.63308]}}]}