{"type":"FeatureCollection","features":[{"type":"Feature","properties":{"agency_name":"Metro St. Louis","route_id":"19598","agency_id":"70006","route_short_name":"10","route_long_name":"Gravois-Lindell","route_type":3,"route_color":"#FFFFFF","route_text_color":"#000000"},"geometry":{"type":"MultiLineString","coordinates":[[[-90.29375,38.56455],[-90.29259,38.56527],[-90.29076,38.56634],[-90.28654,38.56888],[-90.28624,38.56909],[-90.28585,38.56942],[-90.2832,38.5719],[-90.28238,38.57263],[-90.28197,38.57294],[-90.28048,38.57387],[-90.27888,38.57482],[-90.27623,38.57644],[-90.27546,38.57687],[-90.27505,38.57707],[-90.27443,38.5773],[-90.27386,38.57745],[-90.27248,38.57775],[-90.27204,38.57787],[-90.27149,38.57809],[-90.27075,38.57851],[-90.26777,38.58086],[-90.26732,38.58119],[-90.26448,38.58345],[-90.26223,38.58512],[-90.26191,38.58533],[-90.25973,38.58722],[-90.25888,38.5879],[-90.25797,38.5885],[-90.2574,38.58881],[-90.25566,38.58955],[-90.25465,38.59001],[-90.25297,38.59073],[-90.25158,38.59135],[-90.25138,38.59142],[-90.25119,38.59146],[-90.25028,38.59157],[-90.24787,38.5918],[-90.24553,38.59206],[-90.24519,38.5921],[-90.24442,38.59223],[-90.24382,38.5925],[-90.24341,38.59276],[-90.24323,38.5929],[-90.24238,38.59366],[-90.2415,38.59448],[-90.24111,38.59479],[-90.23751,38.59722],[-90.23663,38.5979],[-90.23615,38.5983],[-90.2347,38.59934],[-90.23392,38.59987],[-90.23238,38.60084],[-90.23199,38.60106],[-90.22995,38.60196],[-90.22568,38.60376],[-90.2227,38.60507],[-90.2205,38.60621],[-90.22002,38.60636],[-90.21794,38.60683],[-90.21537,38.60761],[-90.21424,38.60792],[-90.21285,38.60833],[-90.2123,38.60847],[-90.2118,38.60864],[-90.21038,38.60907],[-90.20933,38.60959],[-90.20909,38.60973],[-90.20894,38.60983],[-90.20864,38.61007],[-90.20816,38.6106],[-90.20806,38.61073],[-90.2077,38.6111],[-90.20664,38.61227],[-90.20384,38.61527],[-90.20256,38.61668],[-90.20243,38.61687],[-90.20227,38.61719],[-90.20168,38.61876],[-90.20455,38.61933],[-90.2042,38.6203],[-90.20371,38.62141],[-90.20337,38.62232],[-90.2033,38.62246],[-90.20306,38.62309],[-90.20279,38.62373],[-90.20284,38.62393],[-90.20302,38.624],[-90.20306,38.62405],[-90.20307,38.62411],[-90.20293,38.62434],[-90.20271,38.62491],[-90.20271,38.62522],[-90.20267,38.62563],[-90.20262,38.62567],[-90.20255,38.62568],[-90.20249,38.62565],[-90.20246,38.62562],[-90.20257,38.62505],[-90.20256,38.62501],[-90.20253,38.62498],[-90.20231,38.62495],[-90.20188,38.62591],[-90.20117,38.62774],[-90.20104,38.62808],[-90.20056,38.62954],[-90.20027,38.63028],[-90.20743,38.63177],[-90.21193,38.63269],[-90.21423,38.6332],[-90.21868,38.6341],[-90.223,38.635],[-90.22354,38.63515],[-90.22418,38.63537],[-90.22557,38.63573],[-90.22682,38.63599],[-90.2299,38.63667],[-90.23861,38.63845],[-90.23979,38.63871],[-90.24044,38.63884],[-90.24088,38.63891],[-90.24451,38.63967],[-90.24577,38.63995],[-90.26259,38.64343],[-90.26433,38.64381],[-90.26508,38.64361],[-90.26514,38.64342],[-90.26521,38.64306],[-90.2658,38.63957],[-90.26305,38.63901],[-90.26275,38.63901],[-90.26258,38.63905],[-90.26235,38.639],[-90.2621,38.63885],[-90.25935,38.63828],[-90.25971,38.6372],[-90.25973,38.63702],[-90.25966,38.63651],[-90.25961,38.63631],[-90.25977,38.63625],[-90.26009,38.6362],[-90.26049,38.63618],[-90.26058,38.6358],[-90.26054,38.63577]]]}},{"type":"Feature","properties":{"stop_id":"10316","stop_code":"10316","stop_name":"GRAVOIS @ COMPTON SB","stop_desc":"NEAR SIDE GRAVOIS @ COMPTON SB","wheelchair_boarding":1,"routes":[{"route_id":"19598","agency_id":"70006","route_short_name":"10","route_long_name":"Gravois-Lindell","route_type":3,"route_color":"#FFFFFF","route_text_color":"#000000"}],"agency_name":"Metro St. Louis"},"geometry":{"type":"Point","coordinates":[-90.2365,38.59788]}},{"type":"Feature","properties":{"stop_id":"13447","stop_code":"13447","stop_name":"3507 LINDELL WB","stop_desc":"MID-BLOCK 3507 LINDELL WB","wheelchair_boarding":1,"routes":[{"route_id":"19598","agency_id":"70006","route_short_name":"10","route_long_name":"Gravois-Lindell","route_type":3,"route_color":"#FFFFFF","route_text_color":"#000000"}],"agency_name":"Metro St. Louis"},"geometry":{"type":"Point","coordinates":[-90.22964,38.63675]}},{"type":"Feature","properties":{"stop_id":"13448","stop_code":"13448","stop_name":"LINDELL @ GRAND WB","stop_desc":"NEAR SIDE LINDELL @ GRAND WB","wheelchair_boarding":1,"routes":[{"route_id":"19598","agency_id":"70006","route_short_name":"10","route_long_name":"Gravois-Lindell","route_type":3,"route_color":"#FFFFFF","route_text_color":"#000000"}],"agency_name":"Metro St. Louis"},"geometry":{"type":"Point","coordinates":[-90.23245,38.63726]}},{"type":"Feature","properties":{"stop_id":"14496","stop_code":"14496","stop_name":"CIVIC CENTER TRANSIT CENTER","wheelchair_boarding":1,"routes":[{"route_id":"19598","agency_id":"70006","route_short_name":"10","route_long_name":"Gravois-Lindell","route_type":3,"route_color":"#FFFFFF","route_text_color":"#000000"},{"route_id":"19605","agency_id":"70006","route_short_name":"30","route_long_name":"Arsenal","route_type":3,"route_color":"#FFFFFF","route_text_color":"#000000"},{"route_id":"19606","agency_id":"70006","route_short_name":"31","route_long_name":"Chouteau","route_type":3,"route_color":"#FFFFFF","route_text_color":"#000000"},{"route_id":"19607","agency_id":"70006","route_short_name":"32","route_long_name":"Dr ML King","route_type":3,"route_color":"#FFFFFF","route_text_color":"#000000"}],"agency_name":"Metro St. Louis"},"geometry":{"type":"Point","coordinates":[-90.20298,38.6243]}},{"type":"Feature","properties":{"stop_id":"14792","stop_code":"14792","stop_name":"CENTRAL WEST END TRANSIT CENTER","wheelchair_boarding":1,"routes":[{"route_id":"19592","agency_id":"70006","route_short_name":"1","route_long_name":"Gold","route_type":3,"route_color":"#FFFFFF","route_text_color":"#000000"},{"route_id":"19596","agency_id":"70006","route_short_name":"8","route_long_name":"Shaw-Cherokee","route_type":3,"route_color":"#FFFFFF","route_text_color":"#000000"},{"route_id":"19598","agency_id":"70006","route_short_name":"10","route_long_name":"Gravois-Lindell","route_type":3,"route_color":"#FFFFFF","route_text_color":"#000000"},{"route_id":"19600","agency_id":"70006","route_short_name":"13","route_long_name":"Union","route_type":3,"route_color":"#FFFFFF","route_text_color":"#000000"},{"route_id":"19618","agency_id":"70006","route_short_name":"59","route_long_name":"Oakland","route_type":3,"route_color":"#FFFFFF","route_text_color":"#000000"},{"route_id":"19632","agency_id":"70006","route_short_name":"95","route_long_name":"Kingshighway","route_type":3,"route_color":"#FFFFFF","route_text_color":"#000000"}],"agency_name":"Metro St. Louis"},"geometry":{"type":"Point","coordinates":[-90.25999,38.63568]}},{"type":"Feature","properties":{"stop_id":"14804","stop_code":"14804","stop_name":"CHOUTEAU @ 14TH STREET WB","stop_desc":"NEAR SIDE CHOUTEAU @ 14TH STREET WB","wheelchair_boarding":1,"routes":[{"route_id":"19598","agency_id":"70006","route_short_name":"10","route_long_name":"Gravois-Lindell","route_type":3,"route_color":"#FFFFFF","route_text_color":"#000000"},{"route_id":"19605","agency_id":"70006","route_short_name":"30","route_long_name":"Arsenal","route_type":3,"route_color":"#FFFFFF","route_text_color":"#000000"}],"agency_name":"Metro St. Louis"},"geometry":{"type":"Point","coordinates":[-90.20404,38.61934]}},{"type":"Feature","properties":{"stop_id":"14805","stop_code":"14805","stop_name":"14TH STREET @ PAPIN NB","stop_desc":"NEAR SIDE 14TH STREET @ PAPIN NB","wheelchair_boarding":2,"routes":[{"route_id":"19598","agency_id":"70006","route_short_name":"10","route_long_name":"Gravois-Lindell","route_type":3,"route_color":"#FFFFFF","route_text_color":"#000000"},{"route_id":"19605","agency_id":"70006","route_short_name":"30","route_long_name":"Arsenal","route_type":3,"route_color":"#FFFFFF","route_text_color":"#000000"},{"route_id":"19606","agency_id":"70006","route_short_name":"31","route_long_name":"Chouteau","route_type":3,"route_color":"#FFFFFF","route_text_color":"#000000"}],"agency_name":"Metro St. Louis"},"geometry":{"type":"Point","coordinates":[-90.20413,38.62022]}},{"type":"Feature","properties":{"stop_id":"15151","stop_code":"15151","stop_name":"LINDELL @ NEWSTEAD WB","stop_desc":"NEAR SIDE LINDELL @ NEWSTEAD WB","wheelchair_boarding":1,"routes":[{"route_id":"19598","agency_id":"70006","route_short_name":"10","route_long_name":"Gravois-Lindell","route_type":3,"route_color":"#FFFFFF","route_text_color":"#000000"}],"agency_name":"Metro St. Louis"},"geometry":{"type":"Point","coordinates":[-90.25405,38.64175]}},{"type":"Feature","properties":{"stop_id":"2308","stop_code":"2308","stop_name":"FOREST PARK @ EUCLID EB","stop_desc":"FAR SIDE FOREST PARK @ EUCLID EB","wheelchair_boarding":1,"routes":[{"route_id":"19592","agency_id":"70006","route_short_name":"1","route_long_name":"Gold","route_type":3,"route_color":"#FFFFFF","route_text_color":"#000000"},{"route_id":"19598","agency_id":"70006","route_short_name":"10","route_long_name":"Gravois-Lindell","route_type":3,"route_color":"#FFFFFF","route_text_color":"#000000"},{"route_id":"19632","agency_id":"70006","route_short_name":"95","route_long_name":"Kingshighway","route_type":3,"route_color":"#FFFFFF","route_text_color":"#000000"}],"agency_name":"Metro St. Louis"},"geometry":{"type":"Point","coordinates":[-90.26217,38.63878]}},{"type":"Feature","properties":{"stop_id":"2605","stop_code":"2605","stop_name":"OLIVE @ 16TH STREET WB","stop_desc":"NEAR SIDE OLIVE @ 16TH STREET WB","wheelchair_boarding":1,"routes":[{"route_id":"19598","agency_id":"70006","route_short_name":"10","route_long_name":"Gravois-Lindell","route_type":3,"route_color":"#FFFFFF","route_text_color":"#000000"}],"agency_name":"Metro St. Louis"},"geometry":{"type":"Point","coordinates":[-90.2028,38.63089]}},{"type":"Feature","properties":{"stop_id":"2607","stop_code":"2607","stop_name":"OLIVE @ 20TH STREET WB","stop_desc":"FAR SIDE OLIVE @ 20TH STREET WB","wheelchair_boarding":1,"routes":[{"route_id":"19598","agency_id":"70006","route_short_name":"10","route_long_name":"Gravois-Lindell","route_type":3,"route_color":"#FFFFFF","route_text_color":"#000000"}],"agency_name":"Metro St. Louis"},"geometry":{"type":"Point","coordinates":[-90.20873,38.63214]}},{"type":"Feature","properties":{"stop_id":"2608","stop_code":"2608","stop_name":"OLIVE @ 22ND STREET WB","stop_desc":"NEAR SIDE OLIVE @ 22ND STREET WB","wheelchair_boarding":1,"routes":[{"route_id":"19598","agency_id":"70006","route_short_name":"10","route_long_name":"Gravois-Lindell","route_type":3,"route_color":"#FFFFFF","route_text_color":"#000000"}],"agency_name":"Metro St. Louis"},"geometry":{"type":"Point","coordinates":[-90.2109,38.63261]}},{"type":"Feature","properties":{"stop_id":"2610","stop_code":"2610","stop_name":"OLIVE @ JEFFERSON WB","stop_desc":"NEAR SIDE OLIVE @ JEFFERSON WB","wheelchair_boarding":1,"routes":[{"route_id":"19598","agency_id":"70006","route_short_name":"10","route_long_name":"Gravois-Lindell","route_type":3,"route_color":"#FFFFFF","route_text_color":"#000000"}],"agency_name":"Metro St. Louis"},"geometry":{"type":"Point","coordinates":[-90.21366,38.63319]}},{"type":"Feature","properties":{"stop_id":"2612","stop_code":"2612","stop_name":"OLIVE @ LEFFINGWELL WB","stop_desc":"NEAR SIDE OLIVE @ LEFFINGWELL WB","wheelchair_boarding":1,"routes":[{"route_id":"19598","agency_id":"70006","route_short_name":"10","route_long_name":"Gravois-Lindell","route_type":3,"route_color":"#FFFFFF","route_text_color":"#000000"}],"agency_name":"Metro St. Louis"},"geometry":{"type":"Point","coordinates":[-90.21804,38.63409]}},{"type":"Feature","properties":{"stop_id":"2614","stop_code":"2614","stop_name":"OLIVE @ GARRISON WB","stop_desc":"NEAR SIDE OLIVE @ GARRISON WB","wheelchair_boarding":1,"routes":[{"route_id":"19598","agency_id":"70006","route_short_name":"10","route_long_name":"Gravois-Lindell","route_type":3,"route_color":"#FFFFFF","route_text_color":"#000000"}],"agency_name":"Metro St. Louis"},"geometry":{"type":"Point","coordinates":[-90.22174,38.63486]}},{"type":"Feature","properties":{"stop_id":"2615","stop_code":"2615","stop_name":"OLIVE @ COMPTON WB","stop_desc":"FAR SIDE OLIVE @ COMPTON WB","wheelchair_boarding":1,"routes":[{"route_id":"19598","agency_id":"70006","route_short_name":"10","route_long_name":"Gravois-Lindell","route_type":3,"route_color":"#FFFFFF","route_text_color":"#000000"}],"agency_name":"Metro St. Louis"},"geometry":{"type":"Point","coordinates":[-90.22581,38.6359]}},{"type":"Feature","properties":{"stop_id":"2616","stop_code":"2616","stop_name":"LINDELL @ SPRING WB","stop_desc":"FAR SIDE LINDELL @ SPRING WB","wheelchair_boarding":2,"routes":[{"route_id":"19598","agency_id":"70006","route_short_name":"10","route_long_name":"Gravois-Lindell","route_type":3,"route_color":"#FFFFFF","route_text_color":"#000000"}],"agency_name":"Metro St. Louis"},"geometry":{"type":"Point","coordinates":[-90.23683,38.63817]}},{"type":"Feature","properties":{"stop_id":"2617","stop_code":"2617","stop_name":"LINDELL @ VANDEVENTER WB","stop_desc":"FAR SIDE LINDELL @ VANDEVENTER WB","wheelchair_boarding":1,"routes":[{"route_id":"19598","agency_id":"70006","route_short_name":"10","route_long_name":"Gravois-Lindell","route_type":3,"route_color":"#FFFFFF","route_text_color":"#000000"}],"agency_name":"Metro St. Louis"},"geometry":{"type":"Point","coordinates":[-90.2414,38.63911]}},{"type":"Feature","properties":{"stop_id":"2618","stop_code":"2618","stop_name":"LINDELL @ SARAH WB","stop_desc":"NEAR SIDE LINDELL @ SARAH WB","wheelchair_boarding":1,"routes":[{"route_id":"19598","agency_id":"70006","route_short_name":"10","route_long_name":"Gravois-Lindell","route_type":3,"route_color":"#FFFFFF","route_text_color":"#000000"}],"agency_name":"Metro St. Louis"},"geometry":{"type":"Point","coordinates":[-90.24539,38.63996]}},{"type":"Feature","properties":{"stop_id":"2619","stop_code":"2619","stop_name":"LINDELL @ WHITTIER WB","stop_desc":"FAR SIDE LINDELL @ WHITTIER WB","wheelchair_boarding":1,"routes":[{"route_id":"19598","agency_id":"70006","route_short_name":"10","route_long_name":"Gravois-Lindell","route_type":3,"route_color":"#FFFFFF","route_text_color":"#000000"}],"agency_name":"Metro St. Louis"},"geometry":{"type":"Point","coordinates":[-90.24846,38.64061]}},{"type":"Feature","properties":{"stop_id":"2620","stop_code":"2620","stop_name":"LINDELL @ BOYLE WB","stop_desc":"FAR SIDE LINDELL @ BOYLE WB","wheelchair_boarding":1,"routes":[{"route_id":"19598","agency_id":"70006","route_short_name":"10","route_long_name":"Gravois-Lindell","route_type":3,"route_color":"#FFFFFF","route_text_color":"#000000"}],"agency_name":"Metro St. Louis"},"geometry":{"type":"Point","coordinates":[-90.25079,38.64107]}},{"type":"Feature","properties":{"stop_id":"2622","stop_code":"2622","stop_name":"LINDELL @ TAYLOR WB","stop_desc":"NEAR SIDE LINDELL @ TAYLOR WB","wheelchair_boarding":1,"routes":[{"route_id":"19598","agency_id":"70006","route_short_name":"10","route_long_name":"Gravois-Lindell","route_type":3,"route_color":"#FFFFFF","route_text_color":"#000000"}],"agency_name":"Metro St. Louis"},"geometry":{"type":"Point","coordinates":[-90.25761,38.64246]}},{"type":"Feature","properties":{"stop_id":"2624","stop_code":"2624","stop_name":"LINDELL @ EUCLID WB","stop_desc":"FAR SIDE LINDELL @ EUCLID WB","wheelchair_boarding":1,"routes":[{"route_id":"19598","agency_id":"70006","route_short_name":"10","route_long_name":"Gravois-Lindell","route_type":3,"route_color":"#FFFFFF","route_text_color":"#000000"},{"route_id":"19600","agency_id":"70006","route_short_name":"13","route_long_name":"Union","route_type":3,"route_color":"#FFFFFF","route_text_color":"#000000"}],"agency_name":"Metro St. Louis"},"geometry":{"type":"Point","coordinates":[-90.26226,38.64346]}},{"type":"Feature","properties":{"stop_id":"3350","stop_code":"3350","stop_name":"OLIVE @ 18TH STREET WB","stop_desc":"FAR SIDE OLIVE @ 18TH STREET WB","wheelchair_boarding":1,"routes":[{"route_id":"19598","agency_id":"70006","route_short_name":"10","route_long_name":"Gravois-Lindell","route_type":3,"route_color":"#FFFFFF","route_text_color":"#000000"}],"agency_name":"Metro St. Louis"},"geometry":{"type":"Point","coordinates":[-90.20605,38.63148]}},{"type":"Feature","properties":{"stop_id":"5332","stop_code":"5332","stop_name":"TAYLOR @ PARKVIEW PLACE SB","stop_desc":"NEAR SIDE TAYLOR @ PARKVIEW PLACE SB","wheelchair_boarding":1,"routes":[{"route_id":"19592","agency_id":"70006","route_short_name":"1","route_long_name":"Gold","route_type":3,"route_color":"#FFFFFF","route_text_color":"#000000"},{"route_id":"19598","agency_id":"70006","route_short_name":"10","route_long_name":"Gravois-Lindell","route_type":3,"route_color":"#FFFFFF","route_text_color":"#000000"},{"route_id":"19600","agency_id":"70006","route_short_name":"13","route_long_name":"Union","route_type":3,"route_color":"#FFFFFF","route_text_color":"#000000"},{"route_id":"19602","agency_id":"70006","route_short_name":"18","route_long_name":"Taylor","route_type":3,"route_color":"#FFFFFF","route_text_color":"#000000"},{"route_id":"19613","agency_id":"70006","route_short_name":"42","route_long_name":"Sarah","route_type":3,"route_color":"#FFFFFF","route_text_color":"#000000"},{"route_id":"19632","agency_id":"70006","route_short_name":"95","route_long_name":"Kingshighway","route_type":3,"route_color":"#FFFFFF","route_text_color":"#000000"}],"agency_name":"Metro St. Louis"},"geometry":{"type":"Point","coordinates":[-90.25974,38.6373]}},{"type":"Feature","properties":{"stop_id":"7651","stop_code":"7651","stop_name":"14TH STREET @ CHESTNUT NB","stop_desc":"NEAR SIDE 14TH STREET @ CHESTNUT NB","wheelchair_boarding":1,"routes":[{"route_id":"19598","agency_id":"70006","route_short_name":"10","route_long_name":"Gravois-Lindell","route_type":3,"route_color":"#FFFFFF","route_text_color":"#000000"},{"route_id":"19607","agency_id":"70006","route_short_name":"32","route_long_name":"Dr ML King","route_type":3,"route_color":"#FFFFFF","route_text_color":"#000000"},{"route_id":"19611","agency_id":"70006","route_short_name":"40","route_long_name":"Broadway-Halls Ferry","route_type":3,"route_color":"#FFFFFF","route_text_color":"#000000"},{"route_id":"19612","agency_id":"70006","route_short_name":"41","route_long_name":"Lee","route_type":3,"route_color":"#FFFFFF","route_text_color":"#000000"},{"route_id":"19624","agency_id":"70006","route_short_name":"74","route_long_name":"Florissant","route_type":3,"route_color":"#FFFFFF","route_text_color":"#000000"},{"route_id":"19633","agency_id":"70006","route_short_name":"97","route_long_name":"Delmar","route_type":3,"route_color":"#FFFFFF","route_text_color":"#000000"}],"agency_name":"Metro St. Louis"},"geometry":{"type":"Point","coordinates":[-90.20077,38.62859]}},{"type":"Feature","properties":{"stop_id":"768","stop_code":"768","stop_name":"GRAVOIS-HAMPTON TRANSIT CENTER","wheelchair_boarding":1,"routes":[{"route_id":"19598","agency_id":"70006","route_short_name":"10","route_long_name":"Gravois-Lindell","route_type":3,"route_color":"#FFFFFF","route_text_color":"#000000"},{"route_id":"19629","agency_id":"70006","route_short_name":"90","route_long_name":"Hampton","route_type":3,"route_color":"#FFFFFF","route_text_color":"#000000"},{"route_id":"19632","agency_id":"70006","route_short_name":"95","route_long_name":"Kingshighway","route_type":3,"route_color":"#FFFFFF","route_text_color":"#000000"}],"agency_name":"Metro St. Louis"},"geometry":{"type":"Point","coordinates":[-90.29389,38.56476]}},{"type":"Feature","properties":{"stop_id":"7741","stop_code":"7741","stop_name":"7220 GRAVOIS EB","stop_desc":"MID-BLOCK 7220 GRAVOIS EB","wheelchair_boarding":1,"routes":[{"route_id":"19598","agency_id":"70006","route_short_name":"10","route_long_name":"Gravois-Lindell","route_type":3,"route_color":"#FFFFFF","route_text_color":"#000000"},{"route_id":"19632","agency_id":"70006","route_short_name":"95","route_long_name":"Kingshighway","route_type":3,"route_color":"#FFFFFF","route_text_color":"#000000"}],"agency_name":"Metro St. Louis"},"geometry":{"type":"Point","coordinates":[-90.29178,38.56566]}},{"type":"Feature","properties":{"stop_id":"7745","stop_code":"7745","stop_name":"GRAVOIS @ NAGEL EB","stop_desc":"FAR SIDE GRAVOIS @ NAGEL EB","wheelchair_boarding":1,"routes":[{"route_id":"19598","agency_id":"70006","route_short_name":"10","route_long_name":"Gravois-Lindell","route_type":3,"route_color":"#FFFFFF","route_text_color":"#000000"},{"route_id":"19632","agency_id":"70006","route_short_name":"95","route_long_name":"Kingshighway","route_type":3,"route_color":"#FFFFFF","route_text_color":"#000000"}],"agency_name":"Metro St. Louis"},"geometry":{"type":"Point","coordinates":[-90.28715,38.56845]}},{"type":"Feature","properties":{"stop_id":"7746","stop_code":"7746","stop_name":"GRAVOIS @ LOUGHBROUGH EB","stop_desc":"FAR SIDE GRAVOIS @ LOUGHBROUGH EB","wheelchair_boarding":1,"routes":[{"route_id":"19598","agency_id":"70006","route_short_name":"10","route_long_name":"Gravois-Lindell","route_type":3,"route_color":"#FFFFFF","route_text_color":"#000000"},{"route_id":"19632","agency_id":"70006","route_short_name":"95","route_long_name":"Kingshighway","route_type":3,"route_color":"#FFFFFF","route_text_color":"#000000"}],"agency_name":"Metro St. Louis"},"geometry":{"type":"Point","coordinates":[-90.28489,38.57022]}},{"type":"Feature","properties":{"stop_id":"7747","stop_code":"7747","stop_name":"GRAVOIS @ KINGSHIGHWAY EB","stop_desc":"MID-BLOCK GRAVOIS @ KINGSHIGHWAY EB","wheelchair_boarding":1,"routes":[{"route_id":"19598","agency_id":"70006","route_short_name":"10","route_long_name":"Gravois-Lindell","route_type":3,"route_color":"#FFFFFF","route_text_color":"#000000"}],"agency_name":"Metro St. Louis"},"geometry":{"type":"Point","coordinates":[-90.28311,38.57191]}},{"type":"Feature","properties":{"stop_id":"7749","stop_code":"7749","stop_name":"GRAVOIS @ HOLLY HILLS EB","stop_desc":"NEAR SIDE GRAVOIS @ HOLLY HILLS EB","wheelchair_boarding":1,"routes":[{"route_id":"19598","agency_id":"70006","route_short_name":"10","route_long_name":"Gravois-Lindell","route_type":3,"route_color":"#FFFFFF","route_text_color":"#000000"}],"agency_name":"Metro St. Louis"},"geometry":{"type":"Point","coordinates":[-90.28089,38.57356]}},{"type":"Feature","properties":{"stop_id":"7750","stop_code":"7750","stop_name":"GRAVOIS @ GOETHE EB","stop_desc":"FAR SIDE GRAVOIS @ GOETHE EB","wheelchair_boarding":1,"routes":[{"route_id":"19598","agency_id":"70006","route_short_name":"10","route_long_name":"Gravois-Lindell","route_type":3,"route_color":"#FFFFFF","route_text_color":"#000000"}],"agency_name":"Metro St. Louis"},"geometry":{"type":"Point","coordinates":[-90.27889,38.57473]}},{"type":"Feature","properties":{"stop_id":"7752","stop_code":"7752","stop_name":"GRAVOIS @ CHRISTY EB","stop_desc":"NEAR SIDE GRAVOIS @ CHRISTY EB","wheelchair_boarding":1,"routes":[{"route_id":"19598","agency_id":"70006","route_short_name":"10","route_long_name":"Gravois-Lindell","route_type":3,"route_color":"#FFFFFF","route_text_color":"#000000"}],"agency_name":"Metro St. Louis"},"geometry":{"type":"Point","coordinates":[-90.27651,38.57619]}},{"type":"Feature","properties":{"stop_id":"7754","stop_code":"7754","stop_name":"GRAVOIS @ BATES EB","stop_desc":"NEAR SIDE GRAVOIS @ BATES EB","wheelchair_boarding":1,"routes":[{"route_id":"19598","agency_id":"70006","route_short_name":"10","route_long_name":"Gravois-Lindell","route_type":3,"route_color":"#FFFFFF","route_text_color":"#000000"}],"agency_name":"Metro St. Louis"},"geometry":{"type":"Point","coordinates":[-90.27236,38.57771]}},{"type":"Feature","properties":{"stop_id":"7755","stop_code":"7755","stop_name":"GRAVOIS @ EICHELBERGER EB","stop_desc":"NEAR SIDE GRAVOIS @ EICHELBERGER EB","wheelchair_boarding":1,"routes":[{"route_id":"19598","agency_id":"70006","route_short_name":"10","route_long_name":"Gravois-Lindell","route_type":3,"route_color":"#FFFFFF","route_text_color":"#000000"}],"agency_name":"Metro St. Louis"},"geometry":{"type":"Point","coordinates":[-90.26978,38.57918]}},{"type":"Feature","properties":{"stop_id":"7756","stop_code":"7756","stop_name":"GRAVOIS @ MORGANFORD EB","stop_desc":"NEAR SIDE GRAVOIS @ MORGANFORD EB","wheelchair_boarding":1,"routes":[{"route_id":"19598","agency_id":"70006","route_short_name":"10","route_long_name":"Gravois-Lindell","route_type":3,"route_color":"#FFFFFF","route_text_color":"#000000"}],"agency_name":"Metro St. Louis"},"geometry":{"type":"Point","coordinates":[-90.2676,38.5809]}},{"type":"Feature","properties":{"stop_id":"7757","stop_code":"7757","stop_name":"GRAVOIS @ DELOR EB","stop_desc":"FAR SIDE GRAVOIS @ DELOR EB","wheelchair_boarding":1,"routes":[{"route_id":"19598","agency_id":"70006","route_short_name":"10","route_long_name":"Gravois-Lindell","route_type":3,"route_color":"#FFFFFF","route_text_color":"#000000"}],"agency_name":"Metro St. Louis"},"geometry":{"type":"Point","coordinates":[-90.26658,38.58171]}},{"type":"Feature","properties":{"stop_id":"7760","stop_code":"7760","stop_name":"GRAVOIS @ TAFT EB","stop_desc":"NEAR SIDE GRAVOIS @ TAFT EB","wheelchair_boarding":1,"routes":[{"route_id":"19598","agency_id":"70006","route_short_name":"10","route_long_name":"Gravois-Lindell","route_type":3,"route_color":"#FFFFFF","route_text_color":"#000000"}],"agency_name":"Metro St. Louis"},"geometry":{"type":"Point","coordinates":[-90.26252,38.58485]}},{"type":"Feature","properties":{"stop_id":"7761","stop_code":"7761","stop_name":"GRAVOIS @ MERAMEC EB","stop_desc":"FAR SIDE GRAVOIS @ MERAMEC EB","wheelchair_boarding":1,"routes":[{"route_id":"19598","agency_id":"70006","route_short_name":"10","route_long_name":"Gravois-Lindell","route_type":3,"route_color":"#FFFFFF","route_text_color":"#000000"}],"agency_name":"Metro St. Louis"},"geometry":{"type":"Point","coordinates":[-90.25817,38.5883]}},{"type":"Feature","properties":{"stop_id":"7762","stop_code":"7762","stop_name":"GRAVOIS @ CHIPPEWA EB","stop_desc":"NEAR SIDE GRAVOIS @ CHIPPEWA EB","wheelchair_boarding":1,"routes":[{"route_id":"19598","agency_id":"70006","route_short_name":"10","route_long_name":"Gravois-Lindell","route_type":3,"route_color":"#FFFFFF","route_text_color":"#000000"}],"agency_name":"Metro St. Louis"},"geometry":{"type":"Point","coordinates":[-90.25579,38.58941]}},{"type":"Feature","properties":{"stop_id":"7763","stop_code":"7763","stop_name":"GRAVOIS @ WINNEBAGO EB","stop_desc":"NEAR SIDE GRAVOIS @ WINNEBAGO EB","wheelchair_boarding":1,"routes":[{"route_id":"19598","agency_id":"70006","route_short_name":"10","route_long_name":"Gravois-Lindell","route_type":3,"route_color":"#FFFFFF","route_text_color":"#000000"}],"agency_name":"Metro St. Louis"},"geometry":{"type":"Point","coordinates":[-90.25313,38.59059]}},{"type":"Feature","properties":{"stop_id":"7764","stop_code":"7764","stop_name":"GRAVOIS @ GUSTINE EB","stop_desc":"FAR SIDE GRAVOIS @ GUSTINE EB","wheelchair_boarding":1,"routes":[{"route_id":"19598","agency_id":"70006","route_short_name":"10","route_long_name":"Gravois-Lindell","route_type":3,"route_color":"#FFFFFF","route_text_color":"#000000"}],"agency_name":"Metro St. Louis"},"geometry":{"type":"Point","coordinates":[-90.25092,38.59145]}},{"type":"Feature","properties":{"stop_id":"7766","stop_code":"7766","stop_name":"GRAVOIS @ SPRING EB","stop_desc":"NEAR SIDE GRAVOIS @ SPRING EB","wheelchair_boarding":1,"routes":[{"route_id":"19598","agency_id":"70006","route_short_name":"10","route_long_name":"Gravois-Lindell","route_type":3,"route_color":"#FFFFFF","route_text_color":"#000000"}],"agency_name":"Metro St. Louis"},"geometry":{"type":"Point","coordinates":[-90.24824,38.59171]}},{"type":"Feature","properties":{"stop_id":"9029","stop_code":"9029","stop_name":"GRAVOIS @ GRAND EB","stop_desc":"FAR SIDE GRAVOIS @ GRAND EB","wheelchair_boarding":1,"routes":[{"route_id":"19598","agency_id":"70006","route_short_name":"10","route_long_name":"Gravois-Lindell","route_type":3,"route_color":"#FFFFFF","route_text_color":"#000000"}],"agency_name":"Metro St. Louis"},"geometry":{"type":"Point","coordinates":[-90.24348,38.59259]}},{"type":"Feature","properties":{"stop_id":"9031","stop_code":"9031","stop_name":"GRAVOIS @ CHEROKEE EB","stop_desc":"FAR SIDE GRAVOIS @ CHEROKEE EB","wheelchair_boarding":1,"routes":[{"route_id":"19598","agency_id":"70006","route_short_name":"10","route_long_name":"Gravois-Lindell","route_type":3,"route_color":"#FFFFFF","route_text_color":"#000000"}],"agency_name":"Metro St. Louis"},"geometry":{"type":"Point","coordinates":[-90.23995,38.59546]}},{"type":"Feature","properties":{"stop_id":"9032","stop_code":"9032","stop_name":"GRAVOIS @ UTAH EB","stop_desc":"FAR SIDE GRAVOIS @ UTAH EB","wheelchair_boarding":1,"routes":[{"route_id":"19598","agency_id":"70006","route_short_name":"10","route_long_name":"Gravois-Lindell","route_type":3,"route_color":"#FFFFFF","route_text_color":"#000000"}],"agency_name":"Metro St. Louis"},"geometry":{"type":"Point","coordinates":[-90.23787,38.59686]}},{"type":"Feature","properties":{"stop_id":"9034","stop_code":"9034","stop_name":"GRAVOIS @ MINNESOTA EB","stop_desc":"NEAR SIDE GRAVOIS @ MINNESOTA EB","wheelchair_boarding":1,"routes":[{"route_id":"19598","agency_id":"70006","route_short_name":"10","route_long_name":"Gravois-Lindell","route_type":3,"route_color":"#FFFFFF","route_text_color":"#000000"}],"agency_name":"Metro St. Louis"},"geometry":{"type":"Point","coordinates":[-90.23358,38.59998]}},{"type":"Feature","properties":{"stop_id":"9036","stop_code":"9036","stop_name":"GRAVOIS @ NEBRASKA EB","stop_desc":"NEAR SIDE GRAVOIS @ NEBRASKA EB","wheelchair_boarding":1,"routes":[{"route_id":"19598","agency_id":"70006","route_short_name":"10","route_long_name":"Gravois-Lindell","route_type":3,"route_color":"#FFFFFF","route_text_color":"#000000"}],"agency_name":"Metro St. Louis"},"geometry":{"type":"Point","coordinates":[-90.231,38.60145]}},{"type":"Feature","properties":{"stop_id":"9037","stop_code":"9037","stop_name":"GRAVOIS @ CALIFORNIA EB","stop_desc":"NEAR SIDE GRAVOIS @ CALIFORNIA EB","wheelchair_boarding":1,"routes":[{"route_id":"19598","agency_id":"70006","route_short_name":"10","route_long_name":"Gravois-Lindell","route_type":3,"route_color":"#FFFFFF","route_text_color":"#000000"}],"agency_name":"Metro St. Louis"},"geometry":{"type":"Point","coordinates":[-90.22851,38.60247]}},{"type":"Feature","properties":{"stop_id":"9039","stop_code":"9039","stop_name":"GRAVOIS @ JEFFERSON EB","stop_desc":"NEAR SIDE GRAVOIS @ JEFFERSON EB","wheelchair_boarding":1,"routes":[{"route_id":"19598","agency_id":"70006","route_short_name":"10","route_long_name":"Gravois-Lindell","route_type":3,"route_color":"#FFFFFF","route_text_color":"#000000"}],"agency_name":"Metro St. Louis"},"geometry":{"type":"Point","coordinates":[-90.22354,38.60461]}},{"type":"Feature","properties":{"stop_id":"9042","stop_code":"9042","stop_name":"GRAVOIS @ MCNAIR EB","stop_desc":"FAR SIDE GRAVOIS @ MCNAIR EB","wheelchair_boarding":1,"routes":[{"route_id":"19598","agency_id":"70006","route_short_name":"10","route_long_name":"Gravois-Lindell","route_type":3,"route_color":"#FFFFFF","route_text_color":"#000000"}],"agency_name":"Metro St. Louis"},"geometry":{"type":"Point","coordinates":[-90.21763,38.60683]}},{"type":"Feature","properties":{"stop_id":"9044","stop_code":"9044","stop_name":"GRAVOIS @ LEMP EB","stop_desc":"NEAR SIDE GRAVOIS @ LEMP EB","wheelchair_boarding":1,"routes":[{"route_id":"19598","agency_id":"70006","route_short_name":"10","route_long_name":"Gravois-Lindell","route_type":3,"route_color":"#FFFFFF","route_text_color":"#000000"}],"agency_name":"Metro St. Louis"},"geometry":{"type":"Point","coordinates":[-90.21525,38.60753]}},{"type":"Feature","properties":{"stop_id":"9045","stop_code":"9045","stop_name":"GRAVOIS @ 13TH STREET EB","stop_desc":"NEAR SIDE GRAVOIS @ 13TH STREET EB","wheelchair_boarding":1,"routes":[{"route_id":"19598","agency_id":"70006","route_short_name":"10","route_long_name":"Gravois-Lindell","route_type":3,"route_color":"#FFFFFF","route_text_color":"#000000"}],"agency_name":"Metro St. Louis"},"geometry":{"type":"Point","coordinates":[-90.21078,38.60885]}},{"type":"Feature","properties":{"stop_id":"9047","stop_code":"9047","stop_name":"TUCKER @ LAFAYETTE NB","stop_desc":"NEAR SIDE TUCKER @ LAFAYETTE NB","wheelchair_boarding":2,"routes":[{"route_id":"19598","agency_id":"70006","route_short_name":"10","route_long_name":"Gravois-Lindell","route_type":3,"route_color":"#FFFFFF","route_text_color":"#000000"},{"route_id":"19623","agency_id":"70006","route_short_name":"73","route_long_name":"Carondelet","route_type":3,"route_color":"#FFFFFF","route_text_color":"#000000"}],"agency_name":"Metro St. Louis"},"geometry":{"type":"Point","coordinates":[-90.20631,38.6125]}},{"type":"Feature","properties":{"stop_id":"9049","stop_code":"9049","stop_name":"TUCKER @ PARK NB","stop_desc":"FAR SIDE TUCKER @ PARK NB","wheelchair_boarding":1,"routes":[{"route_id":"19598","agency_id":"70006","route_short_name":"10","route_long_name":"Gravois-Lindell","route_type":3,"route_color":"#FFFFFF","route_text_color":"#000000"},{"route_id":"19623","agency_id":"70006","route_short_name":"73","route_long_name":"Carondelet","route_type":3,"route_color":"#FFFFFF","route_text_color":"#000000"}],"agency_name":"Metro St. Louis"},"geometry":{"type":"Point","coordinates":[-90.20392,38.61508]}},{"type":"Feature","properties":{"stop_id":"9050","stop_code":"9050","stop_name":"TUCKER @ HICKORY PLACE NB","stop_desc":"FAR SIDE TUCKER @ HICKORY PLACE NB","wheelchair_boarding":1,"routes":[{"route_id":"19598","agency_id":"70006","route_short_name":"10","route_long_name":"Gravois-Lindell","route_type":3,"route_color":"#FFFFFF","route_text_color":"#000000"},{"route_id":"19623","agency_id":"70006","route_short_name":"73","route_long_name":"Carondelet","route_type":3,"route_color":"#FFFFFF","route_text_color":"#000000"}],"agency_name":"Metro St. Louis"},"geometry":{"type":"Point","coordinates":[-90.20232,38.61687]}}]}