{"type":"FeatureCollection","features":[{"type":"Feature","properties":{"agency_name":"Metro St. Louis","route_id":"19645","agency_id":"70006","route_short_name":"13","route_long_name":"Caseyville","route_type":3,"route_color":"#FFFFFF","route_text_color":"#000000"},"geometry":{"type":"MultiLineString","coordinates":[[[-90.05743,38.61084],[-90.05755,38.61066],[-90.05743,38.61084],[-90.05728,38.61093],[-90.05709,38.61101],[-90.05548,38.61102],[-90.05054,38.61092],[-90.05024,38.61095],[-90.04994,38.61101],[-90.04919,38.61119],[-90.04888,38.6112],[-90.04794,38.6109],[-90.04813,38.61051],[-90.04876,38.60934],[-90.05135,38.60464],[-90.05156,38.60418],[-90.05182,38.6035],[-90.05211,38.60245],[-90.05219,38.60227],[-90.05234,38.60182],[-90.05243,38.6016],[-90.05252,38.60144],[-90.05259,38.60133],[-90.05274,38.6012],[-90.05309,38.60101],[-90.05335,38.60091],[-90.0537,38.60073],[-90.05456,38.59973],[-90.05457,38.59956],[-90.05321,38.59887],[-90.05253,38.5985],[-90.05228,38.5984],[-90.05207,38.59829],[-90.05176,38.59809],[-90.05123,38.59778],[-90.05105,38.59773],[-90.05005,38.59704],[-90.04945,38.5967],[-90.04886,38.59642],[-90.04841,38.59624],[-90.04878,38.59574],[-90.04886,38.5956],[-90.04887,38.59547]],[[-89.98743,38.67059],[-89.98743,38.67062],[-89.98744,38.67054],[-89.98751,38.67045],[-89.98777,38.67039],[-89.98738,38.66963],[-89.98515,38.67036],[-89.98466,38.67019],[-89.98446,38.66973],[-89.98338,38.66771],[-89.98304,38.66705],[-89.98297,38.66687],[-89.98291,38.66664],[-89.98271,38.66564],[-89.98255,38.66495],[-89.98239,38.66413],[-89.98235,38.66385],[-89.98237,38.66331],[-89.98244,38.66294],[-89.98251,38.66275],[-89.98269,38.66241],[-89.98292,38.66209],[-89.98642,38.65751],[-89.98714,38.65647],[-89.98757,38.65635],[-89.98832,38.65631],[-89.98856,38.65625],[-89.98897,38.6561],[-89.98922,38.65593],[-89.98937,38.65579],[-89.98948,38.65566],[-89.98957,38.65554],[-89.98966,38.65534],[-89.98972,38.65508],[-89.98983,38.65432],[-89.9898,38.65425],[-89.98992,38.6537],[-89.98997,38.65355],[-89.99015,38.65317],[-89.99031,38.65288],[-89.99067,38.6524],[-89.99103,38.65203],[-89.99134,38.65176],[-89.99166,38.65152],[-89.99263,38.65093],[-89.99375,38.65039],[-89.99452,38.65009],[-89.99522,38.64987],[-90.00251,38.64796],[-90.00696,38.64681],[-90.01055,38.64586],[-90.01093,38.64578],[-90.0118,38.64566],[-90.0122,38.64563],[-90.01269,38.64562],[-90.01312,38.64565],[-90.014,38.64575],[-90.01575,38.64613],[-90.01605,38.64621],[-90.01631,38.64574],[-90.01646,38.64557],[-90.01652,38.64553],[-90.01664,38.64549],[-90.01691,38.64546],[-90.01694,38.64534],[-90.01692,38.64499],[-90.01693,38.64476],[-90.01703,38.64439],[-90.01715,38.64416],[-90.01729,38.64394],[-90.01754,38.64363],[-90.0178,38.64336],[-90.01929,38.64205],[-90.02051,38.64103],[-90.02137,38.64028],[-90.0231,38.63873],[-90.02334,38.63854],[-90.025,38.6371],[-90.02543,38.63675],[-90.02606,38.63616],[-90.02666,38.63553],[-90.02778,38.6342],[-90.02925,38.63213],[-90.02967,38.63138],[-90.02992,38.63101],[-90.03012,38.63075],[-90.03596,38.62432],[-90.03617,38.62411],[-90.03652,38.62382],[-90.03732,38.62319],[-90.03755,38.62305],[-90.03848,38.62234],[-90.03893,38.62196],[-90.03959,38.62132],[-90.04004,38.6208],[-90.04181,38.61864],[-90.04208,38.61836],[-90.04236,38.61808],[-90.04296,38.61758],[-90.04417,38.61669],[-90.04453,38.61637],[-90.04504,38.61584],[-90.04546,38.61529],[-90.04567,38.61497],[-90.04594,38.6145],[-90.04638,38.61367],[-90.04672,38.61307],[-90.04688,38.61282],[-90.04751,38.61167]],[[-90.05759,38.60994],[-90.05755,38.61066],[-90.05759,38.60994]]]}},{"type":"Feature","properties":{"stop_id":"11556","stop_code":"11556","stop_name":"MAIN @ LINCOLN SB","stop_desc":"FAR SIDE MAIN @ LINCOLN SB","wheelchair_boarding":2,"routes":[{"route_id":"19645","agency_id":"70006","route_short_name":"13","route_long_name":"Caseyville","route_type":3,"route_color":"#FFFFFF","route_text_color":"#000000"}],"agency_name":"Metro St. Louis"},"geometry":{"type":"Point","coordinates":[-90.02843,38.63339]}},{"type":"Feature","properties":{"stop_id":"11569","stop_code":"11569","stop_name":"MAIN @ REYNOLDS SB","stop_desc":"FAR SIDE MAIN @ REYNOLDS SB","wheelchair_boarding":2,"routes":[{"route_id":"19645","agency_id":"70006","route_short_name":"13","route_long_name":"Caseyville","route_type":3,"route_color":"#FFFFFF","route_text_color":"#000000"}],"agency_name":"Metro St. Louis"},"geometry":{"type":"Point","coordinates":[-90.0222,38.63965]}},{"type":"Feature","properties":{"stop_id":"11570","stop_code":"11570","stop_name":"MAIN @ HOLLYWOOD HEIGHTS SB","stop_desc":"NEAR SIDE MAIN @ HOLLYWOOD HEIGHTS SB","wheelchair_boarding":2,"routes":[{"route_id":"19645","agency_id":"70006","route_short_name":"13","route_long_name":"Caseyville","route_type":3,"route_color":"#FFFFFF","route_text_color":"#000000"}],"agency_name":"Metro St. Louis"},"geometry":{"type":"Point","coordinates":[-90.0208,38.64086]}},{"type":"Feature","properties":{"stop_id":"11589","stop_code":"11589","stop_name":"MAIN @ CENTER EB","stop_desc":"NEAR SIDE MAIN @ CENTER EB","wheelchair_boarding":2,"routes":[{"route_id":"19645","agency_id":"70006","route_short_name":"13","route_long_name":"Caseyville","route_type":3,"route_color":"#FFFFFF","route_text_color":"#000000"},{"route_id":"19648","agency_id":"70006","route_short_name":"16","route_long_name":"St. Clair Square","route_type":3,"route_color":"#FFFFFF","route_text_color":"#000000"}],"agency_name":"Metro St. Louis"},"geometry":{"type":"Point","coordinates":[-89.98622,38.66996]}},{"type":"Feature","properties":{"stop_id":"11591","stop_code":"11591","stop_name":"MORRISON @ CHURCH SB","stop_desc":"FAR SIDE MORRISON @ CHURCH SB","wheelchair_boarding":2,"routes":[{"route_id":"19645","agency_id":"70006","route_short_name":"13","route_long_name":"Caseyville","route_type":3,"route_color":"#FFFFFF","route_text_color":"#000000"},{"route_id":"19648","agency_id":"70006","route_short_name":"16","route_long_name":"St. Clair Square","route_type":3,"route_color":"#FFFFFF","route_text_color":"#000000"}],"agency_name":"Metro St. Louis"},"geometry":{"type":"Point","coordinates":[-89.98417,38.66904]}},{"type":"Feature","properties":{"stop_id":"11592","stop_code":"11592","stop_name":"MORRISON @ HILL SB","stop_desc":"NEAR SIDE MORRISON @ HILL SB","wheelchair_boarding":2,"routes":[{"route_id":"19645","agency_id":"70006","route_short_name":"13","route_long_name":"Caseyville","route_type":3,"route_color":"#FFFFFF","route_text_color":"#000000"},{"route_id":"19648","agency_id":"70006","route_short_name":"16","route_long_name":"St. Clair Square","route_type":3,"route_color":"#FFFFFF","route_text_color":"#000000"}],"agency_name":"Metro St. Louis"},"geometry":{"type":"Point","coordinates":[-89.98349,38.66779]}},{"type":"Feature","properties":{"stop_id":"11594","stop_code":"11594","stop_name":"MORRISON @ CLINTON SB","stop_desc":"FAR SIDE MORRISON @ CLINTON SB","wheelchair_boarding":2,"routes":[{"route_id":"19645","agency_id":"70006","route_short_name":"13","route_long_name":"Caseyville","route_type":3,"route_color":"#FFFFFF","route_text_color":"#000000"},{"route_id":"19648","agency_id":"70006","route_short_name":"16","route_long_name":"St. Clair Square","route_type":3,"route_color":"#FFFFFF","route_text_color":"#000000"}],"agency_name":"Metro St. Louis"},"geometry":{"type":"Point","coordinates":[-89.9833,38.66174]}},{"type":"Feature","properties":{"stop_id":"11595","stop_code":"11595","stop_name":"MORRISON @ IDLEWOOD SB","stop_desc":"NEAR SIDE MORRISON @ IDLEWOOD SB","wheelchair_boarding":2,"routes":[{"route_id":"19645","agency_id":"70006","route_short_name":"13","route_long_name":"Caseyville","route_type":3,"route_color":"#FFFFFF","route_text_color":"#000000"},{"route_id":"19648","agency_id":"70006","route_short_name":"16","route_long_name":"St. Clair Square","route_type":3,"route_color":"#FFFFFF","route_text_color":"#000000"}],"agency_name":"Metro St. Louis"},"geometry":{"type":"Point","coordinates":[-89.98487,38.65969]}},{"type":"Feature","properties":{"stop_id":"11596","stop_code":"11596","stop_name":"MORRISON @ CHEROKEE SB","stop_desc":"NEAR SIDE MORRISON @ CHEROKEE SB","wheelchair_boarding":2,"routes":[{"route_id":"19645","agency_id":"70006","route_short_name":"13","route_long_name":"Caseyville","route_type":3,"route_color":"#FFFFFF","route_text_color":"#000000"},{"route_id":"19648","agency_id":"70006","route_short_name":"16","route_long_name":"St. Clair Square","route_type":3,"route_color":"#FFFFFF","route_text_color":"#000000"}],"agency_name":"Metro St. Louis"},"geometry":{"type":"Point","coordinates":[-89.98614,38.65806]}},{"type":"Feature","properties":{"stop_id":"11662","stop_code":"11662","stop_name":"MORRISON @ LOOP SB","stop_desc":"NEAR SIDE MORRISON @ LOOP SB","wheelchair_boarding":2,"routes":[{"route_id":"19645","agency_id":"70006","route_short_name":"13","route_long_name":"Caseyville","route_type":3,"route_color":"#FFFFFF","route_text_color":"#000000"},{"route_id":"19648","agency_id":"70006","route_short_name":"16","route_long_name":"St. Clair Square","route_type":3,"route_color":"#FFFFFF","route_text_color":"#000000"}],"agency_name":"Metro St. Louis"},"geometry":{"type":"Point","coordinates":[-89.98256,38.66446]}},{"type":"Feature","properties":{"stop_id":"11667","stop_code":"11667","stop_name":"MAIN @ MORRISON EB","stop_desc":"NEAR SIDE MAIN @ MORRISON EB","wheelchair_boarding":2,"routes":[{"route_id":"19645","agency_id":"70006","route_short_name":"13","route_long_name":"Caseyville","route_type":3,"route_color":"#FFFFFF","route_text_color":"#000000"},{"route_id":"19648","agency_id":"70006","route_short_name":"16","route_long_name":"St. Clair Square","route_type":3,"route_color":"#FFFFFF","route_text_color":"#000000"}],"agency_name":"Metro St. Louis"},"geometry":{"type":"Point","coordinates":[-89.98498,38.67039]}},{"type":"Feature","properties":{"stop_id":"11686","stop_code":"11686","stop_name":"2220 MORRISON WB","stop_desc":"MID-BLOCK 2220 MORRISON WB","wheelchair_boarding":2,"routes":[{"route_id":"19645","agency_id":"70006","route_short_name":"13","route_long_name":"Caseyville","route_type":3,"route_color":"#FFFFFF","route_text_color":"#000000"}],"agency_name":"Metro St. Louis"},"geometry":{"type":"Point","coordinates":[-90.01338,38.64574]}},{"type":"Feature","properties":{"stop_id":"11696","stop_code":"11696","stop_name":"89TH STREET @ PARKDALE SB","stop_desc":"FAR SIDE 89TH STREET @ PARKDALE SB","wheelchair_boarding":2,"routes":[{"route_id":"19645","agency_id":"70006","route_short_name":"13","route_long_name":"Caseyville","route_type":3,"route_color":"#FFFFFF","route_text_color":"#000000"}],"agency_name":"Metro St. Louis"},"geometry":{"type":"Point","coordinates":[-90.03471,38.62575]}},{"type":"Feature","properties":{"stop_id":"11697","stop_code":"11697","stop_name":"89TH STREET @ STERLING PLACE SB","stop_desc":"NEAR SIDE 89TH STREET @ STERLING PLACE SB","wheelchair_boarding":2,"routes":[{"route_id":"19645","agency_id":"70006","route_short_name":"13","route_long_name":"Caseyville","route_type":3,"route_color":"#FFFFFF","route_text_color":"#000000"}],"agency_name":"Metro St. Louis"},"geometry":{"type":"Point","coordinates":[-90.03596,38.62438]}},{"type":"Feature","properties":{"stop_id":"11698","stop_code":"11698","stop_name":"ILLINOIS ROUTE 157 @ BUNKUM SB","stop_desc":"FAR SIDE ILLINOIS ROUTE 157 @ BUNKUM SB","wheelchair_boarding":2,"routes":[{"route_id":"19645","agency_id":"70006","route_short_name":"13","route_long_name":"Caseyville","route_type":3,"route_color":"#FFFFFF","route_text_color":"#000000"}],"agency_name":"Metro St. Louis"},"geometry":{"type":"Point","coordinates":[-90.04043,38.62039]}},{"type":"Feature","properties":{"stop_id":"11699","stop_code":"11699","stop_name":"ILLINOIS ROUTE 157 @ SASAK PLACE SB","stop_desc":"FAR SIDE ILLINOIS ROUTE 157 @ SASAK PLACE SB","wheelchair_boarding":2,"routes":[{"route_id":"19645","agency_id":"70006","route_short_name":"13","route_long_name":"Caseyville","route_type":3,"route_color":"#FFFFFF","route_text_color":"#000000"}],"agency_name":"Metro St. Louis"},"geometry":{"type":"Point","coordinates":[-90.0434,38.61731]}},{"type":"Feature","properties":{"stop_id":"11702","stop_code":"11702","stop_name":"ILLINOIS ROUTE 157 @ TUCKER SB","stop_desc":"FAR SIDE ILLINOIS ROUTE 157 @ TUCKER SB","wheelchair_boarding":2,"routes":[{"route_id":"19645","agency_id":"70006","route_short_name":"13","route_long_name":"Caseyville","route_type":3,"route_color":"#FFFFFF","route_text_color":"#000000"}],"agency_name":"Metro St. Louis"},"geometry":{"type":"Point","coordinates":[-90.0484,38.61018]}},{"type":"Feature","properties":{"stop_id":"11703","stop_code":"11703","stop_name":"ILLINOIS ROUTE 157 @ GARDEN SB","stop_desc":"FAR SIDE ILLINOIS ROUTE 157 @ GARDEN SB","wheelchair_boarding":2,"routes":[{"route_id":"19645","agency_id":"70006","route_short_name":"13","route_long_name":"Caseyville","route_type":3,"route_color":"#FFFFFF","route_text_color":"#000000"}],"agency_name":"Metro St. Louis"},"geometry":{"type":"Point","coordinates":[-90.04918,38.60871]}},{"type":"Feature","properties":{"stop_id":"11704","stop_code":"11704","stop_name":"ILLINOIS ROUTE 157 @ CALIFORNIA SB","stop_desc":"NEAR SIDE ILLINOIS ROUTE 157 @ CALIFORNIA SB","wheelchair_boarding":2,"routes":[{"route_id":"19645","agency_id":"70006","route_short_name":"13","route_long_name":"Caseyville","route_type":3,"route_color":"#FFFFFF","route_text_color":"#000000"}],"agency_name":"Metro St. Louis"},"geometry":{"type":"Point","coordinates":[-90.05201,38.60292]}},{"type":"Feature","properties":{"stop_id":"12079","stop_code":"12079","stop_name":"ST. CLAIR @ MAGDALENA EB","stop_desc":"NEAR SIDE ST. CLAIR @ MAGDALENA EB","wheelchair_boarding":2,"routes":[{"route_id":"19636","agency_id":"70006","route_short_name":"1","route_long_name":"Main Street - State Street","route_type":3,"route_color":"#FFFFFF","route_text_color":"#000000"},{"route_id":"19641","agency_id":"70006","route_short_name":"6","route_long_name":"Rosemont","route_type":3,"route_color":"#FFFFFF","route_text_color":"#000000"},{"route_id":"19645","agency_id":"70006","route_short_name":"13","route_long_name":"Caseyville","route_type":3,"route_color":"#FFFFFF","route_text_color":"#000000"}],"agency_name":"Metro St. Louis"},"geometry":{"type":"Point","coordinates":[-90.05117,38.5977]}},{"type":"Feature","properties":{"stop_id":"13932","stop_code":"13932","stop_name":"MADISON COUNTY TRANSIT CTR","wheelchair_boarding":1,"routes":[{"route_id":"19645","agency_id":"70006","route_short_name":"13","route_long_name":"Caseyville","route_type":3,"route_color":"#FFFFFF","route_text_color":"#000000"},{"route_id":"19648","agency_id":"70006","route_short_name":"16","route_long_name":"St. Clair Square","route_type":3,"route_color":"#FFFFFF","route_text_color":"#000000"}],"agency_name":"Metro St. Louis"},"geometry":{"type":"Point","coordinates":[-89.98739,38.67064]}},{"type":"Feature","properties":{"stop_id":"14124","stop_code":"14124","stop_name":"FAIRVIEW HEIGHTS TRANSIT CENTER","wheelchair_boarding":1,"routes":[{"route_id":"19636","agency_id":"70006","route_short_name":"1","route_long_name":"Main Street - State Street","route_type":3,"route_color":"#FFFFFF","route_text_color":"#000000"},{"route_id":"19641","agency_id":"70006","route_short_name":"6","route_long_name":"Rosemont","route_type":3,"route_color":"#FFFFFF","route_text_color":"#000000"},{"route_id":"19644","agency_id":"70006","route_short_name":"12","route_long_name":"OFallon-Fairview Heights","route_type":3,"route_color":"#FFFFFF","route_text_color":"#000000"},{"route_id":"19645","agency_id":"70006","route_short_name":"13","route_long_name":"Caseyville","route_type":3,"route_color":"#FFFFFF","route_text_color":"#000000"}],"agency_name":"Metro St. Louis"},"geometry":{"type":"Point","coordinates":[-90.04828,38.5947]}},{"type":"Feature","properties":{"stop_id":"15304","stop_code":"15304","stop_name":"MAIN @ ST STEPHENS CHURCH SB","stop_desc":"MID-BLOCK MAIN @ ST STEPHENS CHURCH SB","wheelchair_boarding":2,"routes":[{"route_id":"19645","agency_id":"70006","route_short_name":"13","route_long_name":"Caseyville","route_type":3,"route_color":"#FFFFFF","route_text_color":"#000000"}],"agency_name":"Metro St. Louis"},"geometry":{"type":"Point","coordinates":[-90.03073,38.63016]}},{"type":"Feature","properties":{"stop_id":"15305","stop_code":"15305","stop_name":"MAIN @ BRADEN SB","stop_desc":"FAR SIDE MAIN @ BRADEN SB","wheelchair_boarding":2,"routes":[{"route_id":"19645","agency_id":"70006","route_short_name":"13","route_long_name":"Caseyville","route_type":3,"route_color":"#FFFFFF","route_text_color":"#000000"}],"agency_name":"Metro St. Louis"},"geometry":{"type":"Point","coordinates":[-90.03336,38.62726]}},{"type":"Feature","properties":{"stop_id":"15306","stop_code":"15306","stop_name":"ILLINOIS ROUTE 157 @ MAPLE SB","stop_desc":"FAR SIDE ILLINOIS ROUTE 157 @ MAPLE SB","wheelchair_boarding":2,"routes":[{"route_id":"19645","agency_id":"70006","route_short_name":"13","route_long_name":"Caseyville","route_type":3,"route_color":"#FFFFFF","route_text_color":"#000000"}],"agency_name":"Metro St. Louis"},"geometry":{"type":"Point","coordinates":[-90.04165,38.61891]}},{"type":"Feature","properties":{"stop_id":"15596","stop_code":"15596","stop_name":"MORRISON @ ST. CLAIR WB","stop_desc":"FAR SIDE MORRISON @ ST. CLAIR WB","wheelchair_boarding":2,"routes":[{"route_id":"19645","agency_id":"70006","route_short_name":"13","route_long_name":"Caseyville","route_type":3,"route_color":"#FFFFFF","route_text_color":"#000000"}],"agency_name":"Metro St. Louis"},"geometry":{"type":"Point","coordinates":[-89.99485,38.65004]}},{"type":"Feature","properties":{"stop_id":"15597","stop_code":"15597","stop_name":"MORRISON @ CARL WB","stop_desc":"FAR SIDE MORRISON @ CARL WB","wheelchair_boarding":2,"routes":[{"route_id":"19645","agency_id":"70006","route_short_name":"13","route_long_name":"Caseyville","route_type":3,"route_color":"#FFFFFF","route_text_color":"#000000"}],"agency_name":"Metro St. Louis"},"geometry":{"type":"Point","coordinates":[-89.99949,38.64881]}},{"type":"Feature","properties":{"stop_id":"15598","stop_code":"15598","stop_name":"MORRISON @ WENDLER WB","stop_desc":"FAR SIDE MORRISON @ WENDLER WB","wheelchair_boarding":2,"routes":[{"route_id":"19645","agency_id":"70006","route_short_name":"13","route_long_name":"Caseyville","route_type":3,"route_color":"#FFFFFF","route_text_color":"#000000"}],"agency_name":"Metro St. Louis"},"geometry":{"type":"Point","coordinates":[-90.00286,38.64794]}},{"type":"Feature","properties":{"stop_id":"15599","stop_code":"15599","stop_name":"MORRISON @ HEATHERWOOD WB","stop_desc":"FAR SIDE MORRISON @ HEATHERWOOD WB","wheelchair_boarding":2,"routes":[{"route_id":"19645","agency_id":"70006","route_short_name":"13","route_long_name":"Caseyville","route_type":3,"route_color":"#FFFFFF","route_text_color":"#000000"}],"agency_name":"Metro St. Louis"},"geometry":{"type":"Point","coordinates":[-90.00626,38.64706]}},{"type":"Feature","properties":{"stop_id":"15908","stop_code":"15908","stop_name":"MAIN @ SCATES SB","stop_desc":"NEAR SIDE MAIN @ SCATES SB","wheelchair_boarding":2,"routes":[{"route_id":"19645","agency_id":"70006","route_short_name":"13","route_long_name":"Caseyville","route_type":3,"route_color":"#FFFFFF","route_text_color":"#000000"}],"agency_name":"Metro St. Louis"},"geometry":{"type":"Point","coordinates":[-90.02432,38.63781]}},{"type":"Feature","properties":{"stop_id":"16342","stop_code":"16342","stop_name":"40 TUCKER WB","stop_desc":"MID-BLOCK 40 TUCKER WB","wheelchair_boarding":2,"routes":[{"route_id":"19645","agency_id":"70006","route_short_name":"13","route_long_name":"Caseyville","route_type":3,"route_color":"#FFFFFF","route_text_color":"#000000"}],"agency_name":"Metro St. Louis"},"geometry":{"type":"Point","coordinates":[-90.04982,38.61114]}},{"type":"Feature","properties":{"stop_id":"16343","stop_code":"16343","stop_name":"20 TUCKER WB","stop_desc":"MID-BLOCK 20 TUCKER WB","wheelchair_boarding":2,"routes":[{"route_id":"19645","agency_id":"70006","route_short_name":"13","route_long_name":"Caseyville","route_type":3,"route_color":"#FFFFFF","route_text_color":"#000000"}],"agency_name":"Metro St. Louis"},"geometry":{"type":"Point","coordinates":[-90.05521,38.61104]}},{"type":"Feature","properties":{"stop_id":"16344","stop_code":"16344","stop_name":"12 TUCKER","stop_desc":"MID-BLOCK 12 TUCKER","wheelchair_boarding":2,"routes":[{"route_id":"19645","agency_id":"70006","route_short_name":"13","route_long_name":"Caseyville","route_type":3,"route_color":"#FFFFFF","route_text_color":"#000000"}],"agency_name":"Metro St. Louis"},"geometry":{"type":"Point","coordinates":[-90.05794,38.61048]}},{"type":"Feature","properties":{"stop_id":"16345","stop_code":"16345","stop_name":"40 TUCKER EB","stop_desc":"MID-BLOCK 40 TUCKER EB","wheelchair_boarding":2,"routes":[{"route_id":"19645","agency_id":"70006","route_short_name":"13","route_long_name":"Caseyville","route_type":3,"route_color":"#FFFFFF","route_text_color":"#000000"}],"agency_name":"Metro St. Louis"},"geometry":{"type":"Point","coordinates":[-90.04985,38.61103]}}]}