{"type":"FeatureCollection","features":[{"type":"Feature","properties":{"agency_name":"Metro St. Louis","route_id":"19623","agency_id":"70006","route_short_name":"73","route_long_name":"Carondelet","route_type":3,"route_color":"#FFFFFF","route_text_color":"#000000"},"geometry":{"type":"MultiLineString","coordinates":[[[-90.20234,38.62544],[-90.20229,38.62554],[-90.20246,38.62515],[-90.20231,38.62495],[-90.20279,38.62373],[-90.20306,38.62309],[-90.20315,38.62283],[-90.20337,38.62232],[-90.20371,38.62141],[-90.2042,38.6203],[-90.20455,38.61933],[-90.20168,38.61876],[-90.20227,38.61719],[-90.20243,38.61687],[-90.20256,38.61668],[-90.20292,38.61627],[-90.20593,38.61302],[-90.20664,38.61227],[-90.2077,38.6111],[-90.20806,38.61073],[-90.20816,38.6106],[-90.2085,38.61023],[-90.20882,38.60963],[-90.20937,38.60835],[-90.21219,38.60211],[-90.21349,38.60027],[-90.21018,38.59933],[-90.20894,38.59901],[-90.20818,38.59879],[-90.20829,38.59851],[-90.20845,38.5982],[-90.20887,38.59763],[-90.20894,38.59751],[-90.20894,38.59735],[-90.21076,38.59513],[-90.21151,38.59417],[-90.21166,38.59402],[-90.21241,38.59306],[-90.21251,38.59297],[-90.2126,38.59294],[-90.21427,38.5918],[-90.21491,38.59144],[-90.21512,38.59128],[-90.21639,38.59061],[-90.2181,38.58994],[-90.21868,38.58976],[-90.21919,38.58966],[-90.22123,38.58936],[-90.22223,38.58911],[-90.22245,38.58902],[-90.22299,38.58873],[-90.22415,38.58801],[-90.22536,38.5873],[-90.22572,38.58706],[-90.22596,38.58684],[-90.22624,38.58653],[-90.22645,38.5862],[-90.22656,38.58607],[-90.22679,38.5859],[-90.22694,38.58574],[-90.22709,38.58551],[-90.22713,38.58524],[-90.22731,38.58434],[-90.22769,38.58256],[-90.22794,38.5813],[-90.228,38.58109],[-90.22809,38.58091],[-90.22822,38.58077],[-90.22994,38.57915],[-90.23297,38.57952],[-90.23983,38.5804],[-90.24109,38.58008],[-90.24268,38.57523],[-90.24453,38.56973],[-90.24655,38.5636],[-90.24659,38.56331],[-90.24657,38.5632],[-90.24654,38.56309],[-90.24635,38.56268],[-90.2462,38.5623],[-90.24617,38.56213],[-90.24619,38.5619],[-90.24724,38.56106],[-90.24913,38.5595],[-90.25102,38.55797],[-90.25422,38.55516],[-90.25503,38.55442],[-90.25753,38.55225],[-90.26075,38.54942],[-90.26082,38.54938],[-90.26102,38.54932],[-90.26225,38.54902],[-90.26374,38.54862],[-90.26486,38.54835],[-90.26628,38.54804],[-90.26675,38.54792],[-90.26739,38.54773],[-90.26781,38.54757],[-90.26813,38.5474],[-90.26848,38.54715],[-90.26972,38.54621],[-90.27031,38.54572],[-90.27089,38.54527],[-90.27282,38.5438],[-90.27298,38.5437],[-90.27329,38.54354],[-90.27422,38.54316],[-90.27482,38.54294],[-90.27635,38.54233],[-90.27909,38.54131],[-90.27965,38.54107],[-90.27988,38.54095],[-90.28031,38.54056],[-90.28058,38.54029],[-90.28187,38.53894],[-90.2823,38.53845],[-90.28262,38.53814],[-90.28314,38.53757],[-90.2834,38.53735],[-90.28362,38.53713],[-90.28533,38.53534],[-90.28655,38.53409],[-90.28713,38.53345],[-90.28783,38.53272],[-90.28842,38.53215],[-90.28874,38.5318],[-90.29287,38.52753],[-90.29335,38.52713],[-90.29555,38.52578],[-90.29758,38.52459],[-90.29992,38.52314],[-90.30262,38.52152],[-90.30386,38.52075],[-90.3066,38.51913],[-90.30742,38.51861],[-90.31283,38.51533],[-90.31358,38.51486],[-90.31678,38.51295],[-90.31843,38.51195],[-90.31945,38.51131],[-90.32,38.51099],[-90.32035,38.51075],[-90.32102,38.51021],[-90.32466,38.50709],[-90.32505,38.5068],[-90.32677,38.5053],[-90.32828,38.5041],[-90.32884,38.50464],[-90.32929,38.5051],[-90.32932,38.50522],[-90.33006,38.50502],[-90.3306,38.50449],[-90.33129,38.50473],[-90.33143,38.50485],[-90.33151,38.50489],[-90.33234,38.50519],[-90.33245,38.50542],[-90.33238,38.50558],[-90.33251,38.50566]]]}},{"type":"Feature","properties":{"stop_id":"14807","stop_code":"14807","stop_name":"CHOUTEAU @ 14TH STREET EB","stop_desc":"FAR SIDE CHOUTEAU @ 14TH STREET EB","wheelchair_boarding":1,"routes":[{"route_id":"19598","agency_id":"70006","route_short_name":"10","route_long_name":"Gravois-Lindell","route_type":3,"route_color":"#FFFFFF","route_text_color":"#000000"},{"route_id":"19605","agency_id":"70006","route_short_name":"30","route_long_name":"Arsenal","route_type":3,"route_color":"#FFFFFF","route_text_color":"#000000"},{"route_id":"19623","agency_id":"70006","route_short_name":"73","route_long_name":"Carondelet","route_type":3,"route_color":"#FFFFFF","route_text_color":"#000000"}],"agency_name":"Metro St. Louis"},"geometry":{"type":"Point","coordinates":[-90.20396,38.61915]}},{"type":"Feature","properties":{"stop_id":"15617","stop_code":"15617","stop_name":"LYNCH ST @ S 7TH ST","stop_desc":"NEAR SIDE LYNCH ST @ S 7TH ST","wheelchair_boarding":1,"routes":[{"route_id":"19623","agency_id":"70006","route_short_name":"73","route_long_name":"Carondelet","route_type":3,"route_color":"#FFFFFF","route_text_color":"#000000"}],"agency_name":"Metro St. Louis"},"geometry":{"type":"Point","coordinates":[-90.20926,38.59906]}},{"type":"Feature","properties":{"stop_id":"16339","stop_code":"16339","stop_name":"LYNCH @ 11TH STREET EB","stop_desc":"NEAR SIDE LYNCH @ 11TH STREET EB","wheelchair_boarding":1,"routes":[{"route_id":"19623","agency_id":"70006","route_short_name":"73","route_long_name":"Carondelet","route_type":3,"route_color":"#FFFFFF","route_text_color":"#000000"}],"agency_name":"Metro St. Louis"},"geometry":{"type":"Point","coordinates":[-90.21251,38.59994]}},{"type":"Feature","properties":{"stop_id":"249","stop_code":"249","stop_name":"CIVIC CENTER TRANSIT CENTER","wheelchair_boarding":1,"routes":[{"route_id":"19623","agency_id":"70006","route_short_name":"73","route_long_name":"Carondelet","route_type":3,"route_color":"#FFFFFF","route_text_color":"#000000"}],"agency_name":"Metro St. Louis"},"geometry":{"type":"Point","coordinates":[-90.20234,38.62545]}},{"type":"Feature","properties":{"stop_id":"3811","stop_code":"3811","stop_name":"12TH STREET @ RUSSELL SB","stop_desc":"NEAR SIDE 12TH STREET @ RUSSELL SB","wheelchair_boarding":1,"routes":[{"route_id":"19623","agency_id":"70006","route_short_name":"73","route_long_name":"Carondelet","route_type":3,"route_color":"#FFFFFF","route_text_color":"#000000"}],"agency_name":"Metro St. Louis"},"geometry":{"type":"Point","coordinates":[-90.20967,38.608]}},{"type":"Feature","properties":{"stop_id":"3814","stop_code":"3814","stop_name":"12TH STREET @ BARTON SB","stop_desc":"NEAR SIDE 12TH STREET @ BARTON SB","wheelchair_boarding":1,"routes":[{"route_id":"19623","agency_id":"70006","route_short_name":"73","route_long_name":"Carondelet","route_type":3,"route_color":"#FFFFFF","route_text_color":"#000000"}],"agency_name":"Metro St. Louis"},"geometry":{"type":"Point","coordinates":[-90.21133,38.60422]}},{"type":"Feature","properties":{"stop_id":"3815","stop_code":"3815","stop_name":"12TH STREET @ SIDNEY SB","stop_desc":"NEAR SIDE 12TH STREET @ SIDNEY SB","wheelchair_boarding":2,"routes":[{"route_id":"19623","agency_id":"70006","route_short_name":"73","route_long_name":"Carondelet","route_type":3,"route_color":"#FFFFFF","route_text_color":"#000000"}],"agency_name":"Metro St. Louis"},"geometry":{"type":"Point","coordinates":[-90.21217,38.60237]}},{"type":"Feature","properties":{"stop_id":"3840","stop_code":"3840","stop_name":"MERAMEC @ NEBRASKA WB","stop_desc":"NEAR SIDE MERAMEC @ NEBRASKA WB","wheelchair_boarding":1,"routes":[{"route_id":"19623","agency_id":"70006","route_short_name":"73","route_long_name":"Carondelet","route_type":3,"route_color":"#FFFFFF","route_text_color":"#000000"}],"agency_name":"Metro St. Louis"},"geometry":{"type":"Point","coordinates":[-90.2351,38.57981]}},{"type":"Feature","properties":{"stop_id":"3841","stop_code":"3841","stop_name":"MERAMEC @ MINNESOTA WB","stop_desc":"NEAR SIDE MERAMEC @ MINNESOTA WB","wheelchair_boarding":1,"routes":[{"route_id":"19623","agency_id":"70006","route_short_name":"73","route_long_name":"Carondelet","route_type":3,"route_color":"#FFFFFF","route_text_color":"#000000"}],"agency_name":"Metro St. Louis"},"geometry":{"type":"Point","coordinates":[-90.23719,38.5801]}},{"type":"Feature","properties":{"stop_id":"3844","stop_code":"3844","stop_name":"MERAMEC @ COMPTON WB","stop_desc":"FAR SIDE MERAMEC @ COMPTON WB","wheelchair_boarding":2,"routes":[{"route_id":"19623","agency_id":"70006","route_short_name":"73","route_long_name":"Carondelet","route_type":3,"route_color":"#FFFFFF","route_text_color":"#000000"}],"agency_name":"Metro St. Louis"},"geometry":{"type":"Point","coordinates":[-90.24004,38.58046]}},{"type":"Feature","properties":{"stop_id":"3846","stop_code":"3846","stop_name":"VIRGINIA @ OSCEOLA SB","stop_desc":"NEAR SIDE VIRGINIA @ OSCEOLA SB","wheelchair_boarding":1,"routes":[{"route_id":"19623","agency_id":"70006","route_short_name":"73","route_long_name":"Carondelet","route_type":3,"route_color":"#FFFFFF","route_text_color":"#000000"}],"agency_name":"Metro St. Louis"},"geometry":{"type":"Point","coordinates":[-90.24207,38.57732]}},{"type":"Feature","properties":{"stop_id":"3848","stop_code":"3848","stop_name":"VIRGINIA @ TAFT SB","stop_desc":"NEAR SIDE VIRGINIA @ TAFT SB","wheelchair_boarding":1,"routes":[{"route_id":"19623","agency_id":"70006","route_short_name":"73","route_long_name":"Carondelet","route_type":3,"route_color":"#FFFFFF","route_text_color":"#000000"}],"agency_name":"Metro St. Louis"},"geometry":{"type":"Point","coordinates":[-90.24291,38.57471]}},{"type":"Feature","properties":{"stop_id":"3849","stop_code":"3849","stop_name":"VIRGINIA @ MOUNT PLEASANT SB","stop_desc":"NEAR SIDE VIRGINIA @ MOUNT PLEASANT SB","wheelchair_boarding":2,"routes":[{"route_id":"19623","agency_id":"70006","route_short_name":"73","route_long_name":"Carondelet","route_type":3,"route_color":"#FFFFFF","route_text_color":"#000000"}],"agency_name":"Metro St. Louis"},"geometry":{"type":"Point","coordinates":[-90.2433,38.57359]}},{"type":"Feature","properties":{"stop_id":"3851","stop_code":"3851","stop_name":"VIRGINIA @ DELOR SB","stop_desc":"NEAR SIDE VIRGINIA @ DELOR SB","wheelchair_boarding":2,"routes":[{"route_id":"19623","agency_id":"70006","route_short_name":"73","route_long_name":"Carondelet","route_type":3,"route_color":"#FFFFFF","route_text_color":"#000000"}],"agency_name":"Metro St. Louis"},"geometry":{"type":"Point","coordinates":[-90.2443,38.57043]}},{"type":"Feature","properties":{"stop_id":"3853","stop_code":"3853","stop_name":"VIRGINIA @ WALSH SB","stop_desc":"NEAR SIDE VIRGINIA @ WALSH SB","wheelchair_boarding":2,"routes":[{"route_id":"19623","agency_id":"70006","route_short_name":"73","route_long_name":"Carondelet","route_type":3,"route_color":"#FFFFFF","route_text_color":"#000000"}],"agency_name":"Metro St. Louis"},"geometry":{"type":"Point","coordinates":[-90.24502,38.56821]}},{"type":"Feature","properties":{"stop_id":"3854","stop_code":"3854","stop_name":"VIRGINIA @ EILER SB","stop_desc":"NEAR SIDE VIRGINIA @ EILER SB","wheelchair_boarding":1,"routes":[{"route_id":"19623","agency_id":"70006","route_short_name":"73","route_long_name":"Carondelet","route_type":3,"route_color":"#FFFFFF","route_text_color":"#000000"}],"agency_name":"Metro St. Louis"},"geometry":{"type":"Point","coordinates":[-90.2459,38.56562]}},{"type":"Feature","properties":{"stop_id":"3858","stop_code":"3858","stop_name":"MICHIGAN @ BOWEN WB","stop_desc":"NEAR SIDE MICHIGAN @ BOWEN WB","wheelchair_boarding":1,"routes":[{"route_id":"19623","agency_id":"70006","route_short_name":"73","route_long_name":"Carondelet","route_type":3,"route_color":"#FFFFFF","route_text_color":"#000000"}],"agency_name":"Metro St. Louis"},"geometry":{"type":"Point","coordinates":[-90.24907,38.55965]}},{"type":"Feature","properties":{"stop_id":"3861","stop_code":"3861","stop_name":"MICHIGAN @ WILMINGTON WB","stop_desc":"NEAR SIDE MICHIGAN @ WILMINGTON WB","wheelchair_boarding":2,"routes":[{"route_id":"19623","agency_id":"70006","route_short_name":"73","route_long_name":"Carondelet","route_type":3,"route_color":"#FFFFFF","route_text_color":"#000000"}],"agency_name":"Metro St. Louis"},"geometry":{"type":"Point","coordinates":[-90.24717,38.56118]}},{"type":"Feature","properties":{"stop_id":"3863","stop_code":"3863","stop_name":"MICHIGAN @ HOLLY HILLS WB","stop_desc":"NEAR SIDE MICHIGAN @ HOLLY HILLS WB","wheelchair_boarding":1,"routes":[{"route_id":"19623","agency_id":"70006","route_short_name":"73","route_long_name":"Carondelet","route_type":3,"route_color":"#FFFFFF","route_text_color":"#000000"}],"agency_name":"Metro St. Louis"},"geometry":{"type":"Point","coordinates":[-90.25089,38.55814]}},{"type":"Feature","properties":{"stop_id":"3870","stop_code":"3870","stop_name":"MICHIGAN @ MOTT WB","stop_desc":"FAR SIDE MICHIGAN @ MOTT WB","wheelchair_boarding":1,"routes":[{"route_id":"19623","agency_id":"70006","route_short_name":"73","route_long_name":"Carondelet","route_type":3,"route_color":"#FFFFFF","route_text_color":"#000000"}],"agency_name":"Metro St. Louis"},"geometry":{"type":"Point","coordinates":[-90.25268,38.55659]}},{"type":"Feature","properties":{"stop_id":"3873","stop_code":"3873","stop_name":"MICHIGAN @ LOUGHBOROUGH WB","stop_desc":"NEAR SIDE MICHIGAN @ LOUGHBOROUGH WB","wheelchair_boarding":2,"routes":[{"route_id":"19623","agency_id":"70006","route_short_name":"73","route_long_name":"Carondelet","route_type":3,"route_color":"#FFFFFF","route_text_color":"#000000"}],"agency_name":"Metro St. Louis"},"geometry":{"type":"Point","coordinates":[-90.25495,38.55459]}},{"type":"Feature","properties":{"stop_id":"3875","stop_code":"3875","stop_name":"MICHIGAN @ NAGEL WB","stop_desc":"NEAR SIDE MICHIGAN @ NAGEL WB","wheelchair_boarding":2,"routes":[{"route_id":"19623","agency_id":"70006","route_short_name":"73","route_long_name":"Carondelet","route_type":3,"route_color":"#FFFFFF","route_text_color":"#000000"}],"agency_name":"Metro St. Louis"},"geometry":{"type":"Point","coordinates":[-90.25743,38.55242]}},{"type":"Feature","properties":{"stop_id":"3878","stop_code":"3878","stop_name":"IVORY @ STEINS WB","stop_desc":"FAR SIDE IVORY @ STEINS WB","wheelchair_boarding":1,"routes":[{"route_id":"19623","agency_id":"70006","route_short_name":"73","route_long_name":"Carondelet","route_type":3,"route_color":"#FFFFFF","route_text_color":"#000000"}],"agency_name":"Metro St. Louis"},"geometry":{"type":"Point","coordinates":[-90.26116,38.54935]}},{"type":"Feature","properties":{"stop_id":"3880","stop_code":"3880","stop_name":"IVORY @ COURTOIS WB","stop_desc":"NEAR SIDE IVORY @ COURTOIS WB","wheelchair_boarding":2,"routes":[{"route_id":"19623","agency_id":"70006","route_short_name":"73","route_long_name":"Carondelet","route_type":3,"route_color":"#FFFFFF","route_text_color":"#000000"}],"agency_name":"Metro St. Louis"},"geometry":{"type":"Point","coordinates":[-90.26353,38.54872]}},{"type":"Feature","properties":{"stop_id":"3882","stop_code":"3882","stop_name":"ALABAMA @ GERMANIA WB","stop_desc":"NEAR SIDE ALABAMA @ GERMANIA WB","wheelchair_boarding":1,"routes":[{"route_id":"19623","agency_id":"70006","route_short_name":"73","route_long_name":"Carondelet","route_type":3,"route_color":"#FFFFFF","route_text_color":"#000000"}],"agency_name":"Metro St. Louis"},"geometry":{"type":"Point","coordinates":[-90.26928,38.54668]}},{"type":"Feature","properties":{"stop_id":"3883","stop_code":"3883","stop_name":"LEMAY FERRY @ WEBER WB","stop_desc":"FAR SIDE LEMAY FERRY @ WEBER WB","wheelchair_boarding":2,"routes":[{"route_id":"19623","agency_id":"70006","route_short_name":"73","route_long_name":"Carondelet","route_type":3,"route_color":"#FFFFFF","route_text_color":"#000000"}],"agency_name":"Metro St. Louis"},"geometry":{"type":"Point","coordinates":[-90.27217,38.54437]}},{"type":"Feature","properties":{"stop_id":"3884","stop_code":"3884","stop_name":"LEMAY FERRY @ MILITARY WB","stop_desc":"FAR SIDE LEMAY FERRY @ MILITARY WB","wheelchair_boarding":1,"routes":[{"route_id":"19623","agency_id":"70006","route_short_name":"73","route_long_name":"Carondelet","route_type":3,"route_color":"#FFFFFF","route_text_color":"#000000"}],"agency_name":"Metro St. Louis"},"geometry":{"type":"Point","coordinates":[-90.27371,38.54343]}},{"type":"Feature","properties":{"stop_id":"3886","stop_code":"3886","stop_name":"LEMAY FERRY @ FANNIE WB","stop_desc":"FAR SIDE LEMAY FERRY @ FANNIE WB","wheelchair_boarding":2,"routes":[{"route_id":"19623","agency_id":"70006","route_short_name":"73","route_long_name":"Carondelet","route_type":3,"route_color":"#FFFFFF","route_text_color":"#000000"}],"agency_name":"Metro St. Louis"},"geometry":{"type":"Point","coordinates":[-90.27667,38.54227]}},{"type":"Feature","properties":{"stop_id":"3888","stop_code":"3888","stop_name":"LEMAY FERRY @ HORN WB","stop_desc":"NEAR SIDE LEMAY FERRY @ HORN WB","wheelchair_boarding":1,"routes":[{"route_id":"19623","agency_id":"70006","route_short_name":"73","route_long_name":"Carondelet","route_type":3,"route_color":"#FFFFFF","route_text_color":"#000000"}],"agency_name":"Metro St. Louis"},"geometry":{"type":"Point","coordinates":[-90.28058,38.54035]}},{"type":"Feature","properties":{"stop_id":"3890","stop_code":"3890","stop_name":"LEMAY FERRY @ HOFFMEISTER WB","stop_desc":"NEAR SIDE LEMAY FERRY @ HOFFMEISTER WB","wheelchair_boarding":2,"routes":[{"route_id":"19623","agency_id":"70006","route_short_name":"73","route_long_name":"Carondelet","route_type":3,"route_color":"#FFFFFF","route_text_color":"#000000"}],"agency_name":"Metro St. Louis"},"geometry":{"type":"Point","coordinates":[-90.28257,38.53829]}},{"type":"Feature","properties":{"stop_id":"3893","stop_code":"3893","stop_name":"LEMAY FERRY @ TELEGRAPH WB","stop_desc":"NEAR SIDE LEMAY FERRY @ TELEGRAPH WB","wheelchair_boarding":1,"routes":[{"route_id":"19623","agency_id":"70006","route_short_name":"73","route_long_name":"Carondelet","route_type":3,"route_color":"#FFFFFF","route_text_color":"#000000"}],"agency_name":"Metro St. Louis"},"geometry":{"type":"Point","coordinates":[-90.28651,38.53419]}},{"type":"Feature","properties":{"stop_id":"3894","stop_code":"3894","stop_name":"LEMAY FERRY @ POINT WB","stop_desc":"FAR SIDE LEMAY FERRY @ POINT WB","wheelchair_boarding":2,"routes":[{"route_id":"19623","agency_id":"70006","route_short_name":"73","route_long_name":"Carondelet","route_type":3,"route_color":"#FFFFFF","route_text_color":"#000000"}],"agency_name":"Metro St. Louis"},"geometry":{"type":"Point","coordinates":[-90.28834,38.53228]}},{"type":"Feature","properties":{"stop_id":"3897","stop_code":"3897","stop_name":"LEMAY FERRY @ LEMAY GARDENS WB","stop_desc":"FAR SIDE LEMAY FERRY @ LEMAY GARDENS WB","wheelchair_boarding":2,"routes":[{"route_id":"19623","agency_id":"70006","route_short_name":"73","route_long_name":"Carondelet","route_type":3,"route_color":"#FFFFFF","route_text_color":"#000000"}],"agency_name":"Metro St. Louis"},"geometry":{"type":"Point","coordinates":[-90.29215,38.52837]}},{"type":"Feature","properties":{"stop_id":"3899","stop_code":"3899","stop_name":"LEMAY FERRY @ VESCOVO WB","stop_desc":"NEAR SIDE LEMAY FERRY @ VESCOVO WB","wheelchair_boarding":2,"routes":[{"route_id":"19623","agency_id":"70006","route_short_name":"73","route_long_name":"Carondelet","route_type":3,"route_color":"#FFFFFF","route_text_color":"#000000"}],"agency_name":"Metro St. Louis"},"geometry":{"type":"Point","coordinates":[-90.2946,38.52644]}},{"type":"Feature","properties":{"stop_id":"3901","stop_code":"3901","stop_name":"LEMAY FERRY @ REAVIS BARRACKS WB","stop_desc":"NEAR SIDE LEMAY FERRY @ REAVIS BARRACKS WB","wheelchair_boarding":1,"routes":[{"route_id":"19623","agency_id":"70006","route_short_name":"73","route_long_name":"Carondelet","route_type":3,"route_color":"#FFFFFF","route_text_color":"#000000"}],"agency_name":"Metro St. Louis"},"geometry":{"type":"Point","coordinates":[-90.29841,38.5242]}},{"type":"Feature","properties":{"stop_id":"3902","stop_code":"3902","stop_name":"LEMAY FERRY @ NAVAJO WB","stop_desc":"FAR SIDE LEMAY FERRY @ NAVAJO WB","wheelchair_boarding":2,"routes":[{"route_id":"19623","agency_id":"70006","route_short_name":"73","route_long_name":"Carondelet","route_type":3,"route_color":"#FFFFFF","route_text_color":"#000000"}],"agency_name":"Metro St. Louis"},"geometry":{"type":"Point","coordinates":[-90.30096,38.52264]}},{"type":"Feature","properties":{"stop_id":"3903","stop_code":"3903","stop_name":"LEMAY FERRY @ LEMAY PLAZA WB","stop_desc":"NEAR SIDE LEMAY FERRY @ LEMAY PLAZA WB","wheelchair_boarding":1,"routes":[{"route_id":"19623","agency_id":"70006","route_short_name":"73","route_long_name":"Carondelet","route_type":3,"route_color":"#FFFFFF","route_text_color":"#000000"}],"agency_name":"Metro St. Louis"},"geometry":{"type":"Point","coordinates":[-90.30383,38.52088]}},{"type":"Feature","properties":{"stop_id":"3904","stop_code":"3904","stop_name":"LEMAY FERRY @ BUCKLEY WB","stop_desc":"FAR SIDE LEMAY FERRY @ BUCKLEY WB","wheelchair_boarding":2,"routes":[{"route_id":"19623","agency_id":"70006","route_short_name":"73","route_long_name":"Carondelet","route_type":3,"route_color":"#FFFFFF","route_text_color":"#000000"}],"agency_name":"Metro St. Louis"},"geometry":{"type":"Point","coordinates":[-90.30699,38.51902]}},{"type":"Feature","properties":{"stop_id":"3905","stop_code":"3905","stop_name":"LEMAY FERRY @ HALLMARK WB","stop_desc":"NEAR SIDE LEMAY FERRY @ HALLMARK WB","wheelchair_boarding":2,"routes":[{"route_id":"19623","agency_id":"70006","route_short_name":"73","route_long_name":"Carondelet","route_type":3,"route_color":"#FFFFFF","route_text_color":"#000000"}],"agency_name":"Metro St. Louis"},"geometry":{"type":"Point","coordinates":[-90.31101,38.51652]}},{"type":"Feature","properties":{"stop_id":"3906","stop_code":"3906","stop_name":"LEMAY FERRY @ WILL WB","stop_desc":"FAR SIDE LEMAY FERRY @ WILL WB","wheelchair_boarding":1,"routes":[{"route_id":"19623","agency_id":"70006","route_short_name":"73","route_long_name":"Carondelet","route_type":3,"route_color":"#FFFFFF","route_text_color":"#000000"}],"agency_name":"Metro St. Louis"},"geometry":{"type":"Point","coordinates":[-90.31397,38.51476]}},{"type":"Feature","properties":{"stop_id":"3909","stop_code":"3909","stop_name":"3601 LEMAY FERRY WB","stop_desc":"MID-BLOCK 3601 LEMAY FERRY WB","wheelchair_boarding":1,"routes":[{"route_id":"19623","agency_id":"70006","route_short_name":"73","route_long_name":"Carondelet","route_type":3,"route_color":"#FFFFFF","route_text_color":"#000000"}],"agency_name":"Metro St. Louis"},"geometry":{"type":"Point","coordinates":[-90.32059,38.51069]}},{"type":"Feature","properties":{"stop_id":"3911","stop_code":"3911","stop_name":"3897 LEMAY FERRY WB","stop_desc":"MID-BLOCK 3897 LEMAY FERRY WB","wheelchair_boarding":2,"routes":[{"route_id":"19623","agency_id":"70006","route_short_name":"73","route_long_name":"Carondelet","route_type":3,"route_color":"#FFFFFF","route_text_color":"#000000"}],"agency_name":"Metro St. Louis"},"geometry":{"type":"Point","coordinates":[-90.32433,38.50752]}},{"type":"Feature","properties":{"stop_id":"3912","stop_code":"3912","stop_name":"4103 LEMAY FERRY WB","stop_desc":"MID-BLOCK 4103 LEMAY FERRY WB","wheelchair_boarding":1,"routes":[{"route_id":"19614","agency_id":"70006","route_short_name":"49","route_long_name":"Lindbergh","route_type":3,"route_color":"#FFFFFF","route_text_color":"#000000"},{"route_id":"19623","agency_id":"70006","route_short_name":"73","route_long_name":"Carondelet","route_type":3,"route_color":"#FFFFFF","route_text_color":"#000000"}],"agency_name":"Metro St. Louis"},"geometry":{"type":"Point","coordinates":[-90.32709,38.5052]}},{"type":"Feature","properties":{"stop_id":"3913","stop_code":"3913","stop_name":"SOUTH COUNTY CENTER","stop_desc":"MID-BLOCK SOUTH COUNTY CENTER","wheelchair_boarding":1,"routes":[{"route_id":"19614","agency_id":"70006","route_short_name":"49","route_long_name":"Lindbergh","route_type":3,"route_color":"#FFFFFF","route_text_color":"#000000"},{"route_id":"19623","agency_id":"70006","route_short_name":"73","route_long_name":"Carondelet","route_type":3,"route_color":"#FFFFFF","route_text_color":"#000000"}],"agency_name":"Metro St. Louis"},"geometry":{"type":"Point","coordinates":[-90.33308,38.50581]}},{"type":"Feature","properties":{"stop_id":"4106","stop_code":"4106","stop_name":"BROADWAY @ GASCONADE SB","stop_desc":"FAR SIDE BROADWAY @ GASCONADE SB","wheelchair_boarding":2,"routes":[{"route_id":"19596","agency_id":"70006","route_short_name":"8","route_long_name":"Shaw-Cherokee","route_type":3,"route_color":"#FFFFFF","route_text_color":"#000000"},{"route_id":"19623","agency_id":"70006","route_short_name":"73","route_long_name":"Carondelet","route_type":3,"route_color":"#FFFFFF","route_text_color":"#000000"}],"agency_name":"Metro St. Louis"},"geometry":{"type":"Point","coordinates":[-90.22863,38.58051]}},{"type":"Feature","properties":{"stop_id":"4107","stop_code":"4107","stop_name":"MERAMEC @ OHIO WB","stop_desc":"NEAR SIDE MERAMEC @ OHIO WB","wheelchair_boarding":1,"routes":[{"route_id":"19623","agency_id":"70006","route_short_name":"73","route_long_name":"Carondelet","route_type":3,"route_color":"#FFFFFF","route_text_color":"#000000"}],"agency_name":"Metro St. Louis"},"geometry":{"type":"Point","coordinates":[-90.23034,38.57924]}},{"type":"Feature","properties":{"stop_id":"4109","stop_code":"4109","stop_name":"MERAMEC @ CALIFORNIA WB","stop_desc":"NEAR SIDE MERAMEC @ CALIFORNIA WB","wheelchair_boarding":1,"routes":[{"route_id":"19623","agency_id":"70006","route_short_name":"73","route_long_name":"Carondelet","route_type":3,"route_color":"#FFFFFF","route_text_color":"#000000"}],"agency_name":"Metro St. Louis"},"geometry":{"type":"Point","coordinates":[-90.23278,38.57952]}},{"type":"Feature","properties":{"stop_id":"6450","stop_code":"6450","stop_name":"BROADWAY @ WYOMING SB","stop_desc":"NEAR SIDE BROADWAY @ WYOMING SB","wheelchair_boarding":1,"routes":[{"route_id":"19623","agency_id":"70006","route_short_name":"73","route_long_name":"Carondelet","route_type":3,"route_color":"#FFFFFF","route_text_color":"#000000"}],"agency_name":"Metro St. Louis"},"geometry":{"type":"Point","coordinates":[-90.21158,38.59424]}},{"type":"Feature","properties":{"stop_id":"6453","stop_code":"6453","stop_name":"BROADWAY @ POTOMAC SB","stop_desc":"NEAR SIDE BROADWAY @ POTOMAC SB","wheelchair_boarding":1,"routes":[{"route_id":"19623","agency_id":"70006","route_short_name":"73","route_long_name":"Carondelet","route_type":3,"route_color":"#FFFFFF","route_text_color":"#000000"}],"agency_name":"Metro St. Louis"},"geometry":{"type":"Point","coordinates":[-90.21654,38.59061]}},{"type":"Feature","properties":{"stop_id":"6454","stop_code":"6454","stop_name":"BROADWAY @ LEMP SB","stop_desc":"NEAR SIDE BROADWAY @ LEMP SB","wheelchair_boarding":1,"routes":[{"route_id":"19623","agency_id":"70006","route_short_name":"73","route_long_name":"Carondelet","route_type":3,"route_color":"#FFFFFF","route_text_color":"#000000"}],"agency_name":"Metro St. Louis"},"geometry":{"type":"Point","coordinates":[-90.21867,38.58984]}},{"type":"Feature","properties":{"stop_id":"6456","stop_code":"6456","stop_name":"BROADWAY @ MIAMI SB","stop_desc":"FAR SIDE BROADWAY @ MIAMI SB","wheelchair_boarding":1,"routes":[{"route_id":"19623","agency_id":"70006","route_short_name":"73","route_long_name":"Carondelet","route_type":3,"route_color":"#FFFFFF","route_text_color":"#000000"}],"agency_name":"Metro St. Louis"},"geometry":{"type":"Point","coordinates":[-90.22247,38.58909]}},{"type":"Feature","properties":{"stop_id":"6458","stop_code":"6458","stop_name":"BROADWAY @ KEOKUK SB","stop_desc":"FAR SIDE BROADWAY @ KEOKUK SB","wheelchair_boarding":1,"routes":[{"route_id":"19596","agency_id":"70006","route_short_name":"8","route_long_name":"Shaw-Cherokee","route_type":3,"route_color":"#FFFFFF","route_text_color":"#000000"},{"route_id":"19623","agency_id":"70006","route_short_name":"73","route_long_name":"Carondelet","route_type":3,"route_color":"#FFFFFF","route_text_color":"#000000"}],"agency_name":"Metro St. Louis"},"geometry":{"type":"Point","coordinates":[-90.2275,38.58404]}},{"type":"Feature","properties":{"stop_id":"721","stop_code":"721","stop_name":"VIRGINIA @ BATES SB","stop_desc":"NEAR SIDE VIRGINIA @ BATES SB","wheelchair_boarding":2,"routes":[{"route_id":"19623","agency_id":"70006","route_short_name":"73","route_long_name":"Carondelet","route_type":3,"route_color":"#FFFFFF","route_text_color":"#000000"}],"agency_name":"Metro St. Louis"},"geometry":{"type":"Point","coordinates":[-90.24629,38.56456]}},{"type":"Feature","properties":{"stop_id":"8668","stop_code":"8668","stop_name":"BROADWAY @ CHIPPEWA SB","stop_desc":"NEAR SIDE BROADWAY @ CHIPPEWA SB","wheelchair_boarding":1,"routes":[{"route_id":"19599","agency_id":"70006","route_short_name":"11","route_long_name":"Chippewa","route_type":3,"route_color":"#FFFFFF","route_text_color":"#000000"},{"route_id":"19623","agency_id":"70006","route_short_name":"73","route_long_name":"Carondelet","route_type":3,"route_color":"#FFFFFF","route_text_color":"#000000"}],"agency_name":"Metro St. Louis"},"geometry":{"type":"Point","coordinates":[-90.22642,38.58643]}},{"type":"Feature","properties":{"stop_id":"8847","stop_code":"8847","stop_name":"TUCKER @ HICKORY SB","stop_desc":"NEAR SIDE TUCKER @ HICKORY SB","wheelchair_boarding":2,"routes":[{"route_id":"19598","agency_id":"70006","route_short_name":"10","route_long_name":"Gravois-Lindell","route_type":3,"route_color":"#FFFFFF","route_text_color":"#000000"},{"route_id":"19623","agency_id":"70006","route_short_name":"73","route_long_name":"Carondelet","route_type":3,"route_color":"#FFFFFF","route_text_color":"#000000"}],"agency_name":"Metro St. Louis"},"geometry":{"type":"Point","coordinates":[-90.20245,38.617]}},{"type":"Feature","properties":{"stop_id":"8848","stop_code":"8848","stop_name":"TUCKER @ PARK SB","stop_desc":"FAR SIDE TUCKER @ PARK SB","wheelchair_boarding":2,"routes":[{"route_id":"19598","agency_id":"70006","route_short_name":"10","route_long_name":"Gravois-Lindell","route_type":3,"route_color":"#FFFFFF","route_text_color":"#000000"},{"route_id":"19623","agency_id":"70006","route_short_name":"73","route_long_name":"Carondelet","route_type":3,"route_color":"#FFFFFF","route_text_color":"#000000"}],"agency_name":"Metro St. Louis"},"geometry":{"type":"Point","coordinates":[-90.20465,38.61456]}},{"type":"Feature","properties":{"stop_id":"8849","stop_code":"8849","stop_name":"TUCKER @ LAFAYETTE SB","stop_desc":"FAR SIDE TUCKER @ LAFAYETTE SB","wheelchair_boarding":2,"routes":[{"route_id":"19598","agency_id":"70006","route_short_name":"10","route_long_name":"Gravois-Lindell","route_type":3,"route_color":"#FFFFFF","route_text_color":"#000000"},{"route_id":"19623","agency_id":"70006","route_short_name":"73","route_long_name":"Carondelet","route_type":3,"route_color":"#FFFFFF","route_text_color":"#000000"}],"agency_name":"Metro St. Louis"},"geometry":{"type":"Point","coordinates":[-90.20651,38.61256]}},{"type":"Feature","properties":{"stop_id":"9310","stop_code":"9310","stop_name":"BROADWAY @ DORCAS SB","stop_desc":"FAR SIDE BROADWAY @ DORCAS SB","wheelchair_boarding":1,"routes":[{"route_id":"19605","agency_id":"70006","route_short_name":"30","route_long_name":"Arsenal","route_type":3,"route_color":"#FFFFFF","route_text_color":"#000000"},{"route_id":"19623","agency_id":"70006","route_short_name":"73","route_long_name":"Carondelet","route_type":3,"route_color":"#FFFFFF","route_text_color":"#000000"}],"agency_name":"Metro St. Louis"},"geometry":{"type":"Point","coordinates":[-90.20946,38.59688]}}]}