{"type":"FeatureCollection","features":[{"type":"Feature","properties":{"agency_name":"Metro St. Louis","route_id":"19608","agency_id":"70006","route_short_name":"33","route_long_name":"Midland","route_type":3,"route_color":"#FFFFFF","route_text_color":"#000000"},"geometry":{"type":"MultiLineString","coordinates":[[[-90.34024,38.64605],[-90.34024,38.64602],[-90.3398,38.64907],[-90.33825,38.65025],[-90.33407,38.6499],[-90.33361,38.65332],[-90.33349,38.65403],[-90.33311,38.65664],[-90.33275,38.65886],[-90.33625,38.6592],[-90.33748,38.6593],[-90.33865,38.65943],[-90.34147,38.65969],[-90.34237,38.65979],[-90.3488,38.66042],[-90.35288,38.66079],[-90.35655,38.6608],[-90.35711,38.66082],[-90.35714,38.66106],[-90.35715,38.66207],[-90.35714,38.67147],[-90.35708,38.67189],[-90.35695,38.67226],[-90.35679,38.67262],[-90.35672,38.67286],[-90.35666,38.6732],[-90.35664,38.67346],[-90.35663,38.67519],[-90.35661,38.67595],[-90.35662,38.6761],[-90.35666,38.67627],[-90.35697,38.67678],[-90.357,38.67695],[-90.35702,38.67825],[-90.35701,38.68008],[-90.35702,38.68046],[-90.35705,38.68068],[-90.35711,38.68087],[-90.35718,38.68101],[-90.35735,38.68124],[-90.35756,38.68145],[-90.36128,38.68463],[-90.36141,38.68479],[-90.36151,38.68497],[-90.36162,38.68525],[-90.36173,38.68576],[-90.36192,38.68708],[-90.36207,38.68776],[-90.36244,38.68965],[-90.36277,38.69148],[-90.36319,38.69366],[-90.36324,38.69395],[-90.36325,38.69429],[-90.36284,38.69676],[-90.36248,38.69876],[-90.36205,38.70152],[-90.36168,38.70377],[-90.3615,38.7047],[-90.36148,38.70496],[-90.36237,38.70612],[-90.36281,38.70658],[-90.36305,38.70679],[-90.36331,38.70698],[-90.36384,38.70733],[-90.36476,38.70776],[-90.36509,38.70788],[-90.36572,38.70803],[-90.36646,38.70815],[-90.36764,38.70825],[-90.36838,38.70824],[-90.3689,38.70819],[-90.36926,38.70813],[-90.37006,38.70796],[-90.37056,38.70781],[-90.37116,38.7076],[-90.37302,38.70688],[-90.37352,38.70671],[-90.37831,38.70491],[-90.3786,38.70482],[-90.3795,38.70461],[-90.37976,38.70457],[-90.38076,38.70449],[-90.38156,38.70449],[-90.38273,38.70454],[-90.38385,38.70463],[-90.38525,38.70477],[-90.3866,38.70485],[-90.38714,38.70478],[-90.38956,38.70456],[-90.39014,38.70452],[-90.39213,38.70432],[-90.39287,38.70427],[-90.39319,38.70423],[-90.39369,38.70413],[-90.39403,38.70404],[-90.3979,38.70288],[-90.39822,38.70281],[-90.39865,38.70275],[-90.39897,38.70273],[-90.39966,38.70275],[-90.40005,38.7028],[-90.40055,38.7029],[-90.40125,38.70313],[-90.40385,38.70424],[-90.40433,38.70445],[-90.4046,38.70459],[-90.4049,38.70475],[-90.40546,38.7051],[-90.40579,38.70536],[-90.40698,38.70644],[-90.40723,38.70662],[-90.40775,38.70696],[-90.40828,38.70723],[-90.40915,38.70755],[-90.40989,38.70777],[-90.41057,38.70789],[-90.41219,38.708],[-90.41302,38.70812],[-90.4134,38.70821],[-90.41376,38.70832],[-90.41429,38.70852],[-90.4146,38.70866],[-90.41507,38.70892],[-90.41581,38.70945],[-90.41631,38.70985],[-90.41735,38.71075],[-90.41765,38.71102],[-90.41797,38.71137],[-90.41857,38.71213],[-90.41896,38.71249],[-90.4191,38.71259],[-90.41954,38.71283],[-90.4218,38.71374],[-90.42327,38.71435],[-90.42369,38.71445],[-90.42415,38.71452],[-90.42449,38.71453],[-90.42742,38.71454],[-90.43203,38.71455],[-90.43295,38.71453],[-90.44396,38.71452],[-90.44404,38.71275],[-90.44523,38.71288],[-90.44548,38.71298],[-90.44554,38.71303],[-90.44556,38.71309],[-90.44572,38.71316],[-90.44586,38.71311],[-90.44591,38.713],[-90.44588,38.71292],[-90.44582,38.71286],[-90.44572,38.71285],[-90.44561,38.71287],[-90.44533,38.71287]]]}},{"type":"Feature","properties":{"stop_id":"13549","stop_code":"13549","stop_name":"FORSYTH @ CENTRAL EB","stop_desc":"NEAR SIDE FORSYTH @ CENTRAL EB","wheelchair_boarding":1,"routes":[{"route_id":"19608","agency_id":"70006","route_short_name":"33","route_long_name":"Midland","route_type":3,"route_color":"#FFFFFF","route_text_color":"#000000"},{"route_id":"19628","agency_id":"70006","route_short_name":"79","route_long_name":"Ferguson-Clayton","route_type":3,"route_color":"#FFFFFF","route_text_color":"#000000"},{"route_id":"19633","agency_id":"70006","route_short_name":"97","route_long_name":"Delmar","route_type":3,"route_color":"#FFFFFF","route_text_color":"#000000"}],"agency_name":"Metro St. Louis"},"geometry":{"type":"Point","coordinates":[-90.33869,38.65025]}},{"type":"Feature","properties":{"stop_id":"13557","stop_code":"13557","stop_name":"MIDLAND @ HARRIET WALK WB","stop_desc":"FAR SIDE MIDLAND @ HARRIET WALK WB","wheelchair_boarding":2,"routes":[{"route_id":"19608","agency_id":"70006","route_short_name":"33","route_long_name":"Midland","route_type":3,"route_color":"#FFFFFF","route_text_color":"#000000"},{"route_id":"19614","agency_id":"70006","route_short_name":"49","route_long_name":"Lindbergh","route_type":3,"route_color":"#FFFFFF","route_text_color":"#000000"}],"agency_name":"Metro St. Louis"},"geometry":{"type":"Point","coordinates":[-90.39464,38.7039]}},{"type":"Feature","properties":{"stop_id":"14425","stop_code":"14425","stop_name":"CLAYTON TRANSIT CENTER","wheelchair_boarding":1,"routes":[{"route_id":"19608","agency_id":"70006","route_short_name":"33","route_long_name":"Midland","route_type":3,"route_color":"#FFFFFF","route_text_color":"#000000"},{"route_id":"19617","agency_id":"70006","route_short_name":"58","route_long_name":"Chesterfield Valley","route_type":3,"route_color":"#FFFFFF","route_text_color":"#000000"}],"agency_name":"Metro St. Louis"},"geometry":{"type":"Point","coordinates":[-90.34009,38.64597]}},{"type":"Feature","properties":{"stop_id":"14672","stop_code":"14672","stop_name":"MERAMEC @ CARONDELET NB","stop_desc":"NEAR SIDE MERAMEC @ CARONDELET NB","wheelchair_boarding":1,"routes":[{"route_id":"19608","agency_id":"70006","route_short_name":"33","route_long_name":"Midland","route_type":3,"route_color":"#FFFFFF","route_text_color":"#000000"},{"route_id":"19628","agency_id":"70006","route_short_name":"79","route_long_name":"Ferguson-Clayton","route_type":3,"route_color":"#FFFFFF","route_text_color":"#000000"},{"route_id":"19633","agency_id":"70006","route_short_name":"97","route_long_name":"Delmar","route_type":3,"route_color":"#FFFFFF","route_text_color":"#000000"}],"agency_name":"Metro St. Louis"},"geometry":{"type":"Point","coordinates":[-90.33974,38.64883]}},{"type":"Feature","properties":{"stop_id":"15800","stop_code":"15800","stop_name":"DORSETT @ READING WB","stop_desc":"NEAR SIDE DORSETT @ READING WB","wheelchair_boarding":1,"routes":[{"route_id":"19608","agency_id":"70006","route_short_name":"33","route_long_name":"Midland","route_type":3,"route_color":"#FFFFFF","route_text_color":"#000000"}],"agency_name":"Metro St. Louis"},"geometry":{"type":"Point","coordinates":[-90.42697,38.7146]}},{"type":"Feature","properties":{"stop_id":"15826","stop_code":"15826","stop_name":"DORSETT @ SCHUETZ WB","stop_desc":"FAR SIDE DORSETT @ SCHUETZ WB","wheelchair_boarding":2,"routes":[{"route_id":"19608","agency_id":"70006","route_short_name":"33","route_long_name":"Midland","route_type":3,"route_color":"#FFFFFF","route_text_color":"#000000"}],"agency_name":"Metro St. Louis"},"geometry":{"type":"Point","coordinates":[-90.4325,38.71462]}},{"type":"Feature","properties":{"stop_id":"15828","stop_code":"15828","stop_name":"DORSETT @ METRO WB","stop_desc":"NEAR SIDE DORSETT @ METRO WB","wheelchair_boarding":2,"routes":[{"route_id":"19608","agency_id":"70006","route_short_name":"33","route_long_name":"Midland","route_type":3,"route_color":"#FFFFFF","route_text_color":"#000000"}],"agency_name":"Metro St. Louis"},"geometry":{"type":"Point","coordinates":[-90.43914,38.71461]}},{"type":"Feature","properties":{"stop_id":"15829","stop_code":"15829","stop_name":"DORSETT @ MILLWELL WB","stop_desc":"FAR SIDE DORSETT @ MILLWELL WB","wheelchair_boarding":2,"routes":[{"route_id":"19608","agency_id":"70006","route_short_name":"33","route_long_name":"Midland","route_type":3,"route_color":"#FFFFFF","route_text_color":"#000000"}],"agency_name":"Metro St. Louis"},"geometry":{"type":"Point","coordinates":[-90.43731,38.7146]}},{"type":"Feature","properties":{"stop_id":"15937","stop_code":"15937","stop_name":"PROGRESS PARKWAY @ DORSETT SB","stop_desc":"FAR SIDE PROGRESS PARKWAY @ DORSETT SB","wheelchair_boarding":2,"routes":[{"route_id":"19608","agency_id":"70006","route_short_name":"33","route_long_name":"Midland","route_type":3,"route_color":"#FFFFFF","route_text_color":"#000000"}],"agency_name":"Metro St. Louis"},"geometry":{"type":"Point","coordinates":[-90.44409,38.7138]}},{"type":"Feature","properties":{"stop_id":"16305","stop_code":"16305","stop_name":"MIDLAND @ BRUNO WB","stop_desc":"FAR SIDE MIDLAND @ BRUNO WB","wheelchair_boarding":2,"routes":[{"route_id":"19608","agency_id":"70006","route_short_name":"33","route_long_name":"Midland","route_type":3,"route_color":"#FFFFFF","route_text_color":"#000000"},{"route_id":"19614","agency_id":"70006","route_short_name":"49","route_long_name":"Lindbergh","route_type":3,"route_color":"#FFFFFF","route_text_color":"#000000"}],"agency_name":"Metro St. Louis"},"geometry":{"type":"Point","coordinates":[-90.40137,38.70327]}},{"type":"Feature","properties":{"stop_id":"2043","stop_code":"2043","stop_name":"DELMAR @ HANLEY WB","stop_desc":"FAR SIDE DELMAR @ HANLEY WB","wheelchair_boarding":2,"routes":[{"route_id":"19608","agency_id":"70006","route_short_name":"33","route_long_name":"Midland","route_type":3,"route_color":"#FFFFFF","route_text_color":"#000000"}],"agency_name":"Metro St. Louis"},"geometry":{"type":"Point","coordinates":[-90.33354,38.65902]}},{"type":"Feature","properties":{"stop_id":"2045","stop_code":"2045","stop_name":"DELMAR @ NORTH AND SOUTH WB","stop_desc":"FAR SIDE DELMAR @ NORTH AND SOUTH WB","wheelchair_boarding":2,"routes":[{"route_id":"19608","agency_id":"70006","route_short_name":"33","route_long_name":"Midland","route_type":3,"route_color":"#FFFFFF","route_text_color":"#000000"}],"agency_name":"Metro St. Louis"},"geometry":{"type":"Point","coordinates":[-90.3382,38.65948]}},{"type":"Feature","properties":{"stop_id":"2048","stop_code":"2048","stop_name":"DELMAR @ CENTER WB","stop_desc":"NEAR SIDE DELMAR @ CENTER WB","wheelchair_boarding":1,"routes":[{"route_id":"19608","agency_id":"70006","route_short_name":"33","route_long_name":"Midland","route_type":3,"route_color":"#FFFFFF","route_text_color":"#000000"}],"agency_name":"Metro St. Louis"},"geometry":{"type":"Point","coordinates":[-90.34422,38.66004]}},{"type":"Feature","properties":{"stop_id":"2049","stop_code":"2049","stop_name":"DELMAR @ OLD BONHOMME WB","stop_desc":"FAR SIDE DELMAR @ OLD BONHOMME WB","wheelchair_boarding":2,"routes":[{"route_id":"19608","agency_id":"70006","route_short_name":"33","route_long_name":"Midland","route_type":3,"route_color":"#FFFFFF","route_text_color":"#000000"}],"agency_name":"Metro St. Louis"},"geometry":{"type":"Point","coordinates":[-90.34966,38.66058]}},{"type":"Feature","properties":{"stop_id":"2051","stop_code":"2051","stop_name":"DELMAR @ BERICK WB","stop_desc":"NEAR SIDE DELMAR @ BERICK WB","wheelchair_boarding":2,"routes":[{"route_id":"19608","agency_id":"70006","route_short_name":"33","route_long_name":"Midland","route_type":3,"route_color":"#FFFFFF","route_text_color":"#000000"}],"agency_name":"Metro St. Louis"},"geometry":{"type":"Point","coordinates":[-90.35542,38.66089]}},{"type":"Feature","properties":{"stop_id":"2053","stop_code":"2053","stop_name":"MCKNIGHT @ GANNON NB","stop_desc":"NEAR SIDE MCKNIGHT @ GANNON NB","wheelchair_boarding":1,"routes":[{"route_id":"19608","agency_id":"70006","route_short_name":"33","route_long_name":"Midland","route_type":3,"route_color":"#FFFFFF","route_text_color":"#000000"}],"agency_name":"Metro St. Louis"},"geometry":{"type":"Point","coordinates":[-90.35713,38.66213]}},{"type":"Feature","properties":{"stop_id":"2055","stop_code":"2055","stop_name":"MCKNIGHT @ STANFORD NB","stop_desc":"NEAR SIDE MCKNIGHT @ STANFORD NB","wheelchair_boarding":2,"routes":[{"route_id":"19608","agency_id":"70006","route_short_name":"33","route_long_name":"Midland","route_type":3,"route_color":"#FFFFFF","route_text_color":"#000000"}],"agency_name":"Metro St. Louis"},"geometry":{"type":"Point","coordinates":[-90.35712,38.66321]}},{"type":"Feature","properties":{"stop_id":"2056","stop_code":"2056","stop_name":"MCKNIGHT @ BERICK NB","stop_desc":"NEAR SIDE MCKNIGHT @ BERICK NB","wheelchair_boarding":2,"routes":[{"route_id":"19608","agency_id":"70006","route_short_name":"33","route_long_name":"Midland","route_type":3,"route_color":"#FFFFFF","route_text_color":"#000000"}],"agency_name":"Metro St. Louis"},"geometry":{"type":"Point","coordinates":[-90.35707,38.66661]}},{"type":"Feature","properties":{"stop_id":"2993","stop_code":"2993","stop_name":"MCKNIGHT @ CRIXDALE NB","stop_desc":"NEAR SIDE MCKNIGHT @ CRIXDALE NB","wheelchair_boarding":2,"routes":[{"route_id":"19608","agency_id":"70006","route_short_name":"33","route_long_name":"Midland","route_type":3,"route_color":"#FFFFFF","route_text_color":"#000000"}],"agency_name":"Metro St. Louis"},"geometry":{"type":"Point","coordinates":[-90.3566,38.67328]}},{"type":"Feature","properties":{"stop_id":"4433","stop_code":"4433","stop_name":"WOODSON @ KEMPLAND PLACE NB","stop_desc":"FAR SIDE WOODSON @ KEMPLAND PLACE NB","wheelchair_boarding":1,"routes":[{"route_id":"19608","agency_id":"70006","route_short_name":"33","route_long_name":"Midland","route_type":3,"route_color":"#FFFFFF","route_text_color":"#000000"}],"agency_name":"Metro St. Louis"},"geometry":{"type":"Point","coordinates":[-90.35696,38.68002]}},{"type":"Feature","properties":{"stop_id":"4435","stop_code":"4435","stop_name":"1620 WOODSON NB","stop_desc":"MID-BLOCK 1620 WOODSON NB","wheelchair_boarding":1,"routes":[{"route_id":"19608","agency_id":"70006","route_short_name":"33","route_long_name":"Midland","route_type":3,"route_color":"#FFFFFF","route_text_color":"#000000"}],"agency_name":"Metro St. Louis"},"geometry":{"type":"Point","coordinates":[-90.36027,38.68383]}},{"type":"Feature","properties":{"stop_id":"4436","stop_code":"4436","stop_name":"WOODSON @ TRENTON NB","stop_desc":"NEAR SIDE WOODSON @ TRENTON NB","wheelchair_boarding":2,"routes":[{"route_id":"19608","agency_id":"70006","route_short_name":"33","route_long_name":"Midland","route_type":3,"route_color":"#FFFFFF","route_text_color":"#000000"}],"agency_name":"Metro St. Louis"},"geometry":{"type":"Point","coordinates":[-90.36157,38.6853]}},{"type":"Feature","properties":{"stop_id":"4437","stop_code":"4437","stop_name":"WOODSON @ PAGE NB","stop_desc":"FAR SIDE WOODSON @ PAGE NB","wheelchair_boarding":2,"routes":[{"route_id":"19608","agency_id":"70006","route_short_name":"33","route_long_name":"Midland","route_type":3,"route_color":"#FFFFFF","route_text_color":"#000000"}],"agency_name":"Metro St. Louis"},"geometry":{"type":"Point","coordinates":[-90.36198,38.68766]}},{"type":"Feature","properties":{"stop_id":"4440","stop_code":"4440","stop_name":"WOODSON @ ECHO NB","stop_desc":"NEAR SIDE WOODSON @ ECHO NB","wheelchair_boarding":2,"routes":[{"route_id":"19608","agency_id":"70006","route_short_name":"33","route_long_name":"Midland","route_type":3,"route_color":"#FFFFFF","route_text_color":"#000000"}],"agency_name":"Metro St. Louis"},"geometry":{"type":"Point","coordinates":[-90.36274,38.69145]}},{"type":"Feature","properties":{"stop_id":"4444","stop_code":"4444","stop_name":"WOODSON @ TRESCOTT NB","stop_desc":"FAR SIDE WOODSON @ TRESCOTT NB","wheelchair_boarding":1,"routes":[{"route_id":"19608","agency_id":"70006","route_short_name":"33","route_long_name":"Midland","route_type":3,"route_color":"#FFFFFF","route_text_color":"#000000"}],"agency_name":"Metro St. Louis"},"geometry":{"type":"Point","coordinates":[-90.36283,38.69668]}},{"type":"Feature","properties":{"stop_id":"4446","stop_code":"4446","stop_name":"WOODSON @ LACKLAND NB","stop_desc":"FAR SIDE WOODSON @ LACKLAND NB","wheelchair_boarding":2,"routes":[{"route_id":"19608","agency_id":"70006","route_short_name":"33","route_long_name":"Midland","route_type":3,"route_color":"#FFFFFF","route_text_color":"#000000"}],"agency_name":"Metro St. Louis"},"geometry":{"type":"Point","coordinates":[-90.36209,38.70089]}},{"type":"Feature","properties":{"stop_id":"4448","stop_code":"4448","stop_name":"2514 WOODSON NB","stop_desc":"MID-BLOCK 2514 WOODSON NB","wheelchair_boarding":1,"routes":[{"route_id":"19608","agency_id":"70006","route_short_name":"33","route_long_name":"Midland","route_type":3,"route_color":"#FFFFFF","route_text_color":"#000000"}],"agency_name":"Metro St. Louis"},"geometry":{"type":"Point","coordinates":[-90.36178,38.70305]}},{"type":"Feature","properties":{"stop_id":"4762","stop_code":"4762","stop_name":"MIDLAND @ WOODSON WB","stop_desc":"FAR SIDE MIDLAND @ WOODSON WB","wheelchair_boarding":1,"routes":[{"route_id":"19608","agency_id":"70006","route_short_name":"33","route_long_name":"Midland","route_type":3,"route_color":"#FFFFFF","route_text_color":"#000000"}],"agency_name":"Metro St. Louis"},"geometry":{"type":"Point","coordinates":[-90.3617,38.7054]}},{"type":"Feature","properties":{"stop_id":"4764","stop_code":"4764","stop_name":"MIDLAND @ CALVERT WB","stop_desc":"FAR SIDE MIDLAND @ CALVERT WB","wheelchair_boarding":2,"routes":[{"route_id":"19608","agency_id":"70006","route_short_name":"33","route_long_name":"Midland","route_type":3,"route_color":"#FFFFFF","route_text_color":"#000000"}],"agency_name":"Metro St. Louis"},"geometry":{"type":"Point","coordinates":[-90.36423,38.70759]}},{"type":"Feature","properties":{"stop_id":"4768","stop_code":"4768","stop_name":"MIDLAND @ MILTON WB","stop_desc":"FAR SIDE MIDLAND @ MILTON WB","wheelchair_boarding":2,"routes":[{"route_id":"19608","agency_id":"70006","route_short_name":"33","route_long_name":"Midland","route_type":3,"route_color":"#FFFFFF","route_text_color":"#000000"}],"agency_name":"Metro St. Louis"},"geometry":{"type":"Point","coordinates":[-90.37156,38.7075]}},{"type":"Feature","properties":{"stop_id":"4771","stop_code":"4771","stop_name":"MIDLAND @ WISMER WB","stop_desc":"FAR SIDE MIDLAND @ WISMER WB","wheelchair_boarding":2,"routes":[{"route_id":"19608","agency_id":"70006","route_short_name":"33","route_long_name":"Midland","route_type":3,"route_color":"#FFFFFF","route_text_color":"#000000"}],"agency_name":"Metro St. Louis"},"geometry":{"type":"Point","coordinates":[-90.37518,38.70612]}},{"type":"Feature","properties":{"stop_id":"4774","stop_code":"4774","stop_name":"MIDLAND @ BRYANT WB","stop_desc":"NEAR SIDE MIDLAND @ BRYANT WB","wheelchair_boarding":2,"routes":[{"route_id":"19608","agency_id":"70006","route_short_name":"33","route_long_name":"Midland","route_type":3,"route_color":"#FFFFFF","route_text_color":"#000000"}],"agency_name":"Metro St. Louis"},"geometry":{"type":"Point","coordinates":[-90.38402,38.70467]}},{"type":"Feature","properties":{"stop_id":"4775","stop_code":"4775","stop_name":"MIDLAND @ SHAKESPEARE WB","stop_desc":"NEAR SIDE MIDLAND @ SHAKESPEARE WB","wheelchair_boarding":2,"routes":[{"route_id":"19608","agency_id":"70006","route_short_name":"33","route_long_name":"Midland","route_type":3,"route_color":"#FFFFFF","route_text_color":"#000000"}],"agency_name":"Metro St. Louis"},"geometry":{"type":"Point","coordinates":[-90.38679,38.7049]}},{"type":"Feature","properties":{"stop_id":"5261","stop_code":"5261","stop_name":"NORTH HANLEY @ MARYLAND NB","stop_desc":"NEAR SIDE NORTH HANLEY @ MARYLAND NB","wheelchair_boarding":1,"routes":[{"route_id":"19608","agency_id":"70006","route_short_name":"33","route_long_name":"Midland","route_type":3,"route_color":"#FFFFFF","route_text_color":"#000000"},{"route_id":"19628","agency_id":"70006","route_short_name":"79","route_long_name":"Ferguson-Clayton","route_type":3,"route_color":"#FFFFFF","route_text_color":"#000000"},{"route_id":"19633","agency_id":"70006","route_short_name":"97","route_long_name":"Delmar","route_type":3,"route_color":"#FFFFFF","route_text_color":"#000000"}],"agency_name":"Metro St. Louis"},"geometry":{"type":"Point","coordinates":[-90.33399,38.65046]}},{"type":"Feature","properties":{"stop_id":"5968","stop_code":"5968","stop_name":"NORTH HANLEY @ PERSHING NB","stop_desc":"NEAR SIDE NORTH HANLEY @ PERSHING NB","wheelchair_boarding":1,"routes":[{"route_id":"19608","agency_id":"70006","route_short_name":"33","route_long_name":"Midland","route_type":3,"route_color":"#FFFFFF","route_text_color":"#000000"},{"route_id":"19628","agency_id":"70006","route_short_name":"79","route_long_name":"Ferguson-Clayton","route_type":3,"route_color":"#FFFFFF","route_text_color":"#000000"},{"route_id":"19633","agency_id":"70006","route_short_name":"97","route_long_name":"Delmar","route_type":3,"route_color":"#FFFFFF","route_text_color":"#000000"}],"agency_name":"Metro St. Louis"},"geometry":{"type":"Point","coordinates":[-90.33352,38.65375]}},{"type":"Feature","properties":{"stop_id":"5969","stop_code":"5969","stop_name":"NORTH HANLEY @ STRATFORD NB","stop_desc":"FAR SIDE NORTH HANLEY @ STRATFORD NB","wheelchair_boarding":1,"routes":[{"route_id":"19608","agency_id":"70006","route_short_name":"33","route_long_name":"Midland","route_type":3,"route_color":"#FFFFFF","route_text_color":"#000000"},{"route_id":"19628","agency_id":"70006","route_short_name":"79","route_long_name":"Ferguson-Clayton","route_type":3,"route_color":"#FFFFFF","route_text_color":"#000000"},{"route_id":"19633","agency_id":"70006","route_short_name":"97","route_long_name":"Delmar","route_type":3,"route_color":"#FFFFFF","route_text_color":"#000000"}],"agency_name":"Metro St. Louis"},"geometry":{"type":"Point","coordinates":[-90.33311,38.65632]}},{"type":"Feature","properties":{"stop_id":"6940","stop_code":"6940","stop_name":"MIDLAND @ BROUSTER WB","stop_desc":"NEAR SIDE MIDLAND @ BROUSTER WB","wheelchair_boarding":2,"routes":[{"route_id":"19608","agency_id":"70006","route_short_name":"33","route_long_name":"Midland","route_type":3,"route_color":"#FFFFFF","route_text_color":"#000000"},{"route_id":"19614","agency_id":"70006","route_short_name":"49","route_long_name":"Lindbergh","route_type":3,"route_color":"#FFFFFF","route_text_color":"#000000"}],"agency_name":"Metro St. Louis"},"geometry":{"type":"Point","coordinates":[-90.40732,38.70682]}},{"type":"Feature","properties":{"stop_id":"6942","stop_code":"6942","stop_name":"DORSETT @ ADIE WB","stop_desc":"FAR SIDE DORSETT @ ADIE WB","wheelchair_boarding":2,"routes":[{"route_id":"19608","agency_id":"70006","route_short_name":"33","route_long_name":"Midland","route_type":3,"route_color":"#FFFFFF","route_text_color":"#000000"}],"agency_name":"Metro St. Louis"},"geometry":{"type":"Point","coordinates":[-90.41526,38.70913]}},{"type":"Feature","properties":{"stop_id":"6943","stop_code":"6943","stop_name":"DORSETT @ SCHENK WB","stop_desc":"FAR SIDE DORSETT @ SCHENK WB","wheelchair_boarding":2,"routes":[{"route_id":"19608","agency_id":"70006","route_short_name":"33","route_long_name":"Midland","route_type":3,"route_color":"#FFFFFF","route_text_color":"#000000"}],"agency_name":"Metro St. Louis"},"geometry":{"type":"Point","coordinates":[-90.41705,38.7106]}},{"type":"Feature","properties":{"stop_id":"6944","stop_code":"6944","stop_name":"DORSETT @ PINEHURST PLACE WB","stop_desc":"FAR SIDE DORSETT @ PINEHURST PLACE WB","wheelchair_boarding":2,"routes":[{"route_id":"19608","agency_id":"70006","route_short_name":"33","route_long_name":"Midland","route_type":3,"route_color":"#FFFFFF","route_text_color":"#000000"}],"agency_name":"Metro St. Louis"},"geometry":{"type":"Point","coordinates":[-90.41849,38.71217]}},{"type":"Feature","properties":{"stop_id":"6946","stop_code":"6946","stop_name":"DORSETT @ OLD DORSETT WB","stop_desc":"FAR SIDE DORSETT @ OLD DORSETT WB","wheelchair_boarding":2,"routes":[{"route_id":"19608","agency_id":"70006","route_short_name":"33","route_long_name":"Midland","route_type":3,"route_color":"#FFFFFF","route_text_color":"#000000"}],"agency_name":"Metro St. Louis"},"geometry":{"type":"Point","coordinates":[-90.42357,38.71449]}},{"type":"Feature","properties":{"stop_id":"6984","stop_code":"6984","stop_name":"MIDLAND @ LINK WB","stop_desc":"NEAR SIDE MIDLAND @ LINK WB","wheelchair_boarding":2,"routes":[{"route_id":"19608","agency_id":"70006","route_short_name":"33","route_long_name":"Midland","route_type":3,"route_color":"#FFFFFF","route_text_color":"#000000"},{"route_id":"19614","agency_id":"70006","route_short_name":"49","route_long_name":"Lindbergh","route_type":3,"route_color":"#FFFFFF","route_text_color":"#000000"}],"agency_name":"Metro St. Louis"},"geometry":{"type":"Point","coordinates":[-90.40469,38.70474]}},{"type":"Feature","properties":{"stop_id":"8280","stop_code":"8280","stop_name":"FORSYTH @ BEMISTON EB","stop_desc":"FAR SIDE FORSYTH @ BEMISTON EB","wheelchair_boarding":1,"routes":[{"route_id":"19608","agency_id":"70006","route_short_name":"33","route_long_name":"Midland","route_type":3,"route_color":"#FFFFFF","route_text_color":"#000000"},{"route_id":"19628","agency_id":"70006","route_short_name":"79","route_long_name":"Ferguson-Clayton","route_type":3,"route_color":"#FFFFFF","route_text_color":"#000000"},{"route_id":"19633","agency_id":"70006","route_short_name":"97","route_long_name":"Delmar","route_type":3,"route_color":"#FFFFFF","route_text_color":"#000000"}],"agency_name":"Metro St. Louis"},"geometry":{"type":"Point","coordinates":[-90.33658,38.65007]}}]}