{"type":"FeatureCollection","features":[{"type":"Feature","properties":{"agency_name":"Metro St. Louis","route_id":"19604","agency_id":"70006","route_short_name":"21","route_long_name":"Watson Rd","route_type":3,"route_color":"#FFFFFF","route_text_color":"#000000"},"geometry":{"type":"MultiLineString","coordinates":[[[-90.31982,38.59272],[-90.31943,38.5928],[-90.31982,38.59272],[-90.31987,38.5927],[-90.31991,38.59263],[-90.3199,38.59257],[-90.31986,38.59251],[-90.31979,38.59249],[-90.3194,38.59258],[-90.31876,38.59278],[-90.31856,38.59279],[-90.31842,38.59254],[-90.31846,38.59199],[-90.31844,38.59174],[-90.3184,38.59153],[-90.31831,38.5912],[-90.31822,38.59048],[-90.31816,38.59024],[-90.31808,38.59004],[-90.31789,38.58976],[-90.31773,38.58959],[-90.31755,38.58945],[-90.31616,38.58866],[-90.31555,38.58799],[-90.3155,38.58786],[-90.3155,38.58775],[-90.31554,38.58762],[-90.31565,38.58742],[-90.31585,38.5873],[-90.31594,38.58727],[-90.31467,38.58583],[-90.31793,38.58349],[-90.32009,38.582],[-90.32065,38.58159],[-90.32157,38.58097],[-90.32187,38.58081],[-90.32238,38.58059],[-90.32262,38.58051],[-90.3229,38.58042],[-90.32339,38.5803],[-90.32479,38.5801],[-90.32528,38.58001],[-90.32572,38.57988],[-90.3263,38.57966],[-90.32675,38.57943],[-90.32711,38.57921],[-90.32768,38.57871],[-90.32832,38.57799],[-90.33198,38.5741],[-90.33235,38.57372],[-90.33262,38.57347],[-90.33301,38.57313],[-90.33378,38.57251],[-90.338,38.5693],[-90.33875,38.56875],[-90.33939,38.56835],[-90.33987,38.56812],[-90.34079,38.56785],[-90.34146,38.5677],[-90.34816,38.56663],[-90.35753,38.5651],[-90.3591,38.56487],[-90.36237,38.56432],[-90.36317,38.56415],[-90.36385,38.56398],[-90.36449,38.5638],[-90.36546,38.56345],[-90.36685,38.56287],[-90.36801,38.56243],[-90.369,38.562],[-90.37073,38.56131],[-90.37686,38.55881],[-90.37897,38.55797],[-90.37946,38.55779],[-90.3799,38.55765],[-90.38092,38.55741],[-90.38163,38.55727],[-90.38313,38.55715],[-90.38374,38.55712],[-90.38697,38.55687],[-90.38774,38.55684],[-90.38959,38.5567],[-90.40215,38.55583],[-90.40493,38.55565],[-90.40545,38.55562],[-90.406,38.55572],[-90.40624,38.5558],[-90.40647,38.55591],[-90.40656,38.55597],[-90.40676,38.5562],[-90.40691,38.55665],[-90.40699,38.55675],[-90.407,38.55762],[-90.40693,38.55946],[-90.40686,38.56362],[-90.40677,38.5667],[-90.40968,38.56678],[-90.41243,38.56682],[-90.41531,38.5669],[-90.41633,38.56692],[-90.41738,38.56691],[-90.41737,38.56748]],[[-90.40619,38.55555],[-90.40545,38.55562],[-90.40699,38.55548],[-90.40774,38.55546],[-90.40916,38.55535],[-90.41029,38.55518],[-90.41153,38.55487],[-90.41629,38.55361],[-90.41636,38.55364],[-90.41705,38.55352],[-90.41767,38.55349],[-90.41798,38.55351],[-90.41894,38.55364],[-90.41965,38.55365],[-90.42029,38.55357],[-90.4213,38.55325],[-90.42205,38.55288],[-90.42285,38.55234],[-90.42342,38.55193],[-90.42411,38.55135],[-90.4249,38.55059],[-90.42699,38.54871],[-90.42727,38.54843],[-90.43011,38.5458],[-90.4305,38.54547],[-90.43085,38.54522],[-90.43145,38.54487],[-90.43176,38.54473],[-90.43298,38.54428],[-90.43669,38.54317],[-90.43758,38.54297],[-90.43802,38.54291],[-90.43815,38.54295],[-90.4383,38.54297],[-90.44166,38.54301],[-90.44309,38.5431],[-90.44729,38.54315],[-90.45926,38.54324],[-90.46443,38.54341],[-90.46803,38.54348],[-90.46847,38.54345],[-90.46952,38.5433],[-90.46941,38.54287],[-90.46922,38.5419],[-90.46922,38.54174],[-90.46935,38.54096],[-90.46941,38.54072],[-90.46958,38.54048],[-90.46974,38.54036],[-90.46991,38.54026],[-90.47008,38.54021],[-90.47037,38.54017],[-90.47258,38.54018],[-90.47279,38.54014],[-90.47301,38.54006],[-90.47319,38.53997],[-90.4733,38.53986],[-90.47342,38.53969],[-90.4735,38.53949],[-90.47352,38.53929],[-90.47363,38.53542],[-90.47375,38.53289],[-90.47378,38.53179],[-90.47378,38.53139],[-90.47362,38.53045],[-90.47363,38.52967],[-90.47393,38.52967],[-90.47407,38.52969],[-90.47424,38.52974],[-90.47437,38.52985],[-90.47445,38.52998],[-90.47453,38.53007],[-90.47467,38.53016],[-90.47481,38.53021],[-90.47493,38.53022],[-90.47506,38.53019],[-90.47518,38.53014],[-90.47529,38.53005],[-90.47526,38.52969],[-90.47515,38.52958],[-90.47497,38.52945],[-90.47454,38.52898],[-90.47444,38.52884],[-90.47423,38.52833]]]}},{"type":"Feature","properties":{"stop_id":"13343","stop_code":"13343","stop_name":"STLCC MERAMEC","stop_desc":"MID-BLOCK STLCC MERAMEC","wheelchair_boarding":1,"routes":[{"route_id":"19604","agency_id":"70006","route_short_name":"21","route_long_name":"Watson Rd","route_type":3,"route_color":"#FFFFFF","route_text_color":"#000000"},{"route_id":"19615","agency_id":"70006","route_short_name":"56","route_long_name":"Kirkwood-Webster","route_type":3,"route_color":"#FFFFFF","route_text_color":"#000000"}],"agency_name":"Metro St. Louis"},"geometry":{"type":"Point","coordinates":[-90.41737,38.56819]}},{"type":"Feature","properties":{"stop_id":"14769","stop_code":"14769","stop_name":"SHREWSBURY-LANSDOWNE I-44 TRANSIT CENTER","wheelchair_boarding":1,"routes":[{"route_id":"19599","agency_id":"70006","route_short_name":"11","route_long_name":"Chippewa","route_type":3,"route_color":"#FFFFFF","route_text_color":"#000000"},{"route_id":"19601","agency_id":"70006","route_short_name":"16","route_long_name":"City Limits","route_type":3,"route_color":"#FFFFFF","route_text_color":"#000000"},{"route_id":"19604","agency_id":"70006","route_short_name":"21","route_long_name":"Watson Rd","route_type":3,"route_color":"#FFFFFF","route_text_color":"#000000"},{"route_id":"19605","agency_id":"70006","route_short_name":"30","route_long_name":"Arsenal","route_type":3,"route_color":"#FFFFFF","route_text_color":"#000000"}],"agency_name":"Metro St. Louis"},"geometry":{"type":"Point","coordinates":[-90.31925,38.59277]}},{"type":"Feature","properties":{"stop_id":"15140","stop_code":"15140","stop_name":"WATSON @ SUNSET OFFICE WB","stop_desc":"FAR SIDE WATSON @ SUNSET OFFICE WB","wheelchair_boarding":2,"routes":[{"route_id":"19604","agency_id":"70006","route_short_name":"21","route_long_name":"Watson Rd","route_type":3,"route_color":"#FFFFFF","route_text_color":"#000000"}],"agency_name":"Metro St. Louis"},"geometry":{"type":"Point","coordinates":[-90.41074,38.55506]}},{"type":"Feature","properties":{"stop_id":"15483","stop_code":"15483","stop_name":"BOWLES @ WESTPARK CENTER SB","stop_desc":"NEAR SIDE BOWLES @ WESTPARK CENTER SB","wheelchair_boarding":2,"routes":[{"route_id":"19604","agency_id":"70006","route_short_name":"21","route_long_name":"Watson Rd","route_type":3,"route_color":"#FFFFFF","route_text_color":"#000000"}],"agency_name":"Metro St. Louis"},"geometry":{"type":"Point","coordinates":[-90.4699,38.54037]}},{"type":"Feature","properties":{"stop_id":"15682","stop_code":"15682","stop_name":"WEIL @ RIVER DES PERES SB","stop_desc":"FAR SIDE WEIL @ RIVER DES PERES SB","wheelchair_boarding":1,"routes":[{"route_id":"19604","agency_id":"70006","route_short_name":"21","route_long_name":"Watson Rd","route_type":3,"route_color":"#FFFFFF","route_text_color":"#000000"}],"agency_name":"Metro St. Louis"},"geometry":{"type":"Point","coordinates":[-90.3154,38.58658]}},{"type":"Feature","properties":{"stop_id":"15765","stop_code":"15765","stop_name":"WATSON @ PARK CRESTWOOD WB","stop_desc":"FAR SIDE WATSON @ PARK CRESTWOOD WB","wheelchair_boarding":2,"routes":[{"route_id":"19604","agency_id":"70006","route_short_name":"21","route_long_name":"Watson Rd","route_type":3,"route_color":"#FFFFFF","route_text_color":"#000000"}],"agency_name":"Metro St. Louis"},"geometry":{"type":"Point","coordinates":[-90.37666,38.55904]}},{"type":"Feature","properties":{"stop_id":"15863","stop_code":"15863","stop_name":"SSM ST CLARE HOSPITAL DRIVEWAY","stop_desc":"MID-BLOCK SSM ST CLARE HOSPITAL DRIVEWAY","wheelchair_boarding":1,"routes":[{"route_id":"19604","agency_id":"70006","route_short_name":"21","route_long_name":"Watson Rd","route_type":3,"route_color":"#FFFFFF","route_text_color":"#000000"}],"agency_name":"Metro St. Louis"},"geometry":{"type":"Point","coordinates":[-90.47429,38.52811]}},{"type":"Feature","properties":{"stop_id":"16220","stop_code":"16220","stop_name":"BOWLES @ FENTON MEADOWS COURT SB","stop_desc":"NEAR SIDE BOWLES @ FENTON MEADOWS COURT SB","wheelchair_boarding":2,"routes":[{"route_id":"19604","agency_id":"70006","route_short_name":"21","route_long_name":"Watson Rd","route_type":3,"route_color":"#FFFFFF","route_text_color":"#000000"}],"agency_name":"Metro St. Louis"},"geometry":{"type":"Point","coordinates":[-90.47384,38.53141]}},{"type":"Feature","properties":{"stop_id":"16521","stop_code":"16521","stop_name":"BOWLES @ HORAN SB","stop_desc":"FAR SIDE BOWLES @ HORAN SB","wheelchair_boarding":2,"routes":[{"route_id":"19604","agency_id":"70006","route_short_name":"21","route_long_name":"Watson Rd","route_type":3,"route_color":"#FFFFFF","route_text_color":"#000000"}],"agency_name":"Metro St. Louis"},"geometry":{"type":"Point","coordinates":[-90.47369,38.53768]}},{"type":"Feature","properties":{"stop_id":"5674","stop_code":"5674","stop_name":"LINDBERGH @ DEANE COURT NB","stop_desc":"FAR SIDE LINDBERGH @ DEANE COURT NB","wheelchair_boarding":1,"routes":[{"route_id":"19604","agency_id":"70006","route_short_name":"21","route_long_name":"Watson Rd","route_type":3,"route_color":"#FFFFFF","route_text_color":"#000000"},{"route_id":"19614","agency_id":"70006","route_short_name":"49","route_long_name":"Lindbergh","route_type":3,"route_color":"#FFFFFF","route_text_color":"#000000"}],"agency_name":"Metro St. Louis"},"geometry":{"type":"Point","coordinates":[-90.40686,38.55711]}},{"type":"Feature","properties":{"stop_id":"5677","stop_code":"5677","stop_name":"1052 SOUTH KIRKWOOD NB","stop_desc":"FAR SIDE 1052 SOUTH KIRKWOOD NB","wheelchair_boarding":1,"routes":[{"route_id":"19604","agency_id":"70006","route_short_name":"21","route_long_name":"Watson Rd","route_type":3,"route_color":"#FFFFFF","route_text_color":"#000000"},{"route_id":"19614","agency_id":"70006","route_short_name":"49","route_long_name":"Lindbergh","route_type":3,"route_color":"#FFFFFF","route_text_color":"#000000"}],"agency_name":"Metro St. Louis"},"geometry":{"type":"Point","coordinates":[-90.40671,38.56543]}},{"type":"Feature","properties":{"stop_id":"8705","stop_code":"8705","stop_name":"WATSON @ CREIGHTON WB","stop_desc":"NEAR SIDE WATSON @ CREIGHTON WB","wheelchair_boarding":2,"routes":[{"route_id":"19604","agency_id":"70006","route_short_name":"21","route_long_name":"Watson Rd","route_type":3,"route_color":"#FFFFFF","route_text_color":"#000000"}],"agency_name":"Metro St. Louis"},"geometry":{"type":"Point","coordinates":[-90.31574,38.58523]}},{"type":"Feature","properties":{"stop_id":"8706","stop_code":"8706","stop_name":"7221 WATSON WB","stop_desc":"MID-BLOCK 7221 WATSON WB","wheelchair_boarding":2,"routes":[{"route_id":"19604","agency_id":"70006","route_short_name":"21","route_long_name":"Watson Rd","route_type":3,"route_color":"#FFFFFF","route_text_color":"#000000"}],"agency_name":"Metro St. Louis"},"geometry":{"type":"Point","coordinates":[-90.31731,38.58411]}},{"type":"Feature","properties":{"stop_id":"8707","stop_code":"8707","stop_name":"WATSON @ MACKENZIE WB","stop_desc":"FAR SIDE WATSON @ MACKENZIE WB","wheelchair_boarding":1,"routes":[{"route_id":"19604","agency_id":"70006","route_short_name":"21","route_long_name":"Watson Rd","route_type":3,"route_color":"#FFFFFF","route_text_color":"#000000"}],"agency_name":"Metro St. Louis"},"geometry":{"type":"Point","coordinates":[-90.31925,38.58273]}},{"type":"Feature","properties":{"stop_id":"8708","stop_code":"8708","stop_name":"WATSON @ MACKENZIE PLAZA EXIT WB","stop_desc":"FAR SIDE WATSON @ MACKENZIE PLAZA EXIT WB","wheelchair_boarding":2,"routes":[{"route_id":"19604","agency_id":"70006","route_short_name":"21","route_long_name":"Watson Rd","route_type":3,"route_color":"#FFFFFF","route_text_color":"#000000"}],"agency_name":"Metro St. Louis"},"geometry":{"type":"Point","coordinates":[-90.32145,38.5812]}},{"type":"Feature","properties":{"stop_id":"8710","stop_code":"8710","stop_name":"WATSON @ TRIANON PARKWAY WB","stop_desc":"FAR SIDE WATSON @ TRIANON PARKWAY WB","wheelchair_boarding":1,"routes":[{"route_id":"19604","agency_id":"70006","route_short_name":"21","route_long_name":"Watson Rd","route_type":3,"route_color":"#FFFFFF","route_text_color":"#000000"}],"agency_name":"Metro St. Louis"},"geometry":{"type":"Point","coordinates":[-90.32784,38.57877]}},{"type":"Feature","properties":{"stop_id":"8711","stop_code":"8711","stop_name":"7601 WATSON WB","stop_desc":"MID-BLOCK 7601 WATSON WB","wheelchair_boarding":2,"routes":[{"route_id":"19604","agency_id":"70006","route_short_name":"21","route_long_name":"Watson Rd","route_type":3,"route_color":"#FFFFFF","route_text_color":"#000000"}],"agency_name":"Metro St. Louis"},"geometry":{"type":"Point","coordinates":[-90.33013,38.57622]}},{"type":"Feature","properties":{"stop_id":"8713","stop_code":"8713","stop_name":"WATSON @ RAVENSRIDGE WB","stop_desc":"FAR SIDE WATSON @ RAVENSRIDGE WB","wheelchair_boarding":2,"routes":[{"route_id":"19604","agency_id":"70006","route_short_name":"21","route_long_name":"Watson Rd","route_type":3,"route_color":"#FFFFFF","route_text_color":"#000000"}],"agency_name":"Metro St. Louis"},"geometry":{"type":"Point","coordinates":[-90.33296,38.57326]}},{"type":"Feature","properties":{"stop_id":"8714","stop_code":"8714","stop_name":"WATSON @ WIMBLEDON WB","stop_desc":"NEAR SIDE WATSON @ WIMBLEDON WB","wheelchair_boarding":2,"routes":[{"route_id":"19604","agency_id":"70006","route_short_name":"21","route_long_name":"Watson Rd","route_type":3,"route_color":"#FFFFFF","route_text_color":"#000000"}],"agency_name":"Metro St. Louis"},"geometry":{"type":"Point","coordinates":[-90.33639,38.57069]}},{"type":"Feature","properties":{"stop_id":"8715","stop_code":"8715","stop_name":"WATSON @ PEMBROKE WB","stop_desc":"NEAR SIDE WATSON @ PEMBROKE WB","wheelchair_boarding":2,"routes":[{"route_id":"19604","agency_id":"70006","route_short_name":"21","route_long_name":"Watson Rd","route_type":3,"route_color":"#FFFFFF","route_text_color":"#000000"}],"agency_name":"Metro St. Louis"},"geometry":{"type":"Point","coordinates":[-90.33794,38.56952]}},{"type":"Feature","properties":{"stop_id":"8716","stop_code":"8716","stop_name":"WATSON @ LACLEDE STATION ROAD WB","stop_desc":"FAR SIDE WATSON @ LACLEDE STATION ROAD WB","wheelchair_boarding":1,"routes":[{"route_id":"19604","agency_id":"70006","route_short_name":"21","route_long_name":"Watson Rd","route_type":3,"route_color":"#FFFFFF","route_text_color":"#000000"}],"agency_name":"Metro St. Louis"},"geometry":{"type":"Point","coordinates":[-90.3404,38.56811]}},{"type":"Feature","properties":{"stop_id":"8717","stop_code":"8717","stop_name":"WATSON @ CULVERHILL WB","stop_desc":"FAR SIDE WATSON @ CULVERHILL WB","wheelchair_boarding":2,"routes":[{"route_id":"19604","agency_id":"70006","route_short_name":"21","route_long_name":"Watson Rd","route_type":3,"route_color":"#FFFFFF","route_text_color":"#000000"}],"agency_name":"Metro St. Louis"},"geometry":{"type":"Point","coordinates":[-90.34464,38.56727]}},{"type":"Feature","properties":{"stop_id":"8718","stop_code":"8718","stop_name":"WATSON @ EDGAR WB","stop_desc":"NEAR SIDE WATSON @ EDGAR WB","wheelchair_boarding":2,"routes":[{"route_id":"19604","agency_id":"70006","route_short_name":"21","route_long_name":"Watson Rd","route_type":3,"route_color":"#FFFFFF","route_text_color":"#000000"}],"agency_name":"Metro St. Louis"},"geometry":{"type":"Point","coordinates":[-90.34714,38.56691]}},{"type":"Feature","properties":{"stop_id":"8719","stop_code":"8719","stop_name":"WATSON @ CHESHIRE WB","stop_desc":"FAR SIDE WATSON @ CHESHIRE WB","wheelchair_boarding":2,"routes":[{"route_id":"19604","agency_id":"70006","route_short_name":"21","route_long_name":"Watson Rd","route_type":3,"route_color":"#FFFFFF","route_text_color":"#000000"}],"agency_name":"Metro St. Louis"},"geometry":{"type":"Point","coordinates":[-90.35152,38.5662]}},{"type":"Feature","properties":{"stop_id":"8720","stop_code":"8720","stop_name":"8457 WATSON WB","stop_desc":"MID-BLOCK 8457 WATSON WB","wheelchair_boarding":1,"routes":[{"route_id":"19604","agency_id":"70006","route_short_name":"21","route_long_name":"Watson Rd","route_type":3,"route_color":"#FFFFFF","route_text_color":"#000000"}],"agency_name":"Metro St. Louis"},"geometry":{"type":"Point","coordinates":[-90.35392,38.5658]}},{"type":"Feature","properties":{"stop_id":"8721","stop_code":"8721","stop_name":"8567 WATSON WB","stop_desc":"MID-BLOCK 8567 WATSON WB","wheelchair_boarding":1,"routes":[{"route_id":"19604","agency_id":"70006","route_short_name":"21","route_long_name":"Watson Rd","route_type":3,"route_color":"#FFFFFF","route_text_color":"#000000"}],"agency_name":"Metro St. Louis"},"geometry":{"type":"Point","coordinates":[-90.35779,38.56519]}},{"type":"Feature","properties":{"stop_id":"8723","stop_code":"8723","stop_name":"8749 WATSON WB","stop_desc":"MID-BLOCK 8749 WATSON WB","wheelchair_boarding":2,"routes":[{"route_id":"19604","agency_id":"70006","route_short_name":"21","route_long_name":"Watson Rd","route_type":3,"route_color":"#FFFFFF","route_text_color":"#000000"}],"agency_name":"Metro St. Louis"},"geometry":{"type":"Point","coordinates":[-90.36345,38.5642]}},{"type":"Feature","properties":{"stop_id":"8725","stop_code":"8725","stop_name":"WATSON @ GRANT WB","stop_desc":"NEAR SIDE WATSON @ GRANT WB","wheelchair_boarding":2,"routes":[{"route_id":"19604","agency_id":"70006","route_short_name":"21","route_long_name":"Watson Rd","route_type":3,"route_color":"#FFFFFF","route_text_color":"#000000"}],"agency_name":"Metro St. Louis"},"geometry":{"type":"Point","coordinates":[-90.36663,38.56306]}},{"type":"Feature","properties":{"stop_id":"8726","stop_code":"8726","stop_name":"WATSON @ WATSON INDUSTRIAL PARK WB","stop_desc":"NEAR SIDE WATSON @ WATSON INDUSTRIAL PARK WB","wheelchair_boarding":2,"routes":[{"route_id":"19604","agency_id":"70006","route_short_name":"21","route_long_name":"Watson Rd","route_type":3,"route_color":"#FFFFFF","route_text_color":"#000000"}],"agency_name":"Metro St. Louis"},"geometry":{"type":"Point","coordinates":[-90.37178,38.56097]}},{"type":"Feature","properties":{"stop_id":"8733","stop_code":"8733","stop_name":"WATSON @ SAPPINGTON WB","stop_desc":"FAR SIDE WATSON @ SAPPINGTON WB","wheelchair_boarding":2,"routes":[{"route_id":"19604","agency_id":"70006","route_short_name":"21","route_long_name":"Watson Rd","route_type":3,"route_color":"#FFFFFF","route_text_color":"#000000"}],"agency_name":"Metro St. Louis"},"geometry":{"type":"Point","coordinates":[-90.38478,38.55717]}},{"type":"Feature","properties":{"stop_id":"8734","stop_code":"8734","stop_name":"WATSON @ GLENWOOD WB","stop_desc":"FAR SIDE WATSON @ GLENWOOD WB","wheelchair_boarding":2,"routes":[{"route_id":"19604","agency_id":"70006","route_short_name":"21","route_long_name":"Watson Rd","route_type":3,"route_color":"#FFFFFF","route_text_color":"#000000"}],"agency_name":"Metro St. Louis"},"geometry":{"type":"Point","coordinates":[-90.3884,38.5569]}},{"type":"Feature","properties":{"stop_id":"8735","stop_code":"8735","stop_name":"9833 WATSON WB","stop_desc":"MID-BLOCK 9833 WATSON WB","wheelchair_boarding":2,"routes":[{"route_id":"19604","agency_id":"70006","route_short_name":"21","route_long_name":"Watson Rd","route_type":3,"route_color":"#FFFFFF","route_text_color":"#000000"}],"agency_name":"Metro St. Louis"},"geometry":{"type":"Point","coordinates":[-90.39138,38.55669]}},{"type":"Feature","properties":{"stop_id":"8737","stop_code":"8737","stop_name":"WATSON @ STURDY WB","stop_desc":"NEAR SIDE WATSON @ STURDY WB","wheelchair_boarding":2,"routes":[{"route_id":"19604","agency_id":"70006","route_short_name":"21","route_long_name":"Watson Rd","route_type":3,"route_color":"#FFFFFF","route_text_color":"#000000"}],"agency_name":"Metro St. Louis"},"geometry":{"type":"Point","coordinates":[-90.39452,38.55647]}},{"type":"Feature","properties":{"stop_id":"8738","stop_code":"8738","stop_name":"WATSON @ STARLING WB","stop_desc":"FAR SIDE WATSON @ STARLING WB","wheelchair_boarding":2,"routes":[{"route_id":"19604","agency_id":"70006","route_short_name":"21","route_long_name":"Watson Rd","route_type":3,"route_color":"#FFFFFF","route_text_color":"#000000"}],"agency_name":"Metro St. Louis"},"geometry":{"type":"Point","coordinates":[-90.39776,38.55624]}},{"type":"Feature","properties":{"stop_id":"8739","stop_code":"8739","stop_name":"WATSON @ WINDWARD RIDGE WB","stop_desc":"FAR SIDE WATSON @ WINDWARD RIDGE WB","wheelchair_boarding":2,"routes":[{"route_id":"19604","agency_id":"70006","route_short_name":"21","route_long_name":"Watson Rd","route_type":3,"route_color":"#FFFFFF","route_text_color":"#000000"}],"agency_name":"Metro St. Louis"},"geometry":{"type":"Point","coordinates":[-90.39981,38.55611]}},{"type":"Feature","properties":{"stop_id":"8740","stop_code":"8740","stop_name":"10415 WATSON WB","stop_desc":"MID-BLOCK 10415 WATSON WB","wheelchair_boarding":2,"routes":[{"route_id":"19604","agency_id":"70006","route_short_name":"21","route_long_name":"Watson Rd","route_type":3,"route_color":"#FFFFFF","route_text_color":"#000000"}],"agency_name":"Metro St. Louis"},"geometry":{"type":"Point","coordinates":[-90.40359,38.55586]}},{"type":"Feature","properties":{"stop_id":"9637","stop_code":"9637","stop_name":"NORTH HIGHWAY @ HITZERT COURT WB","stop_desc":"NEAR SIDE NORTH HIGHWAY @ HITZERT COURT WB","wheelchair_boarding":2,"routes":[{"route_id":"19604","agency_id":"70006","route_short_name":"21","route_long_name":"Watson Rd","route_type":3,"route_color":"#FFFFFF","route_text_color":"#000000"}],"agency_name":"Metro St. Louis"},"geometry":{"type":"Point","coordinates":[-90.44702,38.54318]}},{"type":"Feature","properties":{"stop_id":"9639","stop_code":"9639","stop_name":"NORTH HIGHWAY @ WILLIAM LONG WB","stop_desc":"NEAR SIDE NORTH HIGHWAY @ WILLIAM LONG WB","wheelchair_boarding":2,"routes":[{"route_id":"19604","agency_id":"70006","route_short_name":"21","route_long_name":"Watson Rd","route_type":3,"route_color":"#FFFFFF","route_text_color":"#000000"}],"agency_name":"Metro St. Louis"},"geometry":{"type":"Point","coordinates":[-90.45887,38.5433]}},{"type":"Feature","properties":{"stop_id":"9782","stop_code":"9782","stop_name":"BIG BEND @ KIRKWOOD WB","stop_desc":"FAR SIDE BIG BEND @ KIRKWOOD WB","wheelchair_boarding":2,"routes":[{"route_id":"19604","agency_id":"70006","route_short_name":"21","route_long_name":"Watson Rd","route_type":3,"route_color":"#FFFFFF","route_text_color":"#000000"},{"route_id":"19615","agency_id":"70006","route_short_name":"56","route_long_name":"Kirkwood-Webster","route_type":3,"route_color":"#FFFFFF","route_text_color":"#000000"}],"agency_name":"Metro St. Louis"},"geometry":{"type":"Point","coordinates":[-90.40854,38.56679]}},{"type":"Feature","properties":{"stop_id":"9785","stop_code":"9785","stop_name":"BIG BEND @ MAEVILLE WB","stop_desc":"FAR SIDE BIG BEND @ MAEVILLE WB","wheelchair_boarding":2,"routes":[{"route_id":"19604","agency_id":"70006","route_short_name":"21","route_long_name":"Watson Rd","route_type":3,"route_color":"#FFFFFF","route_text_color":"#000000"},{"route_id":"19615","agency_id":"70006","route_short_name":"56","route_long_name":"Kirkwood-Webster","route_type":3,"route_color":"#FFFFFF","route_text_color":"#000000"}],"agency_name":"Metro St. Louis"},"geometry":{"type":"Point","coordinates":[-90.41416,38.5669]}},{"type":"Feature","properties":{"stop_id":"9786","stop_code":"9786","stop_name":"BIG BEND @ GEYER WB","stop_desc":"FAR SIDE BIG BEND @ GEYER WB","wheelchair_boarding":2,"routes":[{"route_id":"19604","agency_id":"70006","route_short_name":"21","route_long_name":"Watson Rd","route_type":3,"route_color":"#FFFFFF","route_text_color":"#000000"},{"route_id":"19615","agency_id":"70006","route_short_name":"56","route_long_name":"Kirkwood-Webster","route_type":3,"route_color":"#FFFFFF","route_text_color":"#000000"}],"agency_name":"Metro St. Louis"},"geometry":{"type":"Point","coordinates":[-90.4166,38.56698]}}]}