{"type":"FeatureCollection","features":[{"type":"Feature","properties":{"agency_name":"Metro St. Louis","route_id":"19626","agency_id":"70006","route_short_name":"77","route_long_name":"Village Square","route_type":3,"route_color":"#FFFFFF","route_text_color":"#000000"},"geometry":{"type":"MultiLineString","coordinates":[[[-90.27625,38.77074],[-90.27523,38.77072],[-90.27625,38.77074],[-90.27667,38.77072],[-90.27718,38.77066],[-90.27761,38.77053],[-90.27793,38.77039],[-90.27867,38.76996],[-90.27898,38.76986],[-90.27929,38.76982],[-90.2795,38.76981],[-90.27971,38.76982],[-90.28011,38.7699],[-90.28005,38.77025],[-90.28001,38.77063],[-90.27996,38.77172],[-90.27998,38.77308],[-90.28003,38.77395],[-90.28008,38.77442],[-90.28021,38.77527],[-90.28029,38.77564],[-90.28097,38.7775],[-90.28103,38.77778],[-90.28105,38.77805],[-90.28101,38.77852],[-90.28093,38.77879],[-90.28083,38.77903],[-90.28072,38.77921],[-90.28052,38.77949],[-90.2803,38.77973],[-90.28004,38.77995],[-90.27983,38.7801],[-90.2796,38.78023],[-90.27849,38.78077],[-90.27809,38.78098],[-90.27832,38.7813],[-90.27862,38.78177],[-90.27887,38.78229],[-90.27898,38.78258],[-90.2791,38.78306],[-90.27918,38.78357],[-90.27924,38.78503],[-90.27933,38.78546],[-90.27944,38.78575],[-90.27961,38.78606],[-90.27984,38.78637],[-90.28019,38.78673],[-90.28091,38.78741],[-90.28203,38.78844],[-90.28283,38.7892],[-90.28316,38.78949],[-90.28398,38.79027],[-90.28598,38.79211],[-90.28728,38.79328],[-90.28801,38.79398],[-90.28901,38.79489],[-90.2904,38.79632],[-90.29107,38.79707],[-90.29131,38.79736],[-90.2926,38.79931],[-90.29377,38.80114],[-90.29393,38.80142],[-90.29415,38.80172],[-90.29551,38.80387],[-90.29676,38.80577],[-90.29864,38.80874],[-90.29912,38.80913],[-90.30311,38.80696],[-90.3053,38.8058],[-90.30653,38.80513],[-90.30825,38.80424],[-90.31011,38.80323],[-90.31361,38.80136],[-90.31738,38.79932],[-90.31847,38.7987],[-90.31906,38.79843],[-90.31937,38.79832],[-90.31972,38.79822],[-90.32029,38.79809],[-90.3209,38.79802],[-90.32136,38.79801],[-90.32169,38.79802],[-90.32226,38.79808],[-90.32979,38.79953],[-90.33143,38.79986],[-90.33265,38.80008],[-90.33348,38.80011],[-90.33385,38.80009],[-90.3343,38.80004],[-90.33482,38.79992],[-90.3352,38.79979],[-90.33551,38.79966],[-90.33583,38.79951],[-90.33626,38.79926],[-90.33651,38.79908],[-90.33666,38.79895],[-90.33779,38.79788],[-90.33814,38.79751],[-90.33889,38.7968],[-90.33972,38.79597],[-90.34054,38.79519],[-90.34644,38.78993],[-90.34762,38.78889],[-90.34794,38.78865],[-90.35142,38.78635],[-90.35303,38.78533],[-90.35515,38.78386],[-90.35572,38.78344],[-90.35625,38.78324],[-90.35695,38.78281],[-90.35736,38.78258],[-90.3578,38.78229],[-90.35813,38.78249],[-90.36028,38.78191],[-90.35932,38.78126],[-90.35959,38.78103],[-90.35978,38.7809],[-90.36008,38.78073],[-90.36205,38.77981],[-90.36239,38.7797],[-90.36238,38.77968],[-90.36091,38.77986],[-90.36047,38.77986],[-90.36066,38.77963],[-90.36082,38.77928],[-90.36085,38.77902],[-90.36114,38.77789],[-90.36095,38.77609],[-90.361,38.77573],[-90.36157,38.77476],[-90.36195,38.77431],[-90.36238,38.77384],[-90.36288,38.77326],[-90.363,38.77309],[-90.36391,38.77195],[-90.36449,38.7713],[-90.3643,38.77119],[-90.3642,38.77116],[-90.36406,38.77115],[-90.36394,38.77117],[-90.36349,38.77175],[-90.36264,38.77291],[-90.36244,38.77295],[-90.36198,38.7731],[-90.36188,38.7732],[-90.36182,38.7734],[-90.36157,38.77407],[-90.36147,38.77427],[-90.36135,38.77446],[-90.361,38.77493],[-90.36071,38.77528],[-90.36049,38.7755],[-90.36026,38.77569],[-90.35965,38.77608],[-90.35917,38.77636],[-90.35827,38.77679],[-90.35784,38.77696],[-90.35731,38.77714],[-90.357,38.77722],[-90.35679,38.77725],[-90.35648,38.77727],[-90.35607,38.77726],[-90.35331,38.7771],[-90.34781,38.77656],[-90.34418,38.77618],[-90.34382,38.77609],[-90.34353,38.77596],[-90.34327,38.7758],[-90.34308,38.7756],[-90.34195,38.77466],[-90.34163,38.77444],[-90.34101,38.77421],[-90.34076,38.77417],[-90.34047,38.77417],[-90.33999,38.77422],[-90.33966,38.77431],[-90.33852,38.77481],[-90.3381,38.77492],[-90.33733,38.77489],[-90.33698,38.77478],[-90.33624,38.77449],[-90.33553,38.77428],[-90.33505,38.7743],[-90.33519,38.77311],[-90.33537,38.77052],[-90.33542,38.77007],[-90.33622,38.76605],[-90.33651,38.76475],[-90.33662,38.76419],[-90.33691,38.76381],[-90.33724,38.76311],[-90.33746,38.76269],[-90.33877,38.76282],[-90.34033,38.75849],[-90.34224,38.75879],[-90.34229,38.75883],[-90.3423,38.75889],[-90.34175,38.76227],[-90.33959,38.76292]],[[-90.33694,38.76264],[-90.33746,38.76269],[-90.33694,38.76264],[-90.33726,38.76109],[-90.33749,38.7601],[-90.33758,38.75961],[-90.33761,38.75935],[-90.33758,38.75913],[-90.3375,38.75886],[-90.33742,38.75868],[-90.33719,38.75837],[-90.33701,38.75822],[-90.33682,38.75809],[-90.33666,38.75801],[-90.33537,38.75752],[-90.33507,38.75736],[-90.3349,38.75723],[-90.33475,38.75709],[-90.33462,38.75693],[-90.33451,38.75675],[-90.33443,38.75655],[-90.33439,38.75634],[-90.33438,38.75601],[-90.33443,38.75572],[-90.3345,38.75547],[-90.33456,38.75506],[-90.33488,38.75347],[-90.33529,38.75167],[-90.33533,38.75141],[-90.33535,38.75109],[-90.33532,38.75078],[-90.33516,38.75003],[-90.33508,38.74955],[-90.335,38.7489],[-90.33496,38.74841],[-90.33471,38.74461],[-90.33469,38.7432],[-90.3347,38.7424],[-90.33469,38.74089],[-90.33465,38.74067],[-90.33456,38.74036],[-90.33447,38.74017],[-90.33162,38.73574],[-90.33123,38.73519],[-90.33102,38.73493],[-90.33078,38.73469],[-90.32729,38.73206],[-90.32658,38.73149],[-90.32519,38.73046],[-90.32439,38.72978],[-90.32411,38.72958],[-90.32373,38.72935],[-90.32011,38.7275],[-90.3198,38.72732],[-90.31953,38.72712],[-90.31928,38.72689],[-90.31906,38.72665],[-90.31723,38.72455],[-90.31696,38.72414],[-90.31687,38.72395],[-90.31679,38.72365],[-90.31677,38.72334],[-90.31685,38.7229],[-90.31708,38.7221],[-90.31718,38.72166],[-90.31719,38.72146],[-90.31713,38.72098],[-90.3171,38.72013],[-90.31716,38.71967],[-90.31721,38.71952],[-90.31762,38.71869],[-90.31782,38.71823],[-90.31624,38.71782],[-90.31581,38.71782],[-90.31494,38.71791],[-90.31441,38.71785],[-90.31392,38.71763],[-90.31372,38.71823],[-90.31376,38.7184],[-90.31429,38.71978],[-90.3144,38.71981]],[[-90.33684,38.76309],[-90.33662,38.76419],[-90.33684,38.76309]]]}},{"type":"Feature","properties":{"stop_id":"13330","stop_code":"13330","stop_name":"NORTH HANLEY TRANSIT CENTER","wheelchair_boarding":1,"routes":[{"route_id":"19594","agency_id":"70006","route_short_name":"4","route_long_name":"Natural Bridge","route_type":3,"route_color":"#FFFFFF","route_text_color":"#000000"},{"route_id":"19609","agency_id":"70006","route_short_name":"34","route_long_name":"Earth City","route_type":3,"route_color":"#FFFFFF","route_text_color":"#000000"},{"route_id":"19614","agency_id":"70006","route_short_name":"49","route_long_name":"Lindbergh","route_type":3,"route_color":"#FFFFFF","route_text_color":"#000000"},{"route_id":"19620","agency_id":"70006","route_short_name":"61","route_long_name":"Chambers Rd","route_type":3,"route_color":"#FFFFFF","route_text_color":"#000000"},{"route_id":"19625","agency_id":"70006","route_short_name":"76","route_long_name":"N Hanley Shuttle","route_type":3,"route_color":"#FFFFFF","route_text_color":"#000000"},{"route_id":"19626","agency_id":"70006","route_short_name":"77","route_long_name":"Village Square","route_type":3,"route_color":"#FFFFFF","route_text_color":"#000000"},{"route_id":"19628","agency_id":"70006","route_short_name":"79","route_long_name":"Ferguson-Clayton","route_type":3,"route_color":"#FFFFFF","route_text_color":"#000000"}],"agency_name":"Metro St. Louis"},"geometry":{"type":"Point","coordinates":[-90.31495,38.71976]}},{"type":"Feature","properties":{"stop_id":"13579","stop_code":"13579","stop_name":"VILLAGE SQUARE SHOPPING CENTER","stop_desc":"MID-BLOCK VILLAGE SQUARE SHOPPING CENTER","wheelchair_boarding":1,"routes":[{"route_id":"19626","agency_id":"70006","route_short_name":"77","route_long_name":"Village Square","route_type":3,"route_color":"#FFFFFF","route_text_color":"#000000"}],"agency_name":"Metro St. Louis"},"geometry":{"type":"Point","coordinates":[-90.36014,38.78213]}},{"type":"Feature","properties":{"stop_id":"14644","stop_code":"14644","stop_name":"LINDBERGH @ CHARBONIER SB","stop_desc":"FAR SIDE LINDBERGH @ CHARBONIER SB","wheelchair_boarding":1,"routes":[{"route_id":"19626","agency_id":"70006","route_short_name":"77","route_long_name":"Village Square","route_type":3,"route_color":"#FFFFFF","route_text_color":"#000000"}],"agency_name":"Metro St. Louis"},"geometry":{"type":"Point","coordinates":[-90.33969,38.79613]}},{"type":"Feature","properties":{"stop_id":"14645","stop_code":"14645","stop_name":"LINDBERGH @ MANRESA SB","stop_desc":"FAR SIDE LINDBERGH @ MANRESA SB","wheelchair_boarding":2,"routes":[{"route_id":"19626","agency_id":"70006","route_short_name":"77","route_long_name":"Village Square","route_type":3,"route_color":"#FFFFFF","route_text_color":"#000000"}],"agency_name":"Metro St. Louis"},"geometry":{"type":"Point","coordinates":[-90.34634,38.79016]}},{"type":"Feature","properties":{"stop_id":"14708","stop_code":"14708","stop_name":"WEST FLORISSANT @ SEVEN HILLS NB","stop_desc":"NEAR SIDE WEST FLORISSANT @ SEVEN HILLS NB","wheelchair_boarding":2,"routes":[{"route_id":"19626","agency_id":"70006","route_short_name":"77","route_long_name":"Village Square","route_type":3,"route_color":"#FFFFFF","route_text_color":"#000000"}],"agency_name":"Metro St. Louis"},"geometry":{"type":"Point","coordinates":[-90.28096,38.77828]}},{"type":"Feature","properties":{"stop_id":"15534","stop_code":"15534","stop_name":"WEST FLORISSANT @ CLOCKTOWER NB","stop_desc":"MID-BLOCK WEST FLORISSANT @ CLOCKTOWER NB","wheelchair_boarding":2,"routes":[{"route_id":"19626","agency_id":"70006","route_short_name":"77","route_long_name":"Village Square","route_type":3,"route_color":"#FFFFFF","route_text_color":"#000000"}],"agency_name":"Metro St. Louis"},"geometry":{"type":"Point","coordinates":[-90.27987,38.77271]}},{"type":"Feature","properties":{"stop_id":"16251","stop_code":"16251","stop_name":"NORTH COUNTY TRANSIT CENTER","wheelchair_boarding":1,"routes":[{"route_id":"19611","agency_id":"70006","route_short_name":"40","route_long_name":"Broadway-Halls Ferry","route_type":3,"route_color":"#FFFFFF","route_text_color":"#000000"},{"route_id":"19626","agency_id":"70006","route_short_name":"77","route_long_name":"Village Square","route_type":3,"route_color":"#FFFFFF","route_text_color":"#000000"},{"route_id":"19627","agency_id":"70006","route_short_name":"78","route_long_name":"Bellefontaine","route_type":3,"route_color":"#FFFFFF","route_text_color":"#000000"},{"route_id":"19628","agency_id":"70006","route_short_name":"79","route_long_name":"Ferguson-Clayton","route_type":3,"route_color":"#FFFFFF","route_text_color":"#000000"}],"agency_name":"Metro St. Louis"},"geometry":{"type":"Point","coordinates":[-90.27521,38.7698]}},{"type":"Feature","properties":{"stop_id":"16274","stop_code":"16274","stop_name":"8920 PERSHALL EB","stop_desc":"FAR SIDE 8920 PERSHALL EB","wheelchair_boarding":1,"routes":[{"route_id":"19626","agency_id":"70006","route_short_name":"77","route_long_name":"Village Square","route_type":3,"route_color":"#FFFFFF","route_text_color":"#000000"}],"agency_name":"Metro St. Louis"},"geometry":{"type":"Point","coordinates":[-90.34611,38.77636]}},{"type":"Feature","properties":{"stop_id":"16276","stop_code":"16276","stop_name":"PERSHALL @ FORD NB","stop_desc":"FAR SIDE PERSHALL @ FORD NB","wheelchair_boarding":2,"routes":[{"route_id":"19626","agency_id":"70006","route_short_name":"77","route_long_name":"Village Square","route_type":3,"route_color":"#FFFFFF","route_text_color":"#000000"}],"agency_name":"Metro St. Louis"},"geometry":{"type":"Point","coordinates":[-90.35886,38.7765]}},{"type":"Feature","properties":{"stop_id":"16405","stop_code":"16405","stop_name":"NORTH HANLEY @ IRVINGTON SB","stop_desc":"NEAR SIDE NORTH HANLEY @ IRVINGTON SB","wheelchair_boarding":2,"routes":[{"route_id":"19620","agency_id":"70006","route_short_name":"61","route_long_name":"Chambers Rd","route_type":3,"route_color":"#FFFFFF","route_text_color":"#000000"},{"route_id":"19625","agency_id":"70006","route_short_name":"76","route_long_name":"N Hanley Shuttle","route_type":3,"route_color":"#FFFFFF","route_text_color":"#000000"},{"route_id":"19626","agency_id":"70006","route_short_name":"77","route_long_name":"Village Square","route_type":3,"route_color":"#FFFFFF","route_text_color":"#000000"},{"route_id":"19635","agency_id":"70006","route_short_name":"100","route_long_name":"Hazelwood","route_type":3,"route_color":"#FFFFFF","route_text_color":"#000000"}],"agency_name":"Metro St. Louis"},"geometry":{"type":"Point","coordinates":[-90.33056,38.73442]}},{"type":"Feature","properties":{"stop_id":"16418","stop_code":"16418","stop_name":"PERSHALL @ NORTH HANLEY EB","stop_desc":"NEAR SIDE PERSHALL @ NORTH HANLEY EB","wheelchair_boarding":2,"routes":[{"route_id":"19625","agency_id":"70006","route_short_name":"76","route_long_name":"N Hanley Shuttle","route_type":3,"route_color":"#FFFFFF","route_text_color":"#000000"},{"route_id":"19626","agency_id":"70006","route_short_name":"77","route_long_name":"Village Square","route_type":3,"route_color":"#FFFFFF","route_text_color":"#000000"}],"agency_name":"Metro St. Louis"},"geometry":{"type":"Point","coordinates":[-90.33709,38.77478]}},{"type":"Feature","properties":{"stop_id":"16466","stop_code":"16466","stop_name":"PERSHALL @ HAZELWOOD EB","stop_desc":"NEAR SIDE PERSHALL @ HAZELWOOD EB","wheelchair_boarding":2,"routes":[{"route_id":"19626","agency_id":"70006","route_short_name":"77","route_long_name":"Village Square","route_type":3,"route_color":"#FFFFFF","route_text_color":"#000000"}],"agency_name":"Metro St. Louis"},"geometry":{"type":"Point","coordinates":[-90.34337,38.77585]}},{"type":"Feature","properties":{"stop_id":"16501","stop_code":"16501","stop_name":"LINDBERGH @ AVIATOR NB","stop_desc":"FAR SIDE LINDBERGH @ AVIATOR NB","wheelchair_boarding":2,"routes":[{"route_id":"19625","agency_id":"70006","route_short_name":"76","route_long_name":"N Hanley Shuttle","route_type":3,"route_color":"#FFFFFF","route_text_color":"#000000"},{"route_id":"19626","agency_id":"70006","route_short_name":"77","route_long_name":"Village Square","route_type":3,"route_color":"#FFFFFF","route_text_color":"#000000"}],"agency_name":"Metro St. Louis"},"geometry":{"type":"Point","coordinates":[-90.3636,38.77144]}},{"type":"Feature","properties":{"stop_id":"16518","stop_code":"16518","stop_name":"JONAS @ FLEISCHER SB","stop_desc":"NEAR SIDE JONAS @ FLEISCHER SB","wheelchair_boarding":1,"routes":[{"route_id":"19626","agency_id":"70006","route_short_name":"77","route_long_name":"Village Square","route_type":3,"route_color":"#FFFFFF","route_text_color":"#000000"}],"agency_name":"Metro St. Louis"},"geometry":{"type":"Point","coordinates":[-90.34019,38.75998]}},{"type":"Feature","properties":{"stop_id":"16536","stop_code":"16536","stop_name":"6200 PERSHALL NB","stop_desc":"MID-BLOCK 6200 PERSHALL NB","wheelchair_boarding":2,"routes":[{"route_id":"19626","agency_id":"70006","route_short_name":"77","route_long_name":"Village Square","route_type":3,"route_color":"#FFFFFF","route_text_color":"#000000"}],"agency_name":"Metro St. Louis"},"geometry":{"type":"Point","coordinates":[-90.36169,38.77346]}},{"type":"Feature","properties":{"stop_id":"3664","stop_code":"3664","stop_name":"NORTH HANLEY @ AIRPORT SB","stop_desc":"NEAR SIDE NORTH HANLEY @ AIRPORT SB","wheelchair_boarding":2,"routes":[{"route_id":"19626","agency_id":"70006","route_short_name":"77","route_long_name":"Village Square","route_type":3,"route_color":"#FFFFFF","route_text_color":"#000000"}],"agency_name":"Metro St. Louis"},"geometry":{"type":"Point","coordinates":[-90.33537,38.75055]}},{"type":"Feature","properties":{"stop_id":"460","stop_code":"460","stop_name":"LINDBERGH @ ST. FERDINAND WB","stop_desc":"MID-BLOCK LINDBERGH @ ST. FERDINAND WB","wheelchair_boarding":1,"routes":[{"route_id":"19626","agency_id":"70006","route_short_name":"77","route_long_name":"Village Square","route_type":3,"route_color":"#FFFFFF","route_text_color":"#000000"}],"agency_name":"Metro St. Louis"},"geometry":{"type":"Point","coordinates":[-90.32937,38.79953]}},{"type":"Feature","properties":{"stop_id":"5528","stop_code":"5528","stop_name":"LINDBERGH @ NEW HALLS FERRY WB","stop_desc":"MID-BLOCK LINDBERGH @ NEW HALLS FERRY WB","wheelchair_boarding":1,"routes":[{"route_id":"19626","agency_id":"70006","route_short_name":"77","route_long_name":"Village Square","route_type":3,"route_color":"#FFFFFF","route_text_color":"#000000"}],"agency_name":"Metro St. Louis"},"geometry":{"type":"Point","coordinates":[-90.30038,38.80856]}},{"type":"Feature","properties":{"stop_id":"5529","stop_code":"5529","stop_name":"LINDBERGH @ TROTTER WAY WB","stop_desc":"NEAR SIDE LINDBERGH @ TROTTER WAY WB","wheelchair_boarding":2,"routes":[{"route_id":"19626","agency_id":"70006","route_short_name":"77","route_long_name":"Village Square","route_type":3,"route_color":"#FFFFFF","route_text_color":"#000000"}],"agency_name":"Metro St. Louis"},"geometry":{"type":"Point","coordinates":[-90.30455,38.80628]}},{"type":"Feature","properties":{"stop_id":"5530","stop_code":"5530","stop_name":"2375 NORTH LINDBERGH WB","stop_desc":"MID-BLOCK 2375 NORTH LINDBERGH WB","wheelchair_boarding":1,"routes":[{"route_id":"19626","agency_id":"70006","route_short_name":"77","route_long_name":"Village Square","route_type":3,"route_color":"#FFFFFF","route_text_color":"#000000"}],"agency_name":"Metro St. Louis"},"geometry":{"type":"Point","coordinates":[-90.30882,38.80404]}},{"type":"Feature","properties":{"stop_id":"5531","stop_code":"5531","stop_name":"LINDBERGH @ THUNDERBIRD WB","stop_desc":"NEAR SIDE LINDBERGH @ THUNDERBIRD WB","wheelchair_boarding":1,"routes":[{"route_id":"19626","agency_id":"70006","route_short_name":"77","route_long_name":"Village Square","route_type":3,"route_color":"#FFFFFF","route_text_color":"#000000"}],"agency_name":"Metro St. Louis"},"geometry":{"type":"Point","coordinates":[-90.31301,38.80179]}},{"type":"Feature","properties":{"stop_id":"5533","stop_code":"5533","stop_name":"LINDBERGH @ NEW FLORISSANT WB","stop_desc":"NEAR SIDE LINDBERGH @ NEW FLORISSANT WB","wheelchair_boarding":1,"routes":[{"route_id":"19626","agency_id":"70006","route_short_name":"77","route_long_name":"Village Square","route_type":3,"route_color":"#FFFFFF","route_text_color":"#000000"}],"agency_name":"Metro St. Louis"},"geometry":{"type":"Point","coordinates":[-90.31538,38.80051]}},{"type":"Feature","properties":{"stop_id":"5535","stop_code":"5535","stop_name":"1545 NORTH LINDBERGH WB","stop_desc":"MID-BLOCK 1545 NORTH LINDBERGH WB","wheelchair_boarding":1,"routes":[{"route_id":"19626","agency_id":"70006","route_short_name":"77","route_long_name":"Village Square","route_type":3,"route_color":"#FFFFFF","route_text_color":"#000000"}],"agency_name":"Metro St. Louis"},"geometry":{"type":"Point","coordinates":[-90.32013,38.7982]}},{"type":"Feature","properties":{"stop_id":"5536","stop_code":"5536","stop_name":"LINDBERGH @ LAFAYETTE WB","stop_desc":"FAR SIDE LINDBERGH @ LAFAYETTE WB","wheelchair_boarding":1,"routes":[{"route_id":"19626","agency_id":"70006","route_short_name":"77","route_long_name":"Village Square","route_type":3,"route_color":"#FFFFFF","route_text_color":"#000000"}],"agency_name":"Metro St. Louis"},"geometry":{"type":"Point","coordinates":[-90.32198,38.79812]}},{"type":"Feature","properties":{"stop_id":"5537","stop_code":"5537","stop_name":"LINDBERGH @ ST. JEAN WB","stop_desc":"NEAR SIDE LINDBERGH @ ST. JEAN WB","wheelchair_boarding":1,"routes":[{"route_id":"19626","agency_id":"70006","route_short_name":"77","route_long_name":"Village Square","route_type":3,"route_color":"#FFFFFF","route_text_color":"#000000"}],"agency_name":"Metro St. Louis"},"geometry":{"type":"Point","coordinates":[-90.32514,38.79871]}},{"type":"Feature","properties":{"stop_id":"5539","stop_code":"5539","stop_name":"LINDBERGH @ PATTERSON WB","stop_desc":"NEAR SIDE LINDBERGH @ PATTERSON WB","wheelchair_boarding":1,"routes":[{"route_id":"19626","agency_id":"70006","route_short_name":"77","route_long_name":"Village Square","route_type":3,"route_color":"#FFFFFF","route_text_color":"#000000"}],"agency_name":"Metro St. Louis"},"geometry":{"type":"Point","coordinates":[-90.33297,38.80022]}},{"type":"Feature","properties":{"stop_id":"5540","stop_code":"5540","stop_name":"LINDBERGH @ LINDSAY SB","stop_desc":"FAR SIDE LINDBERGH @ LINDSAY SB","wheelchair_boarding":1,"routes":[{"route_id":"19626","agency_id":"70006","route_short_name":"77","route_long_name":"Village Square","route_type":3,"route_color":"#FFFFFF","route_text_color":"#000000"}],"agency_name":"Metro St. Louis"},"geometry":{"type":"Point","coordinates":[-90.33624,38.79944]}},{"type":"Feature","properties":{"stop_id":"5542","stop_code":"5542","stop_name":"LINDBERGH @ MATERDIE SB","stop_desc":"FAR SIDE LINDBERGH @ MATERDIE SB","wheelchair_boarding":1,"routes":[{"route_id":"19626","agency_id":"70006","route_short_name":"77","route_long_name":"Village Square","route_type":3,"route_color":"#FFFFFF","route_text_color":"#000000"}],"agency_name":"Metro St. Louis"},"geometry":{"type":"Point","coordinates":[-90.34224,38.79378]}},{"type":"Feature","properties":{"stop_id":"5546","stop_code":"5546","stop_name":"LINDBERGH @ HAZEL VALLEY SB","stop_desc":"FAR SIDE LINDBERGH @ HAZEL VALLEY SB","wheelchair_boarding":1,"routes":[{"route_id":"19626","agency_id":"70006","route_short_name":"77","route_long_name":"Village Square","route_type":3,"route_color":"#FFFFFF","route_text_color":"#000000"}],"agency_name":"Metro St. Louis"},"geometry":{"type":"Point","coordinates":[-90.34844,38.7884]}},{"type":"Feature","properties":{"stop_id":"5547","stop_code":"5547","stop_name":"LINDBERGH @ QUEEN ANN SB","stop_desc":"FAR SIDE LINDBERGH @ QUEEN ANN SB","wheelchair_boarding":1,"routes":[{"route_id":"19626","agency_id":"70006","route_short_name":"77","route_long_name":"Village Square","route_type":3,"route_color":"#FFFFFF","route_text_color":"#000000"}],"agency_name":"Metro St. Louis"},"geometry":{"type":"Point","coordinates":[-90.35031,38.78717]}},{"type":"Feature","properties":{"stop_id":"5548","stop_code":"5548","stop_name":"LINDBERGH @ ELM GROVE SB","stop_desc":"NEAR SIDE LINDBERGH @ ELM GROVE SB","wheelchair_boarding":1,"routes":[{"route_id":"19626","agency_id":"70006","route_short_name":"77","route_long_name":"Village Square","route_type":3,"route_color":"#FFFFFF","route_text_color":"#000000"}],"agency_name":"Metro St. Louis"},"geometry":{"type":"Point","coordinates":[-90.35411,38.7847]}},{"type":"Feature","properties":{"stop_id":"5869","stop_code":"5869","stop_name":"NORTH HANLEY @ SANTA BELLA SB","stop_desc":"FAR SIDE NORTH HANLEY @ SANTA BELLA SB","wheelchair_boarding":1,"routes":[{"route_id":"19626","agency_id":"70006","route_short_name":"77","route_long_name":"Village Square","route_type":3,"route_color":"#FFFFFF","route_text_color":"#000000"}],"agency_name":"Metro St. Louis"},"geometry":{"type":"Point","coordinates":[-90.33532,38.77246]}},{"type":"Feature","properties":{"stop_id":"5872","stop_code":"5872","stop_name":"NORTH HANLEY @ LATTY SB","stop_desc":"NEAR SIDE NORTH HANLEY @ LATTY SB","wheelchair_boarding":2,"routes":[{"route_id":"19626","agency_id":"70006","route_short_name":"77","route_long_name":"Village Square","route_type":3,"route_color":"#FFFFFF","route_text_color":"#000000"}],"agency_name":"Metro St. Louis"},"geometry":{"type":"Point","coordinates":[-90.33599,38.76767]}},{"type":"Feature","properties":{"stop_id":"5875","stop_code":"5875","stop_name":"NORTH HANLEY @ FROST SB","stop_desc":"FAR SIDE NORTH HANLEY @ FROST SB","wheelchair_boarding":2,"routes":[{"route_id":"19625","agency_id":"70006","route_short_name":"76","route_long_name":"N Hanley Shuttle","route_type":3,"route_color":"#FFFFFF","route_text_color":"#000000"},{"route_id":"19626","agency_id":"70006","route_short_name":"77","route_long_name":"Village Square","route_type":3,"route_color":"#FFFFFF","route_text_color":"#000000"}],"agency_name":"Metro St. Louis"},"geometry":{"type":"Point","coordinates":[-90.33724,38.7616]}},{"type":"Feature","properties":{"stop_id":"5877","stop_code":"5877","stop_name":"NORTH HANLEY @ JO COURT SB","stop_desc":"NEAR SIDE NORTH HANLEY @ JO COURT SB","wheelchair_boarding":2,"routes":[{"route_id":"19625","agency_id":"70006","route_short_name":"76","route_long_name":"N Hanley Shuttle","route_type":3,"route_color":"#FFFFFF","route_text_color":"#000000"},{"route_id":"19626","agency_id":"70006","route_short_name":"77","route_long_name":"Village Square","route_type":3,"route_color":"#FFFFFF","route_text_color":"#000000"}],"agency_name":"Metro St. Louis"},"geometry":{"type":"Point","coordinates":[-90.33498,38.7533]}},{"type":"Feature","properties":{"stop_id":"5878","stop_code":"5878","stop_name":"NORTH HANLEY @ AIRPORT SB","stop_desc":"FAR SIDE NORTH HANLEY @ AIRPORT SB","wheelchair_boarding":1,"routes":[{"route_id":"19620","agency_id":"70006","route_short_name":"61","route_long_name":"Chambers Rd","route_type":3,"route_color":"#FFFFFF","route_text_color":"#000000"},{"route_id":"19625","agency_id":"70006","route_short_name":"76","route_long_name":"N Hanley Shuttle","route_type":3,"route_color":"#FFFFFF","route_text_color":"#000000"},{"route_id":"19626","agency_id":"70006","route_short_name":"77","route_long_name":"Village Square","route_type":3,"route_color":"#FFFFFF","route_text_color":"#000000"}],"agency_name":"Metro St. Louis"},"geometry":{"type":"Point","coordinates":[-90.33509,38.74922]}},{"type":"Feature","properties":{"stop_id":"5879","stop_code":"5879","stop_name":"NORTH HANLEY @ STELLA SB","stop_desc":"NEAR SIDE NORTH HANLEY @ STELLA SB","wheelchair_boarding":1,"routes":[{"route_id":"19620","agency_id":"70006","route_short_name":"61","route_long_name":"Chambers Rd","route_type":3,"route_color":"#FFFFFF","route_text_color":"#000000"},{"route_id":"19625","agency_id":"70006","route_short_name":"76","route_long_name":"N Hanley Shuttle","route_type":3,"route_color":"#FFFFFF","route_text_color":"#000000"},{"route_id":"19626","agency_id":"70006","route_short_name":"77","route_long_name":"Village Square","route_type":3,"route_color":"#FFFFFF","route_text_color":"#000000"},{"route_id":"19635","agency_id":"70006","route_short_name":"100","route_long_name":"Hazelwood","route_type":3,"route_color":"#FFFFFF","route_text_color":"#000000"}],"agency_name":"Metro St. Louis"},"geometry":{"type":"Point","coordinates":[-90.33491,38.74694]}},{"type":"Feature","properties":{"stop_id":"5880","stop_code":"5880","stop_name":"NORTH HANLEY @ MADISON SB","stop_desc":"NEAR SIDE NORTH HANLEY @ MADISON SB","wheelchair_boarding":1,"routes":[{"route_id":"19620","agency_id":"70006","route_short_name":"61","route_long_name":"Chambers Rd","route_type":3,"route_color":"#FFFFFF","route_text_color":"#000000"},{"route_id":"19625","agency_id":"70006","route_short_name":"76","route_long_name":"N Hanley Shuttle","route_type":3,"route_color":"#FFFFFF","route_text_color":"#000000"},{"route_id":"19626","agency_id":"70006","route_short_name":"77","route_long_name":"Village Square","route_type":3,"route_color":"#FFFFFF","route_text_color":"#000000"},{"route_id":"19635","agency_id":"70006","route_short_name":"100","route_long_name":"Hazelwood","route_type":3,"route_color":"#FFFFFF","route_text_color":"#000000"}],"agency_name":"Metro St. Louis"},"geometry":{"type":"Point","coordinates":[-90.33483,38.74555]}},{"type":"Feature","properties":{"stop_id":"5881","stop_code":"5881","stop_name":"5861 NORTH HANLEY SB","stop_desc":"NEAR SIDE 5861 NORTH HANLEY SB","wheelchair_boarding":1,"routes":[{"route_id":"19620","agency_id":"70006","route_short_name":"61","route_long_name":"Chambers Rd","route_type":3,"route_color":"#FFFFFF","route_text_color":"#000000"},{"route_id":"19625","agency_id":"70006","route_short_name":"76","route_long_name":"N Hanley Shuttle","route_type":3,"route_color":"#FFFFFF","route_text_color":"#000000"},{"route_id":"19626","agency_id":"70006","route_short_name":"77","route_long_name":"Village Square","route_type":3,"route_color":"#FFFFFF","route_text_color":"#000000"},{"route_id":"19635","agency_id":"70006","route_short_name":"100","route_long_name":"Hazelwood","route_type":3,"route_color":"#FFFFFF","route_text_color":"#000000"}],"agency_name":"Metro St. Louis"},"geometry":{"type":"Point","coordinates":[-90.33476,38.74327]}},{"type":"Feature","properties":{"stop_id":"5882","stop_code":"5882","stop_name":"NORTH HANLEY @ SCUDDER SB","stop_desc":"FAR SIDE NORTH HANLEY @ SCUDDER SB","wheelchair_boarding":1,"routes":[{"route_id":"19620","agency_id":"70006","route_short_name":"61","route_long_name":"Chambers Rd","route_type":3,"route_color":"#FFFFFF","route_text_color":"#000000"},{"route_id":"19625","agency_id":"70006","route_short_name":"76","route_long_name":"N Hanley Shuttle","route_type":3,"route_color":"#FFFFFF","route_text_color":"#000000"},{"route_id":"19626","agency_id":"70006","route_short_name":"77","route_long_name":"Village Square","route_type":3,"route_color":"#FFFFFF","route_text_color":"#000000"},{"route_id":"19635","agency_id":"70006","route_short_name":"100","route_long_name":"Hazelwood","route_type":3,"route_color":"#FFFFFF","route_text_color":"#000000"}],"agency_name":"Metro St. Louis"},"geometry":{"type":"Point","coordinates":[-90.3348,38.74089]}},{"type":"Feature","properties":{"stop_id":"5892","stop_code":"5892","stop_name":"NORTH HANLEY @ REV JOHN MITCHELL SB","stop_desc":"NEAR SIDE NORTH HANLEY @ REV JOHN MITCHELL SB","wheelchair_boarding":1,"routes":[{"route_id":"19620","agency_id":"70006","route_short_name":"61","route_long_name":"Chambers Rd","route_type":3,"route_color":"#FFFFFF","route_text_color":"#000000"},{"route_id":"19625","agency_id":"70006","route_short_name":"76","route_long_name":"N Hanley Shuttle","route_type":3,"route_color":"#FFFFFF","route_text_color":"#000000"},{"route_id":"19626","agency_id":"70006","route_short_name":"77","route_long_name":"Village Square","route_type":3,"route_color":"#FFFFFF","route_text_color":"#000000"},{"route_id":"19635","agency_id":"70006","route_short_name":"100","route_long_name":"Hazelwood","route_type":3,"route_color":"#FFFFFF","route_text_color":"#000000"}],"agency_name":"Metro St. Louis"},"geometry":{"type":"Point","coordinates":[-90.32554,38.73062]}},{"type":"Feature","properties":{"stop_id":"5894","stop_code":"5894","stop_name":"NORTH HANLEY @ ZEV SB","stop_desc":"FAR SIDE NORTH HANLEY @ ZEV SB","wheelchair_boarding":1,"routes":[{"route_id":"19620","agency_id":"70006","route_short_name":"61","route_long_name":"Chambers Rd","route_type":3,"route_color":"#FFFFFF","route_text_color":"#000000"},{"route_id":"19625","agency_id":"70006","route_short_name":"76","route_long_name":"N Hanley Shuttle","route_type":3,"route_color":"#FFFFFF","route_text_color":"#000000"},{"route_id":"19626","agency_id":"70006","route_short_name":"77","route_long_name":"Village Square","route_type":3,"route_color":"#FFFFFF","route_text_color":"#000000"},{"route_id":"19635","agency_id":"70006","route_short_name":"100","route_long_name":"Hazelwood","route_type":3,"route_color":"#FFFFFF","route_text_color":"#000000"}],"agency_name":"Metro St. Louis"},"geometry":{"type":"Point","coordinates":[-90.32152,38.72815]}},{"type":"Feature","properties":{"stop_id":"5898","stop_code":"5898","stop_name":"NORTH HANLEY @ EVANS SB","stop_desc":"NEAR SIDE NORTH HANLEY @ EVANS SB","wheelchair_boarding":1,"routes":[{"route_id":"19620","agency_id":"70006","route_short_name":"61","route_long_name":"Chambers Rd","route_type":3,"route_color":"#FFFFFF","route_text_color":"#000000"},{"route_id":"19625","agency_id":"70006","route_short_name":"76","route_long_name":"N Hanley Shuttle","route_type":3,"route_color":"#FFFFFF","route_text_color":"#000000"},{"route_id":"19626","agency_id":"70006","route_short_name":"77","route_long_name":"Village Square","route_type":3,"route_color":"#FFFFFF","route_text_color":"#000000"},{"route_id":"19635","agency_id":"70006","route_short_name":"100","route_long_name":"Hazelwood","route_type":3,"route_color":"#FFFFFF","route_text_color":"#000000"}],"agency_name":"Metro St. Louis"},"geometry":{"type":"Point","coordinates":[-90.31705,38.72412]}},{"type":"Feature","properties":{"stop_id":"6086","stop_code":"6086","stop_name":"FLEISCHER @ LHB INDUSTRIES WB","stop_desc":"MID-BLOCK FLEISCHER @ LHB INDUSTRIES WB","wheelchair_boarding":1,"routes":[{"route_id":"19626","agency_id":"70006","route_short_name":"77","route_long_name":"Village Square","route_type":3,"route_color":"#FFFFFF","route_text_color":"#000000"}],"agency_name":"Metro St. Louis"},"geometry":{"type":"Point","coordinates":[-90.34172,38.75872]}},{"type":"Feature","properties":{"stop_id":"6691","stop_code":"6691","stop_name":"NEW HALLS FERRY @ WEST FLORISSANT NB","stop_desc":"FAR SIDE NEW HALLS FERRY @ WEST FLORISSANT NB","wheelchair_boarding":2,"routes":[{"route_id":"19626","agency_id":"70006","route_short_name":"77","route_long_name":"Village Square","route_type":3,"route_color":"#FFFFFF","route_text_color":"#000000"}],"agency_name":"Metro St. Louis"},"geometry":{"type":"Point","coordinates":[-90.27869,38.78222]}},{"type":"Feature","properties":{"stop_id":"6693","stop_code":"6693","stop_name":"NEW HALLS FERRY @ HELMKAMPF NB","stop_desc":"NEAR SIDE NEW HALLS FERRY @ HELMKAMPF NB","wheelchair_boarding":1,"routes":[{"route_id":"19626","agency_id":"70006","route_short_name":"77","route_long_name":"Village Square","route_type":3,"route_color":"#FFFFFF","route_text_color":"#000000"}],"agency_name":"Metro St. Louis"},"geometry":{"type":"Point","coordinates":[-90.27914,38.78512]}},{"type":"Feature","properties":{"stop_id":"6694","stop_code":"6694","stop_name":"NEW HALLS FERRY @ GREENGRASS NB","stop_desc":"NEAR SIDE NEW HALLS FERRY @ GREENGRASS NB","wheelchair_boarding":2,"routes":[{"route_id":"19626","agency_id":"70006","route_short_name":"77","route_long_name":"Village Square","route_type":3,"route_color":"#FFFFFF","route_text_color":"#000000"}],"agency_name":"Metro St. Louis"},"geometry":{"type":"Point","coordinates":[-90.28063,38.78732]}},{"type":"Feature","properties":{"stop_id":"6695","stop_code":"6695","stop_name":"NEW HALLS FERRY @ HEARTHSTONE NB","stop_desc":"FAR SIDE NEW HALLS FERRY @ HEARTHSTONE NB","wheelchair_boarding":1,"routes":[{"route_id":"19626","agency_id":"70006","route_short_name":"77","route_long_name":"Village Square","route_type":3,"route_color":"#FFFFFF","route_text_color":"#000000"}],"agency_name":"Metro St. Louis"},"geometry":{"type":"Point","coordinates":[-90.28334,38.78979]}},{"type":"Feature","properties":{"stop_id":"6696","stop_code":"6696","stop_name":"12800 NEW HALLS FERRY NB","stop_desc":"MID-BLOCK 12800 NEW HALLS FERRY NB","wheelchair_boarding":1,"routes":[{"route_id":"19626","agency_id":"70006","route_short_name":"77","route_long_name":"Village Square","route_type":3,"route_color":"#FFFFFF","route_text_color":"#000000"}],"agency_name":"Metro St. Louis"},"geometry":{"type":"Point","coordinates":[-90.28452,38.79089]}},{"type":"Feature","properties":{"stop_id":"6698","stop_code":"6698","stop_name":"NEW HALLS FERRY @ PARKER NB","stop_desc":"FAR SIDE NEW HALLS FERRY @ PARKER NB","wheelchair_boarding":2,"routes":[{"route_id":"19626","agency_id":"70006","route_short_name":"77","route_long_name":"Village Square","route_type":3,"route_color":"#FFFFFF","route_text_color":"#000000"}],"agency_name":"Metro St. Louis"},"geometry":{"type":"Point","coordinates":[-90.28763,38.7938]}},{"type":"Feature","properties":{"stop_id":"6699","stop_code":"6699","stop_name":"NEW HALLS FERRY @ PARKER SPUR NB","stop_desc":"FAR SIDE NEW HALLS FERRY @ PARKER SPUR NB","wheelchair_boarding":1,"routes":[{"route_id":"19626","agency_id":"70006","route_short_name":"77","route_long_name":"Village Square","route_type":3,"route_color":"#FFFFFF","route_text_color":"#000000"}],"agency_name":"Metro St. Louis"},"geometry":{"type":"Point","coordinates":[-90.28962,38.79568]}},{"type":"Feature","properties":{"stop_id":"6701","stop_code":"6701","stop_name":"NEW HALLS FERRY @ ESTATES NB","stop_desc":"FAR SIDE NEW HALLS FERRY @ ESTATES NB","wheelchair_boarding":1,"routes":[{"route_id":"19626","agency_id":"70006","route_short_name":"77","route_long_name":"Village Square","route_type":3,"route_color":"#FFFFFF","route_text_color":"#000000"}],"agency_name":"Metro St. Louis"},"geometry":{"type":"Point","coordinates":[-90.29202,38.79854]}},{"type":"Feature","properties":{"stop_id":"6702","stop_code":"6702","stop_name":"NEW HALLS FERRY @ HAMBLETONIAN NB","stop_desc":"FAR SIDE NEW HALLS FERRY @ HAMBLETONIAN NB","wheelchair_boarding":1,"routes":[{"route_id":"19626","agency_id":"70006","route_short_name":"77","route_long_name":"Village Square","route_type":3,"route_color":"#FFFFFF","route_text_color":"#000000"}],"agency_name":"Metro St. Louis"},"geometry":{"type":"Point","coordinates":[-90.29343,38.80072]}},{"type":"Feature","properties":{"stop_id":"6704","stop_code":"6704","stop_name":"NEW HALLS FERRY @ SANTIAGO NB","stop_desc":"FAR SIDE NEW HALLS FERRY @ SANTIAGO NB","wheelchair_boarding":1,"routes":[{"route_id":"19626","agency_id":"70006","route_short_name":"77","route_long_name":"Village Square","route_type":3,"route_color":"#FFFFFF","route_text_color":"#000000"}],"agency_name":"Metro St. Louis"},"geometry":{"type":"Point","coordinates":[-90.29566,38.80418]}},{"type":"Feature","properties":{"stop_id":"6705","stop_code":"6705","stop_name":"NEW HALLS FERRY @ LEISUREWOOD COURT NB","stop_desc":"FAR SIDE NEW HALLS FERRY @ LEISUREWOOD COURT NB","wheelchair_boarding":1,"routes":[{"route_id":"19626","agency_id":"70006","route_short_name":"77","route_long_name":"Village Square","route_type":3,"route_color":"#FFFFFF","route_text_color":"#000000"}],"agency_name":"Metro St. Louis"},"geometry":{"type":"Point","coordinates":[-90.29687,38.80607]}}]}