{"type":"FeatureCollection","features":[{"type":"Feature","properties":{"agency_name":"Metro St. Louis","route_id":"19620","agency_id":"70006","route_short_name":"61","route_long_name":"Chambers Rd","route_type":3,"route_color":"#FFFFFF","route_text_color":"#000000"},"geometry":{"type":"MultiLineString","coordinates":[[[-90.22412,38.72709],[-90.22387,38.72718],[-90.22449,38.72696],[-90.22458,38.72698],[-90.22461,38.72701],[-90.22463,38.72705],[-90.22461,38.72711],[-90.22397,38.72733],[-90.22392,38.72735],[-90.22388,38.7274],[-90.22386,38.72748],[-90.22406,38.72761],[-90.22596,38.72711],[-90.22664,38.72704],[-90.22696,38.72699],[-90.22792,38.72679],[-90.22805,38.72824],[-90.22815,38.72912],[-90.22816,38.72958],[-90.22808,38.73026],[-90.22793,38.73084],[-90.22786,38.73119],[-90.22744,38.73261],[-90.22714,38.73371],[-90.22667,38.73549],[-90.22639,38.73665],[-90.22624,38.73708],[-90.2262,38.73728],[-90.22618,38.73765],[-90.22621,38.73903],[-90.22615,38.7396],[-90.22609,38.73994],[-90.22552,38.74237],[-90.22512,38.74419],[-90.22486,38.74553],[-90.22402,38.74948],[-90.22848,38.74996],[-90.22912,38.74995],[-90.22996,38.74988],[-90.23033,38.7499],[-90.23502,38.75039],[-90.23638,38.75056],[-90.2385,38.75076],[-90.24091,38.75105],[-90.2415,38.75109],[-90.24173,38.75108],[-90.24442,38.7511],[-90.24711,38.75116],[-90.24852,38.75108],[-90.24915,38.75097],[-90.24972,38.7508],[-90.25016,38.75064],[-90.25172,38.74996],[-90.25277,38.74953],[-90.25303,38.74946],[-90.25353,38.74937],[-90.25443,38.74924],[-90.25529,38.74926],[-90.2718,38.74939],[-90.27316,38.74938],[-90.28197,38.74942],[-90.28341,38.74941],[-90.28536,38.74942],[-90.28767,38.74939],[-90.2904,38.7494],[-90.29647,38.74931],[-90.29998,38.74924],[-90.30036,38.7492],[-90.30066,38.74915],[-90.30153,38.74896],[-90.30232,38.7489],[-90.30489,38.74879],[-90.30569,38.74872],[-90.30718,38.74855],[-90.30838,38.74834],[-90.30861,38.74827],[-90.30903,38.74809],[-90.30971,38.74764],[-90.30993,38.74759],[-90.31087,38.74731],[-90.31104,38.74727],[-90.31133,38.74723],[-90.31158,38.74717],[-90.31261,38.74666],[-90.31287,38.74655],[-90.31316,38.74646],[-90.31392,38.74638],[-90.31468,38.7464],[-90.31491,38.74642],[-90.31525,38.74648],[-90.31567,38.74666],[-90.31585,38.74678],[-90.31599,38.7469],[-90.31723,38.74806],[-90.31741,38.74819],[-90.31765,38.74833],[-90.31804,38.74848],[-90.32153,38.74937],[-90.32198,38.74942],[-90.32273,38.74944],[-90.32522,38.74945],[-90.32589,38.74946],[-90.32616,38.74948],[-90.32645,38.74952],[-90.32684,38.74962],[-90.32755,38.74988],[-90.32774,38.74993],[-90.32795,38.74998],[-90.32833,38.75001],[-90.33357,38.75004],[-90.33471,38.75006],[-90.33516,38.75003],[-90.33508,38.74955],[-90.335,38.7489],[-90.33496,38.74841],[-90.33471,38.74461],[-90.33469,38.7432],[-90.3347,38.74116],[-90.33469,38.74089],[-90.33465,38.74067],[-90.33456,38.74036],[-90.33447,38.74017],[-90.33162,38.73574],[-90.33123,38.73519],[-90.33102,38.73493],[-90.33078,38.73469],[-90.32729,38.73206],[-90.32658,38.73149],[-90.32519,38.73046],[-90.32439,38.72978],[-90.32411,38.72958],[-90.32373,38.72935],[-90.32011,38.7275],[-90.3198,38.72732],[-90.31953,38.72712],[-90.31928,38.72689],[-90.31906,38.72665],[-90.31723,38.72455],[-90.31696,38.72414],[-90.31687,38.72395],[-90.31679,38.72365],[-90.31677,38.72334],[-90.31685,38.7229],[-90.31708,38.7221],[-90.31718,38.72166],[-90.31719,38.72146],[-90.31713,38.72098],[-90.3171,38.72013],[-90.31716,38.71967],[-90.31721,38.71952],[-90.31762,38.71869],[-90.31782,38.71823],[-90.31624,38.71782],[-90.31581,38.71782],[-90.31494,38.71791],[-90.31441,38.71785],[-90.31392,38.71763],[-90.31372,38.71823],[-90.31376,38.7184],[-90.31429,38.71978],[-90.3144,38.71981]]]}},{"type":"Feature","properties":{"stop_id":"13330","stop_code":"13330","stop_name":"NORTH HANLEY TRANSIT CENTER","wheelchair_boarding":1,"routes":[{"route_id":"19594","agency_id":"70006","route_short_name":"4","route_long_name":"Natural Bridge","route_type":3,"route_color":"#FFFFFF","route_text_color":"#000000"},{"route_id":"19609","agency_id":"70006","route_short_name":"34","route_long_name":"Earth City","route_type":3,"route_color":"#FFFFFF","route_text_color":"#000000"},{"route_id":"19614","agency_id":"70006","route_short_name":"49","route_long_name":"Lindbergh","route_type":3,"route_color":"#FFFFFF","route_text_color":"#000000"},{"route_id":"19620","agency_id":"70006","route_short_name":"61","route_long_name":"Chambers Rd","route_type":3,"route_color":"#FFFFFF","route_text_color":"#000000"},{"route_id":"19625","agency_id":"70006","route_short_name":"76","route_long_name":"N Hanley Shuttle","route_type":3,"route_color":"#FFFFFF","route_text_color":"#000000"},{"route_id":"19626","agency_id":"70006","route_short_name":"77","route_long_name":"Village Square","route_type":3,"route_color":"#FFFFFF","route_text_color":"#000000"},{"route_id":"19628","agency_id":"70006","route_short_name":"79","route_long_name":"Ferguson-Clayton","route_type":3,"route_color":"#FFFFFF","route_text_color":"#000000"}],"agency_name":"Metro St. Louis"},"geometry":{"type":"Point","coordinates":[-90.31495,38.71976]}},{"type":"Feature","properties":{"stop_id":"15489","stop_code":"15489","stop_name":"8937 RIVERVIEW WB","stop_desc":"MID-BLOCK 8937 RIVERVIEW WB","wheelchair_boarding":2,"routes":[{"route_id":"19601","agency_id":"70006","route_short_name":"16","route_long_name":"City Limits","route_type":3,"route_color":"#FFFFFF","route_text_color":"#000000"},{"route_id":"19611","agency_id":"70006","route_short_name":"40","route_long_name":"Broadway-Halls Ferry","route_type":3,"route_color":"#FFFFFF","route_text_color":"#000000"},{"route_id":"19612","agency_id":"70006","route_short_name":"41","route_long_name":"Lee","route_type":3,"route_color":"#FFFFFF","route_text_color":"#000000"},{"route_id":"19619","agency_id":"70006","route_short_name":"60","route_long_name":"Shepley-Lilac","route_type":3,"route_color":"#FFFFFF","route_text_color":"#000000"},{"route_id":"19620","agency_id":"70006","route_short_name":"61","route_long_name":"Chambers Rd","route_type":3,"route_color":"#FFFFFF","route_text_color":"#000000"},{"route_id":"19621","agency_id":"70006","route_short_name":"64","route_long_name":"Lucas-Hunt","route_type":3,"route_color":"#FFFFFF","route_text_color":"#000000"},{"route_id":"19627","agency_id":"70006","route_short_name":"78","route_long_name":"Bellefontaine","route_type":3,"route_color":"#FFFFFF","route_text_color":"#000000"},{"route_id":"19629","agency_id":"70006","route_short_name":"90","route_long_name":"Hampton","route_type":3,"route_color":"#FFFFFF","route_text_color":"#000000"}],"agency_name":"Metro St. Louis"},"geometry":{"type":"Point","coordinates":[-90.22641,38.72709]}},{"type":"Feature","properties":{"stop_id":"16090","stop_code":"16090","stop_name":"RIVERVIEW TRANSIT CENTER","wheelchair_boarding":1,"routes":[{"route_id":"19620","agency_id":"70006","route_short_name":"61","route_long_name":"Chambers Rd","route_type":3,"route_color":"#FFFFFF","route_text_color":"#000000"},{"route_id":"19621","agency_id":"70006","route_short_name":"64","route_long_name":"Lucas-Hunt","route_type":3,"route_color":"#FFFFFF","route_text_color":"#000000"},{"route_id":"19627","agency_id":"70006","route_short_name":"78","route_long_name":"Bellefontaine","route_type":3,"route_color":"#FFFFFF","route_text_color":"#000000"},{"route_id":"19629","agency_id":"70006","route_short_name":"90","route_long_name":"Hampton","route_type":3,"route_color":"#FFFFFF","route_text_color":"#000000"}],"agency_name":"Metro St. Louis"},"geometry":{"type":"Point","coordinates":[-90.22399,38.72717]}},{"type":"Feature","properties":{"stop_id":"16405","stop_code":"16405","stop_name":"NORTH HANLEY @ IRVINGTON SB","stop_desc":"NEAR SIDE NORTH HANLEY @ IRVINGTON SB","wheelchair_boarding":2,"routes":[{"route_id":"19620","agency_id":"70006","route_short_name":"61","route_long_name":"Chambers Rd","route_type":3,"route_color":"#FFFFFF","route_text_color":"#000000"},{"route_id":"19625","agency_id":"70006","route_short_name":"76","route_long_name":"N Hanley Shuttle","route_type":3,"route_color":"#FFFFFF","route_text_color":"#000000"},{"route_id":"19626","agency_id":"70006","route_short_name":"77","route_long_name":"Village Square","route_type":3,"route_color":"#FFFFFF","route_text_color":"#000000"},{"route_id":"19635","agency_id":"70006","route_short_name":"100","route_long_name":"Hazelwood","route_type":3,"route_color":"#FFFFFF","route_text_color":"#000000"}],"agency_name":"Metro St. Louis"},"geometry":{"type":"Point","coordinates":[-90.33056,38.73442]}},{"type":"Feature","properties":{"stop_id":"3620","stop_code":"3620","stop_name":"CHAMBERS @ WEST FLORISSANT WB","stop_desc":"NEAR SIDE CHAMBERS @ WEST FLORISSANT WB","wheelchair_boarding":1,"routes":[{"route_id":"19620","agency_id":"70006","route_short_name":"61","route_long_name":"Chambers Rd","route_type":3,"route_color":"#FFFFFF","route_text_color":"#000000"}],"agency_name":"Metro St. Louis"},"geometry":{"type":"Point","coordinates":[-90.27888,38.7495]}},{"type":"Feature","properties":{"stop_id":"3621","stop_code":"3621","stop_name":"CHAMBERS @ FLORIDALE WB","stop_desc":"NEAR SIDE CHAMBERS @ FLORIDALE WB","wheelchair_boarding":1,"routes":[{"route_id":"19620","agency_id":"70006","route_short_name":"61","route_long_name":"Chambers Rd","route_type":3,"route_color":"#FFFFFF","route_text_color":"#000000"}],"agency_name":"Metro St. Louis"},"geometry":{"type":"Point","coordinates":[-90.28088,38.7495]}},{"type":"Feature","properties":{"stop_id":"3622","stop_code":"3622","stop_name":"CHAMBERS @ DELLWOOD WB","stop_desc":"FAR SIDE CHAMBERS @ DELLWOOD WB","wheelchair_boarding":1,"routes":[{"route_id":"19620","agency_id":"70006","route_short_name":"61","route_long_name":"Chambers Rd","route_type":3,"route_color":"#FFFFFF","route_text_color":"#000000"}],"agency_name":"Metro St. Louis"},"geometry":{"type":"Point","coordinates":[-90.28353,38.74949]}},{"type":"Feature","properties":{"stop_id":"3625","stop_code":"3625","stop_name":"CHAMBERS @ ARGENT WB","stop_desc":"FAR SIDE CHAMBERS @ ARGENT WB","wheelchair_boarding":1,"routes":[{"route_id":"19620","agency_id":"70006","route_short_name":"61","route_long_name":"Chambers Rd","route_type":3,"route_color":"#FFFFFF","route_text_color":"#000000"}],"agency_name":"Metro St. Louis"},"geometry":{"type":"Point","coordinates":[-90.2879,38.74945]}},{"type":"Feature","properties":{"stop_id":"3626","stop_code":"3626","stop_name":"CHAMBERS @ DAY WB","stop_desc":"FAR SIDE CHAMBERS @ DAY WB","wheelchair_boarding":1,"routes":[{"route_id":"19620","agency_id":"70006","route_short_name":"61","route_long_name":"Chambers Rd","route_type":3,"route_color":"#FFFFFF","route_text_color":"#000000"}],"agency_name":"Metro St. Louis"},"geometry":{"type":"Point","coordinates":[-90.28967,38.74945]}},{"type":"Feature","properties":{"stop_id":"3628","stop_code":"3628","stop_name":"CHAMBERS @ COPPINGER WB","stop_desc":"NEAR SIDE CHAMBERS @ COPPINGER WB","wheelchair_boarding":1,"routes":[{"route_id":"19620","agency_id":"70006","route_short_name":"61","route_long_name":"Chambers Rd","route_type":3,"route_color":"#FFFFFF","route_text_color":"#000000"}],"agency_name":"Metro St. Louis"},"geometry":{"type":"Point","coordinates":[-90.29371,38.74941]}},{"type":"Feature","properties":{"stop_id":"3630","stop_code":"3630","stop_name":"CHAMBERS @ MILLMAN WB","stop_desc":"FAR SIDE CHAMBERS @ MILLMAN WB","wheelchair_boarding":1,"routes":[{"route_id":"19620","agency_id":"70006","route_short_name":"61","route_long_name":"Chambers Rd","route_type":3,"route_color":"#FFFFFF","route_text_color":"#000000"}],"agency_name":"Metro St. Louis"},"geometry":{"type":"Point","coordinates":[-90.2979,38.74934]}},{"type":"Feature","properties":{"stop_id":"3631","stop_code":"3631","stop_name":"CHAMBERS @ ELIZABETH WB","stop_desc":"FAR SIDE CHAMBERS @ ELIZABETH WB","wheelchair_boarding":1,"routes":[{"route_id":"19620","agency_id":"70006","route_short_name":"61","route_long_name":"Chambers Rd","route_type":3,"route_color":"#FFFFFF","route_text_color":"#000000"}],"agency_name":"Metro St. Louis"},"geometry":{"type":"Point","coordinates":[-90.30028,38.74927]}},{"type":"Feature","properties":{"stop_id":"3657","stop_code":"3657","stop_name":"AIRPORT @ ABSTON WB","stop_desc":"NEAR SIDE AIRPORT @ ABSTON WB","wheelchair_boarding":2,"routes":[{"route_id":"19620","agency_id":"70006","route_short_name":"61","route_long_name":"Chambers Rd","route_type":3,"route_color":"#FFFFFF","route_text_color":"#000000"}],"agency_name":"Metro St. Louis"},"geometry":{"type":"Point","coordinates":[-90.31722,38.74813]}},{"type":"Feature","properties":{"stop_id":"3658","stop_code":"3658","stop_name":"AIRPORT @ WITSELL WB","stop_desc":"NEAR SIDE AIRPORT @ WITSELL WB","wheelchair_boarding":1,"routes":[{"route_id":"19620","agency_id":"70006","route_short_name":"61","route_long_name":"Chambers Rd","route_type":3,"route_color":"#FFFFFF","route_text_color":"#000000"}],"agency_name":"Metro St. Louis"},"geometry":{"type":"Point","coordinates":[-90.31912,38.74882]}},{"type":"Feature","properties":{"stop_id":"3659","stop_code":"3659","stop_name":"AIRPORT @ PEURIFOY WB","stop_desc":"FAR SIDE AIRPORT @ PEURIFOY WB","wheelchair_boarding":1,"routes":[{"route_id":"19620","agency_id":"70006","route_short_name":"61","route_long_name":"Chambers Rd","route_type":3,"route_color":"#FFFFFF","route_text_color":"#000000"}],"agency_name":"Metro St. Louis"},"geometry":{"type":"Point","coordinates":[-90.3227,38.7495]}},{"type":"Feature","properties":{"stop_id":"3660","stop_code":"3660","stop_name":"AIRPORT @ FAY WB","stop_desc":"NEAR SIDE AIRPORT @ FAY WB","wheelchair_boarding":1,"routes":[{"route_id":"19620","agency_id":"70006","route_short_name":"61","route_long_name":"Chambers Rd","route_type":3,"route_color":"#FFFFFF","route_text_color":"#000000"}],"agency_name":"Metro St. Louis"},"geometry":{"type":"Point","coordinates":[-90.32431,38.74952]}},{"type":"Feature","properties":{"stop_id":"3661","stop_code":"3661","stop_name":"AIRPORT @ TYNDALL WB","stop_desc":"NEAR SIDE AIRPORT @ TYNDALL WB","wheelchair_boarding":2,"routes":[{"route_id":"19620","agency_id":"70006","route_short_name":"61","route_long_name":"Chambers Rd","route_type":3,"route_color":"#FFFFFF","route_text_color":"#000000"}],"agency_name":"Metro St. Louis"},"geometry":{"type":"Point","coordinates":[-90.32774,38.75001]}},{"type":"Feature","properties":{"stop_id":"3663","stop_code":"3663","stop_name":"AIRPORT @ EVERGREEN WB","stop_desc":"NEAR SIDE AIRPORT @ EVERGREEN WB","wheelchair_boarding":1,"routes":[{"route_id":"19620","agency_id":"70006","route_short_name":"61","route_long_name":"Chambers Rd","route_type":3,"route_color":"#FFFFFF","route_text_color":"#000000"}],"agency_name":"Metro St. Louis"},"geometry":{"type":"Point","coordinates":[-90.33206,38.75011]}},{"type":"Feature","properties":{"stop_id":"3716","stop_code":"3716","stop_name":"AIRPORT @ DADE WB","stop_desc":"NEAR SIDE AIRPORT @ DADE WB","wheelchair_boarding":2,"routes":[{"route_id":"19620","agency_id":"70006","route_short_name":"61","route_long_name":"Chambers Rd","route_type":3,"route_color":"#FFFFFF","route_text_color":"#000000"}],"agency_name":"Metro St. Louis"},"geometry":{"type":"Point","coordinates":[-90.31479,38.74648]}},{"type":"Feature","properties":{"stop_id":"4551","stop_code":"4551","stop_name":"CHAMBERS @ BELLEFONTAINE WB","stop_desc":"FAR SIDE CHAMBERS @ BELLEFONTAINE WB","wheelchair_boarding":1,"routes":[{"route_id":"19620","agency_id":"70006","route_short_name":"61","route_long_name":"Chambers Rd","route_type":3,"route_color":"#FFFFFF","route_text_color":"#000000"}],"agency_name":"Metro St. Louis"},"geometry":{"type":"Point","coordinates":[-90.22463,38.74958]}},{"type":"Feature","properties":{"stop_id":"4553","stop_code":"4553","stop_name":"CHAMBERS @ COLONNADE MEADOWS WB","stop_desc":"NEAR SIDE CHAMBERS @ COLONNADE MEADOWS WB","wheelchair_boarding":1,"routes":[{"route_id":"19620","agency_id":"70006","route_short_name":"61","route_long_name":"Chambers Rd","route_type":3,"route_color":"#FFFFFF","route_text_color":"#000000"}],"agency_name":"Metro St. Louis"},"geometry":{"type":"Point","coordinates":[-90.2286,38.74999]}},{"type":"Feature","properties":{"stop_id":"4554","stop_code":"4554","stop_name":"CHAMBERS @ COBURG LANDS WB","stop_desc":"FAR SIDE CHAMBERS @ COBURG LANDS WB","wheelchair_boarding":1,"routes":[{"route_id":"19620","agency_id":"70006","route_short_name":"61","route_long_name":"Chambers Rd","route_type":3,"route_color":"#FFFFFF","route_text_color":"#000000"}],"agency_name":"Metro St. Louis"},"geometry":{"type":"Point","coordinates":[-90.23254,38.75019]}},{"type":"Feature","properties":{"stop_id":"4555","stop_code":"4555","stop_name":"CHAMBERS @ ASHBROOK WB","stop_desc":"NEAR SIDE CHAMBERS @ ASHBROOK WB","wheelchair_boarding":2,"routes":[{"route_id":"19620","agency_id":"70006","route_short_name":"61","route_long_name":"Chambers Rd","route_type":3,"route_color":"#FFFFFF","route_text_color":"#000000"}],"agency_name":"Metro St. Louis"},"geometry":{"type":"Point","coordinates":[-90.23335,38.75025]}},{"type":"Feature","properties":{"stop_id":"4556","stop_code":"4556","stop_name":"CHAMBERS @ NORTHAMPTON WB","stop_desc":"NEAR SIDE CHAMBERS @ NORTHAMPTON WB","wheelchair_boarding":1,"routes":[{"route_id":"19620","agency_id":"70006","route_short_name":"61","route_long_name":"Chambers Rd","route_type":3,"route_color":"#FFFFFF","route_text_color":"#000000"}],"agency_name":"Metro St. Louis"},"geometry":{"type":"Point","coordinates":[-90.2349,38.75045]}},{"type":"Feature","properties":{"stop_id":"4557","stop_code":"4557","stop_name":"CHAMBERS @ LANCE WB","stop_desc":"FAR SIDE CHAMBERS @ LANCE WB","wheelchair_boarding":1,"routes":[{"route_id":"19620","agency_id":"70006","route_short_name":"61","route_long_name":"Chambers Rd","route_type":3,"route_color":"#FFFFFF","route_text_color":"#000000"}],"agency_name":"Metro St. Louis"},"geometry":{"type":"Point","coordinates":[-90.2376,38.75076]}},{"type":"Feature","properties":{"stop_id":"4559","stop_code":"4559","stop_name":"CHAMBERS @ CASTLE WB","stop_desc":"FAR SIDE CHAMBERS @ CASTLE WB","wheelchair_boarding":1,"routes":[{"route_id":"19620","agency_id":"70006","route_short_name":"61","route_long_name":"Chambers Rd","route_type":3,"route_color":"#FFFFFF","route_text_color":"#000000"}],"agency_name":"Metro St. Louis"},"geometry":{"type":"Point","coordinates":[-90.24293,38.75118]}},{"type":"Feature","properties":{"stop_id":"4560","stop_code":"4560","stop_name":"CHAMBERS @ DUKE WB","stop_desc":"NEAR SIDE CHAMBERS @ DUKE WB","wheelchair_boarding":1,"routes":[{"route_id":"19620","agency_id":"70006","route_short_name":"61","route_long_name":"Chambers Rd","route_type":3,"route_color":"#FFFFFF","route_text_color":"#000000"}],"agency_name":"Metro St. Louis"},"geometry":{"type":"Point","coordinates":[-90.24543,38.75119]}},{"type":"Feature","properties":{"stop_id":"4564","stop_code":"4564","stop_name":"CHAMBERS @ COUNT WB","stop_desc":"NEAR SIDE CHAMBERS @ COUNT WB","wheelchair_boarding":2,"routes":[{"route_id":"19620","agency_id":"70006","route_short_name":"61","route_long_name":"Chambers Rd","route_type":3,"route_color":"#FFFFFF","route_text_color":"#000000"}],"agency_name":"Metro St. Louis"},"geometry":{"type":"Point","coordinates":[-90.24859,38.75112]}},{"type":"Feature","properties":{"stop_id":"4566","stop_code":"4566","stop_name":"CHAMBERS @ MONARCH WB","stop_desc":"FAR SIDE CHAMBERS @ MONARCH WB","wheelchair_boarding":1,"routes":[{"route_id":"19620","agency_id":"70006","route_short_name":"61","route_long_name":"Chambers Rd","route_type":3,"route_color":"#FFFFFF","route_text_color":"#000000"}],"agency_name":"Metro St. Louis"},"geometry":{"type":"Point","coordinates":[-90.25096,38.75037]}},{"type":"Feature","properties":{"stop_id":"4567","stop_code":"4567","stop_name":"CHAMBERS @ HALLS FERRY WB","stop_desc":"FAR SIDE CHAMBERS @ HALLS FERRY WB","wheelchair_boarding":2,"routes":[{"route_id":"19620","agency_id":"70006","route_short_name":"61","route_long_name":"Chambers Rd","route_type":3,"route_color":"#FFFFFF","route_text_color":"#000000"}],"agency_name":"Metro St. Louis"},"geometry":{"type":"Point","coordinates":[-90.25515,38.74936]}},{"type":"Feature","properties":{"stop_id":"4568","stop_code":"4568","stop_name":"CHAMBERS @ PEPPER WB","stop_desc":"NEAR SIDE CHAMBERS @ PEPPER WB","wheelchair_boarding":2,"routes":[{"route_id":"19620","agency_id":"70006","route_short_name":"61","route_long_name":"Chambers Rd","route_type":3,"route_color":"#FFFFFF","route_text_color":"#000000"}],"agency_name":"Metro St. Louis"},"geometry":{"type":"Point","coordinates":[-90.25819,38.74935]}},{"type":"Feature","properties":{"stop_id":"4569","stop_code":"4569","stop_name":"CHAMBERS @ CROWN POINT WB","stop_desc":"NEAR SIDE CHAMBERS @ CROWN POINT WB","wheelchair_boarding":1,"routes":[{"route_id":"19620","agency_id":"70006","route_short_name":"61","route_long_name":"Chambers Rd","route_type":3,"route_color":"#FFFFFF","route_text_color":"#000000"}],"agency_name":"Metro St. Louis"},"geometry":{"type":"Point","coordinates":[-90.26045,38.74935]}},{"type":"Feature","properties":{"stop_id":"4570","stop_code":"4570","stop_name":"CHAMBERS @ GREEN VALLEY WB","stop_desc":"FAR SIDE CHAMBERS @ GREEN VALLEY WB","wheelchair_boarding":2,"routes":[{"route_id":"19620","agency_id":"70006","route_short_name":"61","route_long_name":"Chambers Rd","route_type":3,"route_color":"#FFFFFF","route_text_color":"#000000"}],"agency_name":"Metro St. Louis"},"geometry":{"type":"Point","coordinates":[-90.26343,38.74938]}},{"type":"Feature","properties":{"stop_id":"4573","stop_code":"4573","stop_name":"CHAMBERS @ CLAIRMONT WB","stop_desc":"NEAR SIDE CHAMBERS @ CLAIRMONT WB","wheelchair_boarding":1,"routes":[{"route_id":"19620","agency_id":"70006","route_short_name":"61","route_long_name":"Chambers Rd","route_type":3,"route_color":"#FFFFFF","route_text_color":"#000000"}],"agency_name":"Metro St. Louis"},"geometry":{"type":"Point","coordinates":[-90.2685,38.74942]}},{"type":"Feature","properties":{"stop_id":"4574","stop_code":"4574","stop_name":"CHAMBERS @ SCOTTDALE WB","stop_desc":"FAR SIDE CHAMBERS @ SCOTTDALE WB","wheelchair_boarding":1,"routes":[{"route_id":"19620","agency_id":"70006","route_short_name":"61","route_long_name":"Chambers Rd","route_type":3,"route_color":"#FFFFFF","route_text_color":"#000000"}],"agency_name":"Metro St. Louis"},"geometry":{"type":"Point","coordinates":[-90.27098,38.74943]}},{"type":"Feature","properties":{"stop_id":"4576","stop_code":"4576","stop_name":"CHAMBERS @ CHAMBERS HILL WB","stop_desc":"NEAR SIDE CHAMBERS @ CHAMBERS HILL WB","wheelchair_boarding":1,"routes":[{"route_id":"19620","agency_id":"70006","route_short_name":"61","route_long_name":"Chambers Rd","route_type":3,"route_color":"#FFFFFF","route_text_color":"#000000"}],"agency_name":"Metro St. Louis"},"geometry":{"type":"Point","coordinates":[-90.27402,38.74945]}},{"type":"Feature","properties":{"stop_id":"4577","stop_code":"4577","stop_name":"CHAMBERS @ LAKEMOOR WB","stop_desc":"FAR SIDE CHAMBERS @ LAKEMOOR WB","wheelchair_boarding":1,"routes":[{"route_id":"19620","agency_id":"70006","route_short_name":"61","route_long_name":"Chambers Rd","route_type":3,"route_color":"#FFFFFF","route_text_color":"#000000"}],"agency_name":"Metro St. Louis"},"geometry":{"type":"Point","coordinates":[-90.27609,38.74946]}},{"type":"Feature","properties":{"stop_id":"5878","stop_code":"5878","stop_name":"NORTH HANLEY @ AIRPORT SB","stop_desc":"FAR SIDE NORTH HANLEY @ AIRPORT SB","wheelchair_boarding":1,"routes":[{"route_id":"19620","agency_id":"70006","route_short_name":"61","route_long_name":"Chambers Rd","route_type":3,"route_color":"#FFFFFF","route_text_color":"#000000"},{"route_id":"19625","agency_id":"70006","route_short_name":"76","route_long_name":"N Hanley Shuttle","route_type":3,"route_color":"#FFFFFF","route_text_color":"#000000"},{"route_id":"19626","agency_id":"70006","route_short_name":"77","route_long_name":"Village Square","route_type":3,"route_color":"#FFFFFF","route_text_color":"#000000"}],"agency_name":"Metro St. Louis"},"geometry":{"type":"Point","coordinates":[-90.33509,38.74922]}},{"type":"Feature","properties":{"stop_id":"5879","stop_code":"5879","stop_name":"NORTH HANLEY @ STELLA SB","stop_desc":"NEAR SIDE NORTH HANLEY @ STELLA SB","wheelchair_boarding":1,"routes":[{"route_id":"19620","agency_id":"70006","route_short_name":"61","route_long_name":"Chambers Rd","route_type":3,"route_color":"#FFFFFF","route_text_color":"#000000"},{"route_id":"19625","agency_id":"70006","route_short_name":"76","route_long_name":"N Hanley Shuttle","route_type":3,"route_color":"#FFFFFF","route_text_color":"#000000"},{"route_id":"19626","agency_id":"70006","route_short_name":"77","route_long_name":"Village Square","route_type":3,"route_color":"#FFFFFF","route_text_color":"#000000"},{"route_id":"19635","agency_id":"70006","route_short_name":"100","route_long_name":"Hazelwood","route_type":3,"route_color":"#FFFFFF","route_text_color":"#000000"}],"agency_name":"Metro St. Louis"},"geometry":{"type":"Point","coordinates":[-90.33491,38.74694]}},{"type":"Feature","properties":{"stop_id":"5880","stop_code":"5880","stop_name":"NORTH HANLEY @ MADISON SB","stop_desc":"NEAR SIDE NORTH HANLEY @ MADISON SB","wheelchair_boarding":1,"routes":[{"route_id":"19620","agency_id":"70006","route_short_name":"61","route_long_name":"Chambers Rd","route_type":3,"route_color":"#FFFFFF","route_text_color":"#000000"},{"route_id":"19625","agency_id":"70006","route_short_name":"76","route_long_name":"N Hanley Shuttle","route_type":3,"route_color":"#FFFFFF","route_text_color":"#000000"},{"route_id":"19626","agency_id":"70006","route_short_name":"77","route_long_name":"Village Square","route_type":3,"route_color":"#FFFFFF","route_text_color":"#000000"},{"route_id":"19635","agency_id":"70006","route_short_name":"100","route_long_name":"Hazelwood","route_type":3,"route_color":"#FFFFFF","route_text_color":"#000000"}],"agency_name":"Metro St. Louis"},"geometry":{"type":"Point","coordinates":[-90.33483,38.74555]}},{"type":"Feature","properties":{"stop_id":"5881","stop_code":"5881","stop_name":"5861 NORTH HANLEY SB","stop_desc":"NEAR SIDE 5861 NORTH HANLEY SB","wheelchair_boarding":1,"routes":[{"route_id":"19620","agency_id":"70006","route_short_name":"61","route_long_name":"Chambers Rd","route_type":3,"route_color":"#FFFFFF","route_text_color":"#000000"},{"route_id":"19625","agency_id":"70006","route_short_name":"76","route_long_name":"N Hanley Shuttle","route_type":3,"route_color":"#FFFFFF","route_text_color":"#000000"},{"route_id":"19626","agency_id":"70006","route_short_name":"77","route_long_name":"Village Square","route_type":3,"route_color":"#FFFFFF","route_text_color":"#000000"},{"route_id":"19635","agency_id":"70006","route_short_name":"100","route_long_name":"Hazelwood","route_type":3,"route_color":"#FFFFFF","route_text_color":"#000000"}],"agency_name":"Metro St. Louis"},"geometry":{"type":"Point","coordinates":[-90.33476,38.74327]}},{"type":"Feature","properties":{"stop_id":"5882","stop_code":"5882","stop_name":"NORTH HANLEY @ SCUDDER SB","stop_desc":"FAR SIDE NORTH HANLEY @ SCUDDER SB","wheelchair_boarding":1,"routes":[{"route_id":"19620","agency_id":"70006","route_short_name":"61","route_long_name":"Chambers Rd","route_type":3,"route_color":"#FFFFFF","route_text_color":"#000000"},{"route_id":"19625","agency_id":"70006","route_short_name":"76","route_long_name":"N Hanley Shuttle","route_type":3,"route_color":"#FFFFFF","route_text_color":"#000000"},{"route_id":"19626","agency_id":"70006","route_short_name":"77","route_long_name":"Village Square","route_type":3,"route_color":"#FFFFFF","route_text_color":"#000000"},{"route_id":"19635","agency_id":"70006","route_short_name":"100","route_long_name":"Hazelwood","route_type":3,"route_color":"#FFFFFF","route_text_color":"#000000"}],"agency_name":"Metro St. Louis"},"geometry":{"type":"Point","coordinates":[-90.3348,38.74089]}},{"type":"Feature","properties":{"stop_id":"5892","stop_code":"5892","stop_name":"NORTH HANLEY @ REV JOHN MITCHELL SB","stop_desc":"NEAR SIDE NORTH HANLEY @ REV JOHN MITCHELL SB","wheelchair_boarding":1,"routes":[{"route_id":"19620","agency_id":"70006","route_short_name":"61","route_long_name":"Chambers Rd","route_type":3,"route_color":"#FFFFFF","route_text_color":"#000000"},{"route_id":"19625","agency_id":"70006","route_short_name":"76","route_long_name":"N Hanley Shuttle","route_type":3,"route_color":"#FFFFFF","route_text_color":"#000000"},{"route_id":"19626","agency_id":"70006","route_short_name":"77","route_long_name":"Village Square","route_type":3,"route_color":"#FFFFFF","route_text_color":"#000000"},{"route_id":"19635","agency_id":"70006","route_short_name":"100","route_long_name":"Hazelwood","route_type":3,"route_color":"#FFFFFF","route_text_color":"#000000"}],"agency_name":"Metro St. Louis"},"geometry":{"type":"Point","coordinates":[-90.32554,38.73062]}},{"type":"Feature","properties":{"stop_id":"5894","stop_code":"5894","stop_name":"NORTH HANLEY @ ZEV SB","stop_desc":"FAR SIDE NORTH HANLEY @ ZEV SB","wheelchair_boarding":1,"routes":[{"route_id":"19620","agency_id":"70006","route_short_name":"61","route_long_name":"Chambers Rd","route_type":3,"route_color":"#FFFFFF","route_text_color":"#000000"},{"route_id":"19625","agency_id":"70006","route_short_name":"76","route_long_name":"N Hanley Shuttle","route_type":3,"route_color":"#FFFFFF","route_text_color":"#000000"},{"route_id":"19626","agency_id":"70006","route_short_name":"77","route_long_name":"Village Square","route_type":3,"route_color":"#FFFFFF","route_text_color":"#000000"},{"route_id":"19635","agency_id":"70006","route_short_name":"100","route_long_name":"Hazelwood","route_type":3,"route_color":"#FFFFFF","route_text_color":"#000000"}],"agency_name":"Metro St. Louis"},"geometry":{"type":"Point","coordinates":[-90.32152,38.72815]}},{"type":"Feature","properties":{"stop_id":"5898","stop_code":"5898","stop_name":"NORTH HANLEY @ EVANS SB","stop_desc":"NEAR SIDE NORTH HANLEY @ EVANS SB","wheelchair_boarding":1,"routes":[{"route_id":"19620","agency_id":"70006","route_short_name":"61","route_long_name":"Chambers Rd","route_type":3,"route_color":"#FFFFFF","route_text_color":"#000000"},{"route_id":"19625","agency_id":"70006","route_short_name":"76","route_long_name":"N Hanley Shuttle","route_type":3,"route_color":"#FFFFFF","route_text_color":"#000000"},{"route_id":"19626","agency_id":"70006","route_short_name":"77","route_long_name":"Village Square","route_type":3,"route_color":"#FFFFFF","route_text_color":"#000000"},{"route_id":"19635","agency_id":"70006","route_short_name":"100","route_long_name":"Hazelwood","route_type":3,"route_color":"#FFFFFF","route_text_color":"#000000"}],"agency_name":"Metro St. Louis"},"geometry":{"type":"Point","coordinates":[-90.31705,38.72412]}},{"type":"Feature","properties":{"stop_id":"6793","stop_code":"6793","stop_name":"BELLEFONTAINE @ FONTAINE PLACE NB","stop_desc":"FAR SIDE BELLEFONTAINE @ FONTAINE PLACE NB","wheelchair_boarding":2,"routes":[{"route_id":"19619","agency_id":"70006","route_short_name":"60","route_long_name":"Shepley-Lilac","route_type":3,"route_color":"#FFFFFF","route_text_color":"#000000"},{"route_id":"19620","agency_id":"70006","route_short_name":"61","route_long_name":"Chambers Rd","route_type":3,"route_color":"#FFFFFF","route_text_color":"#000000"},{"route_id":"19627","agency_id":"70006","route_short_name":"78","route_long_name":"Bellefontaine","route_type":3,"route_color":"#FFFFFF","route_text_color":"#000000"}],"agency_name":"Metro St. Louis"},"geometry":{"type":"Point","coordinates":[-90.22783,38.73101]}},{"type":"Feature","properties":{"stop_id":"6794","stop_code":"6794","stop_name":"BELLEFONTAINE @ TEURVILLE NB","stop_desc":"FAR SIDE BELLEFONTAINE @ TEURVILLE NB","wheelchair_boarding":2,"routes":[{"route_id":"19619","agency_id":"70006","route_short_name":"60","route_long_name":"Shepley-Lilac","route_type":3,"route_color":"#FFFFFF","route_text_color":"#000000"},{"route_id":"19620","agency_id":"70006","route_short_name":"61","route_long_name":"Chambers Rd","route_type":3,"route_color":"#FFFFFF","route_text_color":"#000000"},{"route_id":"19627","agency_id":"70006","route_short_name":"78","route_long_name":"Bellefontaine","route_type":3,"route_color":"#FFFFFF","route_text_color":"#000000"}],"agency_name":"Metro St. Louis"},"geometry":{"type":"Point","coordinates":[-90.22699,38.73396]}},{"type":"Feature","properties":{"stop_id":"6796","stop_code":"6796","stop_name":"BELLEFONTAINE @ ST. CYR NB","stop_desc":"FAR SIDE BELLEFONTAINE @ ST. CYR NB","wheelchair_boarding":2,"routes":[{"route_id":"19619","agency_id":"70006","route_short_name":"60","route_long_name":"Shepley-Lilac","route_type":3,"route_color":"#FFFFFF","route_text_color":"#000000"},{"route_id":"19620","agency_id":"70006","route_short_name":"61","route_long_name":"Chambers Rd","route_type":3,"route_color":"#FFFFFF","route_text_color":"#000000"},{"route_id":"19627","agency_id":"70006","route_short_name":"78","route_long_name":"Bellefontaine","route_type":3,"route_color":"#FFFFFF","route_text_color":"#000000"}],"agency_name":"Metro St. Louis"},"geometry":{"type":"Point","coordinates":[-90.22616,38.73731]}},{"type":"Feature","properties":{"stop_id":"6797","stop_code":"6797","stop_name":"BELLEFONTAINE @ ZELLWEGER NB","stop_desc":"NEAR SIDE BELLEFONTAINE @ ZELLWEGER NB","wheelchair_boarding":2,"routes":[{"route_id":"19619","agency_id":"70006","route_short_name":"60","route_long_name":"Shepley-Lilac","route_type":3,"route_color":"#FFFFFF","route_text_color":"#000000"},{"route_id":"19620","agency_id":"70006","route_short_name":"61","route_long_name":"Chambers Rd","route_type":3,"route_color":"#FFFFFF","route_text_color":"#000000"},{"route_id":"19627","agency_id":"70006","route_short_name":"78","route_long_name":"Bellefontaine","route_type":3,"route_color":"#FFFFFF","route_text_color":"#000000"}],"agency_name":"Metro St. Louis"},"geometry":{"type":"Point","coordinates":[-90.22571,38.74137]}},{"type":"Feature","properties":{"stop_id":"6799","stop_code":"6799","stop_name":"BELLEFONTAINE @ BIRITZ NB","stop_desc":"FAR SIDE BELLEFONTAINE @ BIRITZ NB","wheelchair_boarding":2,"routes":[{"route_id":"19619","agency_id":"70006","route_short_name":"60","route_long_name":"Shepley-Lilac","route_type":3,"route_color":"#FFFFFF","route_text_color":"#000000"},{"route_id":"19620","agency_id":"70006","route_short_name":"61","route_long_name":"Chambers Rd","route_type":3,"route_color":"#FFFFFF","route_text_color":"#000000"},{"route_id":"19627","agency_id":"70006","route_short_name":"78","route_long_name":"Bellefontaine","route_type":3,"route_color":"#FFFFFF","route_text_color":"#000000"}],"agency_name":"Metro St. Louis"},"geometry":{"type":"Point","coordinates":[-90.22491,38.74492]}},{"type":"Feature","properties":{"stop_id":"6801","stop_code":"6801","stop_name":"BELLEFONTAINE @ SURREY NB","stop_desc":"FAR SIDE BELLEFONTAINE @ SURREY NB","wheelchair_boarding":2,"routes":[{"route_id":"19619","agency_id":"70006","route_short_name":"60","route_long_name":"Shepley-Lilac","route_type":3,"route_color":"#FFFFFF","route_text_color":"#000000"},{"route_id":"19620","agency_id":"70006","route_short_name":"61","route_long_name":"Chambers Rd","route_type":3,"route_color":"#FFFFFF","route_text_color":"#000000"},{"route_id":"19627","agency_id":"70006","route_short_name":"78","route_long_name":"Bellefontaine","route_type":3,"route_color":"#FFFFFF","route_text_color":"#000000"}],"agency_name":"Metro St. Louis"},"geometry":{"type":"Point","coordinates":[-90.22421,38.74831]}},{"type":"Feature","properties":{"stop_id":"7478","stop_code":"7478","stop_name":"AIRPORT @ NORTH FLORISSANT WB","stop_desc":"FAR SIDE AIRPORT @ NORTH FLORISSANT WB","wheelchair_boarding":1,"routes":[{"route_id":"19620","agency_id":"70006","route_short_name":"61","route_long_name":"Chambers Rd","route_type":3,"route_color":"#FFFFFF","route_text_color":"#000000"},{"route_id":"19628","agency_id":"70006","route_short_name":"79","route_long_name":"Ferguson-Clayton","route_type":3,"route_color":"#FFFFFF","route_text_color":"#000000"}],"agency_name":"Metro St. Louis"},"geometry":{"type":"Point","coordinates":[-90.3077,38.74854]}},{"type":"Feature","properties":{"stop_id":"7481","stop_code":"7481","stop_name":"AIRPORT @ WABASH WB","stop_desc":"FAR SIDE AIRPORT @ WABASH WB","wheelchair_boarding":1,"routes":[{"route_id":"19620","agency_id":"70006","route_short_name":"61","route_long_name":"Chambers Rd","route_type":3,"route_color":"#FFFFFF","route_text_color":"#000000"},{"route_id":"19628","agency_id":"70006","route_short_name":"79","route_long_name":"Ferguson-Clayton","route_type":3,"route_color":"#FFFFFF","route_text_color":"#000000"}],"agency_name":"Metro St. Louis"},"geometry":{"type":"Point","coordinates":[-90.31215,38.74692]}},{"type":"Feature","properties":{"stop_id":"7554","stop_code":"7554","stop_name":"HEREFORD @ NORTH FLORISSANT WB","stop_desc":"NEAR SIDE HEREFORD @ NORTH FLORISSANT WB","wheelchair_boarding":1,"routes":[{"route_id":"19620","agency_id":"70006","route_short_name":"61","route_long_name":"Chambers Rd","route_type":3,"route_color":"#FFFFFF","route_text_color":"#000000"}],"agency_name":"Metro St. Louis"},"geometry":{"type":"Point","coordinates":[-90.30652,38.74868]}}]}