{"type":"FeatureCollection","features":[{"type":"Feature","properties":{"agency_name":"Metro St. Louis","route_id":"19617","agency_id":"70006","route_short_name":"58","route_long_name":"Chesterfield Valley","route_type":3,"route_color":"#FFFFFF","route_text_color":"#000000"},"geometry":{"type":"MultiLineString","coordinates":[[[-90.66224,38.67684],[-90.66216,38.67672],[-90.66224,38.67684],[-90.66253,38.67737],[-90.66303,38.67734],[-90.66323,38.67712],[-90.6636,38.67663],[-90.66382,38.67627],[-90.66385,38.6761],[-90.66353,38.67485],[-90.66332,38.67454],[-90.66319,38.67427],[-90.66313,38.67403],[-90.66321,38.67324],[-90.6632,38.67303],[-90.66297,38.67213],[-90.6613,38.67195],[-90.65995,38.67181],[-90.65709,38.67164],[-90.65665,38.67165],[-90.65604,38.67171],[-90.65562,38.67182],[-90.65537,38.67193],[-90.6549,38.67218],[-90.65472,38.67232],[-90.65421,38.67255],[-90.6531,38.67201],[-90.65188,38.6715],[-90.65123,38.67128],[-90.65088,38.67117],[-90.65014,38.67099],[-90.64942,38.67084],[-90.64874,38.67072],[-90.64829,38.67066],[-90.62483,38.66831],[-90.62391,38.66825],[-90.6231,38.66824],[-90.6196,38.66826],[-90.61767,38.66825],[-90.61686,38.66827],[-90.61073,38.66831],[-90.60954,38.66738],[-90.60945,38.66735],[-90.60507,38.66736],[-90.60312,38.66738],[-90.60195,38.66837],[-90.59029,38.66846],[-90.5824,38.6685],[-90.58157,38.66849],[-90.58089,38.66846],[-90.58021,38.66839],[-90.57965,38.66831],[-90.57909,38.66819],[-90.57853,38.66804],[-90.57788,38.66782],[-90.57627,38.66715],[-90.57528,38.66669],[-90.57232,38.66413],[-90.5707,38.66271],[-90.5694,38.66154],[-90.56793,38.66004],[-90.56591,38.6577],[-90.56532,38.65706],[-90.56506,38.65679],[-90.56442,38.6562],[-90.56397,38.65583],[-90.56325,38.65528],[-90.56249,38.65478],[-90.56169,38.65432],[-90.56087,38.65389],[-90.55997,38.6535],[-90.55971,38.65339],[-90.55861,38.65299],[-90.55444,38.65179],[-90.54993,38.65052],[-90.54843,38.65013],[-90.54568,38.64958],[-90.53047,38.64667],[-90.52874,38.64631],[-90.5242,38.64545],[-90.52136,38.64481],[-90.51546,38.6434],[-90.51401,38.64308],[-90.51034,38.64221],[-90.5102,38.64219],[-90.50891,38.64189],[-90.50075,38.63995],[-90.49966,38.6397],[-90.49789,38.63933],[-90.49503,38.63891],[-90.49428,38.63883],[-90.49163,38.63861],[-90.49061,38.63857],[-90.4887,38.63853],[-90.47968,38.63853],[-90.47592,38.63851],[-90.46594,38.63852],[-90.46085,38.63851],[-90.46038,38.63849],[-90.45842,38.63848],[-90.45648,38.63848],[-90.45495,38.63852],[-90.45427,38.6385],[-90.45362,38.63845],[-90.45211,38.63823],[-90.45139,38.63814],[-90.45057,38.6381],[-90.44986,38.63809],[-90.44888,38.63812],[-90.44702,38.63812],[-90.44647,38.63809],[-90.44437,38.63781],[-90.44356,38.63777],[-90.44351,38.63912],[-90.44332,38.63948],[-90.44325,38.63955],[-90.44294,38.63974],[-90.44275,38.63989],[-90.44197,38.64024],[-90.4416,38.64038],[-90.44149,38.64038],[-90.44138,38.64035],[-90.44122,38.64027],[-90.44116,38.6402],[-90.44111,38.64007],[-90.4411,38.6399],[-90.44113,38.63983],[-90.44148,38.63922],[-90.4416,38.63902],[-90.44164,38.63899],[-90.44172,38.63896],[-90.44274,38.63896],[-90.44285,38.63902],[-90.44289,38.6391],[-90.44285,38.63918],[-90.44277,38.63924],[-90.44267,38.63924],[-90.44113,38.63983],[-90.44104,38.64],[-90.44099,38.64014],[-90.44096,38.64043],[-90.44111,38.64044],[-90.44147,38.64041]],[[-90.44295,38.63981],[-90.44275,38.63989],[-90.44309,38.63977],[-90.44348,38.63971]],[[-90.44355,38.63752],[-90.44356,38.63777],[-90.44355,38.637],[-90.44358,38.63598],[-90.44416,38.63593],[-90.44443,38.63583],[-90.44457,38.63572],[-90.4447,38.63553],[-90.44479,38.63546],[-90.44497,38.63525],[-90.44502,38.63513],[-90.44505,38.63488],[-90.44505,38.63479],[-90.44495,38.63473],[-90.44488,38.63466],[-90.44484,38.63452],[-90.44477,38.63441],[-90.44459,38.63421],[-90.4442,38.63426],[-90.44359,38.63419],[-90.44357,38.6329],[-90.44359,38.63148],[-90.44114,38.63245],[-90.44079,38.63258],[-90.44018,38.63275],[-90.43989,38.6328],[-90.43886,38.63289],[-90.43672,38.63311],[-90.43416,38.63333],[-90.43307,38.63333],[-90.42471,38.63319],[-90.4221,38.63316],[-90.41973,38.63311],[-90.41636,38.63308],[-90.41549,38.63305],[-90.41332,38.63306],[-90.40712,38.63299],[-90.40248,38.63301],[-90.40214,38.63306],[-90.40173,38.63317],[-90.40035,38.63396],[-90.39916,38.63467],[-90.39896,38.63476],[-90.39643,38.63569],[-90.39486,38.63629],[-90.39437,38.63626],[-90.3936,38.63563],[-90.39331,38.63543],[-90.39263,38.6351],[-90.39223,38.63495],[-90.39129,38.63466],[-90.39083,38.6345],[-90.39001,38.63418],[-90.38943,38.63388],[-90.38916,38.63371],[-90.38843,38.63317],[-90.38787,38.63278],[-90.38748,38.63254],[-90.38707,38.63234],[-90.38664,38.63215],[-90.3862,38.63199],[-90.38567,38.63182],[-90.38526,38.63173],[-90.38479,38.63165],[-90.38431,38.63159],[-90.38327,38.63152],[-90.38105,38.63142],[-90.37809,38.63126],[-90.37707,38.63126],[-90.37595,38.6313],[-90.37133,38.63105],[-90.37049,38.63095],[-90.36957,38.63077],[-90.36711,38.63021],[-90.36632,38.63007],[-90.3658,38.63001],[-90.365,38.62996],[-90.36439,38.62993],[-90.36348,38.62992],[-90.36299,38.62994],[-90.36173,38.63005],[-90.36057,38.63019],[-90.35943,38.63044],[-90.35876,38.63063],[-90.35687,38.63126],[-90.3564,38.63137],[-90.35542,38.63152],[-90.35447,38.63155],[-90.35367,38.63145],[-90.35307,38.63135],[-90.35251,38.63122],[-90.35183,38.63101],[-90.35163,38.63091],[-90.34807,38.62967],[-90.34756,38.62954],[-90.34726,38.6295],[-90.34686,38.62949],[-90.34657,38.6295],[-90.34624,38.62955],[-90.34593,38.62963],[-90.34568,38.62972],[-90.34529,38.62991],[-90.34497,38.63014],[-90.34476,38.63033],[-90.3445,38.63065],[-90.34436,38.63092],[-90.3443,38.63107],[-90.34422,38.63135],[-90.34419,38.63157],[-90.34416,38.63201],[-90.34418,38.63268],[-90.34416,38.63292],[-90.34409,38.63335],[-90.34374,38.63474],[-90.34354,38.63542],[-90.34346,38.63595],[-90.34344,38.63637],[-90.34345,38.63674],[-90.34352,38.63714],[-90.34364,38.63759],[-90.34376,38.63794],[-90.34401,38.63847],[-90.34512,38.64039],[-90.3467,38.64304],[-90.34746,38.64436],[-90.34758,38.64482],[-90.34802,38.6459],[-90.34806,38.64606],[-90.34804,38.64613],[-90.34795,38.64624],[-90.34771,38.6463],[-90.34689,38.64626],[-90.34567,38.64611],[-90.34445,38.6458],[-90.3427,38.64557],[-90.34163,38.64541],[-90.34089,38.64536],[-90.34011,38.6454],[-90.3393,38.64542],[-90.33904,38.64547],[-90.33888,38.64558],[-90.33886,38.64586],[-90.33876,38.64651],[-90.33862,38.64765],[-90.34003,38.64751],[-90.34022,38.6462],[-90.33918,38.64609],[-90.33914,38.64606],[-90.33913,38.64599],[-90.33917,38.64593],[-90.33923,38.64593]]]}},{"type":"Feature","properties":{"stop_id":"13536","stop_code":"13536","stop_name":"CHESTERFIELD AIRPORT @ LONG EB","stop_desc":"FAR SIDE CHESTERFIELD AIRPORT @ LONG EB","wheelchair_boarding":2,"routes":[{"route_id":"19617","agency_id":"70006","route_short_name":"58","route_long_name":"Chesterfield Valley","route_type":3,"route_color":"#FFFFFF","route_text_color":"#000000"}],"agency_name":"Metro St. Louis"},"geometry":{"type":"Point","coordinates":[-90.61665,38.66821]}},{"type":"Feature","properties":{"stop_id":"13541","stop_code":"13541","stop_name":"CHESTERFIELD AIRPORT @ GODDARD EB","stop_desc":"FAR SIDE CHESTERFIELD AIRPORT @ GODDARD EB","wheelchair_boarding":2,"routes":[{"route_id":"19617","agency_id":"70006","route_short_name":"58","route_long_name":"Chesterfield Valley","route_type":3,"route_color":"#FFFFFF","route_text_color":"#000000"}],"agency_name":"Metro St. Louis"},"geometry":{"type":"Point","coordinates":[-90.63508,38.66926]}},{"type":"Feature","properties":{"stop_id":"13967","stop_code":"13967","stop_name":"BALLAS TRANSIT CENTER","wheelchair_boarding":1,"routes":[{"route_id":"19617","agency_id":"70006","route_short_name":"58","route_long_name":"Chesterfield Valley","route_type":3,"route_color":"#FFFFFF","route_text_color":"#000000"},{"route_id":"19634","agency_id":"70006","route_short_name":"98","route_long_name":"Ballas-North Hanley","route_type":3,"route_color":"#FFFFFF","route_text_color":"#000000"}],"agency_name":"Metro St. Louis"},"geometry":{"type":"Point","coordinates":[-90.44237,38.63899]}},{"type":"Feature","properties":{"stop_id":"14425","stop_code":"14425","stop_name":"CLAYTON TRANSIT CENTER","wheelchair_boarding":1,"routes":[{"route_id":"19608","agency_id":"70006","route_short_name":"33","route_long_name":"Midland","route_type":3,"route_color":"#FFFFFF","route_text_color":"#000000"},{"route_id":"19617","agency_id":"70006","route_short_name":"58","route_long_name":"Chesterfield Valley","route_type":3,"route_color":"#FFFFFF","route_text_color":"#000000"}],"agency_name":"Metro St. Louis"},"geometry":{"type":"Point","coordinates":[-90.34009,38.64597]}},{"type":"Feature","properties":{"stop_id":"14842","stop_code":"14842","stop_name":"CHESTERFIELD AIRPORT @ SPIRIT EB","stop_desc":"NEAR SIDE CHESTERFIELD AIRPORT @ SPIRIT EB","wheelchair_boarding":1,"routes":[{"route_id":"19617","agency_id":"70006","route_short_name":"58","route_long_name":"Chesterfield Valley","route_type":3,"route_color":"#FFFFFF","route_text_color":"#000000"}],"agency_name":"Metro St. Louis"},"geometry":{"type":"Point","coordinates":[-90.62907,38.66864]}},{"type":"Feature","properties":{"stop_id":"14844","stop_code":"14844","stop_name":"CHESTRFD AIRPORT @ SPIRIT OF ST LOUIS EB","stop_desc":"FAR SIDE CHESTRFD AIRPORT @ SPIRIT OF ST LOUIS EB","wheelchair_boarding":2,"routes":[{"route_id":"19617","agency_id":"70006","route_short_name":"58","route_long_name":"Chesterfield Valley","route_type":3,"route_color":"#FFFFFF","route_text_color":"#000000"}],"agency_name":"Metro St. Louis"},"geometry":{"type":"Point","coordinates":[-90.64535,38.67025]}},{"type":"Feature","properties":{"stop_id":"14850","stop_code":"14850","stop_name":"CHESTERFIELD AIRPORT @ CHESTERFIELD INDUSTRIAL EB","stop_desc":"FAR SIDE CHESTERFIELD AIRPORT @ CHESTERFIELD INDUSTRIAL EB","wheelchair_boarding":2,"routes":[{"route_id":"19617","agency_id":"70006","route_short_name":"58","route_long_name":"Chesterfield Valley","route_type":3,"route_color":"#FFFFFF","route_text_color":"#000000"}],"agency_name":"Metro St. Louis"},"geometry":{"type":"Point","coordinates":[-90.62148,38.66819]}},{"type":"Feature","properties":{"stop_id":"14853","stop_code":"14853","stop_name":"CHESTERFIELD AIRPORT @ VALLEY CENTER EB","stop_desc":"FAR SIDE CHESTERFIELD AIRPORT @ VALLEY CENTER EB","wheelchair_boarding":2,"routes":[{"route_id":"19617","agency_id":"70006","route_short_name":"58","route_long_name":"Chesterfield Valley","route_type":3,"route_color":"#FFFFFF","route_text_color":"#000000"}],"agency_name":"Metro St. Louis"},"geometry":{"type":"Point","coordinates":[-90.61197,38.66822]}},{"type":"Feature","properties":{"stop_id":"14854","stop_code":"14854","stop_name":"CHESTERFIELD AIRPORT @ RHL EB","stop_desc":"FAR SIDE CHESTERFIELD AIRPORT @ RHL EB","wheelchair_boarding":1,"routes":[{"route_id":"19617","agency_id":"70006","route_short_name":"58","route_long_name":"Chesterfield Valley","route_type":3,"route_color":"#FFFFFF","route_text_color":"#000000"}],"agency_name":"Metro St. Louis"},"geometry":{"type":"Point","coordinates":[-90.60185,38.66828]}},{"type":"Feature","properties":{"stop_id":"14855","stop_code":"14855","stop_name":"CHESTERFIELD AIRPORT @ BOONES CROSSING EB","stop_desc":"FAR SIDE CHESTERFIELD AIRPORT @ BOONES CROSSING EB","wheelchair_boarding":1,"routes":[{"route_id":"19617","agency_id":"70006","route_short_name":"58","route_long_name":"Chesterfield Valley","route_type":3,"route_color":"#FFFFFF","route_text_color":"#000000"}],"agency_name":"Metro St. Louis"},"geometry":{"type":"Point","coordinates":[-90.59853,38.66831]}},{"type":"Feature","properties":{"stop_id":"14856","stop_code":"14856","stop_name":"CHESTERFIELD AIRPORT @ CHESTERFIELD COMMONS EB","stop_desc":"NEAR SIDE CHESTERFIELD AIRPORT @ CHESTERFIELD COMMONS EB","wheelchair_boarding":1,"routes":[{"route_id":"19617","agency_id":"70006","route_short_name":"58","route_long_name":"Chesterfield Valley","route_type":3,"route_color":"#FFFFFF","route_text_color":"#000000"}],"agency_name":"Metro St. Louis"},"geometry":{"type":"Point","coordinates":[-90.59164,38.66837]}},{"type":"Feature","properties":{"stop_id":"14857","stop_code":"14857","stop_name":"CHESTERFIELD AIRPORT @ CHESTERFIELD COMMONS EAST EB","stop_desc":"FAR SIDE CHESTERFIELD AIRPORT @ CHESTERFIELD COMMONS EAST EB","wheelchair_boarding":2,"routes":[{"route_id":"19617","agency_id":"70006","route_short_name":"58","route_long_name":"Chesterfield Valley","route_type":3,"route_color":"#FFFFFF","route_text_color":"#000000"}],"agency_name":"Metro St. Louis"},"geometry":{"type":"Point","coordinates":[-90.58581,38.66841]}},{"type":"Feature","properties":{"stop_id":"14858","stop_code":"14858","stop_name":"16824 CHESTERFIELD AIRPORT EB","stop_desc":"MID-BLOCK 16824 CHESTERFIELD AIRPORT EB","wheelchair_boarding":2,"routes":[{"route_id":"19617","agency_id":"70006","route_short_name":"58","route_long_name":"Chesterfield Valley","route_type":3,"route_color":"#FFFFFF","route_text_color":"#000000"}],"agency_name":"Metro St. Louis"},"geometry":{"type":"Point","coordinates":[-90.58085,38.66836]}},{"type":"Feature","properties":{"stop_id":"15221","stop_code":"15221","stop_name":"CLAYTON @ PLAZA FRONTENAC EB","stop_desc":"FAR SIDE CLAYTON @ PLAZA FRONTENAC EB","wheelchair_boarding":1,"routes":[{"route_id":"19617","agency_id":"70006","route_short_name":"58","route_long_name":"Chesterfield Valley","route_type":3,"route_color":"#FFFFFF","route_text_color":"#000000"}],"agency_name":"Metro St. Louis"},"geometry":{"type":"Point","coordinates":[-90.40775,38.63293]}},{"type":"Feature","properties":{"stop_id":"15508","stop_code":"15508","stop_name":"410 THF BLVD EB","stop_desc":"MID-BLOCK 410 THF BLVD EB","wheelchair_boarding":1,"routes":[{"route_id":"19617","agency_id":"70006","route_short_name":"58","route_long_name":"Chesterfield Valley","route_type":3,"route_color":"#FFFFFF","route_text_color":"#000000"}],"agency_name":"Metro St. Louis"},"geometry":{"type":"Point","coordinates":[-90.60804,38.66733]}},{"type":"Feature","properties":{"stop_id":"16164","stop_code":"16164","stop_name":"CHESTERFIELD AIRPORT @ CROWN INDUSTRIAL COURT EB","stop_desc":"FAR SIDE CHESTERFIELD AIRPORT @ CROWN INDUSTRIAL COURT EB","wheelchair_boarding":2,"routes":[{"route_id":"19617","agency_id":"70006","route_short_name":"58","route_long_name":"Chesterfield Valley","route_type":3,"route_color":"#FFFFFF","route_text_color":"#000000"}],"agency_name":"Metro St. Louis"},"geometry":{"type":"Point","coordinates":[-90.63913,38.66968]}},{"type":"Feature","properties":{"stop_id":"16205","stop_code":"16205","stop_name":"CHESTERFIELD AIRPORT @ SPIRIT COMMERCE EB","stop_desc":"NEAR SIDE CHESTERFIELD AIRPORT @ SPIRIT COMMERCE EB","wheelchair_boarding":2,"routes":[{"route_id":"19617","agency_id":"70006","route_short_name":"58","route_long_name":"Chesterfield Valley","route_type":3,"route_color":"#FFFFFF","route_text_color":"#000000"}],"agency_name":"Metro St. Louis"},"geometry":{"type":"Point","coordinates":[-90.64199,38.66994]}},{"type":"Feature","properties":{"stop_id":"16231","stop_code":"16231","stop_name":"ST LOUIS PREMIUM OUTLETS","stop_desc":"MID-BLOCK ST LOUIS PREMIUM OUTLETS","wheelchair_boarding":1,"routes":[{"route_id":"19617","agency_id":"70006","route_short_name":"58","route_long_name":"Chesterfield Valley","route_type":3,"route_color":"#FFFFFF","route_text_color":"#000000"}],"agency_name":"Metro St. Louis"},"geometry":{"type":"Point","coordinates":[-90.66209,38.67675]}},{"type":"Feature","properties":{"stop_id":"4822","stop_code":"4822","stop_name":"MISSOURI BAPTIST HOSPITAL LOOP","stop_desc":"MID-BLOCK MISSOURI BAPTIST HOSPITAL LOOP","wheelchair_boarding":1,"routes":[{"route_id":"19617","agency_id":"70006","route_short_name":"58","route_long_name":"Chesterfield Valley","route_type":3,"route_color":"#FFFFFF","route_text_color":"#000000"},{"route_id":"19634","agency_id":"70006","route_short_name":"98","route_long_name":"Ballas-North Hanley","route_type":3,"route_color":"#FFFFFF","route_text_color":"#000000"}],"agency_name":"Metro St. Louis"},"geometry":{"type":"Point","coordinates":[-90.44482,38.63453]}},{"type":"Feature","properties":{"stop_id":"4890","stop_code":"4890","stop_name":"CLAYTON @ BALLAS EB","stop_desc":"FAR SIDE CLAYTON @ BALLAS EB","wheelchair_boarding":1,"routes":[{"route_id":"19617","agency_id":"70006","route_short_name":"58","route_long_name":"Chesterfield Valley","route_type":3,"route_color":"#FFFFFF","route_text_color":"#000000"}],"agency_name":"Metro St. Louis"},"geometry":{"type":"Point","coordinates":[-90.44256,38.63183]}},{"type":"Feature","properties":{"stop_id":"4895","stop_code":"4895","stop_name":"CLAYTON @ DEVONDALE EB","stop_desc":"NEAR SIDE CLAYTON @ DEVONDALE EB","wheelchair_boarding":2,"routes":[{"route_id":"19617","agency_id":"70006","route_short_name":"58","route_long_name":"Chesterfield Valley","route_type":3,"route_color":"#FFFFFF","route_text_color":"#000000"}],"agency_name":"Metro St. Louis"},"geometry":{"type":"Point","coordinates":[-90.42999,38.63324]}},{"type":"Feature","properties":{"stop_id":"4898","stop_code":"4898","stop_name":"CLAYTON @ GEYER EB","stop_desc":"FAR SIDE CLAYTON @ GEYER EB","wheelchair_boarding":2,"routes":[{"route_id":"19617","agency_id":"70006","route_short_name":"58","route_long_name":"Chesterfield Valley","route_type":3,"route_color":"#FFFFFF","route_text_color":"#000000"}],"agency_name":"Metro St. Louis"},"geometry":{"type":"Point","coordinates":[-90.41969,38.63307]}},{"type":"Feature","properties":{"stop_id":"4900","stop_code":"4900","stop_name":"CLAYTON @ HUNTLEIGH DOWNS EB","stop_desc":"NEAR SIDE CLAYTON @ HUNTLEIGH DOWNS EB","wheelchair_boarding":2,"routes":[{"route_id":"19617","agency_id":"70006","route_short_name":"58","route_long_name":"Chesterfield Valley","route_type":3,"route_color":"#FFFFFF","route_text_color":"#000000"}],"agency_name":"Metro St. Louis"},"geometry":{"type":"Point","coordinates":[-90.41347,38.63301]}},{"type":"Feature","properties":{"stop_id":"4903","stop_code":"4903","stop_name":"CLAYTON @ LINDBERGH EB","stop_desc":"FAR SIDE CLAYTON @ LINDBERGH EB","wheelchair_boarding":2,"routes":[{"route_id":"19617","agency_id":"70006","route_short_name":"58","route_long_name":"Chesterfield Valley","route_type":3,"route_color":"#FFFFFF","route_text_color":"#000000"}],"agency_name":"Metro St. Louis"},"geometry":{"type":"Point","coordinates":[-90.40501,38.63291]}},{"type":"Feature","properties":{"stop_id":"4905","stop_code":"4905","stop_name":"CLAYTON @ WARSON EB","stop_desc":"NEAR SIDE CLAYTON @ WARSON EB","wheelchair_boarding":2,"routes":[{"route_id":"19617","agency_id":"70006","route_short_name":"58","route_long_name":"Chesterfield Valley","route_type":3,"route_color":"#FFFFFF","route_text_color":"#000000"}],"agency_name":"Metro St. Louis"},"geometry":{"type":"Point","coordinates":[-90.39778,38.63511]}}]}