{"type":"FeatureCollection","features":[{"type":"Feature","properties":{"agency_name":"Metro St. Louis","route_id":"19648","agency_id":"70006","route_short_name":"16","route_long_name":"St. Clair Square","route_type":3,"route_color":"#FFFFFF","route_text_color":"#000000"},"geometry":{"type":"MultiLineString","coordinates":[[[-89.97503,38.52198],[-89.97451,38.52159],[-89.97503,38.52198],[-89.97508,38.522],[-89.97518,38.52203],[-89.97529,38.52203],[-89.97538,38.52201],[-89.97544,38.52197],[-89.97552,38.52191],[-89.97556,38.52185],[-89.97601,38.52046],[-89.97856,38.51862],[-89.97874,38.51847],[-89.97894,38.5181],[-89.97898,38.51801],[-89.97903,38.51771],[-89.97902,38.51555],[-89.979,38.51461],[-89.98016,38.51458],[-89.98289,38.51456],[-89.98422,38.51459],[-89.98421,38.51878],[-89.98423,38.51992],[-89.9842,38.5218],[-89.9842,38.52309],[-89.98418,38.52354],[-89.98421,38.52393],[-89.9842,38.52903],[-89.98418,38.5294],[-89.98405,38.53018],[-89.98391,38.53066],[-89.98372,38.53147],[-89.9836,38.53211],[-89.98354,38.5329],[-89.98353,38.53372],[-89.98355,38.53389],[-89.98355,38.53454],[-89.98354,38.53613],[-89.98357,38.53742],[-89.98587,38.53743],[-89.98759,38.5371],[-89.98758,38.53685],[-89.98752,38.53662],[-89.98734,38.53645],[-89.98717,38.53625],[-89.98675,38.536],[-89.98641,38.53585],[-89.98625,38.53585],[-89.98609,38.53591],[-89.98589,38.53722],[-89.98357,38.53742],[-89.98364,38.53896],[-89.98378,38.54122],[-89.98383,38.54233],[-89.98405,38.5462],[-89.98409,38.54667],[-89.98438,38.55225],[-89.98459,38.55584],[-89.98476,38.55923],[-89.9848,38.5606],[-89.98482,38.56227],[-89.98481,38.56379],[-89.98483,38.57026],[-89.98482,38.57468],[-89.98483,38.57871],[-89.98485,38.58022],[-89.98488,38.58732],[-89.98491,38.59014],[-89.98491,38.59167],[-89.98484,38.59187],[-89.98484,38.59276],[-89.98482,38.59298],[-89.98485,38.59581],[-89.98424,38.59586],[-89.98397,38.59592],[-89.98347,38.5957],[-89.98335,38.59551],[-89.98317,38.59539],[-89.98299,38.59531],[-89.98284,38.5952],[-89.98262,38.59479],[-89.98253,38.59448],[-89.98253,38.59381],[-89.98106,38.59415],[-89.98104,38.5942],[-89.98107,38.59434],[-89.98112,38.59449],[-89.98119,38.59462],[-89.98142,38.59474],[-89.98158,38.59486],[-89.98169,38.595],[-89.98174,38.59514],[-89.98171,38.59532],[-89.98162,38.59549],[-89.98161,38.59565]],[[-89.98182,38.59594],[-89.98167,38.5958],[-89.98195,38.59608],[-89.98222,38.59681],[-89.98234,38.59709],[-89.98255,38.59768],[-89.98317,38.59755],[-89.98368,38.59722],[-89.98378,38.59708],[-89.98385,38.5969],[-89.98387,38.59675],[-89.98385,38.59658],[-89.98381,38.59642],[-89.98364,38.596]],[[-89.98485,38.59581],[-89.98488,38.59901],[-89.98489,38.59963],[-89.98492,38.6001],[-89.98494,38.6027],[-89.98493,38.60384],[-89.98499,38.60546],[-89.98508,38.60591],[-89.98509,38.6065],[-89.9851,38.60789],[-89.98509,38.60914],[-89.98502,38.61156],[-89.98501,38.61271],[-89.98533,38.63172],[-89.98533,38.63241],[-89.98543,38.63801],[-89.98547,38.6412],[-89.98549,38.64178],[-89.98551,38.64371],[-89.98549,38.64471],[-89.98545,38.64532],[-89.98544,38.64582],[-89.98548,38.64683],[-89.98563,38.64768],[-89.98573,38.64803],[-89.98664,38.65041],[-89.9868,38.65079],[-89.98711,38.65142],[-89.98792,38.65275],[-89.9881,38.65308],[-89.98823,38.65344],[-89.98829,38.6537],[-89.98833,38.65403],[-89.98831,38.65444],[-89.98824,38.65474],[-89.98812,38.65506],[-89.98797,38.65535],[-89.98786,38.65552],[-89.98714,38.65647],[-89.98642,38.65751],[-89.98292,38.66209],[-89.98269,38.66241],[-89.98251,38.66275],[-89.98244,38.66294],[-89.98237,38.66331],[-89.98235,38.66385],[-89.98239,38.66413],[-89.98255,38.66495],[-89.98271,38.66564],[-89.98291,38.66664],[-89.98297,38.66687],[-89.98313,38.66723],[-89.9843,38.66942],[-89.98456,38.66995],[-89.98477,38.67048],[-89.98481,38.67074],[-89.9848,38.67122],[-89.98527,38.67148],[-89.9875,38.67078]]]}},{"type":"Feature","properties":{"stop_id":"11097","stop_code":"11097","stop_name":"CHARLES @ B STREET SB","stop_desc":"FAR SIDE CHARLES @ B STREET SB","wheelchair_boarding":2,"routes":[{"route_id":"19636","agency_id":"70006","route_short_name":"1","route_long_name":"Main Street - State Street","route_type":3,"route_color":"#FFFFFF","route_text_color":"#000000"},{"route_id":"19648","agency_id":"70006","route_short_name":"16","route_long_name":"St. Clair Square","route_type":3,"route_color":"#FFFFFF","route_text_color":"#000000"}],"agency_name":"Metro St. Louis"},"geometry":{"type":"Point","coordinates":[-89.9791,38.51542]}},{"type":"Feature","properties":{"stop_id":"11099","stop_code":"11099","stop_name":"CHARLES @ C STREET SB","stop_desc":"NEAR SIDE CHARLES @ C STREET SB","wheelchair_boarding":1,"routes":[{"route_id":"19636","agency_id":"70006","route_short_name":"1","route_long_name":"Main Street - State Street","route_type":3,"route_color":"#FFFFFF","route_text_color":"#000000"},{"route_id":"19648","agency_id":"70006","route_short_name":"16","route_long_name":"St. Clair Square","route_type":3,"route_color":"#FFFFFF","route_text_color":"#000000"}],"agency_name":"Metro St. Louis"},"geometry":{"type":"Point","coordinates":[-89.97913,38.51675]}},{"type":"Feature","properties":{"stop_id":"11100","stop_code":"11100","stop_name":"SCHEEL @ CHARLES WB","stop_desc":"NEAR SIDE SCHEEL @ CHARLES WB","wheelchair_boarding":1,"routes":[{"route_id":"19636","agency_id":"70006","route_short_name":"1","route_long_name":"Main Street - State Street","route_type":3,"route_color":"#FFFFFF","route_text_color":"#000000"},{"route_id":"19648","agency_id":"70006","route_short_name":"16","route_long_name":"St. Clair Square","route_type":3,"route_color":"#FFFFFF","route_text_color":"#000000"}],"agency_name":"Metro St. Louis"},"geometry":{"type":"Point","coordinates":[-89.97867,38.51864]}},{"type":"Feature","properties":{"stop_id":"11101","stop_code":"11101","stop_name":"SCHEEL @ BENTON WB","stop_desc":"NEAR SIDE SCHEEL @ BENTON WB","wheelchair_boarding":2,"routes":[{"route_id":"19636","agency_id":"70006","route_short_name":"1","route_long_name":"Main Street - State Street","route_type":3,"route_color":"#FFFFFF","route_text_color":"#000000"},{"route_id":"19647","agency_id":"70006","route_short_name":"15","route_long_name":"Belleville-O'Fallon","route_type":3,"route_color":"#FFFFFF","route_text_color":"#000000"},{"route_id":"19648","agency_id":"70006","route_short_name":"16","route_long_name":"St. Clair Square","route_type":3,"route_color":"#FFFFFF","route_text_color":"#000000"},{"route_id":"19649","agency_id":"70006","route_short_name":"23","route_long_name":"Belleville-College","route_type":3,"route_color":"#FFFFFF","route_text_color":"#000000"}],"agency_name":"Metro St. Louis"},"geometry":{"type":"Point","coordinates":[-89.97596,38.52055]}},{"type":"Feature","properties":{"stop_id":"11102","stop_code":"11102","stop_name":"BELLEVILLE TRANSIT CENTER","wheelchair_boarding":1,"routes":[{"route_id":"19636","agency_id":"70006","route_short_name":"1","route_long_name":"Main Street - State Street","route_type":3,"route_color":"#FFFFFF","route_text_color":"#000000"},{"route_id":"19647","agency_id":"70006","route_short_name":"15","route_long_name":"Belleville-O'Fallon","route_type":3,"route_color":"#FFFFFF","route_text_color":"#000000"},{"route_id":"19648","agency_id":"70006","route_short_name":"16","route_long_name":"St. Clair Square","route_type":3,"route_color":"#FFFFFF","route_text_color":"#000000"},{"route_id":"19649","agency_id":"70006","route_short_name":"23","route_long_name":"Belleville-College","route_type":3,"route_color":"#FFFFFF","route_text_color":"#000000"}],"agency_name":"Metro St. Louis"},"geometry":{"type":"Point","coordinates":[-89.97461,38.5217]}},{"type":"Feature","properties":{"stop_id":"11222","stop_code":"11222","stop_name":"ILLINOIS @ SMELTING WORKS NB","stop_desc":"NEAR SIDE ILLINOIS @ SMELTING WORKS NB","wheelchair_boarding":2,"routes":[{"route_id":"19648","agency_id":"70006","route_short_name":"16","route_long_name":"St. Clair Square","route_type":3,"route_color":"#FFFFFF","route_text_color":"#000000"}],"agency_name":"Metro St. Louis"},"geometry":{"type":"Point","coordinates":[-89.98354,38.53922]}},{"type":"Feature","properties":{"stop_id":"11223","stop_code":"11223","stop_name":"ILLINOIS @ FULLERTON NB","stop_desc":"NEAR SIDE ILLINOIS @ FULLERTON NB","wheelchair_boarding":2,"routes":[{"route_id":"19648","agency_id":"70006","route_short_name":"16","route_long_name":"St. Clair Square","route_type":3,"route_color":"#FFFFFF","route_text_color":"#000000"}],"agency_name":"Metro St. Louis"},"geometry":{"type":"Point","coordinates":[-89.98366,38.54096]}},{"type":"Feature","properties":{"stop_id":"11267","stop_code":"11267","stop_name":"ILLINOIS @ B STREET NB","stop_desc":"NEAR SIDE ILLINOIS @ B STREET NB","wheelchair_boarding":2,"routes":[{"route_id":"19648","agency_id":"70006","route_short_name":"16","route_long_name":"St. Clair Square","route_type":3,"route_color":"#FFFFFF","route_text_color":"#000000"}],"agency_name":"Metro St. Louis"},"geometry":{"type":"Point","coordinates":[-89.98415,38.51543]}},{"type":"Feature","properties":{"stop_id":"11268","stop_code":"11268","stop_name":"ILLINOIS @ C STREET NB","stop_desc":"NEAR SIDE ILLINOIS @ C STREET NB","wheelchair_boarding":2,"routes":[{"route_id":"19648","agency_id":"70006","route_short_name":"16","route_long_name":"St. Clair Square","route_type":3,"route_color":"#FFFFFF","route_text_color":"#000000"}],"agency_name":"Metro St. Louis"},"geometry":{"type":"Point","coordinates":[-89.98414,38.5165]}},{"type":"Feature","properties":{"stop_id":"11269","stop_code":"11269","stop_name":"ILLINOIS @ D STREET NB","stop_desc":"NEAR SIDE ILLINOIS @ D STREET NB","wheelchair_boarding":2,"routes":[{"route_id":"19648","agency_id":"70006","route_short_name":"16","route_long_name":"St. Clair Square","route_type":3,"route_color":"#FFFFFF","route_text_color":"#000000"}],"agency_name":"Metro St. Louis"},"geometry":{"type":"Point","coordinates":[-89.98416,38.51762]}},{"type":"Feature","properties":{"stop_id":"11270","stop_code":"11270","stop_name":"ILLINOIS @ LEBANON NB","stop_desc":"FAR SIDE ILLINOIS @ LEBANON NB","wheelchair_boarding":2,"routes":[{"route_id":"19648","agency_id":"70006","route_short_name":"16","route_long_name":"St. Clair Square","route_type":3,"route_color":"#FFFFFF","route_text_color":"#000000"}],"agency_name":"Metro St. Louis"},"geometry":{"type":"Point","coordinates":[-89.98419,38.51928]}},{"type":"Feature","properties":{"stop_id":"11271","stop_code":"11271","stop_name":"ILLINOIS @ F STREET NB","stop_desc":"FAR SIDE ILLINOIS @ F STREET NB","wheelchair_boarding":2,"routes":[{"route_id":"19648","agency_id":"70006","route_short_name":"16","route_long_name":"St. Clair Square","route_type":3,"route_color":"#FFFFFF","route_text_color":"#000000"}],"agency_name":"Metro St. Louis"},"geometry":{"type":"Point","coordinates":[-89.98418,38.52015]}},{"type":"Feature","properties":{"stop_id":"11272","stop_code":"11272","stop_name":"ILLINOIS @ DOUGLAS NB","stop_desc":"NEAR SIDE ILLINOIS @ DOUGLAS NB","wheelchair_boarding":2,"routes":[{"route_id":"19648","agency_id":"70006","route_short_name":"16","route_long_name":"St. Clair Square","route_type":3,"route_color":"#FFFFFF","route_text_color":"#000000"}],"agency_name":"Metro St. Louis"},"geometry":{"type":"Point","coordinates":[-89.98413,38.52309]}},{"type":"Feature","properties":{"stop_id":"11273","stop_code":"11273","stop_name":"ILLINOIS @ GILBERT NB","stop_desc":"NEAR SIDE ILLINOIS @ GILBERT NB","wheelchair_boarding":2,"routes":[{"route_id":"19648","agency_id":"70006","route_short_name":"16","route_long_name":"St. Clair Square","route_type":3,"route_color":"#FFFFFF","route_text_color":"#000000"}],"agency_name":"Metro St. Louis"},"geometry":{"type":"Point","coordinates":[-89.98411,38.5246]}},{"type":"Feature","properties":{"stop_id":"11274","stop_code":"11274","stop_name":"ILLINOIS @ BRACKETT NB","stop_desc":"NEAR SIDE ILLINOIS @ BRACKETT NB","wheelchair_boarding":1,"routes":[{"route_id":"19648","agency_id":"70006","route_short_name":"16","route_long_name":"St. Clair Square","route_type":3,"route_color":"#FFFFFF","route_text_color":"#000000"}],"agency_name":"Metro St. Louis"},"geometry":{"type":"Point","coordinates":[-89.98414,38.52585]}},{"type":"Feature","properties":{"stop_id":"11275","stop_code":"11275","stop_name":"ILLINOIS @ PAWNEE NB","stop_desc":"FAR SIDE ILLINOIS @ PAWNEE NB","wheelchair_boarding":2,"routes":[{"route_id":"19648","agency_id":"70006","route_short_name":"16","route_long_name":"St. Clair Square","route_type":3,"route_color":"#FFFFFF","route_text_color":"#000000"}],"agency_name":"Metro St. Louis"},"geometry":{"type":"Point","coordinates":[-89.98411,38.5279]}},{"type":"Feature","properties":{"stop_id":"11306","stop_code":"11306","stop_name":"METRO WAY @ SWANSEA METROBUS LOOP EB","stop_desc":"NEAR SIDE METRO WAY @ SWANSEA METROBUS LOOP EB","wheelchair_boarding":2,"routes":[{"route_id":"19648","agency_id":"70006","route_short_name":"16","route_long_name":"St. Clair Square","route_type":3,"route_color":"#FFFFFF","route_text_color":"#000000"}],"agency_name":"Metro St. Louis"},"geometry":{"type":"Point","coordinates":[-89.98577,38.53734]}},{"type":"Feature","properties":{"stop_id":"11424","stop_code":"11424","stop_name":"ILLINOIS @ ILLINOIS ROUTE 161 NB","stop_desc":"FAR SIDE ILLINOIS @ ILLINOIS ROUTE 161 NB","wheelchair_boarding":2,"routes":[{"route_id":"19648","agency_id":"70006","route_short_name":"16","route_long_name":"St. Clair Square","route_type":3,"route_color":"#FFFFFF","route_text_color":"#000000"}],"agency_name":"Metro St. Louis"},"geometry":{"type":"Point","coordinates":[-89.98346,38.53435]}},{"type":"Feature","properties":{"stop_id":"11425","stop_code":"11425","stop_name":"ILLINOIS @ ALEXA NB","stop_desc":"FAR SIDE ILLINOIS @ ALEXA NB","wheelchair_boarding":2,"routes":[{"route_id":"19648","agency_id":"70006","route_short_name":"16","route_long_name":"St. Clair Square","route_type":3,"route_color":"#FFFFFF","route_text_color":"#000000"}],"agency_name":"Metro St. Louis"},"geometry":{"type":"Point","coordinates":[-89.98345,38.53564]}},{"type":"Feature","properties":{"stop_id":"11593","stop_code":"11593","stop_name":"MORRISON @ CHESTNUT NB","stop_desc":"FAR SIDE MORRISON @ CHESTNUT NB","wheelchair_boarding":2,"routes":[{"route_id":"19645","agency_id":"70006","route_short_name":"13","route_long_name":"Caseyville","route_type":3,"route_color":"#FFFFFF","route_text_color":"#000000"},{"route_id":"19648","agency_id":"70006","route_short_name":"16","route_long_name":"St. Clair Square","route_type":3,"route_color":"#FFFFFF","route_text_color":"#000000"}],"agency_name":"Metro St. Louis"},"geometry":{"type":"Point","coordinates":[-89.98241,38.66438]}},{"type":"Feature","properties":{"stop_id":"11607","stop_code":"11607","stop_name":"ILLINOIS @ LOWES PLAZA NB","stop_desc":"NEAR SIDE ILLINOIS @ LOWES PLAZA NB","wheelchair_boarding":2,"routes":[{"route_id":"19648","agency_id":"70006","route_short_name":"16","route_long_name":"St. Clair Square","route_type":3,"route_color":"#FFFFFF","route_text_color":"#000000"}],"agency_name":"Metro St. Louis"},"geometry":{"type":"Point","coordinates":[-89.98478,38.58733]}},{"type":"Feature","properties":{"stop_id":"11618","stop_code":"11618","stop_name":"ILLINOIS @ ILLINOIS LANE NB","stop_desc":"FAR SIDE ILLINOIS @ ILLINOIS LANE NB","wheelchair_boarding":2,"routes":[{"route_id":"19648","agency_id":"70006","route_short_name":"16","route_long_name":"St. Clair Square","route_type":3,"route_color":"#FFFFFF","route_text_color":"#000000"}],"agency_name":"Metro St. Louis"},"geometry":{"type":"Point","coordinates":[-89.98473,38.56406]}},{"type":"Feature","properties":{"stop_id":"11620","stop_code":"11620","stop_name":"ILLINOIS @ HUNTWOOD NB","stop_desc":"FAR SIDE ILLINOIS @ HUNTWOOD NB","wheelchair_boarding":2,"routes":[{"route_id":"19648","agency_id":"70006","route_short_name":"16","route_long_name":"St. Clair Square","route_type":3,"route_color":"#FFFFFF","route_text_color":"#000000"}],"agency_name":"Metro St. Louis"},"geometry":{"type":"Point","coordinates":[-89.9845,38.55615]}},{"type":"Feature","properties":{"stop_id":"11621","stop_code":"11621","stop_name":"ILLINOIS @ TWILIGHT NB","stop_desc":"FAR SIDE ILLINOIS @ TWILIGHT NB","wheelchair_boarding":2,"routes":[{"route_id":"19648","agency_id":"70006","route_short_name":"16","route_long_name":"St. Clair Square","route_type":3,"route_color":"#FFFFFF","route_text_color":"#000000"}],"agency_name":"Metro St. Louis"},"geometry":{"type":"Point","coordinates":[-89.98436,38.55348]}},{"type":"Feature","properties":{"stop_id":"11622","stop_code":"11622","stop_name":"ILLINOIS @ WOLF CREEK NB","stop_desc":"NEAR SIDE ILLINOIS @ WOLF CREEK NB","wheelchair_boarding":2,"routes":[{"route_id":"19648","agency_id":"70006","route_short_name":"16","route_long_name":"St. Clair Square","route_type":3,"route_color":"#FFFFFF","route_text_color":"#000000"}],"agency_name":"Metro St. Louis"},"geometry":{"type":"Point","coordinates":[-89.98419,38.55047]}},{"type":"Feature","properties":{"stop_id":"11623","stop_code":"11623","stop_name":"ILLINOIS @ EMERALD TERRACE NB","stop_desc":"NEAR SIDE ILLINOIS @ EMERALD TERRACE NB","wheelchair_boarding":2,"routes":[{"route_id":"19648","agency_id":"70006","route_short_name":"16","route_long_name":"St. Clair Square","route_type":3,"route_color":"#FFFFFF","route_text_color":"#000000"}],"agency_name":"Metro St. Louis"},"geometry":{"type":"Point","coordinates":[-89.984,38.54698]}},{"type":"Feature","properties":{"stop_id":"11624","stop_code":"11624","stop_name":"ILLINOIS @ ROSEWOOD VILLAGE NB","stop_desc":"FAR SIDE ILLINOIS @ ROSEWOOD VILLAGE NB","wheelchair_boarding":2,"routes":[{"route_id":"19648","agency_id":"70006","route_short_name":"16","route_long_name":"St. Clair Square","route_type":3,"route_color":"#FFFFFF","route_text_color":"#000000"}],"agency_name":"Metro St. Louis"},"geometry":{"type":"Point","coordinates":[-89.98387,38.54455]}},{"type":"Feature","properties":{"stop_id":"11626","stop_code":"11626","stop_name":"SWANSEA TRANSIT CENTER","stop_desc":"NEAR SIDE SWANSEA TRANSIT CENTER","wheelchair_boarding":1,"routes":[{"route_id":"19648","agency_id":"70006","route_short_name":"16","route_long_name":"St. Clair Square","route_type":3,"route_color":"#FFFFFF","route_text_color":"#000000"}],"agency_name":"Metro St. Louis"},"geometry":{"type":"Point","coordinates":[-89.98737,38.53645]}},{"type":"Feature","properties":{"stop_id":"11635","stop_code":"11635","stop_name":"ILLINOIS @ EXECUTIVE WOODS COURT NB","stop_desc":"FAR SIDE ILLINOIS @ EXECUTIVE WOODS COURT NB","wheelchair_boarding":2,"routes":[{"route_id":"19648","agency_id":"70006","route_short_name":"16","route_long_name":"St. Clair Square","route_type":3,"route_color":"#FFFFFF","route_text_color":"#000000"}],"agency_name":"Metro St. Louis"},"geometry":{"type":"Point","coordinates":[-89.98473,38.56312]}},{"type":"Feature","properties":{"stop_id":"11637","stop_code":"11637","stop_name":"4216 ILLINOIS NB","stop_desc":"MID-BLOCK 4216 ILLINOIS NB","wheelchair_boarding":2,"routes":[{"route_id":"19648","agency_id":"70006","route_short_name":"16","route_long_name":"St. Clair Square","route_type":3,"route_color":"#FFFFFF","route_text_color":"#000000"}],"agency_name":"Metro St. Louis"},"geometry":{"type":"Point","coordinates":[-89.98472,38.56586]}},{"type":"Feature","properties":{"stop_id":"11638","stop_code":"11638","stop_name":"ILLINOIS @ CORPORATE NB","stop_desc":"FAR SIDE ILLINOIS @ CORPORATE NB","wheelchair_boarding":2,"routes":[{"route_id":"19648","agency_id":"70006","route_short_name":"16","route_long_name":"St. Clair Square","route_type":3,"route_color":"#FFFFFF","route_text_color":"#000000"}],"agency_name":"Metro St. Louis"},"geometry":{"type":"Point","coordinates":[-89.98473,38.56802]}},{"type":"Feature","properties":{"stop_id":"11639","stop_code":"11639","stop_name":"4580 ILLINOIS NB","stop_desc":"MID-BLOCK 4580 ILLINOIS NB","wheelchair_boarding":2,"routes":[{"route_id":"19648","agency_id":"70006","route_short_name":"16","route_long_name":"St. Clair Square","route_type":3,"route_color":"#FFFFFF","route_text_color":"#000000"}],"agency_name":"Metro St. Louis"},"geometry":{"type":"Point","coordinates":[-89.98474,38.57018]}},{"type":"Feature","properties":{"stop_id":"11640","stop_code":"11640","stop_name":"ILLINOIS @ WINCHESTER PLACE NB","stop_desc":"NEAR SIDE ILLINOIS @ WINCHESTER PLACE NB","wheelchair_boarding":2,"routes":[{"route_id":"19648","agency_id":"70006","route_short_name":"16","route_long_name":"St. Clair Square","route_type":3,"route_color":"#FFFFFF","route_text_color":"#000000"}],"agency_name":"Metro St. Louis"},"geometry":{"type":"Point","coordinates":[-89.98472,38.57287]}},{"type":"Feature","properties":{"stop_id":"11641","stop_code":"11641","stop_name":"ILLINOIS @ LAKELAND HILLS NB","stop_desc":"FAR SIDE ILLINOIS @ LAKELAND HILLS NB","wheelchair_boarding":2,"routes":[{"route_id":"19648","agency_id":"70006","route_short_name":"16","route_long_name":"St. Clair Square","route_type":3,"route_color":"#FFFFFF","route_text_color":"#000000"}],"agency_name":"Metro St. Louis"},"geometry":{"type":"Point","coordinates":[-89.98472,38.57499]}},{"type":"Feature","properties":{"stop_id":"11642","stop_code":"11642","stop_name":"ILLINOIS @ CHATEAU NB","stop_desc":"NEAR SIDE ILLINOIS @ CHATEAU NB","wheelchair_boarding":2,"routes":[{"route_id":"19648","agency_id":"70006","route_short_name":"16","route_long_name":"St. Clair Square","route_type":3,"route_color":"#FFFFFF","route_text_color":"#000000"}],"agency_name":"Metro St. Louis"},"geometry":{"type":"Point","coordinates":[-89.98473,38.57856]}},{"type":"Feature","properties":{"stop_id":"11643","stop_code":"11643","stop_name":"ILLINOIS @ LINDA NB","stop_desc":"NEAR SIDE ILLINOIS @ LINDA NB","wheelchair_boarding":2,"routes":[{"route_id":"19648","agency_id":"70006","route_short_name":"16","route_long_name":"St. Clair Square","route_type":3,"route_color":"#FFFFFF","route_text_color":"#000000"}],"agency_name":"Metro St. Louis"},"geometry":{"type":"Point","coordinates":[-89.98474,38.58024]}},{"type":"Feature","properties":{"stop_id":"11645","stop_code":"11645","stop_name":"ILLINOIS @ ELVIRA NB","stop_desc":"NEAR SIDE ILLINOIS @ ELVIRA NB","wheelchair_boarding":2,"routes":[{"route_id":"19648","agency_id":"70006","route_short_name":"16","route_long_name":"St. Clair Square","route_type":3,"route_color":"#FFFFFF","route_text_color":"#000000"}],"agency_name":"Metro St. Louis"},"geometry":{"type":"Point","coordinates":[-89.98475,38.58298]}},{"type":"Feature","properties":{"stop_id":"11646","stop_code":"11646","stop_name":"ILLINOIS @ KADLEC NB","stop_desc":"NEAR SIDE ILLINOIS @ KADLEC NB","wheelchair_boarding":2,"routes":[{"route_id":"19648","agency_id":"70006","route_short_name":"16","route_long_name":"St. Clair Square","route_type":3,"route_color":"#FFFFFF","route_text_color":"#000000"}],"agency_name":"Metro St. Louis"},"geometry":{"type":"Point","coordinates":[-89.98476,38.58444]}},{"type":"Feature","properties":{"stop_id":"11647","stop_code":"11647","stop_name":"ILLINOIS @ LINCOLN PLACE NB","stop_desc":"NEAR SIDE ILLINOIS @ LINCOLN PLACE NB","wheelchair_boarding":2,"routes":[{"route_id":"19648","agency_id":"70006","route_short_name":"16","route_long_name":"St. Clair Square","route_type":3,"route_color":"#FFFFFF","route_text_color":"#000000"}],"agency_name":"Metro St. Louis"},"geometry":{"type":"Point","coordinates":[-89.98479,38.58653]}},{"type":"Feature","properties":{"stop_id":"11649","stop_code":"11649","stop_name":"6118 ILLINOIS NB","stop_desc":"MID-BLOCK 6118 ILLINOIS NB","wheelchair_boarding":2,"routes":[{"route_id":"19648","agency_id":"70006","route_short_name":"16","route_long_name":"St. Clair Square","route_type":3,"route_color":"#FFFFFF","route_text_color":"#000000"}],"agency_name":"Metro St. Louis"},"geometry":{"type":"Point","coordinates":[-89.9848,38.58933]}},{"type":"Feature","properties":{"stop_id":"11650","stop_code":"11650","stop_name":"6530 ILLINOIS NB","stop_desc":"MID-BLOCK 6530 ILLINOIS NB","wheelchair_boarding":1,"routes":[{"route_id":"19644","agency_id":"70006","route_short_name":"12","route_long_name":"OFallon-Fairview Heights","route_type":3,"route_color":"#FFFFFF","route_text_color":"#000000"},{"route_id":"19648","agency_id":"70006","route_short_name":"16","route_long_name":"St. Clair Square","route_type":3,"route_color":"#FFFFFF","route_text_color":"#000000"}],"agency_name":"Metro St. Louis"},"geometry":{"type":"Point","coordinates":[-89.98478,38.59398]}},{"type":"Feature","properties":{"stop_id":"11653","stop_code":"11653","stop_name":"ILLINOIS @ MILBURN SCHOOL ROAD NB","stop_desc":"FAR SIDE ILLINOIS @ MILBURN SCHOOL ROAD NB","wheelchair_boarding":2,"routes":[{"route_id":"19648","agency_id":"70006","route_short_name":"16","route_long_name":"St. Clair Square","route_type":3,"route_color":"#FFFFFF","route_text_color":"#000000"}],"agency_name":"Metro St. Louis"},"geometry":{"type":"Point","coordinates":[-89.98492,38.61124]}},{"type":"Feature","properties":{"stop_id":"11654","stop_code":"11654","stop_name":"ILLINOIS @ PIN OAK NB","stop_desc":"FAR SIDE ILLINOIS @ PIN OAK NB","wheelchair_boarding":2,"routes":[{"route_id":"19648","agency_id":"70006","route_short_name":"16","route_long_name":"St. Clair Square","route_type":3,"route_color":"#FFFFFF","route_text_color":"#000000"}],"agency_name":"Metro St. Louis"},"geometry":{"type":"Point","coordinates":[-89.9851,38.62464]}},{"type":"Feature","properties":{"stop_id":"11655","stop_code":"11655","stop_name":"ILLINOIS @ BETHEL NB","stop_desc":"NEAR SIDE ILLINOIS @ BETHEL NB","wheelchair_boarding":2,"routes":[{"route_id":"19648","agency_id":"70006","route_short_name":"16","route_long_name":"St. Clair Square","route_type":3,"route_color":"#FFFFFF","route_text_color":"#000000"}],"agency_name":"Metro St. Louis"},"geometry":{"type":"Point","coordinates":[-89.98528,38.63732]}},{"type":"Feature","properties":{"stop_id":"11656","stop_code":"11656","stop_name":"ILLINOIS @ COMMERCE ACCESS NB","stop_desc":"NEAR SIDE ILLINOIS @ COMMERCE ACCESS NB","wheelchair_boarding":2,"routes":[{"route_id":"19648","agency_id":"70006","route_short_name":"16","route_long_name":"St. Clair Square","route_type":3,"route_color":"#FFFFFF","route_text_color":"#000000"}],"agency_name":"Metro St. Louis"},"geometry":{"type":"Point","coordinates":[-89.98533,38.64591]}},{"type":"Feature","properties":{"stop_id":"11657","stop_code":"11657","stop_name":"ILLINOIS @ BROOKHAVEN NB","stop_desc":"NEAR SIDE ILLINOIS @ BROOKHAVEN NB","wheelchair_boarding":2,"routes":[{"route_id":"19648","agency_id":"70006","route_short_name":"16","route_long_name":"St. Clair Square","route_type":3,"route_color":"#FFFFFF","route_text_color":"#000000"}],"agency_name":"Metro St. Louis"},"geometry":{"type":"Point","coordinates":[-89.98738,38.65208]}},{"type":"Feature","properties":{"stop_id":"11658","stop_code":"11658","stop_name":"MORRISON @ ILLINOIS NB","stop_desc":"FAR SIDE MORRISON @ ILLINOIS NB","wheelchair_boarding":2,"routes":[{"route_id":"19645","agency_id":"70006","route_short_name":"13","route_long_name":"Caseyville","route_type":3,"route_color":"#FFFFFF","route_text_color":"#000000"},{"route_id":"19648","agency_id":"70006","route_short_name":"16","route_long_name":"St. Clair Square","route_type":3,"route_color":"#FFFFFF","route_text_color":"#000000"}],"agency_name":"Metro St. Louis"},"geometry":{"type":"Point","coordinates":[-89.9871,38.65637]}},{"type":"Feature","properties":{"stop_id":"11660","stop_code":"11660","stop_name":"MORRISON @ IDLEWOOD NB","stop_desc":"NEAR SIDE MORRISON @ IDLEWOOD NB","wheelchair_boarding":2,"routes":[{"route_id":"19645","agency_id":"70006","route_short_name":"13","route_long_name":"Caseyville","route_type":3,"route_color":"#FFFFFF","route_text_color":"#000000"},{"route_id":"19648","agency_id":"70006","route_short_name":"16","route_long_name":"St. Clair Square","route_type":3,"route_color":"#FFFFFF","route_text_color":"#000000"}],"agency_name":"Metro St. Louis"},"geometry":{"type":"Point","coordinates":[-89.98485,38.6595]}},{"type":"Feature","properties":{"stop_id":"11661","stop_code":"11661","stop_name":"MORRISON @ CLINTON NB","stop_desc":"NEAR SIDE MORRISON @ CLINTON NB","wheelchair_boarding":2,"routes":[{"route_id":"19645","agency_id":"70006","route_short_name":"13","route_long_name":"Caseyville","route_type":3,"route_color":"#FFFFFF","route_text_color":"#000000"},{"route_id":"19648","agency_id":"70006","route_short_name":"16","route_long_name":"St. Clair Square","route_type":3,"route_color":"#FFFFFF","route_text_color":"#000000"}],"agency_name":"Metro St. Louis"},"geometry":{"type":"Point","coordinates":[-89.98314,38.66174]}},{"type":"Feature","properties":{"stop_id":"11663","stop_code":"11663","stop_name":"MORRISON @ HILL NB","stop_desc":"FAR SIDE MORRISON @ HILL NB","wheelchair_boarding":2,"routes":[{"route_id":"19645","agency_id":"70006","route_short_name":"13","route_long_name":"Caseyville","route_type":3,"route_color":"#FFFFFF","route_text_color":"#000000"},{"route_id":"19648","agency_id":"70006","route_short_name":"16","route_long_name":"St. Clair Square","route_type":3,"route_color":"#FFFFFF","route_text_color":"#000000"}],"agency_name":"Metro St. Louis"},"geometry":{"type":"Point","coordinates":[-89.98345,38.66794]}},{"type":"Feature","properties":{"stop_id":"11665","stop_code":"11665","stop_name":"MORRISON @ CHURCH NB","stop_desc":"FAR SIDE MORRISON @ CHURCH NB","wheelchair_boarding":2,"routes":[{"route_id":"19645","agency_id":"70006","route_short_name":"13","route_long_name":"Caseyville","route_type":3,"route_color":"#FFFFFF","route_text_color":"#000000"},{"route_id":"19648","agency_id":"70006","route_short_name":"16","route_long_name":"St. Clair Square","route_type":3,"route_color":"#FFFFFF","route_text_color":"#000000"}],"agency_name":"Metro St. Louis"},"geometry":{"type":"Point","coordinates":[-89.98411,38.66926]}},{"type":"Feature","properties":{"stop_id":"11846","stop_code":"11846","stop_name":"ST. CLAIR SQUARE MACYS ENTRANCE","stop_desc":"MID-BLOCK ST. CLAIR SQUARE MACYS ENTRANCE","wheelchair_boarding":2,"routes":[{"route_id":"19644","agency_id":"70006","route_short_name":"12","route_long_name":"OFallon-Fairview Heights","route_type":3,"route_color":"#FFFFFF","route_text_color":"#000000"},{"route_id":"19648","agency_id":"70006","route_short_name":"16","route_long_name":"St. Clair Square","route_type":3,"route_color":"#FFFFFF","route_text_color":"#000000"}],"agency_name":"Metro St. Louis"},"geometry":{"type":"Point","coordinates":[-89.98176,38.59597]}},{"type":"Feature","properties":{"stop_id":"12170","stop_code":"12170","stop_name":"SCHEEL @ DOUGLAS WB","stop_desc":"NEAR SIDE SCHEEL @ DOUGLAS WB","wheelchair_boarding":2,"routes":[{"route_id":"19636","agency_id":"70006","route_short_name":"1","route_long_name":"Main Street - State Street","route_type":3,"route_color":"#FFFFFF","route_text_color":"#000000"},{"route_id":"19647","agency_id":"70006","route_short_name":"15","route_long_name":"Belleville-O'Fallon","route_type":3,"route_color":"#FFFFFF","route_text_color":"#000000"},{"route_id":"19648","agency_id":"70006","route_short_name":"16","route_long_name":"St. Clair Square","route_type":3,"route_color":"#FFFFFF","route_text_color":"#000000"},{"route_id":"19649","agency_id":"70006","route_short_name":"23","route_long_name":"Belleville-College","route_type":3,"route_color":"#FFFFFF","route_text_color":"#000000"}],"agency_name":"Metro St. Louis"},"geometry":{"type":"Point","coordinates":[-89.97736,38.51957]}},{"type":"Feature","properties":{"stop_id":"13932","stop_code":"13932","stop_name":"MADISON COUNTY TRANSIT CTR","wheelchair_boarding":1,"routes":[{"route_id":"19645","agency_id":"70006","route_short_name":"13","route_long_name":"Caseyville","route_type":3,"route_color":"#FFFFFF","route_text_color":"#000000"},{"route_id":"19648","agency_id":"70006","route_short_name":"16","route_long_name":"St. Clair Square","route_type":3,"route_color":"#FFFFFF","route_text_color":"#000000"}],"agency_name":"Metro St. Louis"},"geometry":{"type":"Point","coordinates":[-89.98739,38.67064]}},{"type":"Feature","properties":{"stop_id":"15380","stop_code":"15380","stop_name":"ILLINOIS @ SERVICE NB","stop_desc":"FAR SIDE ILLINOIS @ SERVICE NB","wheelchair_boarding":2,"routes":[{"route_id":"19648","agency_id":"70006","route_short_name":"16","route_long_name":"St. Clair Square","route_type":3,"route_color":"#FFFFFF","route_text_color":"#000000"}],"agency_name":"Metro St. Louis"},"geometry":{"type":"Point","coordinates":[-89.98377,38.53096]}},{"type":"Feature","properties":{"stop_id":"15381","stop_code":"15381","stop_name":"ILLINOIS @ CAROLINE NB","stop_desc":"NEAR SIDE ILLINOIS @ CAROLINE NB","wheelchair_boarding":2,"routes":[{"route_id":"19648","agency_id":"70006","route_short_name":"16","route_long_name":"St. Clair Square","route_type":3,"route_color":"#FFFFFF","route_text_color":"#000000"}],"agency_name":"Metro St. Louis"},"geometry":{"type":"Point","coordinates":[-89.98347,38.53252]}},{"type":"Feature","properties":{"stop_id":"15384","stop_code":"15384","stop_name":"6214 ILLINOIS NB","stop_desc":"MID-BLOCK 6214 ILLINOIS NB","wheelchair_boarding":2,"routes":[{"route_id":"19648","agency_id":"70006","route_short_name":"16","route_long_name":"St. Clair Square","route_type":3,"route_color":"#FFFFFF","route_text_color":"#000000"}],"agency_name":"Metro St. Louis"},"geometry":{"type":"Point","coordinates":[-89.98482,38.59094]}},{"type":"Feature","properties":{"stop_id":"15587","stop_code":"15587","stop_name":"ILLINOIS @ SALEM PLACE NB","stop_desc":"FAR SIDE ILLINOIS @ SALEM PLACE NB","wheelchair_boarding":2,"routes":[{"route_id":"19648","agency_id":"70006","route_short_name":"16","route_long_name":"St. Clair Square","route_type":3,"route_color":"#FFFFFF","route_text_color":"#000000"}],"agency_name":"Metro St. Louis"},"geometry":{"type":"Point","coordinates":[-89.98489,38.60235]}},{"type":"Feature","properties":{"stop_id":"15588","stop_code":"15588","stop_name":"ILLINOIS @ FOUNTAIN PARKWAY NB","stop_desc":"FAR SIDE ILLINOIS @ FOUNTAIN PARKWAY NB","wheelchair_boarding":2,"routes":[{"route_id":"19648","agency_id":"70006","route_short_name":"16","route_long_name":"St. Clair Square","route_type":3,"route_color":"#FFFFFF","route_text_color":"#000000"}],"agency_name":"Metro St. Louis"},"geometry":{"type":"Point","coordinates":[-89.98494,38.60527]}},{"type":"Feature","properties":{"stop_id":"15589","stop_code":"15589","stop_name":"ILLINOIS @ STONEWOLF TRAIL NB","stop_desc":"FAR SIDE ILLINOIS @ STONEWOLF TRAIL NB","wheelchair_boarding":2,"routes":[{"route_id":"19648","agency_id":"70006","route_short_name":"16","route_long_name":"St. Clair Square","route_type":3,"route_color":"#FFFFFF","route_text_color":"#000000"}],"agency_name":"Metro St. Louis"},"geometry":{"type":"Point","coordinates":[-89.98494,38.61525]}},{"type":"Feature","properties":{"stop_id":"15590","stop_code":"15590","stop_name":"ILLINOIS @ DONALD BAILEY NB","stop_desc":"FAR SIDE ILLINOIS @ DONALD BAILEY NB","wheelchair_boarding":2,"routes":[{"route_id":"19648","agency_id":"70006","route_short_name":"16","route_long_name":"St. Clair Square","route_type":3,"route_color":"#FFFFFF","route_text_color":"#000000"}],"agency_name":"Metro St. Louis"},"geometry":{"type":"Point","coordinates":[-89.98507,38.62287]}},{"type":"Feature","properties":{"stop_id":"15591","stop_code":"15591","stop_name":"ILLINOIS @ PERRY PLACE NB","stop_desc":"FAR SIDE ILLINOIS @ PERRY PLACE NB","wheelchair_boarding":2,"routes":[{"route_id":"19648","agency_id":"70006","route_short_name":"16","route_long_name":"St. Clair Square","route_type":3,"route_color":"#FFFFFF","route_text_color":"#000000"}],"agency_name":"Metro St. Louis"},"geometry":{"type":"Point","coordinates":[-89.98537,38.64232]}},{"type":"Feature","properties":{"stop_id":"15592","stop_code":"15592","stop_name":"MORRISON @ CHEROKEE NB","stop_desc":"FAR SIDE MORRISON @ CHEROKEE NB","wheelchair_boarding":2,"routes":[{"route_id":"19645","agency_id":"70006","route_short_name":"13","route_long_name":"Caseyville","route_type":3,"route_color":"#FFFFFF","route_text_color":"#000000"},{"route_id":"19648","agency_id":"70006","route_short_name":"16","route_long_name":"St. Clair Square","route_type":3,"route_color":"#FFFFFF","route_text_color":"#000000"}],"agency_name":"Metro St. Louis"},"geometry":{"type":"Point","coordinates":[-89.986,38.65798]}},{"type":"Feature","properties":{"stop_id":"15712","stop_code":"15712","stop_name":"A STREET @ CHURCH WB","stop_desc":"FAR SIDE A STREET @ CHURCH WB","wheelchair_boarding":2,"routes":[{"route_id":"19636","agency_id":"70006","route_short_name":"1","route_long_name":"Main Street - State Street","route_type":3,"route_color":"#FFFFFF","route_text_color":"#000000"},{"route_id":"19648","agency_id":"70006","route_short_name":"16","route_long_name":"St. Clair Square","route_type":3,"route_color":"#FFFFFF","route_text_color":"#000000"}],"agency_name":"Metro St. Louis"},"geometry":{"type":"Point","coordinates":[-89.98052,38.51463]}},{"type":"Feature","properties":{"stop_id":"15713","stop_code":"15713","stop_name":"A STREET @ JACKSON WB","stop_desc":"FAR SIDE A STREET @ JACKSON WB","wheelchair_boarding":2,"routes":[{"route_id":"19636","agency_id":"70006","route_short_name":"1","route_long_name":"Main Street - State Street","route_type":3,"route_color":"#FFFFFF","route_text_color":"#000000"},{"route_id":"19648","agency_id":"70006","route_short_name":"16","route_long_name":"St. Clair Square","route_type":3,"route_color":"#FFFFFF","route_text_color":"#000000"}],"agency_name":"Metro St. Louis"},"geometry":{"type":"Point","coordinates":[-89.9817,38.51463]}},{"type":"Feature","properties":{"stop_id":"15714","stop_code":"15714","stop_name":"A STREET @ HIGH WB","stop_desc":"FAR SIDE A STREET @ HIGH WB","wheelchair_boarding":2,"routes":[{"route_id":"19636","agency_id":"70006","route_short_name":"1","route_long_name":"Main Street - State Street","route_type":3,"route_color":"#FFFFFF","route_text_color":"#000000"},{"route_id":"19648","agency_id":"70006","route_short_name":"16","route_long_name":"St. Clair Square","route_type":3,"route_color":"#FFFFFF","route_text_color":"#000000"}],"agency_name":"Metro St. Louis"},"geometry":{"type":"Point","coordinates":[-89.98308,38.51462]}},{"type":"Feature","properties":{"stop_id":"16059","stop_code":"16059","stop_name":"ILLINOIS @ ROUND HILL NB","stop_desc":"FAR SIDE ILLINOIS @ ROUND HILL NB","wheelchair_boarding":2,"routes":[{"route_id":"19648","agency_id":"70006","route_short_name":"16","route_long_name":"St. Clair Square","route_type":3,"route_color":"#FFFFFF","route_text_color":"#000000"}],"agency_name":"Metro St. Louis"},"geometry":{"type":"Point","coordinates":[-89.98459,38.55799]}},{"type":"Feature","properties":{"stop_id":"16060","stop_code":"16060","stop_name":"ILLINOIS @ ROUND HILL NORTH NB","stop_desc":"NEAR SIDE ILLINOIS @ ROUND HILL NORTH NB","wheelchair_boarding":2,"routes":[{"route_id":"19648","agency_id":"70006","route_short_name":"16","route_long_name":"St. Clair Square","route_type":3,"route_color":"#FFFFFF","route_text_color":"#000000"}],"agency_name":"Metro St. Louis"},"geometry":{"type":"Point","coordinates":[-89.98465,38.55931]}}]}