{"type":"FeatureCollection","features":[{"type":"Feature","properties":{"agency_name":"Metro St. Louis","route_id":"19651R","agency_id":"70006","route_short_name":"MLR","route_long_name":"MetroLink Red Line","route_type":2,"route_color":"#CC0033","route_text_color":"#f6f6fc"},"geometry":{"type":"MultiLineString","coordinates":[[[-90.09518,38.61372],[-90.09529,38.61375],[-90.09078,38.61237],[-90.08864,38.6117],[-90.08756,38.61134],[-90.08676,38.61102],[-90.07808,38.6073],[-90.07764,38.60713],[-90.07713,38.60695],[-90.07661,38.60679],[-90.06196,38.60267],[-90.06138,38.60248],[-90.06072,38.60222],[-90.06026,38.60202],[-90.05248,38.59821],[-90.05198,38.59795],[-90.05156,38.59771],[-90.05097,38.59732],[-90.05034,38.59682],[-90.04993,38.59645],[-90.04958,38.59609],[-90.04915,38.59558],[-90.04889,38.59522],[-90.0478,38.59362],[-90.0471,38.59265],[-90.04479,38.58926],[-90.04456,38.58882],[-90.04435,38.58838],[-90.04236,38.58388],[-90.04222,38.58345],[-90.04215,38.58315],[-90.04211,38.58285],[-90.04211,38.58253],[-90.04217,38.58206],[-90.04224,38.58175],[-90.04243,38.58119],[-90.04259,38.58083],[-90.04328,38.57942],[-90.04344,38.57902],[-90.04355,38.5786],[-90.04359,38.57832],[-90.0436,38.57803],[-90.04359,38.57775],[-90.0435,38.5773],[-90.04335,38.57682],[-90.04315,38.57636],[-90.04287,38.57585],[-90.04254,38.57534],[-90.04212,38.5748],[-90.04182,38.57446],[-90.04125,38.57391],[-90.04083,38.57357],[-90.04048,38.57334],[-90.0401,38.57316],[-90.03964,38.573],[-90.03931,38.57291],[-90.03897,38.57285],[-90.03738,38.57267],[-90.0369,38.57259],[-90.03619,38.57243],[-90.0358,38.57231],[-90.03542,38.57217],[-90.03487,38.57194],[-90.03436,38.57166],[-90.03389,38.57134],[-90.03343,38.57097],[-90.033,38.57055],[-90.03266,38.57015],[-90.03239,38.56974],[-90.03223,38.56945],[-90.03191,38.56871],[-90.03065,38.56523],[-90.03046,38.56482],[-90.03021,38.56444],[-90.03002,38.56423],[-90.02982,38.56403],[-90.02948,38.56378],[-90.02923,38.56364],[-90.02898,38.56351],[-90.0285,38.56335],[-90.02816,38.56326],[-90.02767,38.56317],[-90.02447,38.56282],[-90.02405,38.56275],[-90.02363,38.56267],[-90.02302,38.56249],[-90.02263,38.56235],[-90.02208,38.5621],[-90.02162,38.56182],[-90.02132,38.56161],[-90.02104,38.56139],[-90.02067,38.56103],[-90.02044,38.56078],[-90.02024,38.56051],[-90.01943,38.55923],[-90.01925,38.559],[-90.01895,38.55868],[-90.01872,38.55849],[-90.01848,38.55832],[-90.01821,38.55818],[-90.01792,38.55805],[-90.01763,38.55794],[-90.01732,38.55786],[-90.0169,38.55778],[-90.0146,38.55748],[-90.01384,38.55737],[-90.0135,38.55729],[-90.01316,38.55719],[-90.013,38.55713],[-90.0127,38.55699],[-90.01241,38.55682],[-90.01214,38.55664],[-90.00484,38.55111],[-90.00361,38.55019],[-90.00325,38.54997],[-90.00288,38.54977],[-90.00128,38.54904],[-90.00099,38.54888],[-90.00071,38.5487],[-90.00031,38.54838],[-90.00007,38.54815],[-89.99843,38.54634],[-89.99812,38.54602],[-89.99778,38.54572],[-89.99743,38.54544],[-89.99681,38.54502],[-89.99638,38.54475],[-89.99454,38.54367],[-89.99412,38.5434],[-89.99372,38.54311],[-89.99333,38.5428],[-89.99228,38.54188],[-89.99192,38.54154],[-89.99159,38.54119],[-89.99111,38.54065],[-89.99079,38.54026],[-89.98831,38.5371],[-89.98796,38.53672],[-89.98768,38.53646],[-89.98646,38.53541],[-89.98631,38.53525],[-89.98618,38.53507],[-89.98602,38.53478],[-89.98593,38.53454],[-89.98586,38.53427],[-89.9858,38.53399],[-89.98577,38.53357],[-89.98565,38.53274],[-89.98555,38.53241],[-89.98544,38.53209],[-89.98529,38.53178],[-89.98501,38.53137],[-89.9848,38.53111],[-89.98457,38.53087],[-89.98338,38.52982],[-89.98298,38.52941],[-89.9805,38.52624],[-89.98011,38.52577],[-89.97967,38.5253],[-89.97918,38.52488],[-89.97844,38.52432],[-89.97701,38.52344],[-89.96131,38.51397],[-89.95871,38.51242],[-89.95393,38.51002],[-89.95314,38.50966],[-89.95236,38.50936],[-89.95184,38.50919],[-89.95131,38.50905],[-89.95077,38.50894],[-89.95004,38.50881],[-89.94939,38.50873],[-89.94883,38.50869],[-89.94827,38.50867],[-89.94771,38.50868],[-89.9238,38.50976],[-89.92286,38.50982],[-89.92252,38.50986],[-89.922,38.50997],[-89.92167,38.51008],[-89.92136,38.51021],[-89.92095,38.51045],[-89.92056,38.51073],[-89.92021,38.51106],[-89.92005,38.5113],[-89.91984,38.51168],[-89.91974,38.51195],[-89.91964,38.5123],[-89.91962,38.51264],[-89.91966,38.51487],[-89.91967,38.5169],[-89.91969,38.51781],[-89.91968,38.51825],[-89.91932,38.52198],[-89.91893,38.52588],[-89.91881,38.52644],[-89.9187,38.52681],[-89.91854,38.52719],[-89.91824,38.52776],[-89.91813,38.52795],[-89.91799,38.52814],[-89.91753,38.52869],[-89.91719,38.52903],[-89.91671,38.52942],[-89.9162,38.52977],[-89.91567,38.53007],[-89.91531,38.53025],[-89.91475,38.53048],[-89.91437,38.53061],[-89.91399,38.53071],[-89.91336,38.53085],[-89.91293,38.53092],[-89.91229,38.53098],[-89.91169,38.531],[-89.90901,38.53099],[-89.89546,38.53095],[-89.89488,38.53097],[-89.89431,38.53103],[-89.89393,38.53108],[-89.89335,38.53121],[-89.89291,38.53133],[-89.89249,38.53148],[-89.89228,38.53156],[-89.89174,38.53182],[-89.88989,38.53278],[-89.88923,38.53307],[-89.88834,38.53338],[-89.8879,38.5335],[-89.88723,38.53364],[-89.88656,38.53375],[-89.8855,38.53382],[-89.88055,38.53372],[-89.88008,38.53374],[-89.87976,38.53379],[-89.87946,38.53387],[-89.87904,38.53402],[-89.8787,38.5342],[-89.87849,38.53435],[-89.8783,38.53452],[-89.87805,38.53481],[-89.87785,38.53511],[-89.87773,38.53539],[-89.87767,38.53558],[-89.87764,38.53587],[-89.87765,38.53615],[-89.87771,38.53644],[-89.87782,38.53671],[-89.87837,38.53769]],[[-90.3644,38.74053],[-90.36462,38.74131],[-90.36436,38.74043],[-90.36423,38.74015],[-90.36412,38.73997],[-90.36398,38.73982],[-90.36374,38.73962],[-90.36356,38.73951],[-90.36336,38.73943],[-90.36239,38.73913],[-90.36194,38.73895],[-90.36034,38.73821],[-90.35839,38.73724],[-90.35793,38.73706],[-90.35742,38.73689],[-90.35719,38.73679],[-90.35545,38.73587],[-90.35495,38.73562],[-90.35466,38.73549],[-90.35436,38.73538],[-90.35405,38.7353],[-90.35256,38.73501],[-90.35207,38.73488],[-90.35176,38.73477],[-90.35096,38.73439],[-90.3503,38.73415],[-90.34974,38.73399],[-90.34934,38.7339],[-90.34808,38.73367],[-90.3477,38.73362],[-90.34713,38.7336],[-90.34483,38.73371],[-90.34434,38.73369],[-90.3438,38.73363],[-90.34342,38.73356],[-90.34305,38.73347],[-90.34248,38.73332],[-90.34109,38.7329],[-90.34069,38.7328],[-90.34029,38.73271],[-90.33987,38.73265],[-90.33944,38.73262],[-90.33699,38.73247],[-90.33671,38.73242],[-90.33644,38.73234],[-90.33595,38.73216],[-90.33573,38.73204],[-90.33552,38.73191],[-90.33533,38.73176],[-90.33515,38.73158],[-90.33497,38.73134],[-90.33481,38.73109],[-90.33397,38.72965],[-90.33375,38.72938],[-90.33349,38.72916],[-90.3332,38.72898],[-90.33059,38.72763],[-90.32879,38.72672],[-90.32771,38.72615],[-90.32736,38.72595],[-90.3266,38.72544],[-90.32618,38.72513],[-90.32246,38.7221],[-90.32194,38.72172],[-90.32145,38.72142],[-90.32099,38.72118],[-90.32053,38.72099],[-90.31991,38.72078],[-90.31746,38.72007],[-90.31716,38.72001],[-90.31671,38.71997],[-90.31467,38.71997],[-90.31416,38.71993],[-90.31376,38.71986],[-90.31353,38.71978],[-90.3133,38.71968],[-90.313,38.7195],[-90.31282,38.71936],[-90.31267,38.71921],[-90.31253,38.71903],[-90.31237,38.71878],[-90.31227,38.71853],[-90.31169,38.71668],[-90.31158,38.71637],[-90.31148,38.71617],[-90.31137,38.71597],[-90.31123,38.71579],[-90.31107,38.71563],[-90.31081,38.71541],[-90.31047,38.71515],[-90.30991,38.7148],[-90.30948,38.71458],[-90.30878,38.71425],[-90.30691,38.71332],[-90.30577,38.71266],[-90.30547,38.71247],[-90.30509,38.71219],[-90.30473,38.71186],[-90.30458,38.71165],[-90.30447,38.71141],[-90.30442,38.71116],[-90.30443,38.71095],[-90.3045,38.71059],[-90.305,38.70909],[-90.30522,38.70839],[-90.30527,38.70818],[-90.30535,38.70763],[-90.30538,38.70708],[-90.30535,38.70655],[-90.30531,38.70617],[-90.30344,38.69615],[-90.30113,38.68364],[-90.29978,38.67644],[-90.29839,38.66887],[-90.29803,38.66699],[-90.29776,38.66544],[-90.29688,38.66074],[-90.29681,38.6604],[-90.29671,38.66007],[-90.29652,38.6596],[-90.29623,38.65896],[-90.29493,38.65643],[-90.29417,38.65489],[-90.29363,38.65394],[-90.29324,38.65338],[-90.29276,38.65282],[-90.29224,38.6523],[-90.28906,38.6496],[-90.28847,38.64913],[-90.28794,38.64875],[-90.28756,38.64853],[-90.28724,38.64837],[-90.28676,38.64817],[-90.2864,38.64805],[-90.28602,38.64795],[-90.28544,38.64784],[-90.28345,38.64768],[-90.28051,38.6474],[-90.27899,38.64728],[-90.27797,38.64718],[-90.27766,38.64712],[-90.27735,38.64703],[-90.27705,38.64693],[-90.27662,38.64673],[-90.27634,38.64657],[-90.27608,38.64639],[-90.27572,38.64608],[-90.27493,38.64527],[-90.27455,38.64492],[-90.27413,38.64461],[-90.27367,38.64434],[-90.27313,38.64411],[-90.27258,38.64393],[-90.26959,38.6432],[-90.2691,38.64302],[-90.26882,38.64288],[-90.26857,38.64273],[-90.26821,38.64248],[-90.268,38.64228],[-90.2678,38.64207],[-90.26763,38.64187],[-90.26748,38.64165],[-90.26729,38.6413],[-90.26715,38.64093],[-90.26711,38.64071],[-90.26704,38.64028],[-90.26697,38.63945],[-90.26688,38.63895],[-90.26681,38.63871],[-90.26672,38.63848],[-90.26661,38.63826],[-90.26642,38.63798],[-90.26631,38.63784],[-90.26617,38.63772],[-90.26585,38.6375],[-90.26508,38.63704],[-90.2642,38.63658],[-90.26357,38.63631],[-90.26314,38.63616],[-90.26157,38.63575],[-90.25954,38.63537],[-90.25703,38.63485],[-90.24691,38.63269],[-90.24617,38.63251],[-90.24398,38.63193],[-90.24162,38.63134],[-90.24102,38.63114],[-90.24056,38.63096],[-90.23927,38.63039],[-90.23852,38.63014],[-90.23785,38.62997],[-90.23474,38.62938],[-90.23396,38.62919],[-90.23345,38.62902],[-90.23297,38.62884],[-90.23098,38.62794],[-90.23021,38.62766],[-90.2297,38.6275],[-90.22569,38.62639],[-90.22469,38.62614],[-90.2209,38.62532],[-90.21673,38.62447],[-90.21638,38.62442],[-90.21585,38.6244],[-90.21442,38.62448],[-90.21411,38.62452],[-90.21381,38.62459],[-90.21351,38.62469],[-90.21322,38.62481],[-90.21281,38.62503],[-90.2126,38.62521],[-90.21232,38.62551],[-90.21208,38.62584],[-90.21176,38.62644],[-90.21155,38.62678],[-90.21143,38.62691],[-90.21121,38.62709],[-90.21105,38.62717],[-90.21086,38.62724],[-90.21054,38.62731],[-90.21032,38.62732],[-90.20999,38.62729],[-90.20361,38.62598],[-90.20341,38.62591],[-90.20322,38.62579],[-90.20307,38.62563],[-90.20304,38.62547],[-90.20304,38.62522],[-90.20308,38.62491],[-90.20327,38.62403],[-90.20331,38.62372],[-90.2033,38.62361],[-90.20327,38.62351],[-90.20322,38.62342],[-90.20314,38.62335],[-90.20297,38.62327],[-90.2027,38.62319],[-90.19906,38.62257],[-90.19871,38.6225],[-90.19776,38.62225],[-90.19744,38.6222],[-90.19711,38.62217],[-90.19634,38.62218],[-90.19589,38.62225],[-90.19551,38.62234],[-90.19524,38.62246],[-90.19507,38.62257],[-90.19493,38.62269],[-90.19474,38.62292],[-90.19461,38.62318],[-90.19451,38.62346],[-90.19411,38.62438],[-90.19304,38.62706],[-90.19239,38.62861],[-90.1921,38.62935],[-90.19167,38.63039],[-90.19155,38.63051],[-90.19139,38.63058],[-90.19127,38.63059],[-90.19115,38.63058],[-90.18686,38.62971],[-90.18507,38.6296],[-90.18154,38.62926],[-90.17793,38.62888],[-90.17485,38.62852],[-90.1732,38.62832],[-90.16866,38.62772],[-90.168,38.62763],[-90.16766,38.62757],[-90.16734,38.62749],[-90.16686,38.62733],[-90.1664,38.62711],[-90.16611,38.62694],[-90.16579,38.62672],[-90.16545,38.62646],[-90.16279,38.62422],[-90.16265,38.62414],[-90.16251,38.62407],[-90.16227,38.62402],[-90.16211,38.62402],[-90.16085,38.62416],[-90.16056,38.62425],[-90.16029,38.6244],[-90.15695,38.62684],[-90.1552,38.6282],[-90.15343,38.62949],[-90.15306,38.62974],[-90.15266,38.62998],[-90.15203,38.6303],[-90.15003,38.63122],[-90.14976,38.63133],[-90.14949,38.63141],[-90.14906,38.63148],[-90.14879,38.63148],[-90.14855,38.63146],[-90.14831,38.63142],[-90.14807,38.63136],[-90.14773,38.63121],[-90.14752,38.63108],[-90.14719,38.63083],[-90.14663,38.63035],[-90.14639,38.6302],[-90.14614,38.63008],[-90.14582,38.62994],[-90.14477,38.62959],[-90.14452,38.62952],[-90.14426,38.62947],[-90.14401,38.62944],[-90.14375,38.62944],[-90.14315,38.6295],[-90.13993,38.63003],[-90.13964,38.63007],[-90.13934,38.63008],[-90.13905,38.63007],[-90.13876,38.63003],[-90.1385,38.62996],[-90.13814,38.62981],[-90.13792,38.62968],[-90.13771,38.62953],[-90.13553,38.62764],[-90.13513,38.62733],[-90.13484,38.62715],[-90.13454,38.62699],[-90.13377,38.62668],[-90.13016,38.62534],[-90.12322,38.62282],[-90.12025,38.62171],[-90.11718,38.62061],[-90.11502,38.61992],[-90.1065,38.61728],[-90.10414,38.61653],[-90.0976,38.6145],[-90.09549,38.61381]]]}},{"type":"Feature","properties":{"stop_id":"10599","stop_code":"10599","stop_name":"EMERSON PARK METROLINK STATION","wheelchair_boarding":1,"routes":[{"route_id":"19251B","agency_id":"70006","route_short_name":"MLB","route_long_name":"MetroLink Blue Line","route_type":2,"route_color":"#333399","route_text_color":"#f6f6fc"},{"route_id":"19251R","agency_id":"70006","route_short_name":"MLR","route_long_name":"MetroLink Red Line","route_type":2,"route_color":"#CC0033","route_text_color":"#f6f6fc"},{"route_id":"19651B","agency_id":"70006","route_short_name":"MLB","route_long_name":"MetroLink Blue Line","route_type":2,"route_color":"#333399","route_text_color":"#f6f6fc"},{"route_id":"19651R","agency_id":"70006","route_short_name":"MLR","route_long_name":"MetroLink Red Line","route_type":2,"route_color":"#CC0033","route_text_color":"#f6f6fc"}],"agency_name":"Metro St. Louis"},"geometry":{"type":"Point","coordinates":[-90.13723,38.62911]}},{"type":"Feature","properties":{"stop_id":"10600","stop_code":"10600","stop_name":"JJK CENTER METROLINK STATION","wheelchair_boarding":1,"routes":[{"route_id":"19251B","agency_id":"70006","route_short_name":"MLB","route_long_name":"MetroLink Blue Line","route_type":2,"route_color":"#333399","route_text_color":"#f6f6fc"},{"route_id":"19251R","agency_id":"70006","route_short_name":"MLR","route_long_name":"MetroLink Red Line","route_type":2,"route_color":"#CC0033","route_text_color":"#f6f6fc"},{"route_id":"19651B","agency_id":"70006","route_short_name":"MLB","route_long_name":"MetroLink Blue Line","route_type":2,"route_color":"#333399","route_text_color":"#f6f6fc"},{"route_id":"19651R","agency_id":"70006","route_short_name":"MLR","route_long_name":"MetroLink Red Line","route_type":2,"route_color":"#CC0033","route_text_color":"#f6f6fc"}],"agency_name":"Metro St. Louis"},"geometry":{"type":"Point","coordinates":[-90.12441,38.62324]}},{"type":"Feature","properties":{"stop_id":"10601","stop_code":"10601","stop_name":"WASHINGTON PARK METROLINK STATION","wheelchair_boarding":1,"routes":[{"route_id":"19251R","agency_id":"70006","route_short_name":"MLR","route_long_name":"MetroLink Red Line","route_type":2,"route_color":"#CC0033","route_text_color":"#f6f6fc"},{"route_id":"19651R","agency_id":"70006","route_short_name":"MLR","route_long_name":"MetroLink Red Line","route_type":2,"route_color":"#CC0033","route_text_color":"#f6f6fc"}],"agency_name":"Metro St. Louis"},"geometry":{"type":"Point","coordinates":[-90.09529,38.61374]}},{"type":"Feature","properties":{"stop_id":"10602","stop_code":"10602","stop_name":"FAIRVIEW HEIGHTS METROLINK STATION","wheelchair_boarding":1,"routes":[{"route_id":"19251R","agency_id":"70006","route_short_name":"MLR","route_long_name":"MetroLink Red Line","route_type":2,"route_color":"#CC0033","route_text_color":"#f6f6fc"},{"route_id":"19651R","agency_id":"70006","route_short_name":"MLR","route_long_name":"MetroLink Red Line","route_type":2,"route_color":"#CC0033","route_text_color":"#f6f6fc"}],"agency_name":"Metro St. Louis"},"geometry":{"type":"Point","coordinates":[-90.04794,38.59381]}},{"type":"Feature","properties":{"stop_id":"10603","stop_code":"10603","stop_name":"MEMORIAL HOSPITAL METROLINK STATION","wheelchair_boarding":1,"routes":[{"route_id":"19251R","agency_id":"70006","route_short_name":"MLR","route_long_name":"MetroLink Red Line","route_type":2,"route_color":"#CC0033","route_text_color":"#f6f6fc"},{"route_id":"19651R","agency_id":"70006","route_short_name":"MLR","route_long_name":"MetroLink Red Line","route_type":2,"route_color":"#CC0033","route_text_color":"#f6f6fc"}],"agency_name":"Metro St. Louis"},"geometry":{"type":"Point","coordinates":[-90.01536,38.55757]}},{"type":"Feature","properties":{"stop_id":"10604","stop_code":"10604","stop_name":"SWANSEA METROLINK STATION","wheelchair_boarding":1,"routes":[{"route_id":"19251R","agency_id":"70006","route_short_name":"MLR","route_long_name":"MetroLink Red Line","route_type":2,"route_color":"#CC0033","route_text_color":"#f6f6fc"},{"route_id":"19651R","agency_id":"70006","route_short_name":"MLR","route_long_name":"MetroLink Red Line","route_type":2,"route_color":"#CC0033","route_text_color":"#f6f6fc"}],"agency_name":"Metro St. Louis"},"geometry":{"type":"Point","coordinates":[-89.98748,38.53627]}},{"type":"Feature","properties":{"stop_id":"10605","stop_code":"10605","stop_name":"BELLEVILLE METROLINK STATION","wheelchair_boarding":1,"routes":[{"route_id":"19251R","agency_id":"70006","route_short_name":"MLR","route_long_name":"MetroLink Red Line","route_type":2,"route_color":"#CC0033","route_text_color":"#f6f6fc"},{"route_id":"19651R","agency_id":"70006","route_short_name":"MLR","route_long_name":"MetroLink Red Line","route_type":2,"route_color":"#CC0033","route_text_color":"#f6f6fc"}],"agency_name":"Metro St. Louis"},"geometry":{"type":"Point","coordinates":[-89.97436,38.52183]}},{"type":"Feature","properties":{"stop_id":"10616","stop_code":"10616","stop_name":"5TH & MISSOURI METROLINK STATION","wheelchair_boarding":1,"routes":[{"route_id":"19251B","agency_id":"70006","route_short_name":"MLB","route_long_name":"MetroLink Blue Line","route_type":2,"route_color":"#333399","route_text_color":"#f6f6fc"},{"route_id":"19251R","agency_id":"70006","route_short_name":"MLR","route_long_name":"MetroLink Red Line","route_type":2,"route_color":"#CC0033","route_text_color":"#f6f6fc"},{"route_id":"19651B","agency_id":"70006","route_short_name":"MLB","route_long_name":"MetroLink Blue Line","route_type":2,"route_color":"#333399","route_text_color":"#f6f6fc"},{"route_id":"19651R","agency_id":"70006","route_short_name":"MLR","route_long_name":"MetroLink Red Line","route_type":2,"route_color":"#CC0033","route_text_color":"#f6f6fc"}],"agency_name":"Metro St. Louis"},"geometry":{"type":"Point","coordinates":[-90.15938,38.62506]}},{"type":"Feature","properties":{"stop_id":"10617","stop_code":"10617","stop_name":"EAST RIVERFRONT METROLINK STATION","wheelchair_boarding":1,"routes":[{"route_id":"19251B","agency_id":"70006","route_short_name":"MLB","route_long_name":"MetroLink Blue Line","route_type":2,"route_color":"#333399","route_text_color":"#f6f6fc"},{"route_id":"19251R","agency_id":"70006","route_short_name":"MLR","route_long_name":"MetroLink Red Line","route_type":2,"route_color":"#CC0033","route_text_color":"#f6f6fc"},{"route_id":"19651B","agency_id":"70006","route_short_name":"MLB","route_long_name":"MetroLink Blue Line","route_type":2,"route_color":"#333399","route_text_color":"#f6f6fc"},{"route_id":"19651R","agency_id":"70006","route_short_name":"MLR","route_long_name":"MetroLink Red Line","route_type":2,"route_color":"#CC0033","route_text_color":"#f6f6fc"}],"agency_name":"Metro St. Louis"},"geometry":{"type":"Point","coordinates":[-90.17475,38.62851]}},{"type":"Feature","properties":{"stop_id":"10618","stop_code":"10618","stop_name":"LACLEDE'S LANDING METROLINK STATION","wheelchair_boarding":1,"routes":[{"route_id":"19251B","agency_id":"70006","route_short_name":"MLB","route_long_name":"MetroLink Blue Line","route_type":2,"route_color":"#333399","route_text_color":"#f6f6fc"},{"route_id":"19251R","agency_id":"70006","route_short_name":"MLR","route_long_name":"MetroLink Red Line","route_type":2,"route_color":"#CC0033","route_text_color":"#f6f6fc"},{"route_id":"19651B","agency_id":"70006","route_short_name":"MLB","route_long_name":"MetroLink Blue Line","route_type":2,"route_color":"#333399","route_text_color":"#f6f6fc"},{"route_id":"19651R","agency_id":"70006","route_short_name":"MLR","route_long_name":"MetroLink Red Line","route_type":2,"route_color":"#CC0033","route_text_color":"#f6f6fc"}],"agency_name":"Metro St. Louis"},"geometry":{"type":"Point","coordinates":[-90.18364,38.62946]}},{"type":"Feature","properties":{"stop_id":"10619","stop_code":"10619","stop_name":"CONVENTION CENTER METROLINK STATION","wheelchair_boarding":1,"routes":[{"route_id":"19251B","agency_id":"70006","route_short_name":"MLB","route_long_name":"MetroLink Blue Line","route_type":2,"route_color":"#333399","route_text_color":"#f6f6fc"},{"route_id":"19251R","agency_id":"70006","route_short_name":"MLR","route_long_name":"MetroLink Red Line","route_type":2,"route_color":"#CC0033","route_text_color":"#f6f6fc"},{"route_id":"19651B","agency_id":"70006","route_short_name":"MLB","route_long_name":"MetroLink Blue Line","route_type":2,"route_color":"#333399","route_text_color":"#f6f6fc"},{"route_id":"19651R","agency_id":"70006","route_short_name":"MLR","route_long_name":"MetroLink Red Line","route_type":2,"route_color":"#CC0033","route_text_color":"#f6f6fc"}],"agency_name":"Metro St. Louis"},"geometry":{"type":"Point","coordinates":[-90.1894,38.63022]}},{"type":"Feature","properties":{"stop_id":"10620","stop_code":"10620","stop_name":"8TH & PINE METROLINK STATION","wheelchair_boarding":1,"routes":[{"route_id":"19251B","agency_id":"70006","route_short_name":"MLB","route_long_name":"MetroLink Blue Line","route_type":2,"route_color":"#333399","route_text_color":"#f6f6fc"},{"route_id":"19251R","agency_id":"70006","route_short_name":"MLR","route_long_name":"MetroLink Red Line","route_type":2,"route_color":"#CC0033","route_text_color":"#f6f6fc"},{"route_id":"19651B","agency_id":"70006","route_short_name":"MLB","route_long_name":"MetroLink Blue Line","route_type":2,"route_color":"#333399","route_text_color":"#f6f6fc"},{"route_id":"19651R","agency_id":"70006","route_short_name":"MLR","route_long_name":"MetroLink Red Line","route_type":2,"route_color":"#CC0033","route_text_color":"#f6f6fc"}],"agency_name":"Metro St. Louis"},"geometry":{"type":"Point","coordinates":[-90.1927,38.62791]}},{"type":"Feature","properties":{"stop_id":"10622","stop_code":"10622","stop_name":"CIVIC CENTER METROLINK STATION","wheelchair_boarding":1,"routes":[{"route_id":"19251B","agency_id":"70006","route_short_name":"MLB","route_long_name":"MetroLink Blue Line","route_type":2,"route_color":"#333399","route_text_color":"#f6f6fc"},{"route_id":"19251R","agency_id":"70006","route_short_name":"MLR","route_long_name":"MetroLink Red Line","route_type":2,"route_color":"#CC0033","route_text_color":"#f6f6fc"},{"route_id":"19651B","agency_id":"70006","route_short_name":"MLB","route_long_name":"MetroLink Blue Line","route_type":2,"route_color":"#333399","route_text_color":"#f6f6fc"},{"route_id":"19651R","agency_id":"70006","route_short_name":"MLR","route_long_name":"MetroLink Red Line","route_type":2,"route_color":"#CC0033","route_text_color":"#f6f6fc"}],"agency_name":"Metro St. Louis"},"geometry":{"type":"Point","coordinates":[-90.20307,38.62501]}},{"type":"Feature","properties":{"stop_id":"10623","stop_code":"10623","stop_name":"UNION STATION METROLINK STATION","wheelchair_boarding":1,"routes":[{"route_id":"19251B","agency_id":"70006","route_short_name":"MLB","route_long_name":"MetroLink Blue Line","route_type":2,"route_color":"#333399","route_text_color":"#f6f6fc"},{"route_id":"19251R","agency_id":"70006","route_short_name":"MLR","route_long_name":"MetroLink Red Line","route_type":2,"route_color":"#CC0033","route_text_color":"#f6f6fc"},{"route_id":"19651B","agency_id":"70006","route_short_name":"MLB","route_long_name":"MetroLink Blue Line","route_type":2,"route_color":"#333399","route_text_color":"#f6f6fc"},{"route_id":"19651R","agency_id":"70006","route_short_name":"MLR","route_long_name":"MetroLink Red Line","route_type":2,"route_color":"#CC0033","route_text_color":"#f6f6fc"}],"agency_name":"Metro St. Louis"},"geometry":{"type":"Point","coordinates":[-90.20655,38.62659]}},{"type":"Feature","properties":{"stop_id":"10624","stop_code":"10624","stop_name":"GRAND METROLINK STATION","wheelchair_boarding":1,"routes":[{"route_id":"19251B","agency_id":"70006","route_short_name":"MLB","route_long_name":"MetroLink Blue Line","route_type":2,"route_color":"#333399","route_text_color":"#f6f6fc"},{"route_id":"19251R","agency_id":"70006","route_short_name":"MLR","route_long_name":"MetroLink Red Line","route_type":2,"route_color":"#CC0033","route_text_color":"#f6f6fc"},{"route_id":"19651B","agency_id":"70006","route_short_name":"MLB","route_long_name":"MetroLink Blue Line","route_type":2,"route_color":"#333399","route_text_color":"#f6f6fc"},{"route_id":"19651R","agency_id":"70006","route_short_name":"MLR","route_long_name":"MetroLink Red Line","route_type":2,"route_color":"#CC0033","route_text_color":"#f6f6fc"}],"agency_name":"Metro St. Louis"},"geometry":{"type":"Point","coordinates":[-90.23546,38.62951]}},{"type":"Feature","properties":{"stop_id":"10625","stop_code":"10625","stop_name":"CENTRAL WEST END METROLINK STATION","wheelchair_boarding":1,"routes":[{"route_id":"19251B","agency_id":"70006","route_short_name":"MLB","route_long_name":"MetroLink Blue Line","route_type":2,"route_color":"#333399","route_text_color":"#f6f6fc"},{"route_id":"19251R","agency_id":"70006","route_short_name":"MLR","route_long_name":"MetroLink Red Line","route_type":2,"route_color":"#CC0033","route_text_color":"#f6f6fc"},{"route_id":"19651B","agency_id":"70006","route_short_name":"MLB","route_long_name":"MetroLink Blue Line","route_type":2,"route_color":"#333399","route_text_color":"#f6f6fc"},{"route_id":"19651R","agency_id":"70006","route_short_name":"MLR","route_long_name":"MetroLink Red Line","route_type":2,"route_color":"#CC0033","route_text_color":"#f6f6fc"}],"agency_name":"Metro St. Louis"},"geometry":{"type":"Point","coordinates":[-90.26194,38.63583]}},{"type":"Feature","properties":{"stop_id":"10626","stop_code":"10626","stop_name":"FOREST PARK DEBALIVIERE METROLINK STATION","wheelchair_boarding":1,"routes":[{"route_id":"19251B","agency_id":"70006","route_short_name":"MLB","route_long_name":"MetroLink Blue Line","route_type":2,"route_color":"#333399","route_text_color":"#f6f6fc"},{"route_id":"19251R","agency_id":"70006","route_short_name":"MLR","route_long_name":"MetroLink Red Line","route_type":2,"route_color":"#CC0033","route_text_color":"#f6f6fc"},{"route_id":"19651B","agency_id":"70006","route_short_name":"MLB","route_long_name":"MetroLink Blue Line","route_type":2,"route_color":"#333399","route_text_color":"#f6f6fc"},{"route_id":"19651R","agency_id":"70006","route_short_name":"MLR","route_long_name":"MetroLink Red Line","route_type":2,"route_color":"#CC0033","route_text_color":"#f6f6fc"}],"agency_name":"Metro St. Louis"},"geometry":{"type":"Point","coordinates":[-90.28465,38.64778]}},{"type":"Feature","properties":{"stop_id":"10627","stop_code":"10627","stop_name":"DELMAR LOOP METROLINK STATION","wheelchair_boarding":1,"routes":[{"route_id":"19251R","agency_id":"70006","route_short_name":"MLR","route_long_name":"MetroLink Red Line","route_type":2,"route_color":"#CC0033","route_text_color":"#f6f6fc"},{"route_id":"19651R","agency_id":"70006","route_short_name":"MLR","route_long_name":"MetroLink Red Line","route_type":2,"route_color":"#CC0033","route_text_color":"#f6f6fc"}],"agency_name":"Metro St. Louis"},"geometry":{"type":"Point","coordinates":[-90.29459,38.65572]}},{"type":"Feature","properties":{"stop_id":"10628","stop_code":"10628","stop_name":"WELLSTON METROLINK STATION","wheelchair_boarding":1,"routes":[{"route_id":"19251R","agency_id":"70006","route_short_name":"MLR","route_long_name":"MetroLink Red Line","route_type":2,"route_color":"#CC0033","route_text_color":"#f6f6fc"},{"route_id":"19651R","agency_id":"70006","route_short_name":"MLR","route_long_name":"MetroLink Red Line","route_type":2,"route_color":"#CC0033","route_text_color":"#f6f6fc"}],"agency_name":"Metro St. Louis"},"geometry":{"type":"Point","coordinates":[-90.29841,38.66889]}},{"type":"Feature","properties":{"stop_id":"10629","stop_code":"10629","stop_name":"ROCK ROAD METROLINK STATION","wheelchair_boarding":1,"routes":[{"route_id":"19251R","agency_id":"70006","route_short_name":"MLR","route_long_name":"MetroLink Red Line","route_type":2,"route_color":"#CC0033","route_text_color":"#f6f6fc"},{"route_id":"19651R","agency_id":"70006","route_short_name":"MLR","route_long_name":"MetroLink Red Line","route_type":2,"route_color":"#CC0033","route_text_color":"#f6f6fc"}],"agency_name":"Metro St. Louis"},"geometry":{"type":"Point","coordinates":[-90.30143,38.68524]}},{"type":"Feature","properties":{"stop_id":"10630","stop_code":"10630","stop_name":"UMSL SOUTH METROLINK STATION","wheelchair_boarding":1,"routes":[{"route_id":"19251R","agency_id":"70006","route_short_name":"MLR","route_long_name":"MetroLink Red Line","route_type":2,"route_color":"#CC0033","route_text_color":"#f6f6fc"},{"route_id":"19651R","agency_id":"70006","route_short_name":"MLR","route_long_name":"MetroLink Red Line","route_type":2,"route_color":"#CC0033","route_text_color":"#f6f6fc"}],"agency_name":"Metro St. Louis"},"geometry":{"type":"Point","coordinates":[-90.30514,38.70526]}},{"type":"Feature","properties":{"stop_id":"10631","stop_code":"10631","stop_name":"UMSL NORTH METROLINK STATION","wheelchair_boarding":1,"routes":[{"route_id":"19251R","agency_id":"70006","route_short_name":"MLR","route_long_name":"MetroLink Red Line","route_type":2,"route_color":"#CC0033","route_text_color":"#f6f6fc"},{"route_id":"19651R","agency_id":"70006","route_short_name":"MLR","route_long_name":"MetroLink Red Line","route_type":2,"route_color":"#CC0033","route_text_color":"#f6f6fc"}],"agency_name":"Metro St. Louis"},"geometry":{"type":"Point","coordinates":[-90.30612,38.71285]}},{"type":"Feature","properties":{"stop_id":"10632","stop_code":"10632","stop_name":"NORTH HANLEY METROLINK STATION","wheelchair_boarding":1,"routes":[{"route_id":"19251R","agency_id":"70006","route_short_name":"MLR","route_long_name":"MetroLink Red Line","route_type":2,"route_color":"#CC0033","route_text_color":"#f6f6fc"},{"route_id":"19651R","agency_id":"70006","route_short_name":"MLR","route_long_name":"MetroLink Red Line","route_type":2,"route_color":"#CC0033","route_text_color":"#f6f6fc"}],"agency_name":"Metro St. Louis"},"geometry":{"type":"Point","coordinates":[-90.31521,38.71996]}},{"type":"Feature","properties":{"stop_id":"10633","stop_code":"10633","stop_name":"LAMBERT AIRPORT TERMINAL #2 METROLINK STATION","wheelchair_boarding":1,"routes":[{"route_id":"19251R","agency_id":"70006","route_short_name":"MLR","route_long_name":"MetroLink Red Line","route_type":2,"route_color":"#CC0033","route_text_color":"#f6f6fc"},{"route_id":"19651R","agency_id":"70006","route_short_name":"MLR","route_long_name":"MetroLink Red Line","route_type":2,"route_color":"#CC0033","route_text_color":"#f6f6fc"}],"agency_name":"Metro St. Louis"},"geometry":{"type":"Point","coordinates":[-90.35603,38.73617]}},{"type":"Feature","properties":{"stop_id":"10634","stop_code":"10634","stop_name":"LAMBERT AIRPORT TERMINAL #1 METROLINK STATION","wheelchair_boarding":1,"routes":[{"route_id":"19251R","agency_id":"70006","route_short_name":"MLR","route_long_name":"MetroLink Red Line","route_type":2,"route_color":"#CC0033","route_text_color":"#f6f6fc"},{"route_id":"19651R","agency_id":"70006","route_short_name":"MLR","route_long_name":"MetroLink Red Line","route_type":2,"route_color":"#CC0033","route_text_color":"#f6f6fc"}],"agency_name":"Metro St. Louis"},"geometry":{"type":"Point","coordinates":[-90.3646,38.74122]}},{"type":"Feature","properties":{"stop_id":"11103","stop_code":"11103","stop_name":"COLLEGE METROLINK STATION","wheelchair_boarding":1,"routes":[{"route_id":"19251R","agency_id":"70006","route_short_name":"MLR","route_long_name":"MetroLink Red Line","route_type":2,"route_color":"#CC0033","route_text_color":"#f6f6fc"},{"route_id":"19651R","agency_id":"70006","route_short_name":"MLR","route_long_name":"MetroLink Red Line","route_type":2,"route_color":"#CC0033","route_text_color":"#f6f6fc"}],"agency_name":"Metro St. Louis"},"geometry":{"type":"Point","coordinates":[-89.91967,38.51618]}},{"type":"Feature","properties":{"stop_id":"13662","stop_code":"13662","stop_name":"STADIUM METROLINK STATION","wheelchair_boarding":1,"routes":[{"route_id":"19251B","agency_id":"70006","route_short_name":"MLB","route_long_name":"MetroLink Blue Line","route_type":2,"route_color":"#333399","route_text_color":"#f6f6fc"},{"route_id":"19251R","agency_id":"70006","route_short_name":"MLR","route_long_name":"MetroLink Red Line","route_type":2,"route_color":"#CC0033","route_text_color":"#f6f6fc"},{"route_id":"19651B","agency_id":"70006","route_short_name":"MLB","route_long_name":"MetroLink Blue Line","route_type":2,"route_color":"#333399","route_text_color":"#f6f6fc"},{"route_id":"19651R","agency_id":"70006","route_short_name":"MLR","route_long_name":"MetroLink Red Line","route_type":2,"route_color":"#CC0033","route_text_color":"#f6f6fc"}],"agency_name":"Metro St. Louis"},"geometry":{"type":"Point","coordinates":[-90.19454,38.62341]}},{"type":"Feature","properties":{"stop_id":"14274","stop_code":"14274","stop_name":"SHILOH-SCOTT METROLINK STATION","wheelchair_boarding":1,"routes":[{"route_id":"19251R","agency_id":"70006","route_short_name":"MLR","route_long_name":"MetroLink Red Line","route_type":2,"route_color":"#CC0033","route_text_color":"#f6f6fc"},{"route_id":"19651R","agency_id":"70006","route_short_name":"MLR","route_long_name":"MetroLink Red Line","route_type":2,"route_color":"#CC0033","route_text_color":"#f6f6fc"}],"agency_name":"Metro St. Louis"},"geometry":{"type":"Point","coordinates":[-89.87917,38.53909]}},{"type":"Feature","properties":{"stop_id":"16149","stop_code":"16149","stop_name":"CORTEX METROLINK STATION","wheelchair_boarding":1,"routes":[{"route_id":"19251B","agency_id":"70006","route_short_name":"MLB","route_long_name":"MetroLink Blue Line","route_type":2,"route_color":"#333399","route_text_color":"#f6f6fc"},{"route_id":"19251R","agency_id":"70006","route_short_name":"MLR","route_long_name":"MetroLink Red Line","route_type":2,"route_color":"#CC0033","route_text_color":"#f6f6fc"},{"route_id":"19651B","agency_id":"70006","route_short_name":"MLB","route_long_name":"MetroLink Blue Line","route_type":2,"route_color":"#333399","route_text_color":"#f6f6fc"},{"route_id":"19651R","agency_id":"70006","route_short_name":"MLR","route_long_name":"MetroLink Red Line","route_type":2,"route_color":"#CC0033","route_text_color":"#f6f6fc"}],"agency_name":"Metro St. Louis"},"geometry":{"type":"Point","coordinates":[-90.2512,38.63361]}}]}