{"type":"FeatureCollection","features":[{"type":"Feature","properties":{"agency_name":"Metro St. Louis","route_id":"19601","agency_id":"70006","route_short_name":"16","route_long_name":"City Limits","route_type":3,"route_color":"#FFFFFF","route_text_color":"#000000"},"geometry":{"type":"MultiLineString","coordinates":[[[-90.22394,38.72734],[-90.22397,38.72733],[-90.22388,38.7274],[-90.22386,38.72748],[-90.22406,38.72761],[-90.22596,38.72711],[-90.22664,38.72704],[-90.22696,38.72699],[-90.22792,38.72679],[-90.22805,38.72824],[-90.22815,38.72912],[-90.22816,38.72958],[-90.22811,38.72999],[-90.22867,38.73003],[-90.22914,38.73015],[-90.2295,38.73029],[-90.22997,38.73039],[-90.23245,38.73075],[-90.23294,38.7308],[-90.23374,38.73091],[-90.23435,38.73092],[-90.2348,38.73085],[-90.23513,38.73076],[-90.23952,38.72903],[-90.24267,38.72786],[-90.24481,38.727],[-90.24632,38.72641],[-90.24828,38.7256],[-90.25061,38.7247],[-90.25197,38.72415],[-90.25244,38.7239],[-90.25325,38.72342],[-90.25436,38.72274],[-90.25698,38.72118],[-90.2579,38.72057],[-90.2591,38.71971],[-90.26044,38.71872],[-90.26077,38.71844],[-90.26102,38.71816],[-90.26137,38.71765],[-90.26178,38.71697],[-90.26347,38.71467],[-90.26373,38.71429],[-90.26417,38.71371],[-90.266,38.71118],[-90.26651,38.71017],[-90.26712,38.70923],[-90.26769,38.70851],[-90.26827,38.70766],[-90.26906,38.70656],[-90.26944,38.70595],[-90.26957,38.70561],[-90.26962,38.70537],[-90.2696,38.70513],[-90.26959,38.70505],[-90.26953,38.70488],[-90.26899,38.70399],[-90.26894,38.70378],[-90.26891,38.7034],[-90.26898,38.70301],[-90.26901,38.7029],[-90.26905,38.70283],[-90.26926,38.70251],[-90.26945,38.70232],[-90.26973,38.70194],[-90.27131,38.69974],[-90.27595,38.6932],[-90.27685,38.69188],[-90.27735,38.69107],[-90.27743,38.69097],[-90.27746,38.68978],[-90.27752,38.68958],[-90.28022,38.68584],[-90.28076,38.68504],[-90.28132,38.68431],[-90.28169,38.68388],[-90.28218,38.68323],[-90.28256,38.68255],[-90.28288,38.68207],[-90.28391,38.68065],[-90.2848,38.67938],[-90.285,38.67913],[-90.2854,38.67858],[-90.28671,38.67669],[-90.28708,38.67619],[-90.28791,38.67522],[-90.28806,38.67496],[-90.28818,38.67468],[-90.28878,38.67282],[-90.28902,38.67201],[-90.28915,38.67165],[-90.28928,38.67134],[-90.28953,38.67091],[-90.28984,38.67049],[-90.29,38.67042],[-90.2901,38.67033],[-90.29375,38.6657],[-90.29403,38.66532],[-90.29413,38.66514],[-90.29432,38.66471],[-90.29438,38.66451],[-90.29444,38.66426],[-90.29448,38.664],[-90.29459,38.66355],[-90.29472,38.66277],[-90.29478,38.66257],[-90.29484,38.66245],[-90.29501,38.66222],[-90.2952,38.66205],[-90.29536,38.66195],[-90.29749,38.66093],[-90.29776,38.66075],[-90.29795,38.66053],[-90.29806,38.66033],[-90.29847,38.65941],[-90.29867,38.65903],[-90.29868,38.6589],[-90.299,38.65839],[-90.29926,38.6578],[-90.29941,38.65719],[-90.29949,38.65661],[-90.29772,38.65645],[-90.29703,38.65636],[-90.29673,38.65626],[-90.29654,38.65616],[-90.29636,38.65604],[-90.29615,38.65583],[-90.29582,38.65575],[-90.29533,38.65568]],[[-90.29503,38.65552],[-90.29512,38.65559],[-90.29503,38.65552],[-90.29496,38.65543],[-90.29469,38.65495],[-90.29911,38.65539],[-90.29977,38.65507],[-90.29985,38.65453],[-90.30062,38.65006],[-90.3007,38.64932],[-90.30103,38.64735],[-90.30122,38.64598],[-90.30135,38.64533],[-90.30158,38.6445],[-90.30251,38.64204],[-90.30284,38.64103],[-90.30316,38.63943],[-90.3034,38.63838],[-90.30366,38.63622],[-90.30382,38.63533],[-90.30406,38.6343],[-90.30432,38.6334],[-90.30798,38.63373],[-90.31087,38.63401],[-90.31196,38.63347],[-90.31229,38.6314],[-90.31239,38.63067],[-90.31238,38.63056],[-90.31235,38.63046],[-90.31223,38.63023],[-90.31222,38.63007],[-90.31236,38.62933],[-90.31251,38.62884],[-90.31279,38.6273],[-90.31266,38.62665],[-90.31266,38.62656],[-90.31312,38.62433],[-90.31302,38.62386],[-90.31308,38.6227],[-90.3131,38.62256],[-90.3131,38.62226],[-90.31319,38.62139],[-90.31349,38.6196],[-90.31358,38.61893],[-90.31361,38.61856],[-90.31349,38.61757],[-90.31352,38.61715],[-90.31381,38.61524],[-90.31391,38.61422],[-90.31409,38.61335],[-90.31095,38.61295],[-90.31065,38.61293],[-90.31041,38.61294],[-90.30918,38.61275],[-90.30996,38.61091],[-90.31019,38.61051],[-90.30794,38.60942],[-90.30735,38.6091],[-90.30661,38.60878],[-90.30675,38.60782],[-90.30716,38.60638],[-90.30722,38.6061],[-90.30724,38.60586],[-90.30734,38.60523],[-90.30754,38.60413],[-90.30797,38.60146],[-90.30816,38.60039],[-90.30849,38.5983],[-90.30945,38.59312],[-90.30976,38.59136],[-90.31475,38.59187],[-90.31641,38.59207],[-90.31844,38.59222],[-90.31843,38.59257],[-90.31856,38.59279],[-90.3186,38.59282]],[[-90.29512,38.65559],[-90.29522,38.65564]]]}},{"type":"Feature","properties":{"stop_id":"13280","stop_code":"13280","stop_name":"KIENLEN @ WELSMAR SB","stop_desc":"FAR SIDE KIENLEN @ WELSMAR SB","wheelchair_boarding":2,"routes":[{"route_id":"19601","agency_id":"70006","route_short_name":"16","route_long_name":"City Limits","route_type":3,"route_color":"#FFFFFF","route_text_color":"#000000"}],"agency_name":"Metro St. Louis"},"geometry":{"type":"Point","coordinates":[-90.28499,38.67924]}},{"type":"Feature","properties":{"stop_id":"13298","stop_code":"13298","stop_name":"KIENLEN @ DR ML KING SB","stop_desc":"FAR SIDE KIENLEN @ DR ML KING SB","wheelchair_boarding":1,"routes":[{"route_id":"19601","agency_id":"70006","route_short_name":"16","route_long_name":"City Limits","route_type":3,"route_color":"#FFFFFF","route_text_color":"#000000"}],"agency_name":"Metro St. Louis"},"geometry":{"type":"Point","coordinates":[-90.28752,38.6758]}},{"type":"Feature","properties":{"stop_id":"13375","stop_code":"13375","stop_name":"JENNINGS STATION ROAD @ NATURAL BRIDGE SB","stop_desc":"NEAR SIDE JENNINGS STATION ROAD @ NATURAL BRIDGE SB","wheelchair_boarding":1,"routes":[{"route_id":"19601","agency_id":"70006","route_short_name":"16","route_long_name":"City Limits","route_type":3,"route_color":"#FFFFFF","route_text_color":"#000000"}],"agency_name":"Metro St. Louis"},"geometry":{"type":"Point","coordinates":[-90.27715,38.6915]}},{"type":"Feature","properties":{"stop_id":"13376","stop_code":"13376","stop_name":"KIENLEN @ DARDENELLA SB","stop_desc":"NEAR SIDE KIENLEN @ DARDENELLA SB","wheelchair_boarding":1,"routes":[{"route_id":"19601","agency_id":"70006","route_short_name":"16","route_long_name":"City Limits","route_type":3,"route_color":"#FFFFFF","route_text_color":"#000000"}],"agency_name":"Metro St. Louis"},"geometry":{"type":"Point","coordinates":[-90.27817,38.6887]}},{"type":"Feature","properties":{"stop_id":"13380","stop_code":"13380","stop_name":"KIENLEN @ ST. LOUIS SB","stop_desc":"NEAR SIDE KIENLEN @ ST. LOUIS SB","wheelchair_boarding":2,"routes":[{"route_id":"19601","agency_id":"70006","route_short_name":"16","route_long_name":"City Limits","route_type":3,"route_color":"#FFFFFF","route_text_color":"#000000"}],"agency_name":"Metro St. Louis"},"geometry":{"type":"Point","coordinates":[-90.28149,38.68421]}},{"type":"Feature","properties":{"stop_id":"13384","stop_code":"13384","stop_name":"BELLEVUE @ HOOVER SB","stop_desc":"NEAR SIDE BELLEVUE @ HOOVER SB","wheelchair_boarding":1,"routes":[{"route_id":"19601","agency_id":"70006","route_short_name":"16","route_long_name":"City Limits","route_type":3,"route_color":"#FFFFFF","route_text_color":"#000000"}],"agency_name":"Metro St. Louis"},"geometry":{"type":"Point","coordinates":[-90.31232,38.63172]}},{"type":"Feature","properties":{"stop_id":"13387","stop_code":"13387","stop_name":"BELLEVUE @ WISE SB","stop_desc":"FAR SIDE BELLEVUE @ WISE SB","wheelchair_boarding":2,"routes":[{"route_id":"19601","agency_id":"70006","route_short_name":"16","route_long_name":"City Limits","route_type":3,"route_color":"#FFFFFF","route_text_color":"#000000"}],"agency_name":"Metro St. Louis"},"geometry":{"type":"Point","coordinates":[-90.31227,38.63012]}},{"type":"Feature","properties":{"stop_id":"13390","stop_code":"13390","stop_name":"BELLEVUE @ LA VETA SB","stop_desc":"FAR SIDE BELLEVUE @ LA VETA SB","wheelchair_boarding":2,"routes":[{"route_id":"19601","agency_id":"70006","route_short_name":"16","route_long_name":"City Limits","route_type":3,"route_color":"#FFFFFF","route_text_color":"#000000"}],"agency_name":"Metro St. Louis"},"geometry":{"type":"Point","coordinates":[-90.3131,38.62344]}},{"type":"Feature","properties":{"stop_id":"13394","stop_code":"13394","stop_name":"BELLEVUE @ STANLEY SB","stop_desc":"FAR SIDE BELLEVUE @ STANLEY SB","wheelchair_boarding":2,"routes":[{"route_id":"19601","agency_id":"70006","route_short_name":"16","route_long_name":"City Limits","route_type":3,"route_color":"#FFFFFF","route_text_color":"#000000"}],"agency_name":"Metro St. Louis"},"geometry":{"type":"Point","coordinates":[-90.3135,38.61963]}},{"type":"Feature","properties":{"stop_id":"13398","stop_code":"13398","stop_name":"BELLEVUE @ MANCHESTER SB","stop_desc":"NEAR SIDE BELLEVUE @ MANCHESTER SB","wheelchair_boarding":2,"routes":[{"route_id":"19601","agency_id":"70006","route_short_name":"16","route_long_name":"City Limits","route_type":3,"route_color":"#FFFFFF","route_text_color":"#000000"}],"agency_name":"Metro St. Louis"},"geometry":{"type":"Point","coordinates":[-90.31394,38.61445]}},{"type":"Feature","properties":{"stop_id":"14308","stop_code":"14308","stop_name":"4005 JENNINGS STATION ROAD SB","stop_desc":"NEAR SIDE 4005 JENNINGS STATION ROAD SB","wheelchair_boarding":2,"routes":[{"route_id":"19601","agency_id":"70006","route_short_name":"16","route_long_name":"City Limits","route_type":3,"route_color":"#FFFFFF","route_text_color":"#000000"}],"agency_name":"Metro St. Louis"},"geometry":{"type":"Point","coordinates":[-90.27475,38.69494]}},{"type":"Feature","properties":{"stop_id":"14309","stop_code":"14309","stop_name":"KIENLEN @ LORRAINE SB","stop_desc":"FAR SIDE KIENLEN @ LORRAINE SB","wheelchair_boarding":2,"routes":[{"route_id":"19601","agency_id":"70006","route_short_name":"16","route_long_name":"City Limits","route_type":3,"route_color":"#FFFFFF","route_text_color":"#000000"}],"agency_name":"Metro St. Louis"},"geometry":{"type":"Point","coordinates":[-90.27985,38.68639]}},{"type":"Feature","properties":{"stop_id":"14713","stop_code":"14713","stop_name":"JENNINGS STATION ROAD @ BELLEFONTAINE WB","stop_desc":"FAR SIDE JENNINGS STATION ROAD @ BELLEFONTAINE WB","wheelchair_boarding":2,"routes":[{"route_id":"19601","agency_id":"70006","route_short_name":"16","route_long_name":"City Limits","route_type":3,"route_color":"#FFFFFF","route_text_color":"#000000"}],"agency_name":"Metro St. Louis"},"geometry":{"type":"Point","coordinates":[-90.22868,38.73017]}},{"type":"Feature","properties":{"stop_id":"14769","stop_code":"14769","stop_name":"SHREWSBURY-LANSDOWNE I-44 TRANSIT CENTER","wheelchair_boarding":1,"routes":[{"route_id":"19599","agency_id":"70006","route_short_name":"11","route_long_name":"Chippewa","route_type":3,"route_color":"#FFFFFF","route_text_color":"#000000"},{"route_id":"19601","agency_id":"70006","route_short_name":"16","route_long_name":"City Limits","route_type":3,"route_color":"#FFFFFF","route_text_color":"#000000"},{"route_id":"19604","agency_id":"70006","route_short_name":"21","route_long_name":"Watson Rd","route_type":3,"route_color":"#FFFFFF","route_text_color":"#000000"},{"route_id":"19605","agency_id":"70006","route_short_name":"30","route_long_name":"Arsenal","route_type":3,"route_color":"#FFFFFF","route_text_color":"#000000"}],"agency_name":"Metro St. Louis"},"geometry":{"type":"Point","coordinates":[-90.31925,38.59277]}},{"type":"Feature","properties":{"stop_id":"14968","stop_code":"14968","stop_name":"SKINKER @ ETZEL SB","stop_desc":"FAR SIDE SKINKER @ ETZEL SB","wheelchair_boarding":2,"routes":[{"route_id":"19601","agency_id":"70006","route_short_name":"16","route_long_name":"City Limits","route_type":3,"route_color":"#FFFFFF","route_text_color":"#000000"}],"agency_name":"Metro St. Louis"},"geometry":{"type":"Point","coordinates":[-90.294,38.66542]}},{"type":"Feature","properties":{"stop_id":"15049","stop_code":"15049","stop_name":"ENRIGHT @ ROSEDALE EB","stop_desc":"NEAR SIDE ENRIGHT @ ROSEDALE EB","wheelchair_boarding":1,"routes":[{"route_id":"19593","agency_id":"70006","route_short_name":"2","route_long_name":"Red","route_type":3,"route_color":"#FFFFFF","route_text_color":"#000000"},{"route_id":"19601","agency_id":"70006","route_short_name":"16","route_long_name":"City Limits","route_type":3,"route_color":"#FFFFFF","route_text_color":"#000000"},{"route_id":"19630","agency_id":"70006","route_short_name":"91","route_long_name":"Olive","route_type":3,"route_color":"#FFFFFF","route_text_color":"#000000"}],"agency_name":"Metro St. Louis"},"geometry":{"type":"Point","coordinates":[-90.29771,38.65643]}},{"type":"Feature","properties":{"stop_id":"15157","stop_code":"15157","stop_name":"BELLEVUE @ DALE SB","stop_desc":"FAR SIDE BELLEVUE @ DALE SB","wheelchair_boarding":1,"routes":[{"route_id":"19601","agency_id":"70006","route_short_name":"16","route_long_name":"City Limits","route_type":3,"route_color":"#FFFFFF","route_text_color":"#000000"}],"agency_name":"Metro St. Louis"},"geometry":{"type":"Point","coordinates":[-90.31279,38.62624]}},{"type":"Feature","properties":{"stop_id":"15182","stop_code":"15182","stop_name":"SKINKER @ VERNON SB","stop_desc":"NEAR SIDE SKINKER @ VERNON SB","wheelchair_boarding":1,"routes":[{"route_id":"19601","agency_id":"70006","route_short_name":"16","route_long_name":"City Limits","route_type":3,"route_color":"#FFFFFF","route_text_color":"#000000"},{"route_id":"19630","agency_id":"70006","route_short_name":"91","route_long_name":"Olive","route_type":3,"route_color":"#FFFFFF","route_text_color":"#000000"}],"agency_name":"Metro St. Louis"},"geometry":{"type":"Point","coordinates":[-90.29886,38.65874]}},{"type":"Feature","properties":{"stop_id":"15489","stop_code":"15489","stop_name":"8937 RIVERVIEW WB","stop_desc":"MID-BLOCK 8937 RIVERVIEW WB","wheelchair_boarding":2,"routes":[{"route_id":"19601","agency_id":"70006","route_short_name":"16","route_long_name":"City Limits","route_type":3,"route_color":"#FFFFFF","route_text_color":"#000000"},{"route_id":"19611","agency_id":"70006","route_short_name":"40","route_long_name":"Broadway-Halls Ferry","route_type":3,"route_color":"#FFFFFF","route_text_color":"#000000"},{"route_id":"19612","agency_id":"70006","route_short_name":"41","route_long_name":"Lee","route_type":3,"route_color":"#FFFFFF","route_text_color":"#000000"},{"route_id":"19619","agency_id":"70006","route_short_name":"60","route_long_name":"Shepley-Lilac","route_type":3,"route_color":"#FFFFFF","route_text_color":"#000000"},{"route_id":"19620","agency_id":"70006","route_short_name":"61","route_long_name":"Chambers Rd","route_type":3,"route_color":"#FFFFFF","route_text_color":"#000000"},{"route_id":"19621","agency_id":"70006","route_short_name":"64","route_long_name":"Lucas-Hunt","route_type":3,"route_color":"#FFFFFF","route_text_color":"#000000"},{"route_id":"19627","agency_id":"70006","route_short_name":"78","route_long_name":"Bellefontaine","route_type":3,"route_color":"#FFFFFF","route_text_color":"#000000"},{"route_id":"19629","agency_id":"70006","route_short_name":"90","route_long_name":"Hampton","route_type":3,"route_color":"#FFFFFF","route_text_color":"#000000"}],"agency_name":"Metro St. Louis"},"geometry":{"type":"Point","coordinates":[-90.22641,38.72709]}},{"type":"Feature","properties":{"stop_id":"15491","stop_code":"15491","stop_name":"SKINKER @ SOUTHWOOD SB","stop_desc":"FAR SIDE SKINKER @ SOUTHWOOD SB","wheelchair_boarding":1,"routes":[{"route_id":"19601","agency_id":"70006","route_short_name":"16","route_long_name":"City Limits","route_type":3,"route_color":"#FFFFFF","route_text_color":"#000000"}],"agency_name":"Metro St. Louis"},"geometry":{"type":"Point","coordinates":[-90.30383,38.63599]}},{"type":"Feature","properties":{"stop_id":"15700","stop_code":"15700","stop_name":"JENNINGS STATION ROAD @ WEST FLORISSANT SB","stop_desc":"NEAR SIDE JENNINGS STATION ROAD @ WEST FLORISSANT SB","wheelchair_boarding":2,"routes":[{"route_id":"19601","agency_id":"70006","route_short_name":"16","route_long_name":"City Limits","route_type":3,"route_color":"#FFFFFF","route_text_color":"#000000"}],"agency_name":"Metro St. Louis"},"geometry":{"type":"Point","coordinates":[-90.26089,38.71839]}},{"type":"Feature","properties":{"stop_id":"172","stop_code":"172","stop_name":"SKINKER @ FOREST PARK PARKWAY SB","stop_desc":"NEAR SIDE SKINKER @ FOREST PARK PARKWAY SB","wheelchair_boarding":1,"routes":[{"route_id":"19592","agency_id":"70006","route_short_name":"1","route_long_name":"Gold","route_type":3,"route_color":"#FFFFFF","route_text_color":"#000000"},{"route_id":"19593","agency_id":"70006","route_short_name":"2","route_long_name":"Red","route_type":3,"route_color":"#FFFFFF","route_text_color":"#000000"},{"route_id":"19595","agency_id":"70006","route_short_name":"5","route_long_name":"Green","route_type":3,"route_color":"#FFFFFF","route_text_color":"#000000"},{"route_id":"19601","agency_id":"70006","route_short_name":"16","route_long_name":"City Limits","route_type":3,"route_color":"#FFFFFF","route_text_color":"#000000"}],"agency_name":"Metro St. Louis"},"geometry":{"type":"Point","coordinates":[-90.30074,38.64962]}},{"type":"Feature","properties":{"stop_id":"1751","stop_code":"1751","stop_name":"JAMIESON @ FYLER SB","stop_desc":"NEAR SIDE JAMIESON @ FYLER SB","wheelchair_boarding":2,"routes":[{"route_id":"19601","agency_id":"70006","route_short_name":"16","route_long_name":"City Limits","route_type":3,"route_color":"#FFFFFF","route_text_color":"#000000"}],"agency_name":"Metro St. Louis"},"geometry":{"type":"Point","coordinates":[-90.30767,38.60381]}},{"type":"Feature","properties":{"stop_id":"1757","stop_code":"1757","stop_name":"JAMIESON @ THOLOZAN SB","stop_desc":"FAR SIDE JAMIESON @ THOLOZAN SB","wheelchair_boarding":2,"routes":[{"route_id":"19601","agency_id":"70006","route_short_name":"16","route_long_name":"City Limits","route_type":3,"route_color":"#FFFFFF","route_text_color":"#000000"}],"agency_name":"Metro St. Louis"},"geometry":{"type":"Point","coordinates":[-90.30884,38.59718]}},{"type":"Feature","properties":{"stop_id":"1758","stop_code":"1758","stop_name":"JAMIESON @ SUTHERLAND SB","stop_desc":"NEAR SIDE JAMIESON @ SUTHERLAND SB","wheelchair_boarding":2,"routes":[{"route_id":"19601","agency_id":"70006","route_short_name":"16","route_long_name":"City Limits","route_type":3,"route_color":"#FFFFFF","route_text_color":"#000000"}],"agency_name":"Metro St. Louis"},"geometry":{"type":"Point","coordinates":[-90.30971,38.59232]}},{"type":"Feature","properties":{"stop_id":"2031","stop_code":"2031","stop_name":"DELMAR @ 6161 DELMAR WB","stop_desc":"MID-BLOCK DELMAR @ 6161 DELMAR WB","wheelchair_boarding":1,"routes":[{"route_id":"19593","agency_id":"70006","route_short_name":"2","route_long_name":"Red","route_type":3,"route_color":"#FFFFFF","route_text_color":"#000000"},{"route_id":"19601","agency_id":"70006","route_short_name":"16","route_long_name":"City Limits","route_type":3,"route_color":"#FFFFFF","route_text_color":"#000000"},{"route_id":"19633","agency_id":"70006","route_short_name":"97","route_long_name":"Delmar","route_type":3,"route_color":"#FFFFFF","route_text_color":"#000000"}],"agency_name":"Metro St. Louis"},"geometry":{"type":"Point","coordinates":[-90.29787,38.65528]}},{"type":"Feature","properties":{"stop_id":"2097","stop_code":"2097","stop_name":"DELMAR LOOP TRANSIT CENTER EB","wheelchair_boarding":1,"routes":[{"route_id":"19593","agency_id":"70006","route_short_name":"2","route_long_name":"Red","route_type":3,"route_color":"#FFFFFF","route_text_color":"#000000"},{"route_id":"19601","agency_id":"70006","route_short_name":"16","route_long_name":"City Limits","route_type":3,"route_color":"#FFFFFF","route_text_color":"#000000"},{"route_id":"19630","agency_id":"70006","route_short_name":"91","route_long_name":"Olive","route_type":3,"route_color":"#FFFFFF","route_text_color":"#000000"},{"route_id":"19633","agency_id":"70006","route_short_name":"97","route_long_name":"Delmar","route_type":3,"route_color":"#FFFFFF","route_text_color":"#000000"}],"agency_name":"Metro St. Louis"},"geometry":{"type":"Point","coordinates":[-90.29527,38.65562]}},{"type":"Feature","properties":{"stop_id":"2639","stop_code":"2639","stop_name":"SKINKER METROLINK @ FOREST PARK PARKWAY SB","stop_desc":"FAR SIDE SKINKER METROLINK @ FOREST PARK PARKWAY SB","wheelchair_boarding":1,"routes":[{"route_id":"19592","agency_id":"70006","route_short_name":"1","route_long_name":"Gold","route_type":3,"route_color":"#FFFFFF","route_text_color":"#000000"},{"route_id":"19593","agency_id":"70006","route_short_name":"2","route_long_name":"Red","route_type":3,"route_color":"#FFFFFF","route_text_color":"#000000"},{"route_id":"19595","agency_id":"70006","route_short_name":"5","route_long_name":"Green","route_type":3,"route_color":"#FFFFFF","route_text_color":"#000000"},{"route_id":"19601","agency_id":"70006","route_short_name":"16","route_long_name":"City Limits","route_type":3,"route_color":"#FFFFFF","route_text_color":"#000000"}],"agency_name":"Metro St. Louis"},"geometry":{"type":"Point","coordinates":[-90.30082,38.64859]}},{"type":"Feature","properties":{"stop_id":"2640","stop_code":"2640","stop_name":"SKINKER @ BROOKINGS SB","stop_desc":"FAR SIDE SKINKER @ BROOKINGS SB","wheelchair_boarding":2,"routes":[{"route_id":"19592","agency_id":"70006","route_short_name":"1","route_long_name":"Gold","route_type":3,"route_color":"#FFFFFF","route_text_color":"#000000"},{"route_id":"19593","agency_id":"70006","route_short_name":"2","route_long_name":"Red","route_type":3,"route_color":"#FFFFFF","route_text_color":"#000000"},{"route_id":"19595","agency_id":"70006","route_short_name":"5","route_long_name":"Green","route_type":3,"route_color":"#FFFFFF","route_text_color":"#000000"},{"route_id":"19601","agency_id":"70006","route_short_name":"16","route_long_name":"City Limits","route_type":3,"route_color":"#FFFFFF","route_text_color":"#000000"}],"agency_name":"Metro St. Louis"},"geometry":{"type":"Point","coordinates":[-90.30113,38.64719]}},{"type":"Feature","properties":{"stop_id":"2796","stop_code":"2796","stop_name":"LANSDOWNE @ MCCAUSLAND WB","stop_desc":"FAR SIDE LANSDOWNE @ MCCAUSLAND WB","wheelchair_boarding":1,"routes":[{"route_id":"19599","agency_id":"70006","route_short_name":"11","route_long_name":"Chippewa","route_type":3,"route_color":"#FFFFFF","route_text_color":"#000000"},{"route_id":"19601","agency_id":"70006","route_short_name":"16","route_long_name":"City Limits","route_type":3,"route_color":"#FFFFFF","route_text_color":"#000000"}],"agency_name":"Metro St. Louis"},"geometry":{"type":"Point","coordinates":[-90.31312,38.59177]}},{"type":"Feature","properties":{"stop_id":"2797","stop_code":"2797","stop_name":"LANSDOWNE @ WABASH WB","stop_desc":"NEAR SIDE LANSDOWNE @ WABASH WB","wheelchair_boarding":2,"routes":[{"route_id":"19599","agency_id":"70006","route_short_name":"11","route_long_name":"Chippewa","route_type":3,"route_color":"#FFFFFF","route_text_color":"#000000"},{"route_id":"19601","agency_id":"70006","route_short_name":"16","route_long_name":"City Limits","route_type":3,"route_color":"#FFFFFF","route_text_color":"#000000"}],"agency_name":"Metro St. Louis"},"geometry":{"type":"Point","coordinates":[-90.31597,38.59207]}},{"type":"Feature","properties":{"stop_id":"4335","stop_code":"4335","stop_name":"KIENLEN @ EVANSTON SB","stop_desc":"FAR SIDE KIENLEN @ EVANSTON SB","wheelchair_boarding":1,"routes":[{"route_id":"19601","agency_id":"70006","route_short_name":"16","route_long_name":"City Limits","route_type":3,"route_color":"#FFFFFF","route_text_color":"#000000"}],"agency_name":"Metro St. Louis"},"geometry":{"type":"Point","coordinates":[-90.28581,38.67811]}},{"type":"Feature","properties":{"stop_id":"5354","stop_code":"5354","stop_name":"CLAYTON @ SKINKER WB","stop_desc":"FAR SIDE CLAYTON @ SKINKER WB","wheelchair_boarding":2,"routes":[{"route_id":"19601","agency_id":"70006","route_short_name":"16","route_long_name":"City Limits","route_type":3,"route_color":"#FFFFFF","route_text_color":"#000000"},{"route_id":"19618","agency_id":"70006","route_short_name":"59","route_long_name":"Oakland","route_type":3,"route_color":"#FFFFFF","route_text_color":"#000000"}],"agency_name":"Metro St. Louis"},"geometry":{"type":"Point","coordinates":[-90.30552,38.63357]}},{"type":"Feature","properties":{"stop_id":"5356","stop_code":"5356","stop_name":"CLAYTON @ DEMUN WB","stop_desc":"NEAR SIDE CLAYTON @ DEMUN WB","wheelchair_boarding":1,"routes":[{"route_id":"19601","agency_id":"70006","route_short_name":"16","route_long_name":"City Limits","route_type":3,"route_color":"#FFFFFF","route_text_color":"#000000"},{"route_id":"19618","agency_id":"70006","route_short_name":"59","route_long_name":"Oakland","route_type":3,"route_color":"#FFFFFF","route_text_color":"#000000"}],"agency_name":"Metro St. Louis"},"geometry":{"type":"Point","coordinates":[-90.30916,38.63394]}},{"type":"Feature","properties":{"stop_id":"6649","stop_code":"6649","stop_name":"RIVERVIEW TRANSIT CENTER","wheelchair_boarding":1,"routes":[{"route_id":"19601","agency_id":"70006","route_short_name":"16","route_long_name":"City Limits","route_type":3,"route_color":"#FFFFFF","route_text_color":"#000000"},{"route_id":"19611","agency_id":"70006","route_short_name":"40","route_long_name":"Broadway-Halls Ferry","route_type":3,"route_color":"#FFFFFF","route_text_color":"#000000"},{"route_id":"19612","agency_id":"70006","route_short_name":"41","route_long_name":"Lee","route_type":3,"route_color":"#FFFFFF","route_text_color":"#000000"},{"route_id":"19619","agency_id":"70006","route_short_name":"60","route_long_name":"Shepley-Lilac","route_type":3,"route_color":"#FFFFFF","route_text_color":"#000000"}],"agency_name":"Metro St. Louis"},"geometry":{"type":"Point","coordinates":[-90.22406,38.7273]}},{"type":"Feature","properties":{"stop_id":"6773","stop_code":"6773","stop_name":"JENNINGS STATION ROAD @ HOPEDALE WB","stop_desc":"NEAR SIDE JENNINGS STATION ROAD @ HOPEDALE WB","wheelchair_boarding":2,"routes":[{"route_id":"19601","agency_id":"70006","route_short_name":"16","route_long_name":"City Limits","route_type":3,"route_color":"#FFFFFF","route_text_color":"#000000"}],"agency_name":"Metro St. Louis"},"geometry":{"type":"Point","coordinates":[-90.23211,38.73073]}},{"type":"Feature","properties":{"stop_id":"6776","stop_code":"6776","stop_name":"JENNINGS STATION ROAD @ ASTORIA WB","stop_desc":"NEAR SIDE JENNINGS STATION ROAD @ ASTORIA WB","wheelchair_boarding":1,"routes":[{"route_id":"19601","agency_id":"70006","route_short_name":"16","route_long_name":"City Limits","route_type":3,"route_color":"#FFFFFF","route_text_color":"#000000"}],"agency_name":"Metro St. Louis"},"geometry":{"type":"Point","coordinates":[-90.23555,38.73064]}},{"type":"Feature","properties":{"stop_id":"6777","stop_code":"6777","stop_name":"JENNINGS STATION ROAD @ DUENKE WB","stop_desc":"FAR SIDE JENNINGS STATION ROAD @ DUENKE WB","wheelchair_boarding":2,"routes":[{"route_id":"19601","agency_id":"70006","route_short_name":"16","route_long_name":"City Limits","route_type":3,"route_color":"#FFFFFF","route_text_color":"#000000"}],"agency_name":"Metro St. Louis"},"geometry":{"type":"Point","coordinates":[-90.23871,38.72943]}},{"type":"Feature","properties":{"stop_id":"8283","stop_code":"8283","stop_name":"JENNINGS STATION ROAD @ HALLS FERRY WB","stop_desc":"FAR SIDE JENNINGS STATION ROAD @ HALLS FERRY WB","wheelchair_boarding":2,"routes":[{"route_id":"19601","agency_id":"70006","route_short_name":"16","route_long_name":"City Limits","route_type":3,"route_color":"#FFFFFF","route_text_color":"#000000"}],"agency_name":"Metro St. Louis"},"geometry":{"type":"Point","coordinates":[-90.24448,38.72722]}},{"type":"Feature","properties":{"stop_id":"8284","stop_code":"8284","stop_name":"JENNINGS STATION ROAD @ ADA WORTLEY SB","stop_desc":"NEAR SIDE JENNINGS STATION ROAD @ ADA WORTLEY SB","wheelchair_boarding":2,"routes":[{"route_id":"19601","agency_id":"70006","route_short_name":"16","route_long_name":"City Limits","route_type":3,"route_color":"#FFFFFF","route_text_color":"#000000"}],"agency_name":"Metro St. Louis"},"geometry":{"type":"Point","coordinates":[-90.24693,38.72624]}},{"type":"Feature","properties":{"stop_id":"8285","stop_code":"8285","stop_name":"JENNINGS STATION ROAD @ BROOKFIELD SB","stop_desc":"FAR SIDE JENNINGS STATION ROAD @ BROOKFIELD SB","wheelchair_boarding":2,"routes":[{"route_id":"19601","agency_id":"70006","route_short_name":"16","route_long_name":"City Limits","route_type":3,"route_color":"#FFFFFF","route_text_color":"#000000"}],"agency_name":"Metro St. Louis"},"geometry":{"type":"Point","coordinates":[-90.25114,38.72445]}},{"type":"Feature","properties":{"stop_id":"8296","stop_code":"8296","stop_name":"JENNINGS STATION ROAD @ HORD SB","stop_desc":"FAR SIDE JENNINGS STATION ROAD @ HORD SB","wheelchair_boarding":1,"routes":[{"route_id":"19601","agency_id":"70006","route_short_name":"16","route_long_name":"City Limits","route_type":3,"route_color":"#FFFFFF","route_text_color":"#000000"}],"agency_name":"Metro St. Louis"},"geometry":{"type":"Point","coordinates":[-90.25483,38.72251]}},{"type":"Feature","properties":{"stop_id":"8298","stop_code":"8298","stop_name":"JENNINGS STATION ROAD @ SWITZER SB","stop_desc":"FAR SIDE JENNINGS STATION ROAD @ SWITZER SB","wheelchair_boarding":1,"routes":[{"route_id":"19601","agency_id":"70006","route_short_name":"16","route_long_name":"City Limits","route_type":3,"route_color":"#FFFFFF","route_text_color":"#000000"}],"agency_name":"Metro St. Louis"},"geometry":{"type":"Point","coordinates":[-90.25908,38.71979]}},{"type":"Feature","properties":{"stop_id":"8299","stop_code":"8299","stop_name":"JENNINGS STATION ROAD @ BRANDON SB","stop_desc":"FAR SIDE JENNINGS STATION ROAD @ BRANDON SB","wheelchair_boarding":1,"routes":[{"route_id":"19601","agency_id":"70006","route_short_name":"16","route_long_name":"City Limits","route_type":3,"route_color":"#FFFFFF","route_text_color":"#000000"}],"agency_name":"Metro St. Louis"},"geometry":{"type":"Point","coordinates":[-90.26197,38.71684]}},{"type":"Feature","properties":{"stop_id":"8300","stop_code":"8300","stop_name":"JENNINGS STATION ROAD @ GREENHAVEN SB","stop_desc":"FAR SIDE JENNINGS STATION ROAD @ GREENHAVEN SB","wheelchair_boarding":1,"routes":[{"route_id":"19601","agency_id":"70006","route_short_name":"16","route_long_name":"City Limits","route_type":3,"route_color":"#FFFFFF","route_text_color":"#000000"}],"agency_name":"Metro St. Louis"},"geometry":{"type":"Point","coordinates":[-90.26368,38.71446]}},{"type":"Feature","properties":{"stop_id":"8302","stop_code":"8302","stop_name":"JENNINGS STATION ROAD @ EMMA SB","stop_desc":"FAR SIDE JENNINGS STATION ROAD @ EMMA SB","wheelchair_boarding":1,"routes":[{"route_id":"19601","agency_id":"70006","route_short_name":"16","route_long_name":"City Limits","route_type":3,"route_color":"#FFFFFF","route_text_color":"#000000"}],"agency_name":"Metro St. Louis"},"geometry":{"type":"Point","coordinates":[-90.26625,38.7109]}},{"type":"Feature","properties":{"stop_id":"8303","stop_code":"8303","stop_name":"JENNINGS STATION ROAD @ GARESCHE SB","stop_desc":"NEAR SIDE JENNINGS STATION ROAD @ GARESCHE SB","wheelchair_boarding":1,"routes":[{"route_id":"19601","agency_id":"70006","route_short_name":"16","route_long_name":"City Limits","route_type":3,"route_color":"#FFFFFF","route_text_color":"#000000"}],"agency_name":"Metro St. Louis"},"geometry":{"type":"Point","coordinates":[-90.26752,38.70873]}},{"type":"Feature","properties":{"stop_id":"8304","stop_code":"8304","stop_name":"5251 JENNINGS STATION ROAD SB","stop_desc":"FAR SIDE 5251 JENNINGS STATION ROAD SB","wheelchair_boarding":1,"routes":[{"route_id":"19601","agency_id":"70006","route_short_name":"16","route_long_name":"City Limits","route_type":3,"route_color":"#FFFFFF","route_text_color":"#000000"}],"agency_name":"Metro St. Louis"},"geometry":{"type":"Point","coordinates":[-90.26926,38.70635]}},{"type":"Feature","properties":{"stop_id":"8306","stop_code":"8306","stop_name":"JENNINGS STATION ROAD @ LILLIAN SB","stop_desc":"FAR SIDE JENNINGS STATION ROAD @ LILLIAN SB","wheelchair_boarding":1,"routes":[{"route_id":"19601","agency_id":"70006","route_short_name":"16","route_long_name":"City Limits","route_type":3,"route_color":"#FFFFFF","route_text_color":"#000000"}],"agency_name":"Metro St. Louis"},"geometry":{"type":"Point","coordinates":[-90.26896,38.7038]}},{"type":"Feature","properties":{"stop_id":"8307","stop_code":"8307","stop_name":"JENNINGS STATION ROAD @ FLINT SB","stop_desc":"NEAR SIDE JENNINGS STATION ROAD @ FLINT SB","wheelchair_boarding":2,"routes":[{"route_id":"19601","agency_id":"70006","route_short_name":"16","route_long_name":"City Limits","route_type":3,"route_color":"#FFFFFF","route_text_color":"#000000"}],"agency_name":"Metro St. Louis"},"geometry":{"type":"Point","coordinates":[-90.27011,38.70145]}},{"type":"Feature","properties":{"stop_id":"8308","stop_code":"8308","stop_name":"JENNINGS STATION ROAD @ STRATFORD SB","stop_desc":"FAR SIDE JENNINGS STATION ROAD @ STRATFORD SB","wheelchair_boarding":2,"routes":[{"route_id":"19601","agency_id":"70006","route_short_name":"16","route_long_name":"City Limits","route_type":3,"route_color":"#FFFFFF","route_text_color":"#000000"}],"agency_name":"Metro St. Louis"},"geometry":{"type":"Point","coordinates":[-90.27142,38.69962]}},{"type":"Feature","properties":{"stop_id":"8310","stop_code":"8310","stop_name":"JENNINGS STATION ROAD @ BIRCHER SB","stop_desc":"NEAR SIDE JENNINGS STATION ROAD @ BIRCHER SB","wheelchair_boarding":1,"routes":[{"route_id":"19601","agency_id":"70006","route_short_name":"16","route_long_name":"City Limits","route_type":3,"route_color":"#FFFFFF","route_text_color":"#000000"}],"agency_name":"Metro St. Louis"},"geometry":{"type":"Point","coordinates":[-90.27332,38.69694]}},{"type":"Feature","properties":{"stop_id":"8313","stop_code":"8313","stop_name":"JENNINGS STATION ROAD @ VETTER PLACE SB","stop_desc":"NEAR SIDE JENNINGS STATION ROAD @ VETTER PLACE SB","wheelchair_boarding":2,"routes":[{"route_id":"19601","agency_id":"70006","route_short_name":"16","route_long_name":"City Limits","route_type":3,"route_color":"#FFFFFF","route_text_color":"#000000"}],"agency_name":"Metro St. Louis"},"geometry":{"type":"Point","coordinates":[-90.27589,38.69331]}},{"type":"Feature","properties":{"stop_id":"8332","stop_code":"8332","stop_name":"SKINKER @ DELMAR SB","stop_desc":"FAR SIDE SKINKER @ DELMAR SB","wheelchair_boarding":1,"routes":[{"route_id":"19593","agency_id":"70006","route_short_name":"2","route_long_name":"Red","route_type":3,"route_color":"#FFFFFF","route_text_color":"#000000"},{"route_id":"19595","agency_id":"70006","route_short_name":"5","route_long_name":"Green","route_type":3,"route_color":"#FFFFFF","route_text_color":"#000000"},{"route_id":"19601","agency_id":"70006","route_short_name":"16","route_long_name":"City Limits","route_type":3,"route_color":"#FFFFFF","route_text_color":"#000000"}],"agency_name":"Metro St. Louis"},"geometry":{"type":"Point","coordinates":[-90.29983,38.65512]}},{"type":"Feature","properties":{"stop_id":"8334","stop_code":"8334","stop_name":"SKINKER @ WESTMINSTER PLACE SB","stop_desc":"FAR SIDE SKINKER @ WESTMINSTER PLACE SB","wheelchair_boarding":1,"routes":[{"route_id":"19593","agency_id":"70006","route_short_name":"2","route_long_name":"Red","route_type":3,"route_color":"#FFFFFF","route_text_color":"#000000"},{"route_id":"19595","agency_id":"70006","route_short_name":"5","route_long_name":"Green","route_type":3,"route_color":"#FFFFFF","route_text_color":"#000000"},{"route_id":"19601","agency_id":"70006","route_short_name":"16","route_long_name":"City Limits","route_type":3,"route_color":"#FFFFFF","route_text_color":"#000000"}],"agency_name":"Metro St. Louis"},"geometry":{"type":"Point","coordinates":[-90.30019,38.65324]}},{"type":"Feature","properties":{"stop_id":"8336","stop_code":"8336","stop_name":"SKINKER @ WATERMAN SB","stop_desc":"NEAR SIDE SKINKER @ WATERMAN SB","wheelchair_boarding":1,"routes":[{"route_id":"19593","agency_id":"70006","route_short_name":"2","route_long_name":"Red","route_type":3,"route_color":"#FFFFFF","route_text_color":"#000000"},{"route_id":"19595","agency_id":"70006","route_short_name":"5","route_long_name":"Green","route_type":3,"route_color":"#FFFFFF","route_text_color":"#000000"},{"route_id":"19601","agency_id":"70006","route_short_name":"16","route_long_name":"City Limits","route_type":3,"route_color":"#FFFFFF","route_text_color":"#000000"}],"agency_name":"Metro St. Louis"},"geometry":{"type":"Point","coordinates":[-90.3005,38.65112]}},{"type":"Feature","properties":{"stop_id":"8340","stop_code":"8340","stop_name":"SKINKER @ ARUNDEL PLACE SB","stop_desc":"NEAR SIDE SKINKER @ ARUNDEL PLACE SB","wheelchair_boarding":1,"routes":[{"route_id":"19601","agency_id":"70006","route_short_name":"16","route_long_name":"City Limits","route_type":3,"route_color":"#FFFFFF","route_text_color":"#000000"}],"agency_name":"Metro St. Louis"},"geometry":{"type":"Point","coordinates":[-90.30338,38.63906]}},{"type":"Feature","properties":{"stop_id":"8471","stop_code":"8471","stop_name":"KIENLEN @ PAGE SB","stop_desc":"NEAR SIDE KIENLEN @ PAGE SB","wheelchair_boarding":2,"routes":[{"route_id":"19601","agency_id":"70006","route_short_name":"16","route_long_name":"City Limits","route_type":3,"route_color":"#FFFFFF","route_text_color":"#000000"}],"agency_name":"Metro St. Louis"},"geometry":{"type":"Point","coordinates":[-90.28958,38.67105]}},{"type":"Feature","properties":{"stop_id":"9633","stop_code":"9633","stop_name":"SOUTHWEST @ LIMIT EB","stop_desc":"FAR SIDE SOUTHWEST @ LIMIT EB","wheelchair_boarding":2,"routes":[{"route_id":"19601","agency_id":"70006","route_short_name":"16","route_long_name":"City Limits","route_type":3,"route_color":"#FFFFFF","route_text_color":"#000000"}],"agency_name":"Metro St. Louis"},"geometry":{"type":"Point","coordinates":[-90.31279,38.61314]}},{"type":"Feature","properties":{"stop_id":"9634","stop_code":"9634","stop_name":"SOUTHWEST @ MCCAUSLAND EB","stop_desc":"NEAR SIDE SOUTHWEST @ MCCAUSLAND EB","wheelchair_boarding":2,"routes":[{"route_id":"19601","agency_id":"70006","route_short_name":"16","route_long_name":"City Limits","route_type":3,"route_color":"#FFFFFF","route_text_color":"#000000"}],"agency_name":"Metro St. Louis"},"geometry":{"type":"Point","coordinates":[-90.31001,38.61294]}}]}