{"type":"FeatureCollection","features":[{"type":"Feature","properties":{"agency_name":"Metro St. Louis","route_id":"19621","agency_id":"70006","route_short_name":"64","route_long_name":"Lucas-Hunt","route_type":3,"route_color":"#FFFFFF","route_text_color":"#000000"},"geometry":{"type":"MultiLineString","coordinates":[[[-90.22447,38.72697],[-90.22412,38.72709],[-90.22451,38.72696],[-90.22458,38.72698],[-90.22462,38.72702],[-90.22463,38.72708],[-90.22461,38.72711],[-90.22394,38.72734],[-90.22388,38.7274],[-90.22386,38.72748],[-90.22406,38.72761],[-90.22596,38.72711],[-90.22664,38.72704],[-90.22696,38.72699],[-90.22792,38.72679],[-90.22873,38.72652],[-90.23006,38.72587],[-90.23428,38.72358],[-90.23463,38.7234],[-90.23505,38.72322],[-90.23535,38.72311],[-90.23566,38.72303],[-90.23607,38.72295],[-90.23638,38.72291],[-90.237,38.72285],[-90.23974,38.72266],[-90.2398,38.72277],[-90.23992,38.72285],[-90.24036,38.72287],[-90.24169,38.72502],[-90.2418,38.72523],[-90.24223,38.72591],[-90.24277,38.72671],[-90.24328,38.72761],[-90.24602,38.73185],[-90.24625,38.73228],[-90.24669,38.73303],[-90.24717,38.73379],[-90.24816,38.73534],[-90.24852,38.73584],[-90.24947,38.73726],[-90.24979,38.73778],[-90.24998,38.73805],[-90.25072,38.73922],[-90.25099,38.73967],[-90.25124,38.74013],[-90.25139,38.74044],[-90.25203,38.74185],[-90.25219,38.74229],[-90.25285,38.74248],[-90.2535,38.7424],[-90.25383,38.74234],[-90.25425,38.74223],[-90.25458,38.74211],[-90.25549,38.74164],[-90.2574,38.74056],[-90.26038,38.73895],[-90.26154,38.7383],[-90.26207,38.73797],[-90.26249,38.73765],[-90.26294,38.73726],[-90.26332,38.73682],[-90.26587,38.7334],[-90.26606,38.73309],[-90.26614,38.73288],[-90.26621,38.73261],[-90.26625,38.73233],[-90.26628,38.73179],[-90.26631,38.73158],[-90.26635,38.73137],[-90.26647,38.73108],[-90.26663,38.73082],[-90.2669,38.73048],[-90.26731,38.73011],[-90.26894,38.72908],[-90.26914,38.72904],[-90.27,38.72863],[-90.27118,38.72803],[-90.27248,38.72718],[-90.27262,38.72704],[-90.27453,38.72587],[-90.27511,38.72554],[-90.27525,38.72545],[-90.27539,38.72533],[-90.27574,38.72488],[-90.27841,38.72118],[-90.28037,38.71858],[-90.2807,38.7181],[-90.28125,38.71735],[-90.28169,38.71668],[-90.28404,38.71341],[-90.28502,38.71198],[-90.28539,38.71146],[-90.28572,38.71105],[-90.28617,38.7104],[-90.28636,38.71008],[-90.28661,38.70976],[-90.2868,38.70948],[-90.28904,38.7064],[-90.28985,38.70532],[-90.29054,38.70433],[-90.29177,38.70266],[-90.29235,38.70184],[-90.29317,38.70079],[-90.29344,38.7005],[-90.29379,38.70003],[-90.29595,38.697],[-90.29615,38.69669],[-90.29661,38.69582],[-90.29669,38.69548],[-90.29676,38.69494],[-90.29675,38.69462],[-90.29668,38.6942],[-90.29617,38.6924],[-90.29573,38.69132],[-90.29551,38.69087],[-90.29539,38.69068],[-90.29505,38.69033],[-90.2939,38.68923],[-90.29385,38.68915],[-90.29374,38.68886],[-90.29355,38.68816],[-90.29337,38.68758],[-90.29335,38.68745],[-90.29337,38.68725],[-90.29412,38.68519],[-90.29422,38.68495],[-90.29497,38.6824],[-90.29532,38.68107],[-90.29545,38.68067],[-90.29631,38.68111],[-90.29861,38.68234],[-90.30114,38.68363],[-90.30149,38.68383],[-90.30283,38.68454],[-90.30212,38.68467],[-90.30195,38.68459],[-90.30182,38.68464]]]}},{"type":"Feature","properties":{"stop_id":"10145","stop_code":"10145","stop_name":"HALLS FERRY @ COZENS NB","stop_desc":"FAR SIDE HALLS FERRY @ COZENS NB","wheelchair_boarding":1,"routes":[{"route_id":"19611","agency_id":"70006","route_short_name":"40","route_long_name":"Broadway-Halls Ferry","route_type":3,"route_color":"#FFFFFF","route_text_color":"#000000"},{"route_id":"19621","agency_id":"70006","route_short_name":"64","route_long_name":"Lucas-Hunt","route_type":3,"route_color":"#FFFFFF","route_text_color":"#000000"}],"agency_name":"Metro St. Louis"},"geometry":{"type":"Point","coordinates":[-90.24634,38.73265]}},{"type":"Feature","properties":{"stop_id":"10146","stop_code":"10146","stop_name":"HALLS FERRY @ GLEN GARDEN NB","stop_desc":"NEAR SIDE HALLS FERRY @ GLEN GARDEN NB","wheelchair_boarding":1,"routes":[{"route_id":"19611","agency_id":"70006","route_short_name":"40","route_long_name":"Broadway-Halls Ferry","route_type":3,"route_color":"#FFFFFF","route_text_color":"#000000"},{"route_id":"19621","agency_id":"70006","route_short_name":"64","route_long_name":"Lucas-Hunt","route_type":3,"route_color":"#FFFFFF","route_text_color":"#000000"}],"agency_name":"Metro St. Louis"},"geometry":{"type":"Point","coordinates":[-90.24701,38.73366]}},{"type":"Feature","properties":{"stop_id":"10148","stop_code":"10148","stop_name":"HALLS FERRY @ ST. CYR NB","stop_desc":"NEAR SIDE HALLS FERRY @ ST. CYR NB","wheelchair_boarding":1,"routes":[{"route_id":"19611","agency_id":"70006","route_short_name":"40","route_long_name":"Broadway-Halls Ferry","route_type":3,"route_color":"#FFFFFF","route_text_color":"#000000"},{"route_id":"19621","agency_id":"70006","route_short_name":"64","route_long_name":"Lucas-Hunt","route_type":3,"route_color":"#FFFFFF","route_text_color":"#000000"}],"agency_name":"Metro St. Louis"},"geometry":{"type":"Point","coordinates":[-90.24824,38.73556]}},{"type":"Feature","properties":{"stop_id":"10150","stop_code":"10150","stop_name":"HALLS FERRY @ DORWOOD NB","stop_desc":"FAR SIDE HALLS FERRY @ DORWOOD NB","wheelchair_boarding":2,"routes":[{"route_id":"19611","agency_id":"70006","route_short_name":"40","route_long_name":"Broadway-Halls Ferry","route_type":3,"route_color":"#FFFFFF","route_text_color":"#000000"},{"route_id":"19621","agency_id":"70006","route_short_name":"64","route_long_name":"Lucas-Hunt","route_type":3,"route_color":"#FFFFFF","route_text_color":"#000000"}],"agency_name":"Metro St. Louis"},"geometry":{"type":"Point","coordinates":[-90.25065,38.73932]}},{"type":"Feature","properties":{"stop_id":"13244","stop_code":"13244","stop_name":"LUCAS-HUNT @ LUTHERAN HIGH SCHOOL NORTH SB","stop_desc":"FAR SIDE LUCAS-HUNT @ LUTHERAN HIGH SCHOOL NORTH SB","wheelchair_boarding":1,"routes":[{"route_id":"19621","agency_id":"70006","route_short_name":"64","route_long_name":"Lucas-Hunt","route_type":3,"route_color":"#FFFFFF","route_text_color":"#000000"}],"agency_name":"Metro St. Louis"},"geometry":{"type":"Point","coordinates":[-90.28204,38.71636]}},{"type":"Feature","properties":{"stop_id":"13257","stop_code":"13257","stop_name":"LUCAS-HUNT @ NATURAL BRIDGE SB","stop_desc":"FAR SIDE LUCAS-HUNT @ NATURAL BRIDGE SB","wheelchair_boarding":2,"routes":[{"route_id":"19621","agency_id":"70006","route_short_name":"64","route_long_name":"Lucas-Hunt","route_type":3,"route_color":"#FFFFFF","route_text_color":"#000000"}],"agency_name":"Metro St. Louis"},"geometry":{"type":"Point","coordinates":[-90.29294,38.70126]}},{"type":"Feature","properties":{"stop_id":"13309","stop_code":"13309","stop_name":"LUCAS-HUNT @ JESSE JACKSON SB","stop_desc":"FAR SIDE LUCAS-HUNT @ JESSE JACKSON SB","wheelchair_boarding":1,"routes":[{"route_id":"19621","agency_id":"70006","route_short_name":"64","route_long_name":"Lucas-Hunt","route_type":3,"route_color":"#FFFFFF","route_text_color":"#000000"}],"agency_name":"Metro St. Louis"},"geometry":{"type":"Point","coordinates":[-90.29346,38.68699]}},{"type":"Feature","properties":{"stop_id":"13311","stop_code":"13311","stop_name":"ST. CHARLES ROCK ROAD @ LUCAS-HUNT WB","stop_desc":"FAR SIDE ST. CHARLES ROCK ROAD @ LUCAS-HUNT WB","wheelchair_boarding":1,"routes":[{"route_id":"19603","agency_id":"70006","route_short_name":"19","route_long_name":"St Louis Ave","route_type":3,"route_color":"#FFFFFF","route_text_color":"#000000"},{"route_id":"19607","agency_id":"70006","route_short_name":"32","route_long_name":"Dr ML King","route_type":3,"route_color":"#FFFFFF","route_text_color":"#000000"},{"route_id":"19621","agency_id":"70006","route_short_name":"64","route_long_name":"Lucas-Hunt","route_type":3,"route_color":"#FFFFFF","route_text_color":"#000000"}],"agency_name":"Metro St. Louis"},"geometry":{"type":"Point","coordinates":[-90.29615,38.6811]}},{"type":"Feature","properties":{"stop_id":"13630","stop_code":"13630","stop_name":"LUCAS-HUNT @ GROVELAND SB","stop_desc":"NEAR SIDE LUCAS-HUNT @ GROVELAND SB","wheelchair_boarding":1,"routes":[{"route_id":"19621","agency_id":"70006","route_short_name":"64","route_long_name":"Lucas-Hunt","route_type":3,"route_color":"#FFFFFF","route_text_color":"#000000"}],"agency_name":"Metro St. Louis"},"geometry":{"type":"Point","coordinates":[-90.2872,38.70906]}},{"type":"Feature","properties":{"stop_id":"14085","stop_code":"14085","stop_name":"LUCAS-HUNT @ MAYWOOD SB","stop_desc":"NEAR SIDE LUCAS-HUNT @ MAYWOOD SB","wheelchair_boarding":1,"routes":[{"route_id":"19621","agency_id":"70006","route_short_name":"64","route_long_name":"Lucas-Hunt","route_type":3,"route_color":"#FFFFFF","route_text_color":"#000000"}],"agency_name":"Metro St. Louis"},"geometry":{"type":"Point","coordinates":[-90.29385,38.68913]}},{"type":"Feature","properties":{"stop_id":"14088","stop_code":"14088","stop_name":"LUCAS-HUNT @ EAGLE VALLEY SB","stop_desc":"NEAR SIDE LUCAS-HUNT @ EAGLE VALLEY SB","wheelchair_boarding":1,"routes":[{"route_id":"19621","agency_id":"70006","route_short_name":"64","route_long_name":"Lucas-Hunt","route_type":3,"route_color":"#FFFFFF","route_text_color":"#000000"}],"agency_name":"Metro St. Louis"},"geometry":{"type":"Point","coordinates":[-90.2802,38.71889]}},{"type":"Feature","properties":{"stop_id":"14090","stop_code":"14090","stop_name":"LUCAS-HUNT @ ROLAND SB","stop_desc":"FAR SIDE LUCAS-HUNT @ ROLAND SB","wheelchair_boarding":1,"routes":[{"route_id":"19621","agency_id":"70006","route_short_name":"64","route_long_name":"Lucas-Hunt","route_type":3,"route_color":"#FFFFFF","route_text_color":"#000000"}],"agency_name":"Metro St. Louis"},"geometry":{"type":"Point","coordinates":[-90.28887,38.70677]}},{"type":"Feature","properties":{"stop_id":"14093","stop_code":"14093","stop_name":"LUCAS-HUNT @ LEXINGTON SB","stop_desc":"FAR SIDE LUCAS-HUNT @ LEXINGTON SB","wheelchair_boarding":1,"routes":[{"route_id":"19621","agency_id":"70006","route_short_name":"64","route_long_name":"Lucas-Hunt","route_type":3,"route_color":"#FFFFFF","route_text_color":"#000000"}],"agency_name":"Metro St. Louis"},"geometry":{"type":"Point","coordinates":[-90.29665,38.69569]}},{"type":"Feature","properties":{"stop_id":"14094","stop_code":"14094","stop_name":"LUCAS-HUNT @ NORTH MARKET SB","stop_desc":"NEAR SIDE LUCAS-HUNT @ NORTH MARKET SB","wheelchair_boarding":2,"routes":[{"route_id":"19621","agency_id":"70006","route_short_name":"64","route_long_name":"Lucas-Hunt","route_type":3,"route_color":"#FFFFFF","route_text_color":"#000000"}],"agency_name":"Metro St. Louis"},"geometry":{"type":"Point","coordinates":[-90.2941,38.68525]}},{"type":"Feature","properties":{"stop_id":"14102","stop_code":"14102","stop_name":"ST. CHARLES ROCK ROAD @ LULU WB","stop_desc":"FAR SIDE ST. CHARLES ROCK ROAD @ LULU WB","wheelchair_boarding":1,"routes":[{"route_id":"19603","agency_id":"70006","route_short_name":"19","route_long_name":"St Louis Ave","route_type":3,"route_color":"#FFFFFF","route_text_color":"#000000"},{"route_id":"19607","agency_id":"70006","route_short_name":"32","route_long_name":"Dr ML King","route_type":3,"route_color":"#FFFFFF","route_text_color":"#000000"},{"route_id":"19621","agency_id":"70006","route_short_name":"64","route_long_name":"Lucas-Hunt","route_type":3,"route_color":"#FFFFFF","route_text_color":"#000000"}],"agency_name":"Metro St. Louis"},"geometry":{"type":"Point","coordinates":[-90.29922,38.68273]}},{"type":"Feature","properties":{"stop_id":"14787","stop_code":"14787","stop_name":"LUCAS-HUNT @ NORMANDY HIGH SCHOOL SB","stop_desc":"MID-BLOCK LUCAS-HUNT @ NORMANDY HIGH SCHOOL SB","wheelchair_boarding":1,"routes":[{"route_id":"19621","agency_id":"70006","route_short_name":"64","route_long_name":"Lucas-Hunt","route_type":3,"route_color":"#FFFFFF","route_text_color":"#000000"}],"agency_name":"Metro St. Louis"},"geometry":{"type":"Point","coordinates":[-90.29479,38.68312]}},{"type":"Feature","properties":{"stop_id":"14789","stop_code":"14789","stop_name":"LUCAS-HUNT @ LINCOLN SB","stop_desc":"FAR SIDE LUCAS-HUNT @ LINCOLN SB","wheelchair_boarding":1,"routes":[{"route_id":"19621","agency_id":"70006","route_short_name":"64","route_long_name":"Lucas-Hunt","route_type":3,"route_color":"#FFFFFF","route_text_color":"#000000"}],"agency_name":"Metro St. Louis"},"geometry":{"type":"Point","coordinates":[-90.29644,38.69326]}},{"type":"Feature","properties":{"stop_id":"14790","stop_code":"14790","stop_name":"LUCAS-HUNT @ EDISON SB","stop_desc":"FAR SIDE LUCAS-HUNT @ EDISON SB","wheelchair_boarding":2,"routes":[{"route_id":"19621","agency_id":"70006","route_short_name":"64","route_long_name":"Lucas-Hunt","route_type":3,"route_color":"#FFFFFF","route_text_color":"#000000"}],"agency_name":"Metro St. Louis"},"geometry":{"type":"Point","coordinates":[-90.29531,38.69795]}},{"type":"Feature","properties":{"stop_id":"14791","stop_code":"14791","stop_name":"LUCAS-HUNT @ PASADENA SB","stop_desc":"FAR SIDE LUCAS-HUNT @ PASADENA SB","wheelchair_boarding":1,"routes":[{"route_id":"19621","agency_id":"70006","route_short_name":"64","route_long_name":"Lucas-Hunt","route_type":3,"route_color":"#FFFFFF","route_text_color":"#000000"}],"agency_name":"Metro St. Louis"},"geometry":{"type":"Point","coordinates":[-90.29202,38.70253]}},{"type":"Feature","properties":{"stop_id":"15231","stop_code":"15231","stop_name":"LUCAS-HUNT @ PICADOR WB","stop_desc":"FAR SIDE LUCAS-HUNT @ PICADOR WB","wheelchair_boarding":1,"routes":[{"route_id":"19621","agency_id":"70006","route_short_name":"64","route_long_name":"Lucas-Hunt","route_type":3,"route_color":"#FFFFFF","route_text_color":"#000000"}],"agency_name":"Metro St. Louis"},"geometry":{"type":"Point","coordinates":[-90.25416,38.74235]}},{"type":"Feature","properties":{"stop_id":"15489","stop_code":"15489","stop_name":"8937 RIVERVIEW WB","stop_desc":"MID-BLOCK 8937 RIVERVIEW WB","wheelchair_boarding":2,"routes":[{"route_id":"19601","agency_id":"70006","route_short_name":"16","route_long_name":"City Limits","route_type":3,"route_color":"#FFFFFF","route_text_color":"#000000"},{"route_id":"19611","agency_id":"70006","route_short_name":"40","route_long_name":"Broadway-Halls Ferry","route_type":3,"route_color":"#FFFFFF","route_text_color":"#000000"},{"route_id":"19612","agency_id":"70006","route_short_name":"41","route_long_name":"Lee","route_type":3,"route_color":"#FFFFFF","route_text_color":"#000000"},{"route_id":"19619","agency_id":"70006","route_short_name":"60","route_long_name":"Shepley-Lilac","route_type":3,"route_color":"#FFFFFF","route_text_color":"#000000"},{"route_id":"19620","agency_id":"70006","route_short_name":"61","route_long_name":"Chambers Rd","route_type":3,"route_color":"#FFFFFF","route_text_color":"#000000"},{"route_id":"19621","agency_id":"70006","route_short_name":"64","route_long_name":"Lucas-Hunt","route_type":3,"route_color":"#FFFFFF","route_text_color":"#000000"},{"route_id":"19627","agency_id":"70006","route_short_name":"78","route_long_name":"Bellefontaine","route_type":3,"route_color":"#FFFFFF","route_text_color":"#000000"},{"route_id":"19629","agency_id":"70006","route_short_name":"90","route_long_name":"Hampton","route_type":3,"route_color":"#FFFFFF","route_text_color":"#000000"}],"agency_name":"Metro St. Louis"},"geometry":{"type":"Point","coordinates":[-90.22641,38.72709]}},{"type":"Feature","properties":{"stop_id":"15495","stop_code":"15495","stop_name":"LUCAS-HUNT @ JACOBI WB","stop_desc":"NEAR SIDE LUCAS-HUNT @ JACOBI WB","wheelchair_boarding":2,"routes":[{"route_id":"19621","agency_id":"70006","route_short_name":"64","route_long_name":"Lucas-Hunt","route_type":3,"route_color":"#FFFFFF","route_text_color":"#000000"}],"agency_name":"Metro St. Louis"},"geometry":{"type":"Point","coordinates":[-90.25861,38.74003]}},{"type":"Feature","properties":{"stop_id":"15496","stop_code":"15496","stop_name":"LUCAS-HUNT @ NORTH SIDE 7TH DAY ADVENTIST  WB","stop_desc":"MID-BLOCK LUCAS-HUNT @ NORTH SIDE 7TH DAY ADVENTIST  WB","wheelchair_boarding":2,"routes":[{"route_id":"19621","agency_id":"70006","route_short_name":"64","route_long_name":"Lucas-Hunt","route_type":3,"route_color":"#FFFFFF","route_text_color":"#000000"}],"agency_name":"Metro St. Louis"},"geometry":{"type":"Point","coordinates":[-90.26312,38.73721]}},{"type":"Feature","properties":{"stop_id":"15497","stop_code":"15497","stop_name":"LUCAS-HUNT @ HORD SB","stop_desc":"FAR SIDE LUCAS-HUNT @ HORD SB","wheelchair_boarding":1,"routes":[{"route_id":"19621","agency_id":"70006","route_short_name":"64","route_long_name":"Lucas-Hunt","route_type":3,"route_color":"#FFFFFF","route_text_color":"#000000"}],"agency_name":"Metro St. Louis"},"geometry":{"type":"Point","coordinates":[-90.26964,38.72884]}},{"type":"Feature","properties":{"stop_id":"15666","stop_code":"15666","stop_name":"LUCAS-HUNT @ BURRWOOD SB","stop_desc":"FAR SIDE LUCAS-HUNT @ BURRWOOD SB","wheelchair_boarding":1,"routes":[{"route_id":"19621","agency_id":"70006","route_short_name":"64","route_long_name":"Lucas-Hunt","route_type":3,"route_color":"#FFFFFF","route_text_color":"#000000"}],"agency_name":"Metro St. Louis"},"geometry":{"type":"Point","coordinates":[-90.28439,38.7131]}},{"type":"Feature","properties":{"stop_id":"15951","stop_code":"15951","stop_name":"HALLS FERRY @ DAWN NB","stop_desc":"NEAR SIDE HALLS FERRY @ DAWN NB","wheelchair_boarding":1,"routes":[{"route_id":"19611","agency_id":"70006","route_short_name":"40","route_long_name":"Broadway-Halls Ferry","route_type":3,"route_color":"#FFFFFF","route_text_color":"#000000"},{"route_id":"19621","agency_id":"70006","route_short_name":"64","route_long_name":"Lucas-Hunt","route_type":3,"route_color":"#FFFFFF","route_text_color":"#000000"}],"agency_name":"Metro St. Louis"},"geometry":{"type":"Point","coordinates":[-90.24541,38.73106]}},{"type":"Feature","properties":{"stop_id":"16090","stop_code":"16090","stop_name":"RIVERVIEW TRANSIT CENTER","wheelchair_boarding":1,"routes":[{"route_id":"19620","agency_id":"70006","route_short_name":"61","route_long_name":"Chambers Rd","route_type":3,"route_color":"#FFFFFF","route_text_color":"#000000"},{"route_id":"19621","agency_id":"70006","route_short_name":"64","route_long_name":"Lucas-Hunt","route_type":3,"route_color":"#FFFFFF","route_text_color":"#000000"},{"route_id":"19627","agency_id":"70006","route_short_name":"78","route_long_name":"Bellefontaine","route_type":3,"route_color":"#FFFFFF","route_text_color":"#000000"},{"route_id":"19629","agency_id":"70006","route_short_name":"90","route_long_name":"Hampton","route_type":3,"route_color":"#FFFFFF","route_text_color":"#000000"}],"agency_name":"Metro St. Louis"},"geometry":{"type":"Point","coordinates":[-90.22399,38.72717]}},{"type":"Feature","properties":{"stop_id":"16408","stop_code":"16408","stop_name":"LUCAS-HUNT @ LIONS PARK SB","stop_desc":"MID-BLOCK LUCAS-HUNT @ LIONS PARK SB","wheelchair_boarding":2,"routes":[{"route_id":"19621","agency_id":"70006","route_short_name":"64","route_long_name":"Lucas-Hunt","route_type":3,"route_color":"#FFFFFF","route_text_color":"#000000"}],"agency_name":"Metro St. Louis"},"geometry":{"type":"Point","coordinates":[-90.26533,38.73423]}},{"type":"Feature","properties":{"stop_id":"4326","stop_code":"4326","stop_name":"LUCAS-HUNT @ CALVIN SB","stop_desc":"NEAR SIDE LUCAS-HUNT @ CALVIN SB","wheelchair_boarding":1,"routes":[{"route_id":"19621","agency_id":"70006","route_short_name":"64","route_long_name":"Lucas-Hunt","route_type":3,"route_color":"#FFFFFF","route_text_color":"#000000"}],"agency_name":"Metro St. Louis"},"geometry":{"type":"Point","coordinates":[-90.276,38.72467]}},{"type":"Feature","properties":{"stop_id":"4328","stop_code":"4328","stop_name":"LUCAS-HUNT @ NORWOOD HILLS COUNTRY CLUB SB","stop_desc":"NEAR SIDE LUCAS-HUNT @ NORWOOD HILLS COUNTRY CLUB SB","wheelchair_boarding":1,"routes":[{"route_id":"19621","agency_id":"70006","route_short_name":"64","route_long_name":"Lucas-Hunt","route_type":3,"route_color":"#FFFFFF","route_text_color":"#000000"}],"agency_name":"Metro St. Louis"},"geometry":{"type":"Point","coordinates":[-90.27865,38.72103]}},{"type":"Feature","properties":{"stop_id":"4373","stop_code":"4373","stop_name":"LUCAS-HUNT @ COLONIAL SB","stop_desc":"FAR SIDE LUCAS-HUNT @ COLONIAL SB","wheelchair_boarding":1,"routes":[{"route_id":"19621","agency_id":"70006","route_short_name":"64","route_long_name":"Lucas-Hunt","route_type":3,"route_color":"#FFFFFF","route_text_color":"#000000"}],"agency_name":"Metro St. Louis"},"geometry":{"type":"Point","coordinates":[-90.2958,38.69142]}},{"type":"Feature","properties":{"stop_id":"6297","stop_code":"6297","stop_name":"HALLS FERRY @ COTTONWOOD NB","stop_desc":"NEAR SIDE HALLS FERRY @ COTTONWOOD NB","wheelchair_boarding":2,"routes":[{"route_id":"19611","agency_id":"70006","route_short_name":"40","route_long_name":"Broadway-Halls Ferry","route_type":3,"route_color":"#FFFFFF","route_text_color":"#000000"},{"route_id":"19621","agency_id":"70006","route_short_name":"64","route_long_name":"Lucas-Hunt","route_type":3,"route_color":"#FFFFFF","route_text_color":"#000000"}],"agency_name":"Metro St. Louis"},"geometry":{"type":"Point","coordinates":[-90.24108,38.7242]}},{"type":"Feature","properties":{"stop_id":"6298","stop_code":"6298","stop_name":"HALLS FERRY @ EDGEWATER NB","stop_desc":"NEAR SIDE HALLS FERRY @ EDGEWATER NB","wheelchair_boarding":1,"routes":[{"route_id":"19611","agency_id":"70006","route_short_name":"40","route_long_name":"Broadway-Halls Ferry","route_type":3,"route_color":"#FFFFFF","route_text_color":"#000000"},{"route_id":"19621","agency_id":"70006","route_short_name":"64","route_long_name":"Lucas-Hunt","route_type":3,"route_color":"#FFFFFF","route_text_color":"#000000"}],"agency_name":"Metro St. Louis"},"geometry":{"type":"Point","coordinates":[-90.24267,38.72678]}},{"type":"Feature","properties":{"stop_id":"6651","stop_code":"6651","stop_name":"RIVERVIEW @ BROADWAY WB","stop_desc":"FAR SIDE RIVERVIEW @ BROADWAY WB","wheelchair_boarding":1,"routes":[{"route_id":"19611","agency_id":"70006","route_short_name":"40","route_long_name":"Broadway-Halls Ferry","route_type":3,"route_color":"#FFFFFF","route_text_color":"#000000"},{"route_id":"19612","agency_id":"70006","route_short_name":"41","route_long_name":"Lee","route_type":3,"route_color":"#FFFFFF","route_text_color":"#000000"},{"route_id":"19621","agency_id":"70006","route_short_name":"64","route_long_name":"Lucas-Hunt","route_type":3,"route_color":"#FFFFFF","route_text_color":"#000000"},{"route_id":"19629","agency_id":"70006","route_short_name":"90","route_long_name":"Hampton","route_type":3,"route_color":"#FFFFFF","route_text_color":"#000000"}],"agency_name":"Metro St. Louis"},"geometry":{"type":"Point","coordinates":[-90.22827,38.7267]}},{"type":"Feature","properties":{"stop_id":"6652","stop_code":"6652","stop_name":"RIVERVIEW @ CHURCH WB","stop_desc":"FAR SIDE RIVERVIEW @ CHURCH WB","wheelchair_boarding":2,"routes":[{"route_id":"19611","agency_id":"70006","route_short_name":"40","route_long_name":"Broadway-Halls Ferry","route_type":3,"route_color":"#FFFFFF","route_text_color":"#000000"},{"route_id":"19612","agency_id":"70006","route_short_name":"41","route_long_name":"Lee","route_type":3,"route_color":"#FFFFFF","route_text_color":"#000000"},{"route_id":"19621","agency_id":"70006","route_short_name":"64","route_long_name":"Lucas-Hunt","route_type":3,"route_color":"#FFFFFF","route_text_color":"#000000"},{"route_id":"19629","agency_id":"70006","route_short_name":"90","route_long_name":"Hampton","route_type":3,"route_color":"#FFFFFF","route_text_color":"#000000"}],"agency_name":"Metro St. Louis"},"geometry":{"type":"Point","coordinates":[-90.23187,38.72493]}},{"type":"Feature","properties":{"stop_id":"6653","stop_code":"6653","stop_name":"RIVERVIEW @ NEWBY WB","stop_desc":"NEAR SIDE RIVERVIEW @ NEWBY WB","wheelchair_boarding":2,"routes":[{"route_id":"19611","agency_id":"70006","route_short_name":"40","route_long_name":"Broadway-Halls Ferry","route_type":3,"route_color":"#FFFFFF","route_text_color":"#000000"},{"route_id":"19612","agency_id":"70006","route_short_name":"41","route_long_name":"Lee","route_type":3,"route_color":"#FFFFFF","route_text_color":"#000000"},{"route_id":"19621","agency_id":"70006","route_short_name":"64","route_long_name":"Lucas-Hunt","route_type":3,"route_color":"#FFFFFF","route_text_color":"#000000"},{"route_id":"19629","agency_id":"70006","route_short_name":"90","route_long_name":"Hampton","route_type":3,"route_color":"#FFFFFF","route_text_color":"#000000"}],"agency_name":"Metro St. Louis"},"geometry":{"type":"Point","coordinates":[-90.2345,38.72357]}},{"type":"Feature","properties":{"stop_id":"6655","stop_code":"6655","stop_name":"RIVERVIEW @ HALLS FERRY CIRCLE WB","stop_desc":"NEAR SIDE RIVERVIEW @ HALLS FERRY CIRCLE WB","wheelchair_boarding":2,"routes":[{"route_id":"19611","agency_id":"70006","route_short_name":"40","route_long_name":"Broadway-Halls Ferry","route_type":3,"route_color":"#FFFFFF","route_text_color":"#000000"},{"route_id":"19612","agency_id":"70006","route_short_name":"41","route_long_name":"Lee","route_type":3,"route_color":"#FFFFFF","route_text_color":"#000000"},{"route_id":"19621","agency_id":"70006","route_short_name":"64","route_long_name":"Lucas-Hunt","route_type":3,"route_color":"#FFFFFF","route_text_color":"#000000"},{"route_id":"19629","agency_id":"70006","route_short_name":"90","route_long_name":"Hampton","route_type":3,"route_color":"#FFFFFF","route_text_color":"#000000"}],"agency_name":"Metro St. Louis"},"geometry":{"type":"Point","coordinates":[-90.23936,38.72268]}},{"type":"Feature","properties":{"stop_id":"7424","stop_code":"7424","stop_name":"ROCK ROAD TRANSIT CENTER","wheelchair_boarding":1,"routes":[{"route_id":"19593","agency_id":"70006","route_short_name":"2","route_long_name":"Red","route_type":3,"route_color":"#FFFFFF","route_text_color":"#000000"},{"route_id":"19603","agency_id":"70006","route_short_name":"19","route_long_name":"St Louis Ave","route_type":3,"route_color":"#FFFFFF","route_text_color":"#000000"},{"route_id":"19607","agency_id":"70006","route_short_name":"32","route_long_name":"Dr ML King","route_type":3,"route_color":"#FFFFFF","route_text_color":"#000000"},{"route_id":"19610","agency_id":"70006","route_short_name":"35","route_long_name":"Rock Road","route_type":3,"route_color":"#FFFFFF","route_text_color":"#000000"},{"route_id":"19621","agency_id":"70006","route_short_name":"64","route_long_name":"Lucas-Hunt","route_type":3,"route_color":"#FFFFFF","route_text_color":"#000000"}],"agency_name":"Metro St. Louis"},"geometry":{"type":"Point","coordinates":[-90.30164,38.68516]}},{"type":"Feature","properties":{"stop_id":"8287","stop_code":"8287","stop_name":"LUCAS-HUNT @ WEST FLORISSANT SB","stop_desc":"NEAR SIDE LUCAS-HUNT @ WEST FLORISSANT SB","wheelchair_boarding":2,"routes":[{"route_id":"19621","agency_id":"70006","route_short_name":"64","route_long_name":"Lucas-Hunt","route_type":3,"route_color":"#FFFFFF","route_text_color":"#000000"}],"agency_name":"Metro St. Louis"},"geometry":{"type":"Point","coordinates":[-90.27422,38.72624]}},{"type":"Feature","properties":{"stop_id":"8288","stop_code":"8288","stop_name":"LUCAS-HUNT @ KINAMORE SB","stop_desc":"NEAR SIDE LUCAS-HUNT @ KINAMORE SB","wheelchair_boarding":1,"routes":[{"route_id":"19621","agency_id":"70006","route_short_name":"64","route_long_name":"Lucas-Hunt","route_type":3,"route_color":"#FFFFFF","route_text_color":"#000000"}],"agency_name":"Metro St. Louis"},"geometry":{"type":"Point","coordinates":[-90.27239,38.7273]}}]}