{"type":"FeatureCollection","features":[{"type":"Feature","properties":{"agency_name":"Metro St. Louis","route_id":"19626","agency_id":"70006","route_short_name":"77","route_long_name":"Village Square","route_type":3,"route_color":"#FFFFFF","route_text_color":"#000000"},"geometry":{"type":"MultiLineString","coordinates":[[[-90.31561,38.71975],[-90.315,38.71977],[-90.31561,38.71975],[-90.31577,38.71967],[-90.31586,38.7195],[-90.31606,38.71875],[-90.3161,38.71825],[-90.31606,38.71782],[-90.31624,38.71782],[-90.31782,38.71823],[-90.31762,38.71869],[-90.31721,38.71952],[-90.31716,38.71967],[-90.3171,38.72013],[-90.31713,38.72098],[-90.31719,38.72146],[-90.31718,38.72166],[-90.31708,38.7221],[-90.31685,38.7229],[-90.31677,38.72334],[-90.31679,38.72365],[-90.31687,38.72395],[-90.31696,38.72414],[-90.31723,38.72455],[-90.31906,38.72665],[-90.31928,38.72689],[-90.31953,38.72712],[-90.3198,38.72732],[-90.32011,38.7275],[-90.32373,38.72935],[-90.32411,38.72958],[-90.32439,38.72978],[-90.32519,38.73046],[-90.32658,38.73149],[-90.32729,38.73206],[-90.33078,38.73469],[-90.33102,38.73493],[-90.33123,38.73519],[-90.33162,38.73574],[-90.33447,38.74017],[-90.33456,38.74036],[-90.33465,38.74067],[-90.33469,38.74089],[-90.3347,38.74116],[-90.33469,38.7432],[-90.33471,38.74461],[-90.33496,38.74841],[-90.335,38.7489],[-90.33508,38.74955],[-90.33516,38.75003],[-90.33532,38.75078],[-90.33535,38.75109],[-90.33533,38.75141],[-90.33529,38.75167],[-90.33488,38.75347],[-90.33456,38.75506],[-90.3345,38.75547],[-90.33443,38.75572],[-90.33438,38.75601],[-90.33439,38.75634],[-90.33443,38.75655],[-90.33451,38.75675],[-90.33462,38.75693],[-90.33475,38.75709],[-90.3349,38.75723],[-90.33507,38.75736],[-90.33537,38.75752],[-90.33666,38.75801],[-90.33682,38.75809],[-90.33701,38.75822],[-90.33719,38.75837],[-90.33742,38.75868],[-90.3375,38.75886],[-90.33758,38.75913],[-90.33761,38.75935],[-90.33758,38.75961],[-90.33749,38.7601],[-90.33726,38.76109],[-90.33694,38.76264],[-90.33877,38.76282],[-90.34033,38.75849],[-90.34224,38.75879],[-90.34229,38.75883],[-90.3423,38.75889],[-90.34175,38.76227],[-90.33959,38.76292]],[[-90.33694,38.76264],[-90.33651,38.76475],[-90.33622,38.76605],[-90.33542,38.77007],[-90.33537,38.77052],[-90.33519,38.77311],[-90.33505,38.7743],[-90.33553,38.77428],[-90.33624,38.77449],[-90.33698,38.77478],[-90.33733,38.77489],[-90.3381,38.77492],[-90.33852,38.77481],[-90.33966,38.77431],[-90.33999,38.77422],[-90.34047,38.77417],[-90.34076,38.77417],[-90.34101,38.77421],[-90.34163,38.77444],[-90.34195,38.77466],[-90.34308,38.7756],[-90.34327,38.7758],[-90.34353,38.77596],[-90.34382,38.77609],[-90.34418,38.77618],[-90.34781,38.77656],[-90.35331,38.7771],[-90.35607,38.77726],[-90.35648,38.77727],[-90.357,38.77722],[-90.35731,38.77714],[-90.35784,38.77696],[-90.35827,38.77679],[-90.35917,38.77636],[-90.35965,38.77608],[-90.36026,38.77569],[-90.36049,38.7755],[-90.36071,38.77528],[-90.361,38.77493],[-90.36135,38.77446],[-90.36147,38.77427],[-90.36157,38.77407],[-90.36182,38.7734],[-90.36188,38.77331],[-90.36199,38.77324],[-90.36207,38.77322],[-90.36238,38.77321],[-90.36174,38.77424],[-90.36142,38.77469],[-90.35928,38.77726],[-90.35915,38.77749],[-90.35907,38.77773],[-90.35865,38.77967],[-90.35869,38.78059],[-90.35687,38.78188],[-90.3578,38.78229],[-90.35813,38.78249],[-90.36028,38.78191],[-90.35932,38.78126],[-90.35854,38.78197]],[[-90.35687,38.78188],[-90.35619,38.78286],[-90.35597,38.7831],[-90.35572,38.78344],[-90.35555,38.78357],[-90.35303,38.78533],[-90.35231,38.78578],[-90.35194,38.78603],[-90.35174,38.78614],[-90.34924,38.78778],[-90.34811,38.78853],[-90.34762,38.78889],[-90.34054,38.79519],[-90.33972,38.79597],[-90.33889,38.7968],[-90.33814,38.79751],[-90.33779,38.79788],[-90.33676,38.79886],[-90.33651,38.79908],[-90.33626,38.79926],[-90.33583,38.79951],[-90.3352,38.79979],[-90.33482,38.79992],[-90.3343,38.80004],[-90.33385,38.80009],[-90.33348,38.80011],[-90.33265,38.80008],[-90.33143,38.79986],[-90.32979,38.79953],[-90.32226,38.79808],[-90.32169,38.79802],[-90.32136,38.79801],[-90.3209,38.79802],[-90.32029,38.79809],[-90.31972,38.79822],[-90.31937,38.79832],[-90.31906,38.79843],[-90.31847,38.7987],[-90.31738,38.79932],[-90.31361,38.80136],[-90.31011,38.80323],[-90.30825,38.80424],[-90.30653,38.80513],[-90.3053,38.8058],[-90.30311,38.80696],[-90.29912,38.80913],[-90.29864,38.80874],[-90.29676,38.80577],[-90.29551,38.80387],[-90.29415,38.80172],[-90.29393,38.80142],[-90.29377,38.80114],[-90.2926,38.79931],[-90.29131,38.79736],[-90.29107,38.79707],[-90.2904,38.79632],[-90.28901,38.79489],[-90.28801,38.79398],[-90.28728,38.79328],[-90.28598,38.79211],[-90.28398,38.79027],[-90.28316,38.78949],[-90.28283,38.7892],[-90.28203,38.78844],[-90.28091,38.78741],[-90.28019,38.78673],[-90.27984,38.78637],[-90.27961,38.78606],[-90.27944,38.78575],[-90.27933,38.78546],[-90.27924,38.78503],[-90.27918,38.78357],[-90.2791,38.78306],[-90.27898,38.78258],[-90.27887,38.78229],[-90.27862,38.78177],[-90.27832,38.7813],[-90.27831,38.78116],[-90.27832,38.78103],[-90.27835,38.78091],[-90.27849,38.78077],[-90.2796,38.78023],[-90.27983,38.7801],[-90.28004,38.77995],[-90.2803,38.77973],[-90.28052,38.77949],[-90.28083,38.77903],[-90.28093,38.77879],[-90.28101,38.77852],[-90.28105,38.77805],[-90.28103,38.77778],[-90.28097,38.7775],[-90.28029,38.77564],[-90.28021,38.77527],[-90.28008,38.77442],[-90.28003,38.77395],[-90.27998,38.77308],[-90.27996,38.77172],[-90.28001,38.77063],[-90.28005,38.77025],[-90.28011,38.7699],[-90.27971,38.76982],[-90.2795,38.76981],[-90.27929,38.76982],[-90.27898,38.76986],[-90.27867,38.76996],[-90.27793,38.77039],[-90.27761,38.77053],[-90.27718,38.77066],[-90.27667,38.77072],[-90.27625,38.77074],[-90.27468,38.77071],[-90.27464,38.76915],[-90.27512,38.76913],[-90.27518,38.76916],[-90.27521,38.76922]],[[-90.35928,38.7813],[-90.36028,38.78191]]]}},{"type":"Feature","properties":{"stop_id":"13330","stop_code":"13330","stop_name":"NORTH HANLEY TRANSIT CENTER","wheelchair_boarding":1,"routes":[{"route_id":"19594","agency_id":"70006","route_short_name":"4","route_long_name":"Natural Bridge","route_type":3,"route_color":"#FFFFFF","route_text_color":"#000000"},{"route_id":"19609","agency_id":"70006","route_short_name":"34","route_long_name":"Earth City","route_type":3,"route_color":"#FFFFFF","route_text_color":"#000000"},{"route_id":"19614","agency_id":"70006","route_short_name":"49","route_long_name":"Lindbergh","route_type":3,"route_color":"#FFFFFF","route_text_color":"#000000"},{"route_id":"19620","agency_id":"70006","route_short_name":"61","route_long_name":"Chambers Rd","route_type":3,"route_color":"#FFFFFF","route_text_color":"#000000"},{"route_id":"19625","agency_id":"70006","route_short_name":"76","route_long_name":"N Hanley Shuttle","route_type":3,"route_color":"#FFFFFF","route_text_color":"#000000"},{"route_id":"19626","agency_id":"70006","route_short_name":"77","route_long_name":"Village Square","route_type":3,"route_color":"#FFFFFF","route_text_color":"#000000"},{"route_id":"19628","agency_id":"70006","route_short_name":"79","route_long_name":"Ferguson-Clayton","route_type":3,"route_color":"#FFFFFF","route_text_color":"#000000"}],"agency_name":"Metro St. Louis"},"geometry":{"type":"Point","coordinates":[-90.31495,38.71976]}},{"type":"Feature","properties":{"stop_id":"13567","stop_code":"13567","stop_name":"NORTH HANLEY @ AIRPORT NB","stop_desc":"NEAR SIDE NORTH HANLEY @ AIRPORT NB","wheelchair_boarding":1,"routes":[{"route_id":"19620","agency_id":"70006","route_short_name":"61","route_long_name":"Chambers Rd","route_type":3,"route_color":"#FFFFFF","route_text_color":"#000000"},{"route_id":"19625","agency_id":"70006","route_short_name":"76","route_long_name":"N Hanley Shuttle","route_type":3,"route_color":"#FFFFFF","route_text_color":"#000000"},{"route_id":"19626","agency_id":"70006","route_short_name":"77","route_long_name":"Village Square","route_type":3,"route_color":"#FFFFFF","route_text_color":"#000000"}],"agency_name":"Metro St. Louis"},"geometry":{"type":"Point","coordinates":[-90.33493,38.74927]}},{"type":"Feature","properties":{"stop_id":"13579","stop_code":"13579","stop_name":"VILLAGE SQUARE SHOPPING CENTER","stop_desc":"MID-BLOCK VILLAGE SQUARE SHOPPING CENTER","wheelchair_boarding":1,"routes":[{"route_id":"19626","agency_id":"70006","route_short_name":"77","route_long_name":"Village Square","route_type":3,"route_color":"#FFFFFF","route_text_color":"#000000"}],"agency_name":"Metro St. Louis"},"geometry":{"type":"Point","coordinates":[-90.36014,38.78213]}},{"type":"Feature","properties":{"stop_id":"14618","stop_code":"14618","stop_name":"LINDBERGH @ ST. CHARLES EB","stop_desc":"FAR SIDE LINDBERGH @ ST. CHARLES EB","wheelchair_boarding":1,"routes":[{"route_id":"19626","agency_id":"70006","route_short_name":"77","route_long_name":"Village Square","route_type":3,"route_color":"#FFFFFF","route_text_color":"#000000"}],"agency_name":"Metro St. Louis"},"geometry":{"type":"Point","coordinates":[-90.32954,38.79941]}},{"type":"Feature","properties":{"stop_id":"14654","stop_code":"14654","stop_name":"NORTH HANLEY @ MADISON NB","stop_desc":"FAR SIDE NORTH HANLEY @ MADISON NB","wheelchair_boarding":1,"routes":[{"route_id":"19620","agency_id":"70006","route_short_name":"61","route_long_name":"Chambers Rd","route_type":3,"route_color":"#FFFFFF","route_text_color":"#000000"},{"route_id":"19625","agency_id":"70006","route_short_name":"76","route_long_name":"N Hanley Shuttle","route_type":3,"route_color":"#FFFFFF","route_text_color":"#000000"},{"route_id":"19626","agency_id":"70006","route_short_name":"77","route_long_name":"Village Square","route_type":3,"route_color":"#FFFFFF","route_text_color":"#000000"},{"route_id":"19635","agency_id":"70006","route_short_name":"100","route_long_name":"Hazelwood","route_type":3,"route_color":"#FFFFFF","route_text_color":"#000000"}],"agency_name":"Metro St. Louis"},"geometry":{"type":"Point","coordinates":[-90.33479,38.74691]}},{"type":"Feature","properties":{"stop_id":"14657","stop_code":"14657","stop_name":"LINDBERGH @ MANRESA NB","stop_desc":"FAR SIDE LINDBERGH @ MANRESA NB","wheelchair_boarding":1,"routes":[{"route_id":"19626","agency_id":"70006","route_short_name":"77","route_long_name":"Village Square","route_type":3,"route_color":"#FFFFFF","route_text_color":"#000000"}],"agency_name":"Metro St. Louis"},"geometry":{"type":"Point","coordinates":[-90.34539,38.79076]}},{"type":"Feature","properties":{"stop_id":"14707","stop_code":"14707","stop_name":"WEST FLORISSANT @ SEVEN HILLS SB","stop_desc":"FAR SIDE WEST FLORISSANT @ SEVEN HILLS SB","wheelchair_boarding":2,"routes":[{"route_id":"19626","agency_id":"70006","route_short_name":"77","route_long_name":"Village Square","route_type":3,"route_color":"#FFFFFF","route_text_color":"#000000"}],"agency_name":"Metro St. Louis"},"geometry":{"type":"Point","coordinates":[-90.28113,38.77812]}},{"type":"Feature","properties":{"stop_id":"15535","stop_code":"15535","stop_name":"WEST FLORISSANT @ CLOCKTOWER SB","stop_desc":"MID-BLOCK WEST FLORISSANT @ CLOCKTOWER SB","wheelchair_boarding":2,"routes":[{"route_id":"19626","agency_id":"70006","route_short_name":"77","route_long_name":"Village Square","route_type":3,"route_color":"#FFFFFF","route_text_color":"#000000"}],"agency_name":"Metro St. Louis"},"geometry":{"type":"Point","coordinates":[-90.28073,38.7767]}},{"type":"Feature","properties":{"stop_id":"15926","stop_code":"15926","stop_name":"LINDBERGH @ HAZEL VALLEY NB","stop_desc":"NEAR SIDE LINDBERGH @ HAZEL VALLEY NB","wheelchair_boarding":1,"routes":[{"route_id":"19626","agency_id":"70006","route_short_name":"77","route_long_name":"Village Square","route_type":3,"route_color":"#FFFFFF","route_text_color":"#000000"}],"agency_name":"Metro St. Louis"},"geometry":{"type":"Point","coordinates":[-90.34814,38.78844]}},{"type":"Feature","properties":{"stop_id":"16251","stop_code":"16251","stop_name":"NORTH COUNTY TRANSIT CENTER","wheelchair_boarding":1,"routes":[{"route_id":"19611","agency_id":"70006","route_short_name":"40","route_long_name":"Broadway-Halls Ferry","route_type":3,"route_color":"#FFFFFF","route_text_color":"#000000"},{"route_id":"19626","agency_id":"70006","route_short_name":"77","route_long_name":"Village Square","route_type":3,"route_color":"#FFFFFF","route_text_color":"#000000"},{"route_id":"19627","agency_id":"70006","route_short_name":"78","route_long_name":"Bellefontaine","route_type":3,"route_color":"#FFFFFF","route_text_color":"#000000"},{"route_id":"19628","agency_id":"70006","route_short_name":"79","route_long_name":"Ferguson-Clayton","route_type":3,"route_color":"#FFFFFF","route_text_color":"#000000"}],"agency_name":"Metro St. Louis"},"geometry":{"type":"Point","coordinates":[-90.27521,38.7698]}},{"type":"Feature","properties":{"stop_id":"16273","stop_code":"16273","stop_name":"OPPOSITE 8920 PERSHALL WB","stop_desc":"NEAR SIDE OPPOSITE 8920 PERSHALL WB","wheelchair_boarding":2,"routes":[{"route_id":"19626","agency_id":"70006","route_short_name":"77","route_long_name":"Village Square","route_type":3,"route_color":"#FFFFFF","route_text_color":"#000000"}],"agency_name":"Metro St. Louis"},"geometry":{"type":"Point","coordinates":[-90.34618,38.77645]}},{"type":"Feature","properties":{"stop_id":"16275","stop_code":"16275","stop_name":"PERSHALL @ FORD SB","stop_desc":"NEAR SIDE PERSHALL @ FORD SB","wheelchair_boarding":2,"routes":[{"route_id":"19626","agency_id":"70006","route_short_name":"77","route_long_name":"Village Square","route_type":3,"route_color":"#FFFFFF","route_text_color":"#000000"}],"agency_name":"Metro St. Louis"},"geometry":{"type":"Point","coordinates":[-90.35912,38.77649]}},{"type":"Feature","properties":{"stop_id":"16404","stop_code":"16404","stop_name":"NORTH HANLEY @ IRVINGTON NB","stop_desc":"FAR SIDE NORTH HANLEY @ IRVINGTON NB","wheelchair_boarding":2,"routes":[{"route_id":"19620","agency_id":"70006","route_short_name":"61","route_long_name":"Chambers Rd","route_type":3,"route_color":"#FFFFFF","route_text_color":"#000000"},{"route_id":"19625","agency_id":"70006","route_short_name":"76","route_long_name":"N Hanley Shuttle","route_type":3,"route_color":"#FFFFFF","route_text_color":"#000000"},{"route_id":"19626","agency_id":"70006","route_short_name":"77","route_long_name":"Village Square","route_type":3,"route_color":"#FFFFFF","route_text_color":"#000000"},{"route_id":"19635","agency_id":"70006","route_short_name":"100","route_long_name":"Hazelwood","route_type":3,"route_color":"#FFFFFF","route_text_color":"#000000"}],"agency_name":"Metro St. Louis"},"geometry":{"type":"Point","coordinates":[-90.33064,38.73465]}},{"type":"Feature","properties":{"stop_id":"16419","stop_code":"16419","stop_name":"PERSHALL @ NORTH HANLEY WB","stop_desc":"FAR SIDE PERSHALL @ NORTH HANLEY WB","wheelchair_boarding":2,"routes":[{"route_id":"19625","agency_id":"70006","route_short_name":"76","route_long_name":"N Hanley Shuttle","route_type":3,"route_color":"#FFFFFF","route_text_color":"#000000"},{"route_id":"19626","agency_id":"70006","route_short_name":"77","route_long_name":"Village Square","route_type":3,"route_color":"#FFFFFF","route_text_color":"#000000"}],"agency_name":"Metro St. Louis"},"geometry":{"type":"Point","coordinates":[-90.33714,38.77485]}},{"type":"Feature","properties":{"stop_id":"16518","stop_code":"16518","stop_name":"JONAS @ FLEISCHER SB","stop_desc":"NEAR SIDE JONAS @ FLEISCHER SB","wheelchair_boarding":1,"routes":[{"route_id":"19626","agency_id":"70006","route_short_name":"77","route_long_name":"Village Square","route_type":3,"route_color":"#FFFFFF","route_text_color":"#000000"}],"agency_name":"Metro St. Louis"},"geometry":{"type":"Point","coordinates":[-90.34019,38.75998]}},{"type":"Feature","properties":{"stop_id":"16537","stop_code":"16537","stop_name":"6201 PERSHALL SB","stop_desc":"MID-BLOCK 6201 PERSHALL SB","wheelchair_boarding":2,"routes":[{"route_id":"19626","agency_id":"70006","route_short_name":"77","route_long_name":"Village Square","route_type":3,"route_color":"#FFFFFF","route_text_color":"#000000"}],"agency_name":"Metro St. Louis"},"geometry":{"type":"Point","coordinates":[-90.36192,38.77345]}},{"type":"Feature","properties":{"stop_id":"3693","stop_code":"3693","stop_name":"PERSHALL @ METRO PLAZA EB","stop_desc":"MID-BLOCK PERSHALL @ METRO PLAZA EB","wheelchair_boarding":2,"routes":[{"route_id":"19611","agency_id":"70006","route_short_name":"40","route_long_name":"Broadway-Halls Ferry","route_type":3,"route_color":"#FFFFFF","route_text_color":"#000000"},{"route_id":"19619","agency_id":"70006","route_short_name":"60","route_long_name":"Shepley-Lilac","route_type":3,"route_color":"#FFFFFF","route_text_color":"#000000"},{"route_id":"19624","agency_id":"70006","route_short_name":"74","route_long_name":"Florissant","route_type":3,"route_color":"#FFFFFF","route_text_color":"#000000"},{"route_id":"19626","agency_id":"70006","route_short_name":"77","route_long_name":"Village Square","route_type":3,"route_color":"#FFFFFF","route_text_color":"#000000"},{"route_id":"19627","agency_id":"70006","route_short_name":"78","route_long_name":"Bellefontaine","route_type":3,"route_color":"#FFFFFF","route_text_color":"#000000"},{"route_id":"19628","agency_id":"70006","route_short_name":"79","route_long_name":"Ferguson-Clayton","route_type":3,"route_color":"#FFFFFF","route_text_color":"#000000"}],"agency_name":"Metro St. Louis"},"geometry":{"type":"Point","coordinates":[-90.27873,38.77001]}},{"type":"Feature","properties":{"stop_id":"5737","stop_code":"5737","stop_name":"LINDBERGH @ TAYLOR NB","stop_desc":"FAR SIDE LINDBERGH @ TAYLOR NB","wheelchair_boarding":1,"routes":[{"route_id":"19626","agency_id":"70006","route_short_name":"77","route_long_name":"Village Square","route_type":3,"route_color":"#FFFFFF","route_text_color":"#000000"}],"agency_name":"Metro St. Louis"},"geometry":{"type":"Point","coordinates":[-90.35659,38.78214]}},{"type":"Feature","properties":{"stop_id":"5738","stop_code":"5738","stop_name":"LINDBERGH @ ELM GROVE NB","stop_desc":"FAR SIDE LINDBERGH @ ELM GROVE NB","wheelchair_boarding":2,"routes":[{"route_id":"19626","agency_id":"70006","route_short_name":"77","route_long_name":"Village Square","route_type":3,"route_color":"#FFFFFF","route_text_color":"#000000"}],"agency_name":"Metro St. Louis"},"geometry":{"type":"Point","coordinates":[-90.3533,38.785]}},{"type":"Feature","properties":{"stop_id":"5740","stop_code":"5740","stop_name":"LINDBERGH @ STURBRIDGE VILLAGE NB","stop_desc":"FAR SIDE LINDBERGH @ STURBRIDGE VILLAGE NB","wheelchair_boarding":1,"routes":[{"route_id":"19626","agency_id":"70006","route_short_name":"77","route_long_name":"Village Square","route_type":3,"route_color":"#FFFFFF","route_text_color":"#000000"}],"agency_name":"Metro St. Louis"},"geometry":{"type":"Point","coordinates":[-90.35089,38.78663]}},{"type":"Feature","properties":{"stop_id":"5742","stop_code":"5742","stop_name":"LINDBERGH @ MATERDIE NB","stop_desc":"NEAR SIDE LINDBERGH @ MATERDIE NB","wheelchair_boarding":1,"routes":[{"route_id":"19626","agency_id":"70006","route_short_name":"77","route_long_name":"Village Square","route_type":3,"route_color":"#FFFFFF","route_text_color":"#000000"}],"agency_name":"Metro St. Louis"},"geometry":{"type":"Point","coordinates":[-90.34213,38.79368]}},{"type":"Feature","properties":{"stop_id":"5744","stop_code":"5744","stop_name":"LINDBERGH @ WASHINGTON NB","stop_desc":"NEAR SIDE LINDBERGH @ WASHINGTON NB","wheelchair_boarding":1,"routes":[{"route_id":"19626","agency_id":"70006","route_short_name":"77","route_long_name":"Village Square","route_type":3,"route_color":"#FFFFFF","route_text_color":"#000000"}],"agency_name":"Metro St. Louis"},"geometry":{"type":"Point","coordinates":[-90.33992,38.79568]}},{"type":"Feature","properties":{"stop_id":"5745","stop_code":"5745","stop_name":"546 NORTH LINDBERGH NB","stop_desc":"NEAR SIDE 546 NORTH LINDBERGH NB","wheelchair_boarding":2,"routes":[{"route_id":"19626","agency_id":"70006","route_short_name":"77","route_long_name":"Village Square","route_type":3,"route_color":"#FFFFFF","route_text_color":"#000000"}],"agency_name":"Metro St. Louis"},"geometry":{"type":"Point","coordinates":[-90.33737,38.79816]}},{"type":"Feature","properties":{"stop_id":"5749","stop_code":"5749","stop_name":"LINDBERGH @ SAINT JEAN EB","stop_desc":"FAR SIDE LINDBERGH @ SAINT JEAN EB","wheelchair_boarding":1,"routes":[{"route_id":"19625","agency_id":"70006","route_short_name":"76","route_long_name":"N Hanley Shuttle","route_type":3,"route_color":"#FFFFFF","route_text_color":"#000000"},{"route_id":"19626","agency_id":"70006","route_short_name":"77","route_long_name":"Village Square","route_type":3,"route_color":"#FFFFFF","route_text_color":"#000000"}],"agency_name":"Metro St. Louis"},"geometry":{"type":"Point","coordinates":[-90.32531,38.79863]}},{"type":"Feature","properties":{"stop_id":"5751","stop_code":"5751","stop_name":"LINDBERGH @ LAFAYETTE EB","stop_desc":"NEAR SIDE LINDBERGH @ LAFAYETTE EB","wheelchair_boarding":2,"routes":[{"route_id":"19625","agency_id":"70006","route_short_name":"76","route_long_name":"N Hanley Shuttle","route_type":3,"route_color":"#FFFFFF","route_text_color":"#000000"},{"route_id":"19626","agency_id":"70006","route_short_name":"77","route_long_name":"Village Square","route_type":3,"route_color":"#FFFFFF","route_text_color":"#000000"}],"agency_name":"Metro St. Louis"},"geometry":{"type":"Point","coordinates":[-90.32185,38.798]}},{"type":"Feature","properties":{"stop_id":"5752","stop_code":"5752","stop_name":"LINDBERGH @ BRIGHTWELL COURT EB","stop_desc":"FAR SIDE LINDBERGH @ BRIGHTWELL COURT EB","wheelchair_boarding":2,"routes":[{"route_id":"19625","agency_id":"70006","route_short_name":"76","route_long_name":"N Hanley Shuttle","route_type":3,"route_color":"#FFFFFF","route_text_color":"#000000"},{"route_id":"19626","agency_id":"70006","route_short_name":"77","route_long_name":"Village Square","route_type":3,"route_color":"#FFFFFF","route_text_color":"#000000"}],"agency_name":"Metro St. Louis"},"geometry":{"type":"Point","coordinates":[-90.31882,38.79847]}},{"type":"Feature","properties":{"stop_id":"5753","stop_code":"5753","stop_name":"LINDBERGH @ NEW FLORISSANT EB","stop_desc":"NEAR SIDE LINDBERGH @ NEW FLORISSANT EB","wheelchair_boarding":1,"routes":[{"route_id":"19625","agency_id":"70006","route_short_name":"76","route_long_name":"N Hanley Shuttle","route_type":3,"route_color":"#FFFFFF","route_text_color":"#000000"},{"route_id":"19626","agency_id":"70006","route_short_name":"77","route_long_name":"Village Square","route_type":3,"route_color":"#FFFFFF","route_text_color":"#000000"}],"agency_name":"Metro St. Louis"},"geometry":{"type":"Point","coordinates":[-90.31627,38.79982]}},{"type":"Feature","properties":{"stop_id":"5754","stop_code":"5754","stop_name":"LINDBERGH @ WATERFORD EB","stop_desc":"NEAR SIDE LINDBERGH @ WATERFORD EB","wheelchair_boarding":1,"routes":[{"route_id":"19626","agency_id":"70006","route_short_name":"77","route_long_name":"Village Square","route_type":3,"route_color":"#FFFFFF","route_text_color":"#000000"}],"agency_name":"Metro St. Louis"},"geometry":{"type":"Point","coordinates":[-90.31387,38.80112]}},{"type":"Feature","properties":{"stop_id":"5755","stop_code":"5755","stop_name":"2402 NORTH LINDBERGH EB","stop_desc":"MID-BLOCK 2402 NORTH LINDBERGH EB","wheelchair_boarding":1,"routes":[{"route_id":"19626","agency_id":"70006","route_short_name":"77","route_long_name":"Village Square","route_type":3,"route_color":"#FFFFFF","route_text_color":"#000000"}],"agency_name":"Metro St. Louis"},"geometry":{"type":"Point","coordinates":[-90.30851,38.804]}},{"type":"Feature","properties":{"stop_id":"5756","stop_code":"5756","stop_name":"LINDBERGH @ COUGAR EB","stop_desc":"NEAR SIDE LINDBERGH @ COUGAR EB","wheelchair_boarding":1,"routes":[{"route_id":"19626","agency_id":"70006","route_short_name":"77","route_long_name":"Village Square","route_type":3,"route_color":"#FFFFFF","route_text_color":"#000000"}],"agency_name":"Metro St. Louis"},"geometry":{"type":"Point","coordinates":[-90.30245,38.80726]}},{"type":"Feature","properties":{"stop_id":"5757","stop_code":"5757","stop_name":"LINDBERGH @ NEW HALLS FERRY RD EB","stop_desc":"NEAR SIDE LINDBERGH @ NEW HALLS FERRY RD EB","wheelchair_boarding":1,"routes":[{"route_id":"19626","agency_id":"70006","route_short_name":"77","route_long_name":"Village Square","route_type":3,"route_color":"#FFFFFF","route_text_color":"#000000"}],"agency_name":"Metro St. Louis"},"geometry":{"type":"Point","coordinates":[-90.30071,38.80816]}},{"type":"Feature","properties":{"stop_id":"6064","stop_code":"6064","stop_name":"NORTH HANLEY @ EVANS NB","stop_desc":"NEAR SIDE NORTH HANLEY @ EVANS NB","wheelchair_boarding":1,"routes":[{"route_id":"19620","agency_id":"70006","route_short_name":"61","route_long_name":"Chambers Rd","route_type":3,"route_color":"#FFFFFF","route_text_color":"#000000"},{"route_id":"19625","agency_id":"70006","route_short_name":"76","route_long_name":"N Hanley Shuttle","route_type":3,"route_color":"#FFFFFF","route_text_color":"#000000"},{"route_id":"19626","agency_id":"70006","route_short_name":"77","route_long_name":"Village Square","route_type":3,"route_color":"#FFFFFF","route_text_color":"#000000"},{"route_id":"19635","agency_id":"70006","route_short_name":"100","route_long_name":"Hazelwood","route_type":3,"route_color":"#FFFFFF","route_text_color":"#000000"}],"agency_name":"Metro St. Louis"},"geometry":{"type":"Point","coordinates":[-90.3168,38.72282]}},{"type":"Feature","properties":{"stop_id":"6067","stop_code":"6067","stop_name":"NORTH HANLEY @ ZEV NB","stop_desc":"FAR SIDE NORTH HANLEY @ ZEV NB","wheelchair_boarding":1,"routes":[{"route_id":"19620","agency_id":"70006","route_short_name":"61","route_long_name":"Chambers Rd","route_type":3,"route_color":"#FFFFFF","route_text_color":"#000000"},{"route_id":"19625","agency_id":"70006","route_short_name":"76","route_long_name":"N Hanley Shuttle","route_type":3,"route_color":"#FFFFFF","route_text_color":"#000000"},{"route_id":"19626","agency_id":"70006","route_short_name":"77","route_long_name":"Village Square","route_type":3,"route_color":"#FFFFFF","route_text_color":"#000000"},{"route_id":"19635","agency_id":"70006","route_short_name":"100","route_long_name":"Hazelwood","route_type":3,"route_color":"#FFFFFF","route_text_color":"#000000"}],"agency_name":"Metro St. Louis"},"geometry":{"type":"Point","coordinates":[-90.3216,38.72835]}},{"type":"Feature","properties":{"stop_id":"6068","stop_code":"6068","stop_name":"NORTH HANLEY @ REV JOHN MITCHELL NB","stop_desc":"NEAR SIDE NORTH HANLEY @ REV JOHN MITCHELL NB","wheelchair_boarding":1,"routes":[{"route_id":"19620","agency_id":"70006","route_short_name":"61","route_long_name":"Chambers Rd","route_type":3,"route_color":"#FFFFFF","route_text_color":"#000000"},{"route_id":"19625","agency_id":"70006","route_short_name":"76","route_long_name":"N Hanley Shuttle","route_type":3,"route_color":"#FFFFFF","route_text_color":"#000000"},{"route_id":"19626","agency_id":"70006","route_short_name":"77","route_long_name":"Village Square","route_type":3,"route_color":"#FFFFFF","route_text_color":"#000000"},{"route_id":"19635","agency_id":"70006","route_short_name":"100","route_long_name":"Hazelwood","route_type":3,"route_color":"#FFFFFF","route_text_color":"#000000"}],"agency_name":"Metro St. Louis"},"geometry":{"type":"Point","coordinates":[-90.32493,38.73034]}},{"type":"Feature","properties":{"stop_id":"6078","stop_code":"6078","stop_name":"NORTH HANLEY @ SCUDDER NB","stop_desc":"NEAR SIDE NORTH HANLEY @ SCUDDER NB","wheelchair_boarding":1,"routes":[{"route_id":"19620","agency_id":"70006","route_short_name":"61","route_long_name":"Chambers Rd","route_type":3,"route_color":"#FFFFFF","route_text_color":"#000000"},{"route_id":"19625","agency_id":"70006","route_short_name":"76","route_long_name":"N Hanley Shuttle","route_type":3,"route_color":"#FFFFFF","route_text_color":"#000000"},{"route_id":"19626","agency_id":"70006","route_short_name":"77","route_long_name":"Village Square","route_type":3,"route_color":"#FFFFFF","route_text_color":"#000000"},{"route_id":"19635","agency_id":"70006","route_short_name":"100","route_long_name":"Hazelwood","route_type":3,"route_color":"#FFFFFF","route_text_color":"#000000"}],"agency_name":"Metro St. Louis"},"geometry":{"type":"Point","coordinates":[-90.3346,38.74079]}},{"type":"Feature","properties":{"stop_id":"6079","stop_code":"6079","stop_name":"5860 NORTH HANLEY NB","stop_desc":"MID-BLOCK 5860 NORTH HANLEY NB","wheelchair_boarding":1,"routes":[{"route_id":"19620","agency_id":"70006","route_short_name":"61","route_long_name":"Chambers Rd","route_type":3,"route_color":"#FFFFFF","route_text_color":"#000000"},{"route_id":"19625","agency_id":"70006","route_short_name":"76","route_long_name":"N Hanley Shuttle","route_type":3,"route_color":"#FFFFFF","route_text_color":"#000000"},{"route_id":"19626","agency_id":"70006","route_short_name":"77","route_long_name":"Village Square","route_type":3,"route_color":"#FFFFFF","route_text_color":"#000000"},{"route_id":"19635","agency_id":"70006","route_short_name":"100","route_long_name":"Hazelwood","route_type":3,"route_color":"#FFFFFF","route_text_color":"#000000"}],"agency_name":"Metro St. Louis"},"geometry":{"type":"Point","coordinates":[-90.33463,38.74285]}},{"type":"Feature","properties":{"stop_id":"6080","stop_code":"6080","stop_name":"NORTH HANLEY @ 5TH AVENUE NB","stop_desc":"FAR SIDE NORTH HANLEY @ 5TH AVENUE NB","wheelchair_boarding":1,"routes":[{"route_id":"19620","agency_id":"70006","route_short_name":"61","route_long_name":"Chambers Rd","route_type":3,"route_color":"#FFFFFF","route_text_color":"#000000"},{"route_id":"19625","agency_id":"70006","route_short_name":"76","route_long_name":"N Hanley Shuttle","route_type":3,"route_color":"#FFFFFF","route_text_color":"#000000"},{"route_id":"19626","agency_id":"70006","route_short_name":"77","route_long_name":"Village Square","route_type":3,"route_color":"#FFFFFF","route_text_color":"#000000"},{"route_id":"19635","agency_id":"70006","route_short_name":"100","route_long_name":"Hazelwood","route_type":3,"route_color":"#FFFFFF","route_text_color":"#000000"}],"agency_name":"Metro St. Louis"},"geometry":{"type":"Point","coordinates":[-90.33468,38.74538]}},{"type":"Feature","properties":{"stop_id":"6082","stop_code":"6082","stop_name":"NORTH HANLEY @ JO COURT NB","stop_desc":"FAR SIDE NORTH HANLEY @ JO COURT NB","wheelchair_boarding":2,"routes":[{"route_id":"19625","agency_id":"70006","route_short_name":"76","route_long_name":"N Hanley Shuttle","route_type":3,"route_color":"#FFFFFF","route_text_color":"#000000"},{"route_id":"19626","agency_id":"70006","route_short_name":"77","route_long_name":"Village Square","route_type":3,"route_color":"#FFFFFF","route_text_color":"#000000"}],"agency_name":"Metro St. Louis"},"geometry":{"type":"Point","coordinates":[-90.33481,38.75325]}},{"type":"Feature","properties":{"stop_id":"6085","stop_code":"6085","stop_name":"NORTH HANLEY @ FRANCIOLA NB","stop_desc":"NEAR SIDE NORTH HANLEY @ FRANCIOLA NB","wheelchair_boarding":1,"routes":[{"route_id":"19625","agency_id":"70006","route_short_name":"76","route_long_name":"N Hanley Shuttle","route_type":3,"route_color":"#FFFFFF","route_text_color":"#000000"},{"route_id":"19626","agency_id":"70006","route_short_name":"77","route_long_name":"Village Square","route_type":3,"route_color":"#FFFFFF","route_text_color":"#000000"}],"agency_name":"Metro St. Louis"},"geometry":{"type":"Point","coordinates":[-90.33721,38.76086]}},{"type":"Feature","properties":{"stop_id":"6086","stop_code":"6086","stop_name":"FLEISCHER @ LHB INDUSTRIES WB","stop_desc":"MID-BLOCK FLEISCHER @ LHB INDUSTRIES WB","wheelchair_boarding":1,"routes":[{"route_id":"19626","agency_id":"70006","route_short_name":"77","route_long_name":"Village Square","route_type":3,"route_color":"#FFFFFF","route_text_color":"#000000"}],"agency_name":"Metro St. Louis"},"geometry":{"type":"Point","coordinates":[-90.34172,38.75872]}},{"type":"Feature","properties":{"stop_id":"6087","stop_code":"6087","stop_name":"NORTH HANLEY @ FROST NB","stop_desc":"FAR SIDE NORTH HANLEY @ FROST NB","wheelchair_boarding":1,"routes":[{"route_id":"19626","agency_id":"70006","route_short_name":"77","route_long_name":"Village Square","route_type":3,"route_color":"#FFFFFF","route_text_color":"#000000"}],"agency_name":"Metro St. Louis"},"geometry":{"type":"Point","coordinates":[-90.33672,38.76318]}},{"type":"Feature","properties":{"stop_id":"6089","stop_code":"6089","stop_name":"NORTH HANLEY @ LATTY NB","stop_desc":"NEAR SIDE NORTH HANLEY @ LATTY NB","wheelchair_boarding":2,"routes":[{"route_id":"19626","agency_id":"70006","route_short_name":"77","route_long_name":"Village Square","route_type":3,"route_color":"#FFFFFF","route_text_color":"#000000"}],"agency_name":"Metro St. Louis"},"geometry":{"type":"Point","coordinates":[-90.33596,38.7668]}},{"type":"Feature","properties":{"stop_id":"6091","stop_code":"6091","stop_name":"NORTH HANLEY @ BRITTANY TOWN NB","stop_desc":"NEAR SIDE NORTH HANLEY @ BRITTANY TOWN NB","wheelchair_boarding":2,"routes":[{"route_id":"19626","agency_id":"70006","route_short_name":"77","route_long_name":"Village Square","route_type":3,"route_color":"#FFFFFF","route_text_color":"#000000"}],"agency_name":"Metro St. Louis"},"geometry":{"type":"Point","coordinates":[-90.33528,38.77027]}},{"type":"Feature","properties":{"stop_id":"6092","stop_code":"6092","stop_name":"NORTH HANLEY @ SANTA BELLA NB","stop_desc":"FAR SIDE NORTH HANLEY @ SANTA BELLA NB","wheelchair_boarding":2,"routes":[{"route_id":"19626","agency_id":"70006","route_short_name":"77","route_long_name":"Village Square","route_type":3,"route_color":"#FFFFFF","route_text_color":"#000000"}],"agency_name":"Metro St. Louis"},"geometry":{"type":"Point","coordinates":[-90.33509,38.77305]}},{"type":"Feature","properties":{"stop_id":"6106","stop_code":"6106","stop_name":"LINDBERGH @ PATTERSON EB","stop_desc":"FAR SIDE LINDBERGH @ PATTERSON EB","wheelchair_boarding":1,"routes":[{"route_id":"19626","agency_id":"70006","route_short_name":"77","route_long_name":"Village Square","route_type":3,"route_color":"#FFFFFF","route_text_color":"#000000"}],"agency_name":"Metro St. Louis"},"geometry":{"type":"Point","coordinates":[-90.33263,38.80001]}},{"type":"Feature","properties":{"stop_id":"6486","stop_code":"6486","stop_name":"NEW HALLS FERRY @ LINDBERGH SB","stop_desc":"FAR SIDE NEW HALLS FERRY @ LINDBERGH SB","wheelchair_boarding":1,"routes":[{"route_id":"19626","agency_id":"70006","route_short_name":"77","route_long_name":"Village Square","route_type":3,"route_color":"#FFFFFF","route_text_color":"#000000"}],"agency_name":"Metro St. Louis"},"geometry":{"type":"Point","coordinates":[-90.29869,38.80861]}},{"type":"Feature","properties":{"stop_id":"6487","stop_code":"6487","stop_name":"NEW HALLS FERRY @ LEISUREWOOD COURT SB","stop_desc":"FAR SIDE NEW HALLS FERRY @ LEISUREWOOD COURT SB","wheelchair_boarding":1,"routes":[{"route_id":"19626","agency_id":"70006","route_short_name":"77","route_long_name":"Village Square","route_type":3,"route_color":"#FFFFFF","route_text_color":"#000000"}],"agency_name":"Metro St. Louis"},"geometry":{"type":"Point","coordinates":[-90.29662,38.8054]}},{"type":"Feature","properties":{"stop_id":"6488","stop_code":"6488","stop_name":"NEW HALLS FERRY @ SANTIAGO SB","stop_desc":"FAR SIDE NEW HALLS FERRY @ SANTIAGO SB","wheelchair_boarding":1,"routes":[{"route_id":"19626","agency_id":"70006","route_short_name":"77","route_long_name":"Village Square","route_type":3,"route_color":"#FFFFFF","route_text_color":"#000000"}],"agency_name":"Metro St. Louis"},"geometry":{"type":"Point","coordinates":[-90.29544,38.80361]}},{"type":"Feature","properties":{"stop_id":"6490","stop_code":"6490","stop_name":"NEW HALLS FERRY @ MOHAN SB","stop_desc":"FAR SIDE NEW HALLS FERRY @ MOHAN SB","wheelchair_boarding":1,"routes":[{"route_id":"19626","agency_id":"70006","route_short_name":"77","route_long_name":"Village Square","route_type":3,"route_color":"#FFFFFF","route_text_color":"#000000"}],"agency_name":"Metro St. Louis"},"geometry":{"type":"Point","coordinates":[-90.29389,38.80121]}},{"type":"Feature","properties":{"stop_id":"6491","stop_code":"6491","stop_name":"NEW HALLS FERRY @ THOROUGHBRED SB","stop_desc":"FAR SIDE NEW HALLS FERRY @ THOROUGHBRED SB","wheelchair_boarding":1,"routes":[{"route_id":"19626","agency_id":"70006","route_short_name":"77","route_long_name":"Village Square","route_type":3,"route_color":"#FFFFFF","route_text_color":"#000000"}],"agency_name":"Metro St. Louis"},"geometry":{"type":"Point","coordinates":[-90.2922,38.79857]}},{"type":"Feature","properties":{"stop_id":"6493","stop_code":"6493","stop_name":"NEW HALLS FERRY @ PARKER SPUR SB","stop_desc":"FAR SIDE NEW HALLS FERRY @ PARKER SPUR SB","wheelchair_boarding":2,"routes":[{"route_id":"19626","agency_id":"70006","route_short_name":"77","route_long_name":"Village Square","route_type":3,"route_color":"#FFFFFF","route_text_color":"#000000"}],"agency_name":"Metro St. Louis"},"geometry":{"type":"Point","coordinates":[-90.28939,38.79513]}},{"type":"Feature","properties":{"stop_id":"6494","stop_code":"6494","stop_name":"NEW HALLS FERRY @ PARKER SB","stop_desc":"FAR SIDE NEW HALLS FERRY @ PARKER SB","wheelchair_boarding":1,"routes":[{"route_id":"19626","agency_id":"70006","route_short_name":"77","route_long_name":"Village Square","route_type":3,"route_color":"#FFFFFF","route_text_color":"#000000"}],"agency_name":"Metro St. Louis"},"geometry":{"type":"Point","coordinates":[-90.28705,38.79297]}},{"type":"Feature","properties":{"stop_id":"6495","stop_code":"6495","stop_name":"12757 NEW HALLS FERRY SB","stop_desc":"MID-BLOCK 12757 NEW HALLS FERRY SB","wheelchair_boarding":1,"routes":[{"route_id":"19626","agency_id":"70006","route_short_name":"77","route_long_name":"Village Square","route_type":3,"route_color":"#FFFFFF","route_text_color":"#000000"}],"agency_name":"Metro St. Louis"},"geometry":{"type":"Point","coordinates":[-90.2845,38.79062]}},{"type":"Feature","properties":{"stop_id":"6496","stop_code":"6496","stop_name":"NEW HALLS FERRY @ GREENGRASS SB","stop_desc":"NEAR SIDE NEW HALLS FERRY @ GREENGRASS SB","wheelchair_boarding":2,"routes":[{"route_id":"19626","agency_id":"70006","route_short_name":"77","route_long_name":"Village Square","route_type":3,"route_color":"#FFFFFF","route_text_color":"#000000"}],"agency_name":"Metro St. Louis"},"geometry":{"type":"Point","coordinates":[-90.2812,38.78755]}},{"type":"Feature","properties":{"stop_id":"6497","stop_code":"6497","stop_name":"NEW HALLS FERRY @ HELMKAMPF SB","stop_desc":"FAR SIDE NEW HALLS FERRY @ HELMKAMPF SB","wheelchair_boarding":2,"routes":[{"route_id":"19626","agency_id":"70006","route_short_name":"77","route_long_name":"Village Square","route_type":3,"route_color":"#FFFFFF","route_text_color":"#000000"}],"agency_name":"Metro St. Louis"},"geometry":{"type":"Point","coordinates":[-90.27942,38.78546]}},{"type":"Feature","properties":{"stop_id":"6498","stop_code":"6498","stop_name":"NEW HALLS FERRY @ POHLMAN SB","stop_desc":"FAR SIDE NEW HALLS FERRY @ POHLMAN SB","wheelchair_boarding":2,"routes":[{"route_id":"19626","agency_id":"70006","route_short_name":"77","route_long_name":"Village Square","route_type":3,"route_color":"#FFFFFF","route_text_color":"#000000"}],"agency_name":"Metro St. Louis"},"geometry":{"type":"Point","coordinates":[-90.27924,38.78325]}}]}