{"type":"FeatureCollection","features":[{"type":"Feature","properties":{"agency_name":"Metro St. Louis","route_id":"19630","agency_id":"70006","route_short_name":"91","route_long_name":"Olive","route_type":3,"route_color":"#FFFFFF","route_text_color":"#000000"},"geometry":{"type":"MultiLineString","coordinates":[[[-90.29469,38.65495],[-90.29496,38.65543],[-90.29469,38.65495],[-90.29601,38.65508],[-90.29604,38.65541],[-90.29608,38.65562],[-90.29615,38.65583],[-90.29636,38.65604],[-90.29654,38.65616],[-90.29673,38.65626],[-90.29703,38.65636],[-90.29753,38.65643],[-90.29949,38.65661],[-90.29941,38.65719],[-90.29934,38.65751],[-90.29926,38.6578],[-90.29909,38.6582],[-90.299,38.65839],[-90.29868,38.6589],[-90.29853,38.65898],[-90.29844,38.65911],[-90.29835,38.65927],[-90.29802,38.66005],[-90.29788,38.66034],[-90.29773,38.66056],[-90.29787,38.66063],[-90.29852,38.66086],[-90.30152,38.6619],[-90.30338,38.66257],[-90.30357,38.66262],[-90.30425,38.66271],[-90.31168,38.66344],[-90.31194,38.66349],[-90.31245,38.66364],[-90.31287,38.66385],[-90.31616,38.66586],[-90.31753,38.66672],[-90.31865,38.66745],[-90.31906,38.66773],[-90.32029,38.66869],[-90.32118,38.66944],[-90.32155,38.66967],[-90.32201,38.66991],[-90.32361,38.6705],[-90.3251,38.67101],[-90.32533,38.67107],[-90.32559,38.67111],[-90.32611,38.67116],[-90.32933,38.67135],[-90.3304,38.67145],[-90.33246,38.67176],[-90.33498,38.67207],[-90.33548,38.67211],[-90.33743,38.67234],[-90.34545,38.67334],[-90.34725,38.67354],[-90.35505,38.67405],[-90.35771,38.67409],[-90.36185,38.6741],[-90.36248,38.67409],[-90.36446,38.67411],[-90.36893,38.67409],[-90.37241,38.67409],[-90.37523,38.67412],[-90.38482,38.6741],[-90.38544,38.67408],[-90.3859,38.67402],[-90.38661,38.67386],[-90.39101,38.67277],[-90.39135,38.6727],[-90.39198,38.67263],[-90.39334,38.67255],[-90.39361,38.67256],[-90.39424,38.67263],[-90.39452,38.67268],[-90.39482,38.67271],[-90.39496,38.67277],[-90.39512,38.6728],[-90.39677,38.67301],[-90.39834,38.67313],[-90.39898,38.67315],[-90.40475,38.67323],[-90.41214,38.67332],[-90.41265,38.67334],[-90.41296,38.67334],[-90.41316,38.67332],[-90.41336,38.67328],[-90.4149,38.67326],[-90.41733,38.6732],[-90.41772,38.67317],[-90.41825,38.6731],[-90.41894,38.67295],[-90.41936,38.67291],[-90.41962,38.67291],[-90.41995,38.67294],[-90.42014,38.67298],[-90.42264,38.67356],[-90.42291,38.6736],[-90.42354,38.67365],[-90.4243,38.67367],[-90.42474,38.67363],[-90.42498,38.67358],[-90.42517,38.67352],[-90.42567,38.67332],[-90.42961,38.67153],[-90.43015,38.67132],[-90.43052,38.67124],[-90.43095,38.6712],[-90.43412,38.6712],[-90.43463,38.67123],[-90.43542,38.67131],[-90.43618,38.67136],[-90.43675,38.67136],[-90.43735,38.67128],[-90.44102,38.67052],[-90.44153,38.67045],[-90.44182,38.67044],[-90.44224,38.67048],[-90.44325,38.67063],[-90.44402,38.6708],[-90.44454,38.67093],[-90.44717,38.6717],[-90.45077,38.67249],[-90.45341,38.67295],[-90.45879,38.67392],[-90.45908,38.67401],[-90.45939,38.67413],[-90.46091,38.67477],[-90.46211,38.6753],[-90.46597,38.67695],[-90.4688,38.67818],[-90.46993,38.67864],[-90.4734,38.68032],[-90.47372,38.68043],[-90.47517,38.68074],[-90.47598,38.68093],[-90.47697,38.68119],[-90.47791,38.68152],[-90.47868,38.68184],[-90.47965,38.68227],[-90.48015,38.68245],[-90.48051,38.68254],[-90.48134,38.68267],[-90.48178,38.68271],[-90.48224,38.68272],[-90.48255,38.68271],[-90.48661,38.68235],[-90.48761,38.68227],[-90.48894,38.68219],[-90.49018,38.68206],[-90.49072,38.68197],[-90.49183,38.68171],[-90.4924,38.68153],[-90.49489,38.68064],[-90.49606,38.68036],[-90.49657,38.68027],[-90.49802,38.68007],[-90.50082,38.67977],[-90.50131,38.67974],[-90.50163,38.67974],[-90.50227,38.67978],[-90.50271,38.67983],[-90.50791,38.68059],[-90.50882,38.68071],[-90.50989,38.68082],[-90.51288,38.68108],[-90.51418,38.68117],[-90.51448,38.68117],[-90.51525,38.68112],[-90.51584,38.68101],[-90.51602,38.68096],[-90.51627,38.68089],[-90.51686,38.68067],[-90.52137,38.6787],[-90.5222,38.67836],[-90.52262,38.67821],[-90.52303,38.67808],[-90.52376,38.67789],[-90.52775,38.67688],[-90.52821,38.67675],[-90.52852,38.67664],[-90.5291,38.67638],[-90.52936,38.67624],[-90.5311,38.67519],[-90.532,38.6746],[-90.53247,38.67419],[-90.53277,38.67385],[-90.53312,38.67329],[-90.53324,38.67301],[-90.53336,38.67263],[-90.5338,38.6711],[-90.53403,38.67058],[-90.53431,38.67004],[-90.53454,38.66967],[-90.53504,38.66901],[-90.53525,38.66877],[-90.53573,38.66828],[-90.53615,38.6679],[-90.53801,38.66639],[-90.542,38.66321],[-90.54247,38.66288],[-90.54276,38.66271],[-90.54335,38.6624],[-90.54849,38.65988],[-90.55246,38.65788],[-90.55292,38.65764],[-90.55403,38.65695],[-90.55432,38.65731],[-90.55443,38.65751],[-90.55455,38.65782],[-90.55461,38.65804],[-90.55464,38.65821],[-90.55464,38.65846],[-90.55458,38.65895],[-90.55457,38.65929],[-90.55463,38.65971],[-90.55473,38.66002],[-90.55513,38.6607],[-90.5553,38.66088],[-90.55584,38.66128],[-90.55607,38.6614],[-90.55666,38.66163],[-90.55962,38.66256],[-90.5601,38.6627],[-90.56053,38.66278],[-90.56086,38.66282],[-90.56122,38.66283],[-90.56151,38.66282],[-90.56179,38.66279],[-90.5622,38.66271],[-90.56262,38.66258],[-90.56276,38.66245],[-90.56289,38.66266],[-90.56306,38.66281],[-90.56327,38.6629],[-90.56394,38.66311],[-90.56414,38.66321],[-90.56431,38.66334],[-90.56426,38.66341],[-90.56428,38.6635],[-90.56434,38.66356],[-90.56455,38.66356],[-90.56459,38.66352],[-90.56462,38.66344],[-90.56459,38.66335],[-90.56479,38.66324],[-90.56522,38.66308],[-90.56541,38.66298],[-90.56558,38.66286]],[[-90.46907,38.67797],[-90.46768,38.67769],[-90.46907,38.67797],[-90.46946,38.67766],[-90.46965,38.67743],[-90.47025,38.6777],[-90.47181,38.67851]]]}},{"type":"Feature","properties":{"stop_id":"14133","stop_code":"14133","stop_name":"SWINGLEY RIDGE @ CHESTERFIELD CITY HALL SB","stop_desc":"MID-BLOCK SWINGLEY RIDGE @ CHESTERFIELD CITY HALL SB","wheelchair_boarding":1,"routes":[{"route_id":"19630","agency_id":"70006","route_short_name":"91","route_long_name":"Olive","route_type":3,"route_color":"#FFFFFF","route_text_color":"#000000"}],"agency_name":"Metro St. Louis"},"geometry":{"type":"Point","coordinates":[-90.56556,38.66224]}},{"type":"Feature","properties":{"stop_id":"14801","stop_code":"14801","stop_name":"CHESTERFIELD PARKWAY @ FOREST TRACE WB","stop_desc":"FAR SIDE CHESTERFIELD PARKWAY @ FOREST TRACE WB","wheelchair_boarding":2,"routes":[{"route_id":"19630","agency_id":"70006","route_short_name":"91","route_long_name":"Olive","route_type":3,"route_color":"#FFFFFF","route_text_color":"#000000"}],"agency_name":"Metro St. Louis"},"geometry":{"type":"Point","coordinates":[-90.55728,38.66183]}},{"type":"Feature","properties":{"stop_id":"14828","stop_code":"14828","stop_name":"CHESTERFIELD PARKWAY @ HILLTOWN VILLAGE CENTER  NB","stop_desc":"FAR SIDE CHESTERFIELD PARKWAY @ HILLTOWN VILLAGE CENTER  NB","wheelchair_boarding":2,"routes":[{"route_id":"19630","agency_id":"70006","route_short_name":"91","route_long_name":"Olive","route_type":3,"route_color":"#FFFFFF","route_text_color":"#000000"}],"agency_name":"Metro St. Louis"},"geometry":{"type":"Point","coordinates":[-90.55505,38.6607]}},{"type":"Feature","properties":{"stop_id":"15051","stop_code":"15051","stop_name":"ENRIGHT @ ROSEDALE WB","stop_desc":"FAR SIDE ENRIGHT @ ROSEDALE WB","wheelchair_boarding":2,"routes":[{"route_id":"19593","agency_id":"70006","route_short_name":"2","route_long_name":"Red","route_type":3,"route_color":"#FFFFFF","route_text_color":"#000000"},{"route_id":"19601","agency_id":"70006","route_short_name":"16","route_long_name":"City Limits","route_type":3,"route_color":"#FFFFFF","route_text_color":"#000000"},{"route_id":"19630","agency_id":"70006","route_short_name":"91","route_long_name":"Olive","route_type":3,"route_color":"#FFFFFF","route_text_color":"#000000"}],"agency_name":"Metro St. Louis"},"geometry":{"type":"Point","coordinates":[-90.29733,38.65645]}},{"type":"Feature","properties":{"stop_id":"15183","stop_code":"15183","stop_name":"SKINKER @ VERNON NB","stop_desc":"NEAR SIDE SKINKER @ VERNON NB","wheelchair_boarding":1,"routes":[{"route_id":"19601","agency_id":"70006","route_short_name":"16","route_long_name":"City Limits","route_type":3,"route_color":"#FFFFFF","route_text_color":"#000000"},{"route_id":"19630","agency_id":"70006","route_short_name":"91","route_long_name":"Olive","route_type":3,"route_color":"#FFFFFF","route_text_color":"#000000"}],"agency_name":"Metro St. Louis"},"geometry":{"type":"Point","coordinates":[-90.29901,38.65818]}},{"type":"Feature","properties":{"stop_id":"15184","stop_code":"15184","stop_name":"OLIVE @ HAYS WB","stop_desc":"FAR SIDE OLIVE @ HAYS WB","wheelchair_boarding":2,"routes":[{"route_id":"19630","agency_id":"70006","route_short_name":"91","route_long_name":"Olive","route_type":3,"route_color":"#FFFFFF","route_text_color":"#000000"}],"agency_name":"Metro St. Louis"},"geometry":{"type":"Point","coordinates":[-90.29896,38.66112]}},{"type":"Feature","properties":{"stop_id":"15185","stop_code":"15185","stop_name":"OLIVE @ PARK INDUSTRIAL WB","stop_desc":"NEAR SIDE OLIVE @ PARK INDUSTRIAL WB","wheelchair_boarding":2,"routes":[{"route_id":"19630","agency_id":"70006","route_short_name":"91","route_long_name":"Olive","route_type":3,"route_color":"#FFFFFF","route_text_color":"#000000"}],"agency_name":"Metro St. Louis"},"geometry":{"type":"Point","coordinates":[-90.3005,38.66164]}},{"type":"Feature","properties":{"stop_id":"15186","stop_code":"15186","stop_name":"OLIVE @ SUTTER WB","stop_desc":"NEAR SIDE OLIVE @ SUTTER WB","wheelchair_boarding":2,"routes":[{"route_id":"19630","agency_id":"70006","route_short_name":"91","route_long_name":"Olive","route_type":3,"route_color":"#FFFFFF","route_text_color":"#000000"}],"agency_name":"Metro St. Louis"},"geometry":{"type":"Point","coordinates":[-90.30229,38.66226]}},{"type":"Feature","properties":{"stop_id":"15187","stop_code":"15187","stop_name":"OLIVE @ 66TH STREET WB","stop_desc":"FAR SIDE OLIVE @ 66TH STREET WB","wheelchair_boarding":2,"routes":[{"route_id":"19630","agency_id":"70006","route_short_name":"91","route_long_name":"Olive","route_type":3,"route_color":"#FFFFFF","route_text_color":"#000000"}],"agency_name":"Metro St. Louis"},"geometry":{"type":"Point","coordinates":[-90.30447,38.6628]}},{"type":"Feature","properties":{"stop_id":"15493","stop_code":"15493","stop_name":"OLIVE @ FERGUSON WB","stop_desc":"MID-BLOCK OLIVE @ FERGUSON WB","wheelchair_boarding":2,"routes":[{"route_id":"19593","agency_id":"70006","route_short_name":"2","route_long_name":"Red","route_type":3,"route_color":"#FFFFFF","route_text_color":"#000000"},{"route_id":"19630","agency_id":"70006","route_short_name":"91","route_long_name":"Olive","route_type":3,"route_color":"#FFFFFF","route_text_color":"#000000"}],"agency_name":"Metro St. Louis"},"geometry":{"type":"Point","coordinates":[-90.31184,38.66356]}},{"type":"Feature","properties":{"stop_id":"15515","stop_code":"15515","stop_name":"OLIVE @ OLD OLIVE STREET WB","stop_desc":"NEAR SIDE OLIVE @ OLD OLIVE STREET WB","wheelchair_boarding":2,"routes":[{"route_id":"19614","agency_id":"70006","route_short_name":"49","route_long_name":"Lindbergh","route_type":3,"route_color":"#FFFFFF","route_text_color":"#000000"},{"route_id":"19630","agency_id":"70006","route_short_name":"91","route_long_name":"Olive","route_type":3,"route_color":"#FFFFFF","route_text_color":"#000000"}],"agency_name":"Metro St. Louis"},"geometry":{"type":"Point","coordinates":[-90.41183,38.67336]}},{"type":"Feature","properties":{"stop_id":"16104","stop_code":"16104","stop_name":"OLIVE @ WOODLAND POINT WB","stop_desc":"FAR SIDE OLIVE @ WOODLAND POINT WB","wheelchair_boarding":2,"routes":[{"route_id":"19630","agency_id":"70006","route_short_name":"91","route_long_name":"Olive","route_type":3,"route_color":"#FFFFFF","route_text_color":"#000000"}],"agency_name":"Metro St. Louis"},"geometry":{"type":"Point","coordinates":[-90.4861,38.68253]}},{"type":"Feature","properties":{"stop_id":"16142","stop_code":"16142","stop_name":"6901 OLIVE WB","stop_desc":"MID-BLOCK 6901 OLIVE WB","wheelchair_boarding":1,"routes":[{"route_id":"19593","agency_id":"70006","route_short_name":"2","route_long_name":"Red","route_type":3,"route_color":"#FFFFFF","route_text_color":"#000000"},{"route_id":"19630","agency_id":"70006","route_short_name":"91","route_long_name":"Olive","route_type":3,"route_color":"#FFFFFF","route_text_color":"#000000"}],"agency_name":"Metro St. Louis"},"geometry":{"type":"Point","coordinates":[-90.31376,38.66445]}},{"type":"Feature","properties":{"stop_id":"16155","stop_code":"16155","stop_name":"OLIVE @ SUNBRIDGE WB","stop_desc":"FAR SIDE OLIVE @ SUNBRIDGE WB","wheelchair_boarding":2,"routes":[{"route_id":"19630","agency_id":"70006","route_short_name":"91","route_long_name":"Olive","route_type":3,"route_color":"#FFFFFF","route_text_color":"#000000"}],"agency_name":"Metro St. Louis"},"geometry":{"type":"Point","coordinates":[-90.51556,38.68114]}},{"type":"Feature","properties":{"stop_id":"2097","stop_code":"2097","stop_name":"DELMAR LOOP TRANSIT CENTER EB","wheelchair_boarding":1,"routes":[{"route_id":"19593","agency_id":"70006","route_short_name":"2","route_long_name":"Red","route_type":3,"route_color":"#FFFFFF","route_text_color":"#000000"},{"route_id":"19601","agency_id":"70006","route_short_name":"16","route_long_name":"City Limits","route_type":3,"route_color":"#FFFFFF","route_text_color":"#000000"},{"route_id":"19630","agency_id":"70006","route_short_name":"91","route_long_name":"Olive","route_type":3,"route_color":"#FFFFFF","route_text_color":"#000000"},{"route_id":"19633","agency_id":"70006","route_short_name":"97","route_long_name":"Delmar","route_type":3,"route_color":"#FFFFFF","route_text_color":"#000000"}],"agency_name":"Metro St. Louis"},"geometry":{"type":"Point","coordinates":[-90.29527,38.65562]}},{"type":"Feature","properties":{"stop_id":"2977","stop_code":"2977","stop_name":"OLIVE @ MIDLAND WB","stop_desc":"FAR SIDE OLIVE @ MIDLAND WB","wheelchair_boarding":1,"routes":[{"route_id":"19630","agency_id":"70006","route_short_name":"91","route_long_name":"Olive","route_type":3,"route_color":"#FFFFFF","route_text_color":"#000000"}],"agency_name":"Metro St. Louis"},"geometry":{"type":"Point","coordinates":[-90.32685,38.67131]}},{"type":"Feature","properties":{"stop_id":"2978","stop_code":"2978","stop_name":"OLIVE @ MOUNT VERNON WB","stop_desc":"NEAR SIDE OLIVE @ MOUNT VERNON WB","wheelchair_boarding":1,"routes":[{"route_id":"19630","agency_id":"70006","route_short_name":"91","route_long_name":"Olive","route_type":3,"route_color":"#FFFFFF","route_text_color":"#000000"}],"agency_name":"Metro St. Louis"},"geometry":{"type":"Point","coordinates":[-90.32915,38.67142]}},{"type":"Feature","properties":{"stop_id":"2979","stop_code":"2979","stop_name":"OLIVE @ HANLEY WB","stop_desc":"FAR SIDE OLIVE @ HANLEY WB","wheelchair_boarding":1,"routes":[{"route_id":"19630","agency_id":"70006","route_short_name":"91","route_long_name":"Olive","route_type":3,"route_color":"#FFFFFF","route_text_color":"#000000"}],"agency_name":"Metro St. Louis"},"geometry":{"type":"Point","coordinates":[-90.332,38.67181]}},{"type":"Feature","properties":{"stop_id":"2980","stop_code":"2980","stop_name":"7575 OLIVE WB","stop_desc":"MID-BLOCK 7575 OLIVE WB","wheelchair_boarding":1,"routes":[{"route_id":"19630","agency_id":"70006","route_short_name":"91","route_long_name":"Olive","route_type":3,"route_color":"#FFFFFF","route_text_color":"#000000"}],"agency_name":"Metro St. Louis"},"geometry":{"type":"Point","coordinates":[-90.33488,38.67209]}},{"type":"Feature","properties":{"stop_id":"2981","stop_code":"2981","stop_name":"OLIVE @ NORTH AND SOUTH WB","stop_desc":"FAR SIDE OLIVE @ NORTH AND SOUTH WB","wheelchair_boarding":1,"routes":[{"route_id":"19630","agency_id":"70006","route_short_name":"91","route_long_name":"Olive","route_type":3,"route_color":"#FFFFFF","route_text_color":"#000000"}],"agency_name":"Metro St. Louis"},"geometry":{"type":"Point","coordinates":[-90.33703,38.67238]}},{"type":"Feature","properties":{"stop_id":"2982","stop_code":"2982","stop_name":"OLIVE @ MOUNT OLIVE WB","stop_desc":"FAR SIDE OLIVE @ MOUNT OLIVE WB","wheelchair_boarding":1,"routes":[{"route_id":"19630","agency_id":"70006","route_short_name":"91","route_long_name":"Olive","route_type":3,"route_color":"#FFFFFF","route_text_color":"#000000"}],"agency_name":"Metro St. Louis"},"geometry":{"type":"Point","coordinates":[-90.33878,38.67257]}},{"type":"Feature","properties":{"stop_id":"2983","stop_code":"2983","stop_name":"OLIVE @ FAIRVIEW WB","stop_desc":"NEAR SIDE OLIVE @ FAIRVIEW WB","wheelchair_boarding":1,"routes":[{"route_id":"19630","agency_id":"70006","route_short_name":"91","route_long_name":"Olive","route_type":3,"route_color":"#FFFFFF","route_text_color":"#000000"}],"agency_name":"Metro St. Louis"},"geometry":{"type":"Point","coordinates":[-90.34065,38.67282]}},{"type":"Feature","properties":{"stop_id":"2984","stop_code":"2984","stop_name":"8021 OLIVE WB","stop_desc":"MID-BLOCK 8021 OLIVE WB","wheelchair_boarding":1,"routes":[{"route_id":"19630","agency_id":"70006","route_short_name":"91","route_long_name":"Olive","route_type":3,"route_color":"#FFFFFF","route_text_color":"#000000"}],"agency_name":"Metro St. Louis"},"geometry":{"type":"Point","coordinates":[-90.34366,38.67317]}},{"type":"Feature","properties":{"stop_id":"2985","stop_code":"2985","stop_name":"OLIVE @ HAFNER PLACE WB","stop_desc":"FAR SIDE OLIVE @ HAFNER PLACE WB","wheelchair_boarding":2,"routes":[{"route_id":"19630","agency_id":"70006","route_short_name":"91","route_long_name":"Olive","route_type":3,"route_color":"#FFFFFF","route_text_color":"#000000"}],"agency_name":"Metro St. Louis"},"geometry":{"type":"Point","coordinates":[-90.34623,38.67349]}},{"type":"Feature","properties":{"stop_id":"2987","stop_code":"2987","stop_name":"OLIVE @ 82ND STREET WB","stop_desc":"FAR SIDE OLIVE @ 82ND STREET WB","wheelchair_boarding":1,"routes":[{"route_id":"19630","agency_id":"70006","route_short_name":"91","route_long_name":"Olive","route_type":3,"route_color":"#FFFFFF","route_text_color":"#000000"}],"agency_name":"Metro St. Louis"},"geometry":{"type":"Point","coordinates":[-90.34932,38.67378]}},{"type":"Feature","properties":{"stop_id":"2989","stop_code":"2989","stop_name":"8341 OLIVE WB","stop_desc":"MID-BLOCK 8341 OLIVE WB","wheelchair_boarding":2,"routes":[{"route_id":"19630","agency_id":"70006","route_short_name":"91","route_long_name":"Olive","route_type":3,"route_color":"#FFFFFF","route_text_color":"#000000"}],"agency_name":"Metro St. Louis"},"geometry":{"type":"Point","coordinates":[-90.35192,38.67392]}},{"type":"Feature","properties":{"stop_id":"2992","stop_code":"2992","stop_name":"OLIVE @ WOODSON WB","stop_desc":"FAR SIDE OLIVE @ WOODSON WB","wheelchair_boarding":1,"routes":[{"route_id":"19630","agency_id":"70006","route_short_name":"91","route_long_name":"Olive","route_type":3,"route_color":"#FFFFFF","route_text_color":"#000000"}],"agency_name":"Metro St. Louis"},"geometry":{"type":"Point","coordinates":[-90.35706,38.6742]}},{"type":"Feature","properties":{"stop_id":"2994","stop_code":"2994","stop_name":"8675 OLIVE WB","stop_desc":"MID-BLOCK 8675 OLIVE WB","wheelchair_boarding":1,"routes":[{"route_id":"19630","agency_id":"70006","route_short_name":"91","route_long_name":"Olive","route_type":3,"route_color":"#FFFFFF","route_text_color":"#000000"}],"agency_name":"Metro St. Louis"},"geometry":{"type":"Point","coordinates":[-90.35971,38.67419]}},{"type":"Feature","properties":{"stop_id":"2996","stop_code":"2996","stop_name":"OLIVE @ HILLTOP WB","stop_desc":"NEAR SIDE OLIVE @ HILLTOP WB","wheelchair_boarding":1,"routes":[{"route_id":"19630","agency_id":"70006","route_short_name":"91","route_long_name":"Olive","route_type":3,"route_color":"#FFFFFF","route_text_color":"#000000"}],"agency_name":"Metro St. Louis"},"geometry":{"type":"Point","coordinates":[-90.36409,38.67424]}},{"type":"Feature","properties":{"stop_id":"2997","stop_code":"2997","stop_name":"OLIVE @ PRICE WB","stop_desc":"NEAR SIDE OLIVE @ PRICE WB","wheelchair_boarding":1,"routes":[{"route_id":"19630","agency_id":"70006","route_short_name":"91","route_long_name":"Olive","route_type":3,"route_color":"#FFFFFF","route_text_color":"#000000"}],"agency_name":"Metro St. Louis"},"geometry":{"type":"Point","coordinates":[-90.36646,38.67421]}},{"type":"Feature","properties":{"stop_id":"2999","stop_code":"2999","stop_name":"OLIVE @ OLIVETTE EXECUTIVE PARKWAY WB","stop_desc":"FAR SIDE OLIVE @ OLIVETTE EXECUTIVE PARKWAY WB","wheelchair_boarding":1,"routes":[{"route_id":"19630","agency_id":"70006","route_short_name":"91","route_long_name":"Olive","route_type":3,"route_color":"#FFFFFF","route_text_color":"#000000"}],"agency_name":"Metro St. Louis"},"geometry":{"type":"Point","coordinates":[-90.37174,38.67413]}},{"type":"Feature","properties":{"stop_id":"3001","stop_code":"3001","stop_name":"OLIVE @ DIELMAN WB","stop_desc":"NEAR SIDE OLIVE @ DIELMAN WB","wheelchair_boarding":2,"routes":[{"route_id":"19630","agency_id":"70006","route_short_name":"91","route_long_name":"Olive","route_type":3,"route_color":"#FFFFFF","route_text_color":"#000000"}],"agency_name":"Metro St. Louis"},"geometry":{"type":"Point","coordinates":[-90.37543,38.67415]}},{"type":"Feature","properties":{"stop_id":"3002","stop_code":"3002","stop_name":"OLIVE @ MAGNET WB","stop_desc":"NEAR SIDE OLIVE @ MAGNET WB","wheelchair_boarding":2,"routes":[{"route_id":"19630","agency_id":"70006","route_short_name":"91","route_long_name":"Olive","route_type":3,"route_color":"#FFFFFF","route_text_color":"#000000"}],"agency_name":"Metro St. Louis"},"geometry":{"type":"Point","coordinates":[-90.3781,38.67417]}},{"type":"Feature","properties":{"stop_id":"3004","stop_code":"3004","stop_name":"OLIVE @ TOWER HILL COURT WB","stop_desc":"FAR SIDE OLIVE @ TOWER HILL COURT WB","wheelchair_boarding":2,"routes":[{"route_id":"19630","agency_id":"70006","route_short_name":"91","route_long_name":"Olive","route_type":3,"route_color":"#FFFFFF","route_text_color":"#000000"}],"agency_name":"Metro St. Louis"},"geometry":{"type":"Point","coordinates":[-90.38215,38.67419]}},{"type":"Feature","properties":{"stop_id":"3006","stop_code":"3006","stop_name":"OLIVE @ OLIVAIRE WB","stop_desc":"FAR SIDE OLIVE @ OLIVAIRE WB","wheelchair_boarding":2,"routes":[{"route_id":"19630","agency_id":"70006","route_short_name":"91","route_long_name":"Olive","route_type":3,"route_color":"#FFFFFF","route_text_color":"#000000"}],"agency_name":"Metro St. Louis"},"geometry":{"type":"Point","coordinates":[-90.38638,38.67393]}},{"type":"Feature","properties":{"stop_id":"3008","stop_code":"3008","stop_name":"OLIVE @ OLD BONHOMME WB","stop_desc":"FAR SIDE OLIVE @ OLD BONHOMME WB","wheelchair_boarding":2,"routes":[{"route_id":"19630","agency_id":"70006","route_short_name":"91","route_long_name":"Olive","route_type":3,"route_color":"#FFFFFF","route_text_color":"#000000"}],"agency_name":"Metro St. Louis"},"geometry":{"type":"Point","coordinates":[-90.3904,38.67298]}},{"type":"Feature","properties":{"stop_id":"3009","stop_code":"3009","stop_name":"9733  OLIVE WB","stop_desc":"FAR SIDE 9733  OLIVE WB","wheelchair_boarding":2,"routes":[{"route_id":"19630","agency_id":"70006","route_short_name":"91","route_long_name":"Olive","route_type":3,"route_color":"#FFFFFF","route_text_color":"#000000"}],"agency_name":"Metro St. Louis"},"geometry":{"type":"Point","coordinates":[-90.39236,38.67268]}},{"type":"Feature","properties":{"stop_id":"3010","stop_code":"3010","stop_name":"OLIVE @ WARSON WB","stop_desc":"FAR SIDE OLIVE @ WARSON WB","wheelchair_boarding":2,"routes":[{"route_id":"19630","agency_id":"70006","route_short_name":"91","route_long_name":"Olive","route_type":3,"route_color":"#FFFFFF","route_text_color":"#000000"}],"agency_name":"Metro St. Louis"},"geometry":{"type":"Point","coordinates":[-90.39534,38.67282]}},{"type":"Feature","properties":{"stop_id":"3011","stop_code":"3011","stop_name":"OLIVE @ LINDBERGH NORTH RAMP WB","stop_desc":"NEAR SIDE OLIVE @ LINDBERGH NORTH RAMP WB","wheelchair_boarding":1,"routes":[{"route_id":"19630","agency_id":"70006","route_short_name":"91","route_long_name":"Olive","route_type":3,"route_color":"#FFFFFF","route_text_color":"#000000"}],"agency_name":"Metro St. Louis"},"geometry":{"type":"Point","coordinates":[-90.40301,38.67324]}},{"type":"Feature","properties":{"stop_id":"3027","stop_code":"3027","stop_name":"OLIVE @ SPOEDE WB","stop_desc":"NEAR SIDE OLIVE @ SPOEDE WB","wheelchair_boarding":1,"routes":[{"route_id":"19630","agency_id":"70006","route_short_name":"91","route_long_name":"Olive","route_type":3,"route_color":"#FFFFFF","route_text_color":"#000000"}],"agency_name":"Metro St. Louis"},"geometry":{"type":"Point","coordinates":[-90.41428,38.67339]}},{"type":"Feature","properties":{"stop_id":"3028","stop_code":"3028","stop_name":"OLIVE @ BARRE HAVEN WB","stop_desc":"NEAR SIDE OLIVE @ BARRE HAVEN WB","wheelchair_boarding":2,"routes":[{"route_id":"19630","agency_id":"70006","route_short_name":"91","route_long_name":"Olive","route_type":3,"route_color":"#FFFFFF","route_text_color":"#000000"}],"agency_name":"Metro St. Louis"},"geometry":{"type":"Point","coordinates":[-90.41638,38.67329]}},{"type":"Feature","properties":{"stop_id":"3029","stop_code":"3029","stop_name":"OLIVE @ DEAVER WB","stop_desc":"NEAR SIDE OLIVE @ DEAVER WB","wheelchair_boarding":2,"routes":[{"route_id":"19630","agency_id":"70006","route_short_name":"91","route_long_name":"Olive","route_type":3,"route_color":"#FFFFFF","route_text_color":"#000000"}],"agency_name":"Metro St. Louis"},"geometry":{"type":"Point","coordinates":[-90.41849,38.67311]}},{"type":"Feature","properties":{"stop_id":"3030","stop_code":"3030","stop_name":"OLIVE @ DAUTEL WB","stop_desc":"FAR SIDE OLIVE @ DAUTEL WB","wheelchair_boarding":2,"routes":[{"route_id":"19630","agency_id":"70006","route_short_name":"91","route_long_name":"Olive","route_type":3,"route_color":"#FFFFFF","route_text_color":"#000000"}],"agency_name":"Metro St. Louis"},"geometry":{"type":"Point","coordinates":[-90.42241,38.67356]}},{"type":"Feature","properties":{"stop_id":"3031","stop_code":"3031","stop_name":"OLIVE @ SCHULTE WB","stop_desc":"FAR SIDE OLIVE @ SCHULTE WB","wheelchair_boarding":2,"routes":[{"route_id":"19630","agency_id":"70006","route_short_name":"91","route_long_name":"Olive","route_type":3,"route_color":"#FFFFFF","route_text_color":"#000000"}],"agency_name":"Metro St. Louis"},"geometry":{"type":"Point","coordinates":[-90.42483,38.67369]}},{"type":"Feature","properties":{"stop_id":"3032","stop_code":"3032","stop_name":"OLIVE @ WOODSHIRE WB","stop_desc":"FAR SIDE OLIVE @ WOODSHIRE WB","wheelchair_boarding":2,"routes":[{"route_id":"19630","agency_id":"70006","route_short_name":"91","route_long_name":"Olive","route_type":3,"route_color":"#FFFFFF","route_text_color":"#000000"}],"agency_name":"Metro St. Louis"},"geometry":{"type":"Point","coordinates":[-90.42779,38.67243]}},{"type":"Feature","properties":{"stop_id":"3033","stop_code":"3033","stop_name":"OLIVE @ MOSLEY WB","stop_desc":"NEAR SIDE OLIVE @ MOSLEY WB","wheelchair_boarding":1,"routes":[{"route_id":"19630","agency_id":"70006","route_short_name":"91","route_long_name":"Olive","route_type":3,"route_color":"#FFFFFF","route_text_color":"#000000"}],"agency_name":"Metro St. Louis"},"geometry":{"type":"Point","coordinates":[-90.42951,38.67168]}},{"type":"Feature","properties":{"stop_id":"3034","stop_code":"3034","stop_name":"OLIVE @ OFFICE PARKWAY WB","stop_desc":"FAR SIDE OLIVE @ OFFICE PARKWAY WB","wheelchair_boarding":2,"routes":[{"route_id":"19630","agency_id":"70006","route_short_name":"91","route_long_name":"Olive","route_type":3,"route_color":"#FFFFFF","route_text_color":"#000000"}],"agency_name":"Metro St. Louis"},"geometry":{"type":"Point","coordinates":[-90.43401,38.67131]}},{"type":"Feature","properties":{"stop_id":"3035","stop_code":"3035","stop_name":"OLIVE @ CRAIG WB","stop_desc":"FAR SIDE OLIVE @ CRAIG WB","wheelchair_boarding":2,"routes":[{"route_id":"19630","agency_id":"70006","route_short_name":"91","route_long_name":"Olive","route_type":3,"route_color":"#FFFFFF","route_text_color":"#000000"}],"agency_name":"Metro St. Louis"},"geometry":{"type":"Point","coordinates":[-90.43628,38.67137]}},{"type":"Feature","properties":{"stop_id":"3036","stop_code":"3036","stop_name":"OLIVE @ CITY PLACE WB","stop_desc":"FAR SIDE OLIVE @ CITY PLACE WB","wheelchair_boarding":2,"routes":[{"route_id":"19630","agency_id":"70006","route_short_name":"91","route_long_name":"Olive","route_type":3,"route_color":"#FFFFFF","route_text_color":"#000000"}],"agency_name":"Metro St. Louis"},"geometry":{"type":"Point","coordinates":[-90.4389,38.671]}},{"type":"Feature","properties":{"stop_id":"3037","stop_code":"3037","stop_name":"OLIVE @ WILL WB","stop_desc":"NEAR SIDE OLIVE @ WILL WB","wheelchair_boarding":2,"routes":[{"route_id":"19630","agency_id":"70006","route_short_name":"91","route_long_name":"Olive","route_type":3,"route_color":"#FFFFFF","route_text_color":"#000000"}],"agency_name":"Metro St. Louis"},"geometry":{"type":"Point","coordinates":[-90.44151,38.67049]}},{"type":"Feature","properties":{"stop_id":"3038","stop_code":"3038","stop_name":"OLIVE @ NEW BALLAS WB","stop_desc":"FAR SIDE OLIVE @ NEW BALLAS WB","wheelchair_boarding":1,"routes":[{"route_id":"19630","agency_id":"70006","route_short_name":"91","route_long_name":"Olive","route_type":3,"route_color":"#FFFFFF","route_text_color":"#000000"}],"agency_name":"Metro St. Louis"},"geometry":{"type":"Point","coordinates":[-90.44379,38.67088]}},{"type":"Feature","properties":{"stop_id":"3039","stop_code":"3039","stop_name":"OLIVE @ RUE DE LA BANQUE WB","stop_desc":"FAR SIDE OLIVE @ RUE DE LA BANQUE WB","wheelchair_boarding":2,"routes":[{"route_id":"19630","agency_id":"70006","route_short_name":"91","route_long_name":"Olive","route_type":3,"route_color":"#FFFFFF","route_text_color":"#000000"}],"agency_name":"Metro St. Louis"},"geometry":{"type":"Point","coordinates":[-90.44534,38.67128]}},{"type":"Feature","properties":{"stop_id":"3040","stop_code":"3040","stop_name":"OLIVE @ WOODCREST EXCECUTIVE WB","stop_desc":"NEAR SIDE OLIVE @ WOODCREST EXCECUTIVE WB","wheelchair_boarding":1,"routes":[{"route_id":"19630","agency_id":"70006","route_short_name":"91","route_long_name":"Olive","route_type":3,"route_color":"#FFFFFF","route_text_color":"#000000"}],"agency_name":"Metro St. Louis"},"geometry":{"type":"Point","coordinates":[-90.45192,38.67287]}},{"type":"Feature","properties":{"stop_id":"3041","stop_code":"3041","stop_name":"OLIVE @ CROSS CREEK WB","stop_desc":"FAR SIDE OLIVE @ CROSS CREEK WB","wheelchair_boarding":2,"routes":[{"route_id":"19630","agency_id":"70006","route_short_name":"91","route_long_name":"Olive","route_type":3,"route_color":"#FFFFFF","route_text_color":"#000000"}],"agency_name":"Metro St. Louis"},"geometry":{"type":"Point","coordinates":[-90.45563,38.67346]}},{"type":"Feature","properties":{"stop_id":"3042","stop_code":"3042","stop_name":"OLIVE @ TEMPO WB","stop_desc":"FAR SIDE OLIVE @ TEMPO WB","wheelchair_boarding":2,"routes":[{"route_id":"19630","agency_id":"70006","route_short_name":"91","route_long_name":"Olive","route_type":3,"route_color":"#FFFFFF","route_text_color":"#000000"}],"agency_name":"Metro St. Louis"},"geometry":{"type":"Point","coordinates":[-90.45877,38.67402]}},{"type":"Feature","properties":{"stop_id":"3043","stop_code":"3043","stop_name":"OLIVE @ ROSS WB","stop_desc":"FAR SIDE OLIVE @ ROSS WB","wheelchair_boarding":2,"routes":[{"route_id":"19630","agency_id":"70006","route_short_name":"91","route_long_name":"Olive","route_type":3,"route_color":"#FFFFFF","route_text_color":"#000000"}],"agency_name":"Metro St. Louis"},"geometry":{"type":"Point","coordinates":[-90.46284,38.67574]}},{"type":"Feature","properties":{"stop_id":"3044","stop_code":"3044","stop_name":"OLIVE @ HERITAGE PLACE WB","stop_desc":"MID-BLOCK OLIVE @ HERITAGE PLACE WB","wheelchair_boarding":2,"routes":[{"route_id":"19630","agency_id":"70006","route_short_name":"91","route_long_name":"Olive","route_type":3,"route_color":"#FFFFFF","route_text_color":"#000000"}],"agency_name":"Metro St. Louis"},"geometry":{"type":"Point","coordinates":[-90.46684,38.67746]}},{"type":"Feature","properties":{"stop_id":"3045","stop_code":"3045","stop_name":"OLIVE @ KRAM WB","stop_desc":"NEAR SIDE OLIVE @ KRAM WB","wheelchair_boarding":2,"routes":[{"route_id":"19630","agency_id":"70006","route_short_name":"91","route_long_name":"Olive","route_type":3,"route_color":"#FFFFFF","route_text_color":"#000000"}],"agency_name":"Metro St. Louis"},"geometry":{"type":"Point","coordinates":[-90.46975,38.6787]}},{"type":"Feature","properties":{"stop_id":"3047","stop_code":"3047","stop_name":"OLIVE @ TIMBER RUN WB","stop_desc":"FAR SIDE OLIVE @ TIMBER RUN WB","wheelchair_boarding":2,"routes":[{"route_id":"19630","agency_id":"70006","route_short_name":"91","route_long_name":"Olive","route_type":3,"route_color":"#FFFFFF","route_text_color":"#000000"}],"agency_name":"Metro St. Louis"},"geometry":{"type":"Point","coordinates":[-90.47194,38.67975]}},{"type":"Feature","properties":{"stop_id":"3048","stop_code":"3048","stop_name":"OLIVE @ FERN RIDGE PARKWAY WB","stop_desc":"FAR SIDE OLIVE @ FERN RIDGE PARKWAY WB","wheelchair_boarding":2,"routes":[{"route_id":"19630","agency_id":"70006","route_short_name":"91","route_long_name":"Olive","route_type":3,"route_color":"#FFFFFF","route_text_color":"#000000"}],"agency_name":"Metro St. Louis"},"geometry":{"type":"Point","coordinates":[-90.4748,38.68079]}},{"type":"Feature","properties":{"stop_id":"3049","stop_code":"3049","stop_name":"OLIVE @ FEE FEE WB","stop_desc":"FAR SIDE OLIVE @ FEE FEE WB","wheelchair_boarding":2,"routes":[{"route_id":"19630","agency_id":"70006","route_short_name":"91","route_long_name":"Olive","route_type":3,"route_color":"#FFFFFF","route_text_color":"#000000"}],"agency_name":"Metro St. Louis"},"geometry":{"type":"Point","coordinates":[-90.47813,38.68174]}},{"type":"Feature","properties":{"stop_id":"3050","stop_code":"3050","stop_name":"OLIVE @ FERNVIEW WB","stop_desc":"FAR SIDE OLIVE @ FERNVIEW WB","wheelchair_boarding":2,"routes":[{"route_id":"19630","agency_id":"70006","route_short_name":"91","route_long_name":"Olive","route_type":3,"route_color":"#FFFFFF","route_text_color":"#000000"}],"agency_name":"Metro St. Louis"},"geometry":{"type":"Point","coordinates":[-90.48125,38.68278]}},{"type":"Feature","properties":{"stop_id":"3054","stop_code":"3054","stop_name":"OLIVE @ WOODCHASE WB","stop_desc":"FAR SIDE OLIVE @ WOODCHASE WB","wheelchair_boarding":2,"routes":[{"route_id":"19630","agency_id":"70006","route_short_name":"91","route_long_name":"Olive","route_type":3,"route_color":"#FFFFFF","route_text_color":"#000000"}],"agency_name":"Metro St. Louis"},"geometry":{"type":"Point","coordinates":[-90.49697,38.68032]}},{"type":"Feature","properties":{"stop_id":"3055","stop_code":"3055","stop_name":"OLIVE @ WOODSMILL WB","stop_desc":"FAR SIDE OLIVE @ WOODSMILL WB","wheelchair_boarding":2,"routes":[{"route_id":"19630","agency_id":"70006","route_short_name":"91","route_long_name":"Olive","route_type":3,"route_color":"#FFFFFF","route_text_color":"#000000"}],"agency_name":"Metro St. Louis"},"geometry":{"type":"Point","coordinates":[-90.50012,38.67995]}},{"type":"Feature","properties":{"stop_id":"3056","stop_code":"3056","stop_name":"OLIVE @ COLISEUM WB","stop_desc":"FAR SIDE OLIVE @ COLISEUM WB","wheelchair_boarding":2,"routes":[{"route_id":"19630","agency_id":"70006","route_short_name":"91","route_long_name":"Olive","route_type":3,"route_color":"#FFFFFF","route_text_color":"#000000"}],"agency_name":"Metro St. Louis"},"geometry":{"type":"Point","coordinates":[-90.50179,38.67984]}},{"type":"Feature","properties":{"stop_id":"3057","stop_code":"3057","stop_name":"OLIVE @ RIVER VALLEY WB","stop_desc":"FAR SIDE OLIVE @ RIVER VALLEY WB","wheelchair_boarding":2,"routes":[{"route_id":"19630","agency_id":"70006","route_short_name":"91","route_long_name":"Olive","route_type":3,"route_color":"#FFFFFF","route_text_color":"#000000"}],"agency_name":"Metro St. Louis"},"geometry":{"type":"Point","coordinates":[-90.50578,38.68037]}},{"type":"Feature","properties":{"stop_id":"3058","stop_code":"3058","stop_name":"OLIVE @ HOG HOLLOW WB","stop_desc":"FAR SIDE OLIVE @ HOG HOLLOW WB","wheelchair_boarding":2,"routes":[{"route_id":"19630","agency_id":"70006","route_short_name":"91","route_long_name":"Olive","route_type":3,"route_color":"#FFFFFF","route_text_color":"#000000"}],"agency_name":"Metro St. Louis"},"geometry":{"type":"Point","coordinates":[-90.52033,38.67925]}},{"type":"Feature","properties":{"stop_id":"3059","stop_code":"3059","stop_name":"OLIVE @ SPYGLASS SUMMIT WB","stop_desc":"NEAR SIDE OLIVE @ SPYGLASS SUMMIT WB","wheelchair_boarding":2,"routes":[{"route_id":"19630","agency_id":"70006","route_short_name":"91","route_long_name":"Olive","route_type":3,"route_color":"#FFFFFF","route_text_color":"#000000"}],"agency_name":"Metro St. Louis"},"geometry":{"type":"Point","coordinates":[-90.52463,38.67776]}},{"type":"Feature","properties":{"stop_id":"3061","stop_code":"3061","stop_name":"OLIVE @ OLD RIVERWOODS WB","stop_desc":"NEAR SIDE OLIVE @ OLD RIVERWOODS WB","wheelchair_boarding":2,"routes":[{"route_id":"19630","agency_id":"70006","route_short_name":"91","route_long_name":"Olive","route_type":3,"route_color":"#FFFFFF","route_text_color":"#000000"}],"agency_name":"Metro St. Louis"},"geometry":{"type":"Point","coordinates":[-90.53007,38.67593]}},{"type":"Feature","properties":{"stop_id":"3062","stop_code":"3062","stop_name":"OLIVE @ KENDALL BLUFF WB","stop_desc":"FAR SIDE OLIVE @ KENDALL BLUFF WB","wheelchair_boarding":2,"routes":[{"route_id":"19630","agency_id":"70006","route_short_name":"91","route_long_name":"Olive","route_type":3,"route_color":"#FFFFFF","route_text_color":"#000000"}],"agency_name":"Metro St. Louis"},"geometry":{"type":"Point","coordinates":[-90.533,38.67366]}},{"type":"Feature","properties":{"stop_id":"3063","stop_code":"3063","stop_name":"OLIVE @ LADUE BLUFFS CROSSING WB","stop_desc":"FAR SIDE OLIVE @ LADUE BLUFFS CROSSING WB","wheelchair_boarding":2,"routes":[{"route_id":"19630","agency_id":"70006","route_short_name":"91","route_long_name":"Olive","route_type":3,"route_color":"#FFFFFF","route_text_color":"#000000"}],"agency_name":"Metro St. Louis"},"geometry":{"type":"Point","coordinates":[-90.5348,38.66948]}},{"type":"Feature","properties":{"stop_id":"3064","stop_code":"3064","stop_name":"OLIVE @ WHITE WB","stop_desc":"FAR SIDE OLIVE @ WHITE WB","wheelchair_boarding":2,"routes":[{"route_id":"19630","agency_id":"70006","route_short_name":"91","route_long_name":"Olive","route_type":3,"route_color":"#FFFFFF","route_text_color":"#000000"}],"agency_name":"Metro St. Louis"},"geometry":{"type":"Point","coordinates":[-90.53627,38.66791]}},{"type":"Feature","properties":{"stop_id":"3065","stop_code":"3065","stop_name":"OLIVE @ APPALACHIAN TRAIL WB","stop_desc":"NEAR SIDE OLIVE @ APPALACHIAN TRAIL WB","wheelchair_boarding":2,"routes":[{"route_id":"19630","agency_id":"70006","route_short_name":"91","route_long_name":"Olive","route_type":3,"route_color":"#FFFFFF","route_text_color":"#000000"}],"agency_name":"Metro St. Louis"},"geometry":{"type":"Point","coordinates":[-90.54293,38.66272]}},{"type":"Feature","properties":{"stop_id":"3066","stop_code":"3066","stop_name":"OLIVE @ BRAEFIELD WB","stop_desc":"NEAR SIDE OLIVE @ BRAEFIELD WB","wheelchair_boarding":2,"routes":[{"route_id":"19630","agency_id":"70006","route_short_name":"91","route_long_name":"Olive","route_type":3,"route_color":"#FFFFFF","route_text_color":"#000000"}],"agency_name":"Metro St. Louis"},"geometry":{"type":"Point","coordinates":[-90.54568,38.66134]}},{"type":"Feature","properties":{"stop_id":"3067","stop_code":"3067","stop_name":"OLIVE @ WEST WB","stop_desc":"NEAR SIDE OLIVE @ WEST WB","wheelchair_boarding":2,"routes":[{"route_id":"19630","agency_id":"70006","route_short_name":"91","route_long_name":"Olive","route_type":3,"route_color":"#FFFFFF","route_text_color":"#000000"}],"agency_name":"Metro St. Louis"},"geometry":{"type":"Point","coordinates":[-90.54835,38.66002]}},{"type":"Feature","properties":{"stop_id":"3068","stop_code":"3068","stop_name":"OLIVE @ HILLTOWN VILLAGE CENTER WB","stop_desc":"NEAR SIDE OLIVE @ HILLTOWN VILLAGE CENTER WB","wheelchair_boarding":2,"routes":[{"route_id":"19630","agency_id":"70006","route_short_name":"91","route_long_name":"Olive","route_type":3,"route_color":"#FFFFFF","route_text_color":"#000000"}],"agency_name":"Metro St. Louis"},"geometry":{"type":"Point","coordinates":[-90.5508,38.65884]}},{"type":"Feature","properties":{"stop_id":"3069","stop_code":"3069","stop_name":"OLIVE @ PEACH HILL WB","stop_desc":"FAR SIDE OLIVE @ PEACH HILL WB","wheelchair_boarding":2,"routes":[{"route_id":"19630","agency_id":"70006","route_short_name":"91","route_long_name":"Olive","route_type":3,"route_color":"#FFFFFF","route_text_color":"#000000"}],"agency_name":"Metro St. Louis"},"geometry":{"type":"Point","coordinates":[-90.55268,38.65786]}},{"type":"Feature","properties":{"stop_id":"3097","stop_code":"3097","stop_name":"OLIVE @ MASON EB","stop_desc":"FAR SIDE OLIVE @ MASON EB","wheelchair_boarding":1,"routes":[{"route_id":"19630","agency_id":"70006","route_short_name":"91","route_long_name":"Olive","route_type":3,"route_color":"#FFFFFF","route_text_color":"#000000"}],"agency_name":"Metro St. Louis"},"geometry":{"type":"Point","coordinates":[-90.46833,38.67782]}},{"type":"Feature","properties":{"stop_id":"4352","stop_code":"4352","stop_name":"OLIVE @ KINGSLAND WB","stop_desc":"FAR SIDE OLIVE @ KINGSLAND WB","wheelchair_boarding":1,"routes":[{"route_id":"19630","agency_id":"70006","route_short_name":"91","route_long_name":"Olive","route_type":3,"route_color":"#FFFFFF","route_text_color":"#000000"}],"agency_name":"Metro St. Louis"},"geometry":{"type":"Point","coordinates":[-90.30764,38.66311]}},{"type":"Feature","properties":{"stop_id":"4779","stop_code":"4779","stop_name":"OLIVE @ PENNSYLVANIA WB","stop_desc":"FAR SIDE OLIVE @ PENNSYLVANIA WB","wheelchair_boarding":2,"routes":[{"route_id":"19630","agency_id":"70006","route_short_name":"91","route_long_name":"Olive","route_type":3,"route_color":"#FFFFFF","route_text_color":"#000000"}],"agency_name":"Metro St. Louis"},"geometry":{"type":"Point","coordinates":[-90.31665,38.66628]}},{"type":"Feature","properties":{"stop_id":"4781","stop_code":"4781","stop_name":"OLIVE @ WATTS WB","stop_desc":"NEAR SIDE OLIVE @ WATTS WB","wheelchair_boarding":2,"routes":[{"route_id":"19630","agency_id":"70006","route_short_name":"91","route_long_name":"Olive","route_type":3,"route_color":"#FFFFFF","route_text_color":"#000000"}],"agency_name":"Metro St. Louis"},"geometry":{"type":"Point","coordinates":[-90.32013,38.66861]}},{"type":"Feature","properties":{"stop_id":"4782","stop_code":"4782","stop_name":"OLIVE @ BACKER WB","stop_desc":"NEAR SIDE OLIVE @ BACKER WB","wheelchair_boarding":1,"routes":[{"route_id":"19630","agency_id":"70006","route_short_name":"91","route_long_name":"Olive","route_type":3,"route_color":"#FFFFFF","route_text_color":"#000000"}],"agency_name":"Metro St. Louis"},"geometry":{"type":"Point","coordinates":[-90.32193,38.66994]}},{"type":"Feature","properties":{"stop_id":"4783","stop_code":"4783","stop_name":"OLIVE @ PURDUE NB","stop_desc":"FAR SIDE OLIVE @ PURDUE NB","wheelchair_boarding":1,"routes":[{"route_id":"19630","agency_id":"70006","route_short_name":"91","route_long_name":"Olive","route_type":3,"route_color":"#FFFFFF","route_text_color":"#000000"}],"agency_name":"Metro St. Louis"},"geometry":{"type":"Point","coordinates":[-90.32377,38.67062]}}]}