{"type":"FeatureCollection","features":[{"type":"Feature","properties":{"agency_name":"Metro St. Louis","route_id":"19633","agency_id":"70006","route_short_name":"97","route_long_name":"Delmar","route_type":3,"route_color":"#FFFFFF","route_text_color":"#000000"},"geometry":{"type":"MultiLineString","coordinates":[[[-90.33915,38.64607],[-90.33916,38.64608],[-90.33913,38.64603],[-90.33913,38.64599],[-90.33915,38.64595],[-90.3392,38.64593],[-90.34024,38.64602],[-90.3398,38.64907],[-90.33825,38.65025],[-90.33407,38.6499],[-90.33361,38.65332],[-90.33349,38.65403],[-90.33311,38.65664],[-90.33284,38.65832],[-90.33226,38.6588],[-90.33165,38.65873],[-90.32969,38.65844],[-90.32866,38.65826],[-90.32507,38.65796],[-90.32033,38.65746],[-90.31733,38.65719],[-90.31461,38.6569],[-90.31152,38.65661],[-90.31098,38.65645],[-90.31094,38.6564],[-90.31084,38.65636],[-90.31072,38.65636],[-90.31062,38.65638],[-90.31057,38.65643],[-90.30971,38.65643],[-90.30875,38.65636],[-90.30599,38.65606],[-90.30346,38.65583],[-90.29601,38.65508],[-90.29604,38.65541],[-90.29608,38.65562],[-90.29582,38.65575],[-90.29533,38.65568],[-90.29512,38.65559],[-90.29503,38.65552],[-90.29496,38.65543],[-90.29469,38.65495],[-90.29419,38.6549],[-90.29389,38.65482],[-90.28873,38.65432],[-90.28773,38.6542],[-90.28514,38.65398],[-90.28444,38.6539],[-90.27496,38.65297],[-90.27453,38.65292],[-90.27423,38.65286],[-90.27287,38.6525],[-90.27218,38.6524],[-90.26412,38.65156],[-90.2638,38.65153],[-90.26312,38.65156],[-90.26243,38.65153],[-90.25501,38.65087],[-90.25487,38.65084],[-90.25473,38.65079],[-90.23777,38.64334],[-90.23637,38.64394],[-90.23381,38.6428],[-90.23407,38.64243],[-90.23031,38.64078],[-90.23001,38.64062],[-90.22927,38.64031],[-90.22898,38.64022],[-90.22715,38.63983],[-90.22436,38.63926],[-90.22409,38.64],[-90.22292,38.63993],[-90.22045,38.63942],[-90.21857,38.63901],[-90.21832,38.63975],[-90.21762,38.63956],[-90.21656,38.63887],[-90.21628,38.63867],[-90.21608,38.63856],[-90.21597,38.63852],[-90.21228,38.63776],[-90.19802,38.63475],[-90.19837,38.63372],[-90.19851,38.63346],[-90.1987,38.63325],[-90.19895,38.63303],[-90.1992,38.63284],[-90.1995,38.6325],[-90.19959,38.63235],[-90.2,38.63124],[-90.20027,38.63028],[-90.20056,38.62954],[-90.20104,38.62808],[-90.20188,38.62591],[-90.20235,38.62487],[-90.20273,38.62389],[-90.203,38.62398],[-90.20305,38.62403],[-90.20307,38.62409],[-90.20293,38.62434],[-90.20271,38.62491],[-90.2027,38.62541],[-90.20266,38.62564]]]}},{"type":"Feature","properties":{"stop_id":"13290","stop_code":"13290","stop_name":"TE HUNTLEY @ FRANKLIN NB","stop_desc":"FAR SIDE TE HUNTLEY @ FRANKLIN NB","wheelchair_boarding":2,"routes":[{"route_id":"19633","agency_id":"70006","route_short_name":"97","route_long_name":"Delmar","route_type":3,"route_color":"#FFFFFF","route_text_color":"#000000"}],"agency_name":"Metro St. Louis"},"geometry":{"type":"Point","coordinates":[-90.21843,38.63918]}},{"type":"Feature","properties":{"stop_id":"13549","stop_code":"13549","stop_name":"FORSYTH @ CENTRAL EB","stop_desc":"NEAR SIDE FORSYTH @ CENTRAL EB","wheelchair_boarding":1,"routes":[{"route_id":"19608","agency_id":"70006","route_short_name":"33","route_long_name":"Midland","route_type":3,"route_color":"#FFFFFF","route_text_color":"#000000"},{"route_id":"19628","agency_id":"70006","route_short_name":"79","route_long_name":"Ferguson-Clayton","route_type":3,"route_color":"#FFFFFF","route_text_color":"#000000"},{"route_id":"19633","agency_id":"70006","route_short_name":"97","route_long_name":"Delmar","route_type":3,"route_color":"#FFFFFF","route_text_color":"#000000"}],"agency_name":"Metro St. Louis"},"geometry":{"type":"Point","coordinates":[-90.33869,38.65025]}},{"type":"Feature","properties":{"stop_id":"13864","stop_code":"13864","stop_name":"DR ML KING@ 20TH STREET EB","stop_desc":"FAR SIDE DR ML KING@ 20TH STREET EB","wheelchair_boarding":2,"routes":[{"route_id":"19633","agency_id":"70006","route_short_name":"97","route_long_name":"Delmar","route_type":3,"route_color":"#FFFFFF","route_text_color":"#000000"}],"agency_name":"Metro St. Louis"},"geometry":{"type":"Point","coordinates":[-90.20696,38.63653]}},{"type":"Feature","properties":{"stop_id":"13865","stop_code":"13865","stop_name":"DR ML KING @ 18TH STREET EB","stop_desc":"NEAR SIDE DR ML KING @ 18TH STREET EB","wheelchair_boarding":2,"routes":[{"route_id":"19633","agency_id":"70006","route_short_name":"97","route_long_name":"Delmar","route_type":3,"route_color":"#FFFFFF","route_text_color":"#000000"}],"agency_name":"Metro St. Louis"},"geometry":{"type":"Point","coordinates":[-90.20423,38.63596]}},{"type":"Feature","properties":{"stop_id":"14403","stop_code":"14403","stop_name":"CLAYTON TRANSIT CENTER","wheelchair_boarding":1,"routes":[{"route_id":"19628","agency_id":"70006","route_short_name":"79","route_long_name":"Ferguson-Clayton","route_type":3,"route_color":"#FFFFFF","route_text_color":"#000000"},{"route_id":"19633","agency_id":"70006","route_short_name":"97","route_long_name":"Delmar","route_type":3,"route_color":"#FFFFFF","route_text_color":"#000000"}],"agency_name":"Metro St. Louis"},"geometry":{"type":"Point","coordinates":[-90.33974,38.64607]}},{"type":"Feature","properties":{"stop_id":"14499","stop_code":"14499","stop_name":"14TH STREET @ PINE SB","stop_desc":"NEAR SIDE 14TH STREET @ PINE SB","wheelchair_boarding":1,"routes":[{"route_id":"19598","agency_id":"70006","route_short_name":"10","route_long_name":"Gravois-Lindell","route_type":3,"route_color":"#FFFFFF","route_text_color":"#000000"},{"route_id":"19607","agency_id":"70006","route_short_name":"32","route_long_name":"Dr ML King","route_type":3,"route_color":"#FFFFFF","route_text_color":"#000000"},{"route_id":"19611","agency_id":"70006","route_short_name":"40","route_long_name":"Broadway-Halls Ferry","route_type":3,"route_color":"#FFFFFF","route_text_color":"#000000"},{"route_id":"19612","agency_id":"70006","route_short_name":"41","route_long_name":"Lee","route_type":3,"route_color":"#FFFFFF","route_text_color":"#000000"},{"route_id":"19624","agency_id":"70006","route_short_name":"74","route_long_name":"Florissant","route_type":3,"route_color":"#FFFFFF","route_text_color":"#000000"},{"route_id":"19633","agency_id":"70006","route_short_name":"97","route_long_name":"Delmar","route_type":3,"route_color":"#FFFFFF","route_text_color":"#000000"}],"agency_name":"Metro St. Louis"},"geometry":{"type":"Point","coordinates":[-90.20057,38.62983]}},{"type":"Feature","properties":{"stop_id":"14672","stop_code":"14672","stop_name":"MERAMEC @ CARONDELET NB","stop_desc":"NEAR SIDE MERAMEC @ CARONDELET NB","wheelchair_boarding":1,"routes":[{"route_id":"19608","agency_id":"70006","route_short_name":"33","route_long_name":"Midland","route_type":3,"route_color":"#FFFFFF","route_text_color":"#000000"},{"route_id":"19628","agency_id":"70006","route_short_name":"79","route_long_name":"Ferguson-Clayton","route_type":3,"route_color":"#FFFFFF","route_text_color":"#000000"},{"route_id":"19633","agency_id":"70006","route_short_name":"97","route_long_name":"Delmar","route_type":3,"route_color":"#FFFFFF","route_text_color":"#000000"}],"agency_name":"Metro St. Louis"},"geometry":{"type":"Point","coordinates":[-90.33974,38.64883]}},{"type":"Feature","properties":{"stop_id":"14825","stop_code":"14825","stop_name":"14TH STREET @ DR ML KING SB","stop_desc":"FAR SIDE 14TH STREET @ DR ML KING SB","wheelchair_boarding":1,"routes":[{"route_id":"19612","agency_id":"70006","route_short_name":"41","route_long_name":"Lee","route_type":3,"route_color":"#FFFFFF","route_text_color":"#000000"},{"route_id":"19624","agency_id":"70006","route_short_name":"74","route_long_name":"Florissant","route_type":3,"route_color":"#FFFFFF","route_text_color":"#000000"},{"route_id":"19633","agency_id":"70006","route_short_name":"97","route_long_name":"Delmar","route_type":3,"route_color":"#FFFFFF","route_text_color":"#000000"}],"agency_name":"Metro St. Louis"},"geometry":{"type":"Point","coordinates":[-90.19819,38.6345]}},{"type":"Feature","properties":{"stop_id":"14939","stop_code":"14939","stop_name":"DELMAR @ GRAND EB","stop_desc":"NEAR SIDE DELMAR @ GRAND EB","wheelchair_boarding":1,"routes":[{"route_id":"19633","agency_id":"70006","route_short_name":"97","route_long_name":"Delmar","route_type":3,"route_color":"#FFFFFF","route_text_color":"#000000"}],"agency_name":"Metro St. Louis"},"geometry":{"type":"Point","coordinates":[-90.23059,38.6408]}},{"type":"Feature","properties":{"stop_id":"15189","stop_code":"15189","stop_name":"DELMAR @ THERESA EB","stop_desc":"NEAR SIDE DELMAR @ THERESA EB","wheelchair_boarding":2,"routes":[{"route_id":"19633","agency_id":"70006","route_short_name":"97","route_long_name":"Delmar","route_type":3,"route_color":"#FFFFFF","route_text_color":"#000000"}],"agency_name":"Metro St. Louis"},"geometry":{"type":"Point","coordinates":[-90.22896,38.64011]}},{"type":"Feature","properties":{"stop_id":"15190","stop_code":"15190","stop_name":"DELMAR @ JOSEPHINE BAKER EB","stop_desc":"NEAR SIDE DELMAR @ JOSEPHINE BAKER EB","wheelchair_boarding":1,"routes":[{"route_id":"19633","agency_id":"70006","route_short_name":"97","route_long_name":"Delmar","route_type":3,"route_color":"#FFFFFF","route_text_color":"#000000"}],"agency_name":"Metro St. Louis"},"geometry":{"type":"Point","coordinates":[-90.22736,38.63977]}},{"type":"Feature","properties":{"stop_id":"15191","stop_code":"15191","stop_name":"DELMAR @ LEONARD EB","stop_desc":"FAR SIDE DELMAR @ LEONARD EB","wheelchair_boarding":2,"routes":[{"route_id":"19633","agency_id":"70006","route_short_name":"97","route_long_name":"Delmar","route_type":3,"route_color":"#FFFFFF","route_text_color":"#000000"}],"agency_name":"Metro St. Louis"},"geometry":{"type":"Point","coordinates":[-90.22547,38.63939]}},{"type":"Feature","properties":{"stop_id":"15707","stop_code":"15707","stop_name":"CIVIC CENTER TRANSIT CENTER","wheelchair_boarding":1,"routes":[{"route_id":"19631","agency_id":"70006","route_short_name":"94","route_long_name":"Page","route_type":3,"route_color":"#FFFFFF","route_text_color":"#000000"},{"route_id":"19633","agency_id":"70006","route_short_name":"97","route_long_name":"Delmar","route_type":3,"route_color":"#FFFFFF","route_text_color":"#000000"}],"agency_name":"Metro St. Louis"},"geometry":{"type":"Point","coordinates":[-90.20252,38.62525]}},{"type":"Feature","properties":{"stop_id":"1579","stop_code":"1579","stop_name":"14TH STREET @ LOCUST SB","stop_desc":"NEAR SIDE 14TH STREET @ LOCUST SB","wheelchair_boarding":1,"routes":[{"route_id":"19611","agency_id":"70006","route_short_name":"40","route_long_name":"Broadway-Halls Ferry","route_type":3,"route_color":"#FFFFFF","route_text_color":"#000000"},{"route_id":"19612","agency_id":"70006","route_short_name":"41","route_long_name":"Lee","route_type":3,"route_color":"#FFFFFF","route_text_color":"#000000"},{"route_id":"19624","agency_id":"70006","route_short_name":"74","route_long_name":"Florissant","route_type":3,"route_color":"#FFFFFF","route_text_color":"#000000"},{"route_id":"19633","agency_id":"70006","route_short_name":"97","route_long_name":"Delmar","route_type":3,"route_color":"#FFFFFF","route_text_color":"#000000"}],"agency_name":"Metro St. Louis"},"geometry":{"type":"Point","coordinates":[-90.20017,38.63106]}},{"type":"Feature","properties":{"stop_id":"2080","stop_code":"2080","stop_name":"DELMAR @ JACKSON EB","stop_desc":"NEAR SIDE DELMAR @ JACKSON EB","wheelchair_boarding":2,"routes":[{"route_id":"19633","agency_id":"70006","route_short_name":"97","route_long_name":"Delmar","route_type":3,"route_color":"#FFFFFF","route_text_color":"#000000"}],"agency_name":"Metro St. Louis"},"geometry":{"type":"Point","coordinates":[-90.32939,38.65832]}},{"type":"Feature","properties":{"stop_id":"2081","stop_code":"2081","stop_name":"DELMAR @ PURDUE EB","stop_desc":"NEAR SIDE DELMAR @ PURDUE EB","wheelchair_boarding":2,"routes":[{"route_id":"19633","agency_id":"70006","route_short_name":"97","route_long_name":"Delmar","route_type":3,"route_color":"#FFFFFF","route_text_color":"#000000"}],"agency_name":"Metro St. Louis"},"geometry":{"type":"Point","coordinates":[-90.32532,38.65791]}},{"type":"Feature","properties":{"stop_id":"2082","stop_code":"2082","stop_name":"DELMAR @ MIDLAND EB","stop_desc":"FAR SIDE DELMAR @ MIDLAND EB","wheelchair_boarding":1,"routes":[{"route_id":"19633","agency_id":"70006","route_short_name":"97","route_long_name":"Delmar","route_type":3,"route_color":"#FFFFFF","route_text_color":"#000000"}],"agency_name":"Metro St. Louis"},"geometry":{"type":"Point","coordinates":[-90.32045,38.65743]}},{"type":"Feature","properties":{"stop_id":"2083","stop_code":"2083","stop_name":"DELMAR @ VASSAR EB","stop_desc":"NEAR SIDE DELMAR @ VASSAR EB","wheelchair_boarding":2,"routes":[{"route_id":"19633","agency_id":"70006","route_short_name":"97","route_long_name":"Delmar","route_type":3,"route_color":"#FFFFFF","route_text_color":"#000000"}],"agency_name":"Metro St. Louis"},"geometry":{"type":"Point","coordinates":[-90.31649,38.65705]}},{"type":"Feature","properties":{"stop_id":"2090","stop_code":"2090","stop_name":"DELMAR @ BIG BEND EB","stop_desc":"FAR SIDE DELMAR @ BIG BEND EB","wheelchair_boarding":2,"routes":[{"route_id":"19595","agency_id":"70006","route_short_name":"5","route_long_name":"Green","route_type":3,"route_color":"#FFFFFF","route_text_color":"#000000"},{"route_id":"19633","agency_id":"70006","route_short_name":"97","route_long_name":"Delmar","route_type":3,"route_color":"#FFFFFF","route_text_color":"#000000"}],"agency_name":"Metro St. Louis"},"geometry":{"type":"Point","coordinates":[-90.31348,38.65673]}},{"type":"Feature","properties":{"stop_id":"2092","stop_code":"2092","stop_name":"DELMAR @ SGT MIKE KING EB","stop_desc":"FAR SIDE DELMAR @ SGT MIKE KING EB","wheelchair_boarding":1,"routes":[{"route_id":"19633","agency_id":"70006","route_short_name":"97","route_long_name":"Delmar","route_type":3,"route_color":"#FFFFFF","route_text_color":"#000000"}],"agency_name":"Metro St. Louis"},"geometry":{"type":"Point","coordinates":[-90.30978,38.65636]}},{"type":"Feature","properties":{"stop_id":"2093","stop_code":"2093","stop_name":"DELMAR @ LELAND EB","stop_desc":"NEAR SIDE DELMAR @ LELAND EB","wheelchair_boarding":1,"routes":[{"route_id":"19633","agency_id":"70006","route_short_name":"97","route_long_name":"Delmar","route_type":3,"route_color":"#FFFFFF","route_text_color":"#000000"}],"agency_name":"Metro St. Louis"},"geometry":{"type":"Point","coordinates":[-90.30617,38.65599]}},{"type":"Feature","properties":{"stop_id":"2095","stop_code":"2095","stop_name":"DELMAR @ LIMIT EB","stop_desc":"NEAR SIDE DELMAR @ LIMIT EB","wheelchair_boarding":1,"routes":[{"route_id":"19633","agency_id":"70006","route_short_name":"97","route_long_name":"Delmar","route_type":3,"route_color":"#FFFFFF","route_text_color":"#000000"}],"agency_name":"Metro St. Louis"},"geometry":{"type":"Point","coordinates":[-90.3021,38.65562]}},{"type":"Feature","properties":{"stop_id":"2096","stop_code":"2096","stop_name":"DELMAR @ 6144 DELMAR EB","stop_desc":"MID-BLOCK DELMAR @ 6144 DELMAR EB","wheelchair_boarding":1,"routes":[{"route_id":"19593","agency_id":"70006","route_short_name":"2","route_long_name":"Red","route_type":3,"route_color":"#FFFFFF","route_text_color":"#000000"},{"route_id":"19601","agency_id":"70006","route_short_name":"16","route_long_name":"City Limits","route_type":3,"route_color":"#FFFFFF","route_text_color":"#000000"},{"route_id":"19633","agency_id":"70006","route_short_name":"97","route_long_name":"Delmar","route_type":3,"route_color":"#FFFFFF","route_text_color":"#000000"}],"agency_name":"Metro St. Louis"},"geometry":{"type":"Point","coordinates":[-90.29771,38.65516]}},{"type":"Feature","properties":{"stop_id":"2097","stop_code":"2097","stop_name":"DELMAR LOOP TRANSIT CENTER EB","wheelchair_boarding":1,"routes":[{"route_id":"19593","agency_id":"70006","route_short_name":"2","route_long_name":"Red","route_type":3,"route_color":"#FFFFFF","route_text_color":"#000000"},{"route_id":"19601","agency_id":"70006","route_short_name":"16","route_long_name":"City Limits","route_type":3,"route_color":"#FFFFFF","route_text_color":"#000000"},{"route_id":"19630","agency_id":"70006","route_short_name":"91","route_long_name":"Olive","route_type":3,"route_color":"#FFFFFF","route_text_color":"#000000"},{"route_id":"19633","agency_id":"70006","route_short_name":"97","route_long_name":"Delmar","route_type":3,"route_color":"#FFFFFF","route_text_color":"#000000"}],"agency_name":"Metro St. Louis"},"geometry":{"type":"Point","coordinates":[-90.29527,38.65562]}},{"type":"Feature","properties":{"stop_id":"2098","stop_code":"2098","stop_name":"DELMAR @ DEGIVERVILLE EB","stop_desc":"NEAR SIDE DELMAR @ DEGIVERVILLE EB","wheelchair_boarding":1,"routes":[{"route_id":"19633","agency_id":"70006","route_short_name":"97","route_long_name":"Delmar","route_type":3,"route_color":"#FFFFFF","route_text_color":"#000000"}],"agency_name":"Metro St. Louis"},"geometry":{"type":"Point","coordinates":[-90.29329,38.65467]}},{"type":"Feature","properties":{"stop_id":"2099","stop_code":"2099","stop_name":"DELMAR @ HAMILTON EB","stop_desc":"NEAR SIDE DELMAR @ HAMILTON EB","wheelchair_boarding":1,"routes":[{"route_id":"19633","agency_id":"70006","route_short_name":"97","route_long_name":"Delmar","route_type":3,"route_color":"#FFFFFF","route_text_color":"#000000"}],"agency_name":"Metro St. Louis"},"geometry":{"type":"Point","coordinates":[-90.29093,38.65448]}},{"type":"Feature","properties":{"stop_id":"2100","stop_code":"2100","stop_name":"DELMAR @ LAUREL EB","stop_desc":"FAR SIDE DELMAR @ LAUREL EB","wheelchair_boarding":1,"routes":[{"route_id":"19633","agency_id":"70006","route_short_name":"97","route_long_name":"Delmar","route_type":3,"route_color":"#FFFFFF","route_text_color":"#000000"}],"agency_name":"Metro St. Louis"},"geometry":{"type":"Point","coordinates":[-90.28847,38.65425]}},{"type":"Feature","properties":{"stop_id":"2101","stop_code":"2101","stop_name":"DELMAR @ GOODFELLOW EB","stop_desc":"FAR SIDE DELMAR @ GOODFELLOW EB","wheelchair_boarding":1,"routes":[{"route_id":"19629","agency_id":"70006","route_short_name":"90","route_long_name":"Hampton","route_type":3,"route_color":"#FFFFFF","route_text_color":"#000000"},{"route_id":"19633","agency_id":"70006","route_short_name":"97","route_long_name":"Delmar","route_type":3,"route_color":"#FFFFFF","route_text_color":"#000000"}],"agency_name":"Metro St. Louis"},"geometry":{"type":"Point","coordinates":[-90.28582,38.65399]}},{"type":"Feature","properties":{"stop_id":"2103","stop_code":"2103","stop_name":"DELMAR @ CLARA EB","stop_desc":"FAR SIDE DELMAR @ CLARA EB","wheelchair_boarding":1,"routes":[{"route_id":"19633","agency_id":"70006","route_short_name":"97","route_long_name":"Delmar","route_type":3,"route_color":"#FFFFFF","route_text_color":"#000000"}],"agency_name":"Metro St. Louis"},"geometry":{"type":"Point","coordinates":[-90.28176,38.65359]}},{"type":"Feature","properties":{"stop_id":"2104","stop_code":"2104","stop_name":"DELMAR @ BELT EB","stop_desc":"NEAR SIDE DELMAR @ BELT EB","wheelchair_boarding":2,"routes":[{"route_id":"19633","agency_id":"70006","route_short_name":"97","route_long_name":"Delmar","route_type":3,"route_color":"#FFFFFF","route_text_color":"#000000"}],"agency_name":"Metro St. Louis"},"geometry":{"type":"Point","coordinates":[-90.27947,38.65338]}},{"type":"Feature","properties":{"stop_id":"2105","stop_code":"2105","stop_name":"5340 DELMAR EB","stop_desc":"MID-BLOCK 5340 DELMAR EB","wheelchair_boarding":2,"routes":[{"route_id":"19633","agency_id":"70006","route_short_name":"97","route_long_name":"Delmar","route_type":3,"route_color":"#FFFFFF","route_text_color":"#000000"}],"agency_name":"Metro St. Louis"},"geometry":{"type":"Point","coordinates":[-90.27505,38.65294]}},{"type":"Feature","properties":{"stop_id":"2106","stop_code":"2106","stop_name":"DELMAR @ UNION EB","stop_desc":"FAR SIDE DELMAR @ UNION EB","wheelchair_boarding":2,"routes":[{"route_id":"19633","agency_id":"70006","route_short_name":"97","route_long_name":"Delmar","route_type":3,"route_color":"#FFFFFF","route_text_color":"#000000"}],"agency_name":"Metro St. Louis"},"geometry":{"type":"Point","coordinates":[-90.27306,38.65248]}},{"type":"Feature","properties":{"stop_id":"2107","stop_code":"2107","stop_name":"DELMAR @ LAKE EB","stop_desc":"NEAR SIDE DELMAR @ LAKE EB","wheelchair_boarding":2,"routes":[{"route_id":"19633","agency_id":"70006","route_short_name":"97","route_long_name":"Delmar","route_type":3,"route_color":"#FFFFFF","route_text_color":"#000000"}],"agency_name":"Metro St. Louis"},"geometry":{"type":"Point","coordinates":[-90.27029,38.65216]}},{"type":"Feature","properties":{"stop_id":"2108","stop_code":"2108","stop_name":"DELMAR @ ACADEMY EB","stop_desc":"NEAR SIDE DELMAR @ ACADEMY EB","wheelchair_boarding":2,"routes":[{"route_id":"19633","agency_id":"70006","route_short_name":"97","route_long_name":"Delmar","route_type":3,"route_color":"#FFFFFF","route_text_color":"#000000"}],"agency_name":"Metro St. Louis"},"geometry":{"type":"Point","coordinates":[-90.26703,38.65184]}},{"type":"Feature","properties":{"stop_id":"2109","stop_code":"2109","stop_name":"DELMAR @ KINGSHIGHWAY EB","stop_desc":"NEAR SIDE DELMAR @ KINGSHIGHWAY EB","wheelchair_boarding":1,"routes":[{"route_id":"19633","agency_id":"70006","route_short_name":"97","route_long_name":"Delmar","route_type":3,"route_color":"#FFFFFF","route_text_color":"#000000"}],"agency_name":"Metro St. Louis"},"geometry":{"type":"Point","coordinates":[-90.26392,38.6515]}},{"type":"Feature","properties":{"stop_id":"2110","stop_code":"2110","stop_name":"DELMAR @ EUCLID EB","stop_desc":"FAR SIDE DELMAR @ EUCLID EB","wheelchair_boarding":2,"routes":[{"route_id":"19633","agency_id":"70006","route_short_name":"97","route_long_name":"Delmar","route_type":3,"route_color":"#FFFFFF","route_text_color":"#000000"}],"agency_name":"Metro St. Louis"},"geometry":{"type":"Point","coordinates":[-90.26028,38.65128]}},{"type":"Feature","properties":{"stop_id":"2111","stop_code":"2111","stop_name":"DELMAR @ WALTON EB","stop_desc":"NEAR SIDE DELMAR @ WALTON EB","wheelchair_boarding":1,"routes":[{"route_id":"19633","agency_id":"70006","route_short_name":"97","route_long_name":"Delmar","route_type":3,"route_color":"#FFFFFF","route_text_color":"#000000"}],"agency_name":"Metro St. Louis"},"geometry":{"type":"Point","coordinates":[-90.25814,38.65107]}},{"type":"Feature","properties":{"stop_id":"2112","stop_code":"2112","stop_name":"DELMAR @ TAYLOR EB","stop_desc":"NEAR SIDE DELMAR @ TAYLOR EB","wheelchair_boarding":2,"routes":[{"route_id":"19633","agency_id":"70006","route_short_name":"97","route_long_name":"Delmar","route_type":3,"route_color":"#FFFFFF","route_text_color":"#000000"}],"agency_name":"Metro St. Louis"},"geometry":{"type":"Point","coordinates":[-90.25378,38.6503]}},{"type":"Feature","properties":{"stop_id":"2113","stop_code":"2113","stop_name":"DELMAR @ NEWSTEAD EB","stop_desc":"NEAR SIDE DELMAR @ NEWSTEAD EB","wheelchair_boarding":1,"routes":[{"route_id":"19633","agency_id":"70006","route_short_name":"97","route_long_name":"Delmar","route_type":3,"route_color":"#FFFFFF","route_text_color":"#000000"}],"agency_name":"Metro St. Louis"},"geometry":{"type":"Point","coordinates":[-90.25089,38.64907]}},{"type":"Feature","properties":{"stop_id":"2114","stop_code":"2114","stop_name":"DELMAR @ PENDLETON EB","stop_desc":"FAR SIDE DELMAR @ PENDLETON EB","wheelchair_boarding":2,"routes":[{"route_id":"19633","agency_id":"70006","route_short_name":"97","route_long_name":"Delmar","route_type":3,"route_color":"#FFFFFF","route_text_color":"#000000"}],"agency_name":"Metro St. Louis"},"geometry":{"type":"Point","coordinates":[-90.2477,38.64764]}},{"type":"Feature","properties":{"stop_id":"2115","stop_code":"2115","stop_name":"DELMAR @ WHITTIER EB","stop_desc":"FAR SIDE DELMAR @ WHITTIER EB","wheelchair_boarding":2,"routes":[{"route_id":"19633","agency_id":"70006","route_short_name":"97","route_long_name":"Delmar","route_type":3,"route_color":"#FFFFFF","route_text_color":"#000000"}],"agency_name":"Metro St. Louis"},"geometry":{"type":"Point","coordinates":[-90.24514,38.64652]}},{"type":"Feature","properties":{"stop_id":"2116","stop_code":"2116","stop_name":"DELMAR @ SARAH EB","stop_desc":"NEAR SIDE DELMAR @ SARAH EB","wheelchair_boarding":2,"routes":[{"route_id":"19633","agency_id":"70006","route_short_name":"97","route_long_name":"Delmar","route_type":3,"route_color":"#FFFFFF","route_text_color":"#000000"}],"agency_name":"Metro St. Louis"},"geometry":{"type":"Point","coordinates":[-90.24275,38.64547]}},{"type":"Feature","properties":{"stop_id":"2117","stop_code":"2117","stop_name":"4010 DELMAR EB","stop_desc":"MID-BLOCK 4010 DELMAR EB","wheelchair_boarding":2,"routes":[{"route_id":"19633","agency_id":"70006","route_short_name":"97","route_long_name":"Delmar","route_type":3,"route_color":"#FFFFFF","route_text_color":"#000000"}],"agency_name":"Metro St. Louis"},"geometry":{"type":"Point","coordinates":[-90.24047,38.64447]}},{"type":"Feature","properties":{"stop_id":"2118","stop_code":"2118","stop_name":"DELMAR @ VANDEVENTER EB","stop_desc":"NEAR SIDE DELMAR @ VANDEVENTER EB","wheelchair_boarding":2,"routes":[{"route_id":"19633","agency_id":"70006","route_short_name":"97","route_long_name":"Delmar","route_type":3,"route_color":"#FFFFFF","route_text_color":"#000000"}],"agency_name":"Metro St. Louis"},"geometry":{"type":"Point","coordinates":[-90.23821,38.64349]}},{"type":"Feature","properties":{"stop_id":"5261","stop_code":"5261","stop_name":"NORTH HANLEY @ MARYLAND NB","stop_desc":"NEAR SIDE NORTH HANLEY @ MARYLAND NB","wheelchair_boarding":1,"routes":[{"route_id":"19608","agency_id":"70006","route_short_name":"33","route_long_name":"Midland","route_type":3,"route_color":"#FFFFFF","route_text_color":"#000000"},{"route_id":"19628","agency_id":"70006","route_short_name":"79","route_long_name":"Ferguson-Clayton","route_type":3,"route_color":"#FFFFFF","route_text_color":"#000000"},{"route_id":"19633","agency_id":"70006","route_short_name":"97","route_long_name":"Delmar","route_type":3,"route_color":"#FFFFFF","route_text_color":"#000000"}],"agency_name":"Metro St. Louis"},"geometry":{"type":"Point","coordinates":[-90.33399,38.65046]}},{"type":"Feature","properties":{"stop_id":"5968","stop_code":"5968","stop_name":"NORTH HANLEY @ PERSHING NB","stop_desc":"NEAR SIDE NORTH HANLEY @ PERSHING NB","wheelchair_boarding":1,"routes":[{"route_id":"19608","agency_id":"70006","route_short_name":"33","route_long_name":"Midland","route_type":3,"route_color":"#FFFFFF","route_text_color":"#000000"},{"route_id":"19628","agency_id":"70006","route_short_name":"79","route_long_name":"Ferguson-Clayton","route_type":3,"route_color":"#FFFFFF","route_text_color":"#000000"},{"route_id":"19633","agency_id":"70006","route_short_name":"97","route_long_name":"Delmar","route_type":3,"route_color":"#FFFFFF","route_text_color":"#000000"}],"agency_name":"Metro St. Louis"},"geometry":{"type":"Point","coordinates":[-90.33352,38.65375]}},{"type":"Feature","properties":{"stop_id":"5969","stop_code":"5969","stop_name":"NORTH HANLEY @ STRATFORD NB","stop_desc":"FAR SIDE NORTH HANLEY @ STRATFORD NB","wheelchair_boarding":1,"routes":[{"route_id":"19608","agency_id":"70006","route_short_name":"33","route_long_name":"Midland","route_type":3,"route_color":"#FFFFFF","route_text_color":"#000000"},{"route_id":"19628","agency_id":"70006","route_short_name":"79","route_long_name":"Ferguson-Clayton","route_type":3,"route_color":"#FFFFFF","route_text_color":"#000000"},{"route_id":"19633","agency_id":"70006","route_short_name":"97","route_long_name":"Delmar","route_type":3,"route_color":"#FFFFFF","route_text_color":"#000000"}],"agency_name":"Metro St. Louis"},"geometry":{"type":"Point","coordinates":[-90.33311,38.65632]}},{"type":"Feature","properties":{"stop_id":"5970","stop_code":"5970","stop_name":"NORTH HANLEY @ DELMAR NB","stop_desc":"NEAR SIDE NORTH HANLEY @ DELMAR NB","wheelchair_boarding":2,"routes":[{"route_id":"19628","agency_id":"70006","route_short_name":"79","route_long_name":"Ferguson-Clayton","route_type":3,"route_color":"#FFFFFF","route_text_color":"#000000"},{"route_id":"19633","agency_id":"70006","route_short_name":"97","route_long_name":"Delmar","route_type":3,"route_color":"#FFFFFF","route_text_color":"#000000"}],"agency_name":"Metro St. Louis"},"geometry":{"type":"Point","coordinates":[-90.3328,38.65834]}},{"type":"Feature","properties":{"stop_id":"7137","stop_code":"7137","stop_name":"DR ML KING @ LEFFINGWELL EB","stop_desc":"NEAR SIDE DR ML KING @ LEFFINGWELL EB","wheelchair_boarding":2,"routes":[{"route_id":"19633","agency_id":"70006","route_short_name":"97","route_long_name":"Delmar","route_type":3,"route_color":"#FFFFFF","route_text_color":"#000000"}],"agency_name":"Metro St. Louis"},"geometry":{"type":"Point","coordinates":[-90.21686,38.63889]}},{"type":"Feature","properties":{"stop_id":"7138","stop_code":"7138","stop_name":"DR ML KING @ JEFFERSON EB","stop_desc":"NEAR SIDE DR ML KING @ JEFFERSON EB","wheelchair_boarding":2,"routes":[{"route_id":"19633","agency_id":"70006","route_short_name":"97","route_long_name":"Delmar","route_type":3,"route_color":"#FFFFFF","route_text_color":"#000000"}],"agency_name":"Metro St. Louis"},"geometry":{"type":"Point","coordinates":[-90.21295,38.6378]}},{"type":"Feature","properties":{"stop_id":"759","stop_code":"759","stop_name":"14TH STREET @ WASHINGTON SB","stop_desc":"FAR SIDE 14TH STREET @ WASHINGTON SB","wheelchair_boarding":2,"routes":[{"route_id":"19612","agency_id":"70006","route_short_name":"41","route_long_name":"Lee","route_type":3,"route_color":"#FFFFFF","route_text_color":"#000000"},{"route_id":"19624","agency_id":"70006","route_short_name":"74","route_long_name":"Florissant","route_type":3,"route_color":"#FFFFFF","route_text_color":"#000000"},{"route_id":"19633","agency_id":"70006","route_short_name":"97","route_long_name":"Delmar","route_type":3,"route_color":"#FFFFFF","route_text_color":"#000000"}],"agency_name":"Metro St. Louis"},"geometry":{"type":"Point","coordinates":[-90.1998,38.63214]}},{"type":"Feature","properties":{"stop_id":"7855","stop_code":"7855","stop_name":"14TH STREET @ MARKET SB","stop_desc":"MID-BLOCK 14TH STREET @ MARKET SB","wheelchair_boarding":1,"routes":[{"route_id":"19594","agency_id":"70006","route_short_name":"4","route_long_name":"Natural Bridge","route_type":3,"route_color":"#FFFFFF","route_text_color":"#000000"},{"route_id":"19598","agency_id":"70006","route_short_name":"10","route_long_name":"Gravois-Lindell","route_type":3,"route_color":"#FFFFFF","route_text_color":"#000000"},{"route_id":"19607","agency_id":"70006","route_short_name":"32","route_long_name":"Dr ML King","route_type":3,"route_color":"#FFFFFF","route_text_color":"#000000"},{"route_id":"19611","agency_id":"70006","route_short_name":"40","route_long_name":"Broadway-Halls Ferry","route_type":3,"route_color":"#FFFFFF","route_text_color":"#000000"},{"route_id":"19612","agency_id":"70006","route_short_name":"41","route_long_name":"Lee","route_type":3,"route_color":"#FFFFFF","route_text_color":"#000000"},{"route_id":"19624","agency_id":"70006","route_short_name":"74","route_long_name":"Florissant","route_type":3,"route_color":"#FFFFFF","route_text_color":"#000000"},{"route_id":"19631","agency_id":"70006","route_short_name":"94","route_long_name":"Page","route_type":3,"route_color":"#FFFFFF","route_text_color":"#000000"},{"route_id":"19633","agency_id":"70006","route_short_name":"97","route_long_name":"Delmar","route_type":3,"route_color":"#FFFFFF","route_text_color":"#000000"}],"agency_name":"Metro St. Louis"},"geometry":{"type":"Point","coordinates":[-90.20127,38.62775]}},{"type":"Feature","properties":{"stop_id":"8280","stop_code":"8280","stop_name":"FORSYTH @ BEMISTON EB","stop_desc":"FAR SIDE FORSYTH @ BEMISTON EB","wheelchair_boarding":1,"routes":[{"route_id":"19608","agency_id":"70006","route_short_name":"33","route_long_name":"Midland","route_type":3,"route_color":"#FFFFFF","route_text_color":"#000000"},{"route_id":"19628","agency_id":"70006","route_short_name":"79","route_long_name":"Ferguson-Clayton","route_type":3,"route_color":"#FFFFFF","route_text_color":"#000000"},{"route_id":"19633","agency_id":"70006","route_short_name":"97","route_long_name":"Delmar","route_type":3,"route_color":"#FFFFFF","route_text_color":"#000000"}],"agency_name":"Metro St. Louis"},"geometry":{"type":"Point","coordinates":[-90.33658,38.65007]}},{"type":"Feature","properties":{"stop_id":"8513","stop_code":"8513","stop_name":"FRANKLIN @ COMPTON EB","stop_desc":"MID-BLOCK FRANKLIN @ COMPTON EB","wheelchair_boarding":1,"routes":[{"route_id":"19633","agency_id":"70006","route_short_name":"97","route_long_name":"Delmar","route_type":3,"route_color":"#FFFFFF","route_text_color":"#000000"}],"agency_name":"Metro St. Louis"},"geometry":{"type":"Point","coordinates":[-90.22312,38.63994]}},{"type":"Feature","properties":{"stop_id":"8515","stop_code":"8515","stop_name":"FRANKLIN @ GARRISON EB","stop_desc":"FAR SIDE FRANKLIN @ GARRISON EB","wheelchair_boarding":2,"routes":[{"route_id":"19633","agency_id":"70006","route_short_name":"97","route_long_name":"Delmar","route_type":3,"route_color":"#FFFFFF","route_text_color":"#000000"}],"agency_name":"Metro St. Louis"},"geometry":{"type":"Point","coordinates":[-90.22013,38.63935]}},{"type":"Feature","properties":{"stop_id":"9585","stop_code":"9585","stop_name":"ENRIGHT @ SPRING EB","stop_desc":"NEAR SIDE ENRIGHT @ SPRING EB","wheelchair_boarding":1,"routes":[{"route_id":"19633","agency_id":"70006","route_short_name":"97","route_long_name":"Delmar","route_type":3,"route_color":"#FFFFFF","route_text_color":"#000000"}],"agency_name":"Metro St. Louis"},"geometry":{"type":"Point","coordinates":[-90.23406,38.64288]}},{"type":"Feature","properties":{"stop_id":"9600","stop_code":"9600","stop_name":"ENRIGHT @ VANDEVENTER EB","stop_desc":"FAR SIDE ENRIGHT @ VANDEVENTER EB","wheelchair_boarding":2,"routes":[{"route_id":"19633","agency_id":"70006","route_short_name":"97","route_long_name":"Delmar","route_type":3,"route_color":"#FFFFFF","route_text_color":"#000000"}],"agency_name":"Metro St. Louis"},"geometry":{"type":"Point","coordinates":[-90.23653,38.64397]}}]}