{"type":"FeatureCollection","features":[{"type":"Feature","properties":{"agency_name":"Metro St. Louis","route_id":"19647","agency_id":"70006","route_short_name":"15","route_long_name":"Belleville-O'Fallon","route_type":3,"route_color":"#FFFFFF","route_text_color":"#000000"},"geometry":{"type":"MultiLineString","coordinates":[[[-89.97503,38.52198],[-89.97451,38.52159],[-89.97503,38.52198],[-89.97508,38.522],[-89.97518,38.52203],[-89.97529,38.52203],[-89.97538,38.52201],[-89.97544,38.52197],[-89.97552,38.52191],[-89.97556,38.52185],[-89.97601,38.52046],[-89.97754,38.51936],[-89.97764,38.51952],[-89.97767,38.51962],[-89.97772,38.52],[-89.9778,38.52015],[-89.97787,38.52024],[-89.97832,38.52057],[-89.97929,38.52121],[-89.98032,38.52192],[-89.97705,38.52495],[-89.97574,38.52594],[-89.97422,38.52702],[-89.97386,38.52731],[-89.97306,38.52789],[-89.97206,38.52858],[-89.9714,38.52896],[-89.96932,38.53025],[-89.9684,38.53085],[-89.96531,38.53293],[-89.96516,38.53301],[-89.96463,38.53338],[-89.96443,38.5335],[-89.96424,38.53366],[-89.96391,38.53409],[-89.96352,38.53474],[-89.9632,38.53521],[-89.96255,38.5361],[-89.96232,38.53634],[-89.96213,38.5365],[-89.96198,38.5366],[-89.96169,38.53674],[-89.9593,38.5378],[-89.95722,38.53863],[-89.95612,38.53903],[-89.95453,38.53956],[-89.95375,38.53974],[-89.95262,38.5399],[-89.95177,38.54005],[-89.95121,38.54018],[-89.94968,38.54056],[-89.94779,38.54108],[-89.94488,38.54183],[-89.94327,38.54232],[-89.94129,38.54296],[-89.93974,38.54349],[-89.93826,38.54404],[-89.93476,38.54538],[-89.93165,38.54648],[-89.93056,38.54682],[-89.93016,38.54691],[-89.92722,38.54736],[-89.91918,38.54852],[-89.91857,38.54862],[-89.91818,38.54869],[-89.91563,38.54933],[-89.91507,38.54945],[-89.91382,38.54966],[-89.91235,38.54987],[-89.91172,38.54998],[-89.9109,38.55015],[-89.90974,38.55047],[-89.90919,38.5507],[-89.90885,38.55087],[-89.90827,38.55121],[-89.90755,38.55168],[-89.90478,38.55371],[-89.90278,38.55523],[-89.90164,38.55605],[-89.90142,38.55623],[-89.90111,38.55653],[-89.90081,38.55687],[-89.89979,38.5582],[-89.89947,38.55865],[-89.89721,38.56158],[-89.89762,38.5618],[-89.90012,38.56299],[-89.90033,38.56311],[-89.90051,38.56326],[-89.90064,38.5634],[-89.90081,38.56368],[-89.90089,38.5639],[-89.90093,38.5641],[-89.90091,38.56533],[-89.90093,38.56566],[-89.90092,38.56594],[-89.90094,38.56618],[-89.90112,38.56685],[-89.90128,38.56727],[-89.90143,38.56756],[-89.90187,38.56823],[-89.9022,38.56862],[-89.9029,38.56926],[-89.9076,38.57315],[-89.90654,38.57329],[-89.90532,38.57305],[-89.90494,38.57287],[-89.90522,38.57238],[-89.90542,38.5722],[-89.90545,38.57213],[-89.90553,38.57204],[-89.9059,38.57175]],[[-89.9077,38.57323],[-89.9076,38.57315],[-89.9081,38.5736],[-89.90848,38.57399],[-89.90886,38.57444],[-89.90923,38.57496],[-89.90938,38.5752],[-89.90969,38.57576],[-89.91052,38.57742],[-89.91082,38.57805],[-89.91095,38.57845],[-89.91105,38.5792],[-89.91104,38.58189],[-89.91101,38.58234],[-89.91101,38.5829],[-89.91103,38.58473],[-89.91108,38.58594],[-89.91109,38.58704],[-89.91107,38.5875],[-89.91108,38.58824],[-89.91098,38.58913],[-89.91094,38.5897]]]}},{"type":"Feature","properties":{"stop_id":"10981","stop_code":"10981","stop_name":"LINCOLN @ 3RD STREET NB","stop_desc":"NEAR SIDE LINCOLN @ 3RD STREET NB","wheelchair_boarding":2,"routes":[{"route_id":"19644","agency_id":"70006","route_short_name":"12","route_long_name":"OFallon-Fairview Heights","route_type":3,"route_color":"#FFFFFF","route_text_color":"#000000"},{"route_id":"19647","agency_id":"70006","route_short_name":"15","route_long_name":"Belleville-O'Fallon","route_type":3,"route_color":"#FFFFFF","route_text_color":"#000000"}],"agency_name":"Metro St. Louis"},"geometry":{"type":"Point","coordinates":[-89.91087,38.59002]}},{"type":"Feature","properties":{"stop_id":"10982","stop_code":"10982","stop_name":"LINCOLN @ 5TH STREET NB","stop_desc":"NEAR SIDE LINCOLN @ 5TH STREET NB","wheelchair_boarding":2,"routes":[{"route_id":"19644","agency_id":"70006","route_short_name":"12","route_long_name":"OFallon-Fairview Heights","route_type":3,"route_color":"#FFFFFF","route_text_color":"#000000"},{"route_id":"19647","agency_id":"70006","route_short_name":"15","route_long_name":"Belleville-O'Fallon","route_type":3,"route_color":"#FFFFFF","route_text_color":"#000000"}],"agency_name":"Metro St. Louis"},"geometry":{"type":"Point","coordinates":[-89.91098,38.58861]}},{"type":"Feature","properties":{"stop_id":"10984","stop_code":"10984","stop_name":"LINCOLN @ 7TH STREET NB","stop_desc":"NEAR SIDE LINCOLN @ 7TH STREET NB","wheelchair_boarding":2,"routes":[{"route_id":"19644","agency_id":"70006","route_short_name":"12","route_long_name":"OFallon-Fairview Heights","route_type":3,"route_color":"#FFFFFF","route_text_color":"#000000"},{"route_id":"19647","agency_id":"70006","route_short_name":"15","route_long_name":"Belleville-O'Fallon","route_type":3,"route_color":"#FFFFFF","route_text_color":"#000000"}],"agency_name":"Metro St. Louis"},"geometry":{"type":"Point","coordinates":[-89.91104,38.58655]}},{"type":"Feature","properties":{"stop_id":"11101","stop_code":"11101","stop_name":"SCHEEL @ BENTON WB","stop_desc":"NEAR SIDE SCHEEL @ BENTON WB","wheelchair_boarding":2,"routes":[{"route_id":"19636","agency_id":"70006","route_short_name":"1","route_long_name":"Main Street - State Street","route_type":3,"route_color":"#FFFFFF","route_text_color":"#000000"},{"route_id":"19647","agency_id":"70006","route_short_name":"15","route_long_name":"Belleville-O'Fallon","route_type":3,"route_color":"#FFFFFF","route_text_color":"#000000"},{"route_id":"19648","agency_id":"70006","route_short_name":"16","route_long_name":"St. Clair Square","route_type":3,"route_color":"#FFFFFF","route_text_color":"#000000"},{"route_id":"19649","agency_id":"70006","route_short_name":"23","route_long_name":"Belleville-College","route_type":3,"route_color":"#FFFFFF","route_text_color":"#000000"}],"agency_name":"Metro St. Louis"},"geometry":{"type":"Point","coordinates":[-89.97596,38.52055]}},{"type":"Feature","properties":{"stop_id":"11102","stop_code":"11102","stop_name":"BELLEVILLE TRANSIT CENTER","wheelchair_boarding":1,"routes":[{"route_id":"19636","agency_id":"70006","route_short_name":"1","route_long_name":"Main Street - State Street","route_type":3,"route_color":"#FFFFFF","route_text_color":"#000000"},{"route_id":"19647","agency_id":"70006","route_short_name":"15","route_long_name":"Belleville-O'Fallon","route_type":3,"route_color":"#FFFFFF","route_text_color":"#000000"},{"route_id":"19648","agency_id":"70006","route_short_name":"16","route_long_name":"St. Clair Square","route_type":3,"route_color":"#FFFFFF","route_text_color":"#000000"},{"route_id":"19649","agency_id":"70006","route_short_name":"23","route_long_name":"Belleville-College","route_type":3,"route_color":"#FFFFFF","route_text_color":"#000000"}],"agency_name":"Metro St. Louis"},"geometry":{"type":"Point","coordinates":[-89.97461,38.5217]}},{"type":"Feature","properties":{"stop_id":"11916","stop_code":"11916","stop_name":"MAIN @ SHILOH STATION ROAD EB","stop_desc":"FAR SIDE MAIN @ SHILOH STATION ROAD EB","wheelchair_boarding":2,"routes":[{"route_id":"19647","agency_id":"70006","route_short_name":"15","route_long_name":"Belleville-O'Fallon","route_type":3,"route_color":"#FFFFFF","route_text_color":"#000000"}],"agency_name":"Metro St. Louis"},"geometry":{"type":"Point","coordinates":[-89.90162,38.55602]}},{"type":"Feature","properties":{"stop_id":"11924","stop_code":"11924","stop_name":"LEBANON @ CHRISTINE EB","stop_desc":"NEAR SIDE LEBANON @ CHRISTINE EB","wheelchair_boarding":2,"routes":[{"route_id":"19647","agency_id":"70006","route_short_name":"15","route_long_name":"Belleville-O'Fallon","route_type":3,"route_color":"#FFFFFF","route_text_color":"#000000"}],"agency_name":"Metro St. Louis"},"geometry":{"type":"Point","coordinates":[-89.92347,38.54789]}},{"type":"Feature","properties":{"stop_id":"11984","stop_code":"11984","stop_name":"DOUGLAS @ CHARLES NB","stop_desc":"NEAR SIDE DOUGLAS @ CHARLES NB","wheelchair_boarding":2,"routes":[{"route_id":"19647","agency_id":"70006","route_short_name":"15","route_long_name":"Belleville-O'Fallon","route_type":3,"route_color":"#FFFFFF","route_text_color":"#000000"}],"agency_name":"Metro St. Louis"},"geometry":{"type":"Point","coordinates":[-89.97791,38.52035]}},{"type":"Feature","properties":{"stop_id":"11985","stop_code":"11985","stop_name":"DOUGLAS @ CHURCH NB","stop_desc":"NEAR SIDE DOUGLAS @ CHURCH NB","wheelchair_boarding":2,"routes":[{"route_id":"19647","agency_id":"70006","route_short_name":"15","route_long_name":"Belleville-O'Fallon","route_type":3,"route_color":"#FFFFFF","route_text_color":"#000000"}],"agency_name":"Metro St. Louis"},"geometry":{"type":"Point","coordinates":[-89.9792,38.52122]}},{"type":"Feature","properties":{"stop_id":"11986","stop_code":"11986","stop_name":"DOUGLAS @ LEBANON NB","stop_desc":"NEAR SIDE DOUGLAS @ LEBANON NB","wheelchair_boarding":2,"routes":[{"route_id":"19647","agency_id":"70006","route_short_name":"15","route_long_name":"Belleville-O'Fallon","route_type":3,"route_color":"#FFFFFF","route_text_color":"#000000"}],"agency_name":"Metro St. Louis"},"geometry":{"type":"Point","coordinates":[-89.98012,38.52184]}},{"type":"Feature","properties":{"stop_id":"11987","stop_code":"11987","stop_name":"LEBANON @ BENTON EB","stop_desc":"NEAR SIDE LEBANON @ BENTON EB","wheelchair_boarding":2,"routes":[{"route_id":"19647","agency_id":"70006","route_short_name":"15","route_long_name":"Belleville-O'Fallon","route_type":3,"route_color":"#FFFFFF","route_text_color":"#000000"}],"agency_name":"Metro St. Louis"},"geometry":{"type":"Point","coordinates":[-89.97964,38.52253]}},{"type":"Feature","properties":{"stop_id":"11988","stop_code":"11988","stop_name":"LEBANON @ CLAY EB","stop_desc":"NEAR SIDE LEBANON @ CLAY EB","wheelchair_boarding":2,"routes":[{"route_id":"19647","agency_id":"70006","route_short_name":"15","route_long_name":"Belleville-O'Fallon","route_type":3,"route_color":"#FFFFFF","route_text_color":"#000000"}],"agency_name":"Metro St. Louis"},"geometry":{"type":"Point","coordinates":[-89.97881,38.5233]}},{"type":"Feature","properties":{"stop_id":"11989","stop_code":"11989","stop_name":"LEBANON @ BRISTOW EB","stop_desc":"NEAR SIDE LEBANON @ BRISTOW EB","wheelchair_boarding":2,"routes":[{"route_id":"19647","agency_id":"70006","route_short_name":"15","route_long_name":"Belleville-O'Fallon","route_type":3,"route_color":"#FFFFFF","route_text_color":"#000000"}],"agency_name":"Metro St. Louis"},"geometry":{"type":"Point","coordinates":[-89.97713,38.52487]}},{"type":"Feature","properties":{"stop_id":"11990","stop_code":"11990","stop_name":"LEBANON @ HECKER EB","stop_desc":"NEAR SIDE LEBANON @ HECKER EB","wheelchair_boarding":2,"routes":[{"route_id":"19647","agency_id":"70006","route_short_name":"15","route_long_name":"Belleville-O'Fallon","route_type":3,"route_color":"#FFFFFF","route_text_color":"#000000"}],"agency_name":"Metro St. Louis"},"geometry":{"type":"Point","coordinates":[-89.97636,38.52547]}},{"type":"Feature","properties":{"stop_id":"11991","stop_code":"11991","stop_name":"LEBANON @ ARTHUR EB","stop_desc":"NEAR SIDE LEBANON @ ARTHUR EB","wheelchair_boarding":2,"routes":[{"route_id":"19647","agency_id":"70006","route_short_name":"15","route_long_name":"Belleville-O'Fallon","route_type":3,"route_color":"#FFFFFF","route_text_color":"#000000"}],"agency_name":"Metro St. Louis"},"geometry":{"type":"Point","coordinates":[-89.97498,38.52649]}},{"type":"Feature","properties":{"stop_id":"11992","stop_code":"11992","stop_name":"LEBANON @ LUCINDA EB","stop_desc":"NEAR SIDE LEBANON @ LUCINDA EB","wheelchair_boarding":2,"routes":[{"route_id":"19647","agency_id":"70006","route_short_name":"15","route_long_name":"Belleville-O'Fallon","route_type":3,"route_color":"#FFFFFF","route_text_color":"#000000"}],"agency_name":"Metro St. Louis"},"geometry":{"type":"Point","coordinates":[-89.9741,38.52714]}},{"type":"Feature","properties":{"stop_id":"11993","stop_code":"11993","stop_name":"LEBANON @ KOERNER EB","stop_desc":"NEAR SIDE LEBANON @ KOERNER EB","wheelchair_boarding":2,"routes":[{"route_id":"19647","agency_id":"70006","route_short_name":"15","route_long_name":"Belleville-O'Fallon","route_type":3,"route_color":"#FFFFFF","route_text_color":"#000000"}],"agency_name":"Metro St. Louis"},"geometry":{"type":"Point","coordinates":[-89.97319,38.52779]}},{"type":"Feature","properties":{"stop_id":"11994","stop_code":"11994","stop_name":"LEBANON @ FOREST HILL EB","stop_desc":"NEAR SIDE LEBANON @ FOREST HILL EB","wheelchair_boarding":2,"routes":[{"route_id":"19647","agency_id":"70006","route_short_name":"15","route_long_name":"Belleville-O'Fallon","route_type":3,"route_color":"#FFFFFF","route_text_color":"#000000"}],"agency_name":"Metro St. Louis"},"geometry":{"type":"Point","coordinates":[-89.97177,38.52875]}},{"type":"Feature","properties":{"stop_id":"11996","stop_code":"11996","stop_name":"1234 LEBANON EB","stop_desc":"MID-BLOCK 1234 LEBANON EB","wheelchair_boarding":2,"routes":[{"route_id":"19647","agency_id":"70006","route_short_name":"15","route_long_name":"Belleville-O'Fallon","route_type":3,"route_color":"#FFFFFF","route_text_color":"#000000"}],"agency_name":"Metro St. Louis"},"geometry":{"type":"Point","coordinates":[-89.96975,38.52996]}},{"type":"Feature","properties":{"stop_id":"11998","stop_code":"11998","stop_name":"LEBANON @ DEWEY EB","stop_desc":"FAR SIDE LEBANON @ DEWEY EB","wheelchair_boarding":2,"routes":[{"route_id":"19647","agency_id":"70006","route_short_name":"15","route_long_name":"Belleville-O'Fallon","route_type":3,"route_color":"#FFFFFF","route_text_color":"#000000"},{"route_id":"19649","agency_id":"70006","route_short_name":"23","route_long_name":"Belleville-College","route_type":3,"route_color":"#FFFFFF","route_text_color":"#000000"}],"agency_name":"Metro St. Louis"},"geometry":{"type":"Point","coordinates":[-89.96723,38.53166]}},{"type":"Feature","properties":{"stop_id":"11999","stop_code":"11999","stop_name":"LEBANON @ FREEMONT EB","stop_desc":"NEAR SIDE LEBANON @ FREEMONT EB","wheelchair_boarding":2,"routes":[{"route_id":"19647","agency_id":"70006","route_short_name":"15","route_long_name":"Belleville-O'Fallon","route_type":3,"route_color":"#FFFFFF","route_text_color":"#000000"},{"route_id":"19649","agency_id":"70006","route_short_name":"23","route_long_name":"Belleville-College","route_type":3,"route_color":"#FFFFFF","route_text_color":"#000000"}],"agency_name":"Metro St. Louis"},"geometry":{"type":"Point","coordinates":[-89.96601,38.53246]}},{"type":"Feature","properties":{"stop_id":"12001","stop_code":"12001","stop_name":"LEBANON @ GROVE NB","stop_desc":"NEAR SIDE LEBANON @ GROVE NB","wheelchair_boarding":2,"routes":[{"route_id":"19647","agency_id":"70006","route_short_name":"15","route_long_name":"Belleville-O'Fallon","route_type":3,"route_color":"#FFFFFF","route_text_color":"#000000"}],"agency_name":"Metro St. Louis"},"geometry":{"type":"Point","coordinates":[-89.96356,38.53461]}},{"type":"Feature","properties":{"stop_id":"12002","stop_code":"12002","stop_name":"LEBANON @ OLD COLLINSVILLE NB","stop_desc":"NEAR SIDE LEBANON @ OLD COLLINSVILLE NB","wheelchair_boarding":2,"routes":[{"route_id":"19647","agency_id":"70006","route_short_name":"15","route_long_name":"Belleville-O'Fallon","route_type":3,"route_color":"#FFFFFF","route_text_color":"#000000"}],"agency_name":"Metro St. Louis"},"geometry":{"type":"Point","coordinates":[-89.96257,38.53602]}},{"type":"Feature","properties":{"stop_id":"12003","stop_code":"12003","stop_name":"LEBANON @ DUBLIN EB","stop_desc":"NEAR SIDE LEBANON @ DUBLIN EB","wheelchair_boarding":2,"routes":[{"route_id":"19647","agency_id":"70006","route_short_name":"15","route_long_name":"Belleville-O'Fallon","route_type":3,"route_color":"#FFFFFF","route_text_color":"#000000"}],"agency_name":"Metro St. Louis"},"geometry":{"type":"Point","coordinates":[-89.9584,38.53815]}},{"type":"Feature","properties":{"stop_id":"12004","stop_code":"12004","stop_name":"LEBANON @ SOUTHWIND EB","stop_desc":"NEAR SIDE LEBANON @ SOUTHWIND EB","wheelchair_boarding":2,"routes":[{"route_id":"19647","agency_id":"70006","route_short_name":"15","route_long_name":"Belleville-O'Fallon","route_type":3,"route_color":"#FFFFFF","route_text_color":"#000000"}],"agency_name":"Metro St. Louis"},"geometry":{"type":"Point","coordinates":[-89.95592,38.53907]}},{"type":"Feature","properties":{"stop_id":"12005","stop_code":"12005","stop_name":"LEBANON @ WHITESIDE EB","stop_desc":"FAR SIDE LEBANON @ WHITESIDE EB","wheelchair_boarding":2,"routes":[{"route_id":"19647","agency_id":"70006","route_short_name":"15","route_long_name":"Belleville-O'Fallon","route_type":3,"route_color":"#FFFFFF","route_text_color":"#000000"}],"agency_name":"Metro St. Louis"},"geometry":{"type":"Point","coordinates":[-89.95279,38.53987]}},{"type":"Feature","properties":{"stop_id":"12006","stop_code":"12006","stop_name":"LEBANON @ SAN MATEO EB","stop_desc":"FAR SIDE LEBANON @ SAN MATEO EB","wheelchair_boarding":2,"routes":[{"route_id":"19647","agency_id":"70006","route_short_name":"15","route_long_name":"Belleville-O'Fallon","route_type":3,"route_color":"#FFFFFF","route_text_color":"#000000"}],"agency_name":"Metro St. Louis"},"geometry":{"type":"Point","coordinates":[-89.94959,38.54058]}},{"type":"Feature","properties":{"stop_id":"12007","stop_code":"12007","stop_name":"LEBANON @ HARTMAN EB TP ONLY","stop_desc":"FAR SIDE LEBANON @ HARTMAN EB TP ONLY","wheelchair_boarding":2,"routes":[{"route_id":"19647","agency_id":"70006","route_short_name":"15","route_long_name":"Belleville-O'Fallon","route_type":3,"route_color":"#FFFFFF","route_text_color":"#000000"}],"agency_name":"Metro St. Louis"},"geometry":{"type":"Point","coordinates":[-89.94654,38.54138]}},{"type":"Feature","properties":{"stop_id":"12008","stop_code":"12008","stop_name":"LEBANON @ ANDERSON EB","stop_desc":"FAR SIDE LEBANON @ ANDERSON EB","wheelchair_boarding":2,"routes":[{"route_id":"19647","agency_id":"70006","route_short_name":"15","route_long_name":"Belleville-O'Fallon","route_type":3,"route_color":"#FFFFFF","route_text_color":"#000000"}],"agency_name":"Metro St. Louis"},"geometry":{"type":"Point","coordinates":[-89.94543,38.54167]}},{"type":"Feature","properties":{"stop_id":"12009","stop_code":"12009","stop_name":"LEBANON @ WILLIAMSBURG EB","stop_desc":"NEAR SIDE LEBANON @ WILLIAMSBURG EB","wheelchair_boarding":2,"routes":[{"route_id":"19647","agency_id":"70006","route_short_name":"15","route_long_name":"Belleville-O'Fallon","route_type":3,"route_color":"#FFFFFF","route_text_color":"#000000"}],"agency_name":"Metro St. Louis"},"geometry":{"type":"Point","coordinates":[-89.94345,38.54224]}},{"type":"Feature","properties":{"stop_id":"12010","stop_code":"12010","stop_name":"LEBANON @ WARRIOR WAY EB","stop_desc":"NEAR SIDE LEBANON @ WARRIOR WAY EB","wheelchair_boarding":2,"routes":[{"route_id":"19647","agency_id":"70006","route_short_name":"15","route_long_name":"Belleville-O'Fallon","route_type":3,"route_color":"#FFFFFF","route_text_color":"#000000"}],"agency_name":"Metro St. Louis"},"geometry":{"type":"Point","coordinates":[-89.93995,38.54337]}},{"type":"Feature","properties":{"stop_id":"12011","stop_code":"12011","stop_name":"2620 LEBANON EB","stop_desc":"MID-BLOCK 2620 LEBANON EB","wheelchair_boarding":2,"routes":[{"route_id":"19647","agency_id":"70006","route_short_name":"15","route_long_name":"Belleville-O'Fallon","route_type":3,"route_color":"#FFFFFF","route_text_color":"#000000"}],"agency_name":"Metro St. Louis"},"geometry":{"type":"Point","coordinates":[-89.93813,38.54407]}},{"type":"Feature","properties":{"stop_id":"12012","stop_code":"12012","stop_name":"LEBANON @ ST. JOHN EB","stop_desc":"NEAR SIDE LEBANON @ ST. JOHN EB","wheelchair_boarding":2,"routes":[{"route_id":"19647","agency_id":"70006","route_short_name":"15","route_long_name":"Belleville-O'Fallon","route_type":3,"route_color":"#FFFFFF","route_text_color":"#000000"}],"agency_name":"Metro St. Louis"},"geometry":{"type":"Point","coordinates":[-89.93666,38.54464]}},{"type":"Feature","properties":{"stop_id":"12013","stop_code":"12013","stop_name":"LEBANON @ GREEN MOUNT EB","stop_desc":"FAR SIDE LEBANON @ GREEN MOUNT EB","wheelchair_boarding":2,"routes":[{"route_id":"19647","agency_id":"70006","route_short_name":"15","route_long_name":"Belleville-O'Fallon","route_type":3,"route_color":"#FFFFFF","route_text_color":"#000000"}],"agency_name":"Metro St. Louis"},"geometry":{"type":"Point","coordinates":[-89.92848,38.54711]}},{"type":"Feature","properties":{"stop_id":"12014","stop_code":"12014","stop_name":"LEBANON @ RAMONA EB","stop_desc":"NEAR SIDE LEBANON @ RAMONA EB","wheelchair_boarding":2,"routes":[{"route_id":"19647","agency_id":"70006","route_short_name":"15","route_long_name":"Belleville-O'Fallon","route_type":3,"route_color":"#FFFFFF","route_text_color":"#000000"}],"agency_name":"Metro St. Louis"},"geometry":{"type":"Point","coordinates":[-89.92433,38.54776]}},{"type":"Feature","properties":{"stop_id":"12015","stop_code":"12015","stop_name":"LEBANON @ SIR LAWRENCE EB","stop_desc":"FAR SIDE LEBANON @ SIR LAWRENCE EB","wheelchair_boarding":2,"routes":[{"route_id":"19647","agency_id":"70006","route_short_name":"15","route_long_name":"Belleville-O'Fallon","route_type":3,"route_color":"#FFFFFF","route_text_color":"#000000"}],"agency_name":"Metro St. Louis"},"geometry":{"type":"Point","coordinates":[-89.92152,38.54817]}},{"type":"Feature","properties":{"stop_id":"12016","stop_code":"12016","stop_name":"LEBANON @ ARCHVIEW EB","stop_desc":"NEAR SIDE LEBANON @ ARCHVIEW EB","wheelchair_boarding":2,"routes":[{"route_id":"19647","agency_id":"70006","route_short_name":"15","route_long_name":"Belleville-O'Fallon","route_type":3,"route_color":"#FFFFFF","route_text_color":"#000000"}],"agency_name":"Metro St. Louis"},"geometry":{"type":"Point","coordinates":[-89.91756,38.54882]}},{"type":"Feature","properties":{"stop_id":"12017","stop_code":"12017","stop_name":"LEBANON @ INNSBRUCK EB","stop_desc":"FAR SIDE LEBANON @ INNSBRUCK EB","wheelchair_boarding":2,"routes":[{"route_id":"19647","agency_id":"70006","route_short_name":"15","route_long_name":"Belleville-O'Fallon","route_type":3,"route_color":"#FFFFFF","route_text_color":"#000000"}],"agency_name":"Metro St. Louis"},"geometry":{"type":"Point","coordinates":[-89.91352,38.54968]}},{"type":"Feature","properties":{"stop_id":"12018","stop_code":"12018","stop_name":"LEBANON @ TWIN OAKS EB","stop_desc":"NEAR SIDE LEBANON @ TWIN OAKS EB","wheelchair_boarding":2,"routes":[{"route_id":"19647","agency_id":"70006","route_short_name":"15","route_long_name":"Belleville-O'Fallon","route_type":3,"route_color":"#FFFFFF","route_text_color":"#000000"}],"agency_name":"Metro St. Louis"},"geometry":{"type":"Point","coordinates":[-89.91168,38.54997]}},{"type":"Feature","properties":{"stop_id":"12019","stop_code":"12019","stop_name":"LEBANON @ EAGLE EB","stop_desc":"NEAR SIDE LEBANON @ EAGLE EB","wheelchair_boarding":2,"routes":[{"route_id":"19647","agency_id":"70006","route_short_name":"15","route_long_name":"Belleville-O'Fallon","route_type":3,"route_color":"#FFFFFF","route_text_color":"#000000"}],"agency_name":"Metro St. Louis"},"geometry":{"type":"Point","coordinates":[-89.91036,38.5503]}},{"type":"Feature","properties":{"stop_id":"12020","stop_code":"12020","stop_name":"LEBANON @ VALLEY VIEW FARM EB","stop_desc":"NEAR SIDE LEBANON @ VALLEY VIEW FARM EB","wheelchair_boarding":2,"routes":[{"route_id":"19647","agency_id":"70006","route_short_name":"15","route_long_name":"Belleville-O'Fallon","route_type":3,"route_color":"#FFFFFF","route_text_color":"#000000"}],"agency_name":"Metro St. Louis"},"geometry":{"type":"Point","coordinates":[-89.90479,38.55367]}},{"type":"Feature","properties":{"stop_id":"12021","stop_code":"12021","stop_name":"LEBANON @ EDEN PARK EB","stop_desc":"NEAR SIDE LEBANON @ EDEN PARK EB","wheelchair_boarding":2,"routes":[{"route_id":"19647","agency_id":"70006","route_short_name":"15","route_long_name":"Belleville-O'Fallon","route_type":3,"route_color":"#FFFFFF","route_text_color":"#000000"}],"agency_name":"Metro St. Louis"},"geometry":{"type":"Point","coordinates":[-89.90344,38.55469]}},{"type":"Feature","properties":{"stop_id":"12022","stop_code":"12022","stop_name":"MAIN @ JULIE EB","stop_desc":"FAR SIDE MAIN @ JULIE EB","wheelchair_boarding":2,"routes":[{"route_id":"19647","agency_id":"70006","route_short_name":"15","route_long_name":"Belleville-O'Fallon","route_type":3,"route_color":"#FFFFFF","route_text_color":"#000000"}],"agency_name":"Metro St. Louis"},"geometry":{"type":"Point","coordinates":[-89.90043,38.55731]}},{"type":"Feature","properties":{"stop_id":"12023","stop_code":"12023","stop_name":"MAIN @ SEIBERT EB","stop_desc":"NEAR SIDE MAIN @ SEIBERT EB","wheelchair_boarding":2,"routes":[{"route_id":"19647","agency_id":"70006","route_short_name":"15","route_long_name":"Belleville-O'Fallon","route_type":3,"route_color":"#FFFFFF","route_text_color":"#000000"}],"agency_name":"Metro St. Louis"},"geometry":{"type":"Point","coordinates":[-89.89936,38.55871]}},{"type":"Feature","properties":{"stop_id":"12024","stop_code":"12024","stop_name":"MAIN @ CHURCH EB","stop_desc":"NEAR SIDE MAIN @ CHURCH EB","wheelchair_boarding":2,"routes":[{"route_id":"19647","agency_id":"70006","route_short_name":"15","route_long_name":"Belleville-O'Fallon","route_type":3,"route_color":"#FFFFFF","route_text_color":"#000000"}],"agency_name":"Metro St. Louis"},"geometry":{"type":"Point","coordinates":[-89.89841,38.55995]}},{"type":"Feature","properties":{"stop_id":"12026","stop_code":"12026","stop_name":"CROSS @ MAIN NB","stop_desc":"FAR SIDE CROSS @ MAIN NB","wheelchair_boarding":2,"routes":[{"route_id":"19647","agency_id":"70006","route_short_name":"15","route_long_name":"Belleville-O'Fallon","route_type":3,"route_color":"#FFFFFF","route_text_color":"#000000"}],"agency_name":"Metro St. Louis"},"geometry":{"type":"Point","coordinates":[-89.89782,38.56196]}},{"type":"Feature","properties":{"stop_id":"12027","stop_code":"12027","stop_name":"CROSS @ FRANK SCOTT PKWY NB","stop_desc":"FAR SIDE CROSS @ FRANK SCOTT PKWY NB","wheelchair_boarding":2,"routes":[{"route_id":"19647","agency_id":"70006","route_short_name":"15","route_long_name":"Belleville-O'Fallon","route_type":3,"route_color":"#FFFFFF","route_text_color":"#000000"}],"agency_name":"Metro St. Louis"},"geometry":{"type":"Point","coordinates":[-89.90326,38.56966]}},{"type":"Feature","properties":{"stop_id":"12028","stop_code":"12028","stop_name":"CROSS @ OAK NB","stop_desc":"FAR SIDE CROSS @ OAK NB","wheelchair_boarding":2,"routes":[{"route_id":"19647","agency_id":"70006","route_short_name":"15","route_long_name":"Belleville-O'Fallon","route_type":3,"route_color":"#FFFFFF","route_text_color":"#000000"}],"agency_name":"Metro St. Louis"},"geometry":{"type":"Point","coordinates":[-89.89926,38.56262]}},{"type":"Feature","properties":{"stop_id":"12029","stop_code":"12029","stop_name":"CROSS @ TAMARACK NB","stop_desc":"FAR SIDE CROSS @ TAMARACK NB","wheelchair_boarding":2,"routes":[{"route_id":"19647","agency_id":"70006","route_short_name":"15","route_long_name":"Belleville-O'Fallon","route_type":3,"route_color":"#FFFFFF","route_text_color":"#000000"}],"agency_name":"Metro St. Louis"},"geometry":{"type":"Point","coordinates":[-89.90085,38.56598]}},{"type":"Feature","properties":{"stop_id":"12030","stop_code":"12030","stop_name":"LINCOLN @ DARTMOUTH NB","stop_desc":"FAR SIDE LINCOLN @ DARTMOUTH NB","wheelchair_boarding":2,"routes":[{"route_id":"19647","agency_id":"70006","route_short_name":"15","route_long_name":"Belleville-O'Fallon","route_type":3,"route_color":"#FFFFFF","route_text_color":"#000000"}],"agency_name":"Metro St. Louis"},"geometry":{"type":"Point","coordinates":[-89.91073,38.57799]}},{"type":"Feature","properties":{"stop_id":"12032","stop_code":"12032","stop_name":"LINCOLN @ WESTMINSTER NB","stop_desc":"FAR SIDE LINCOLN @ WESTMINSTER NB","wheelchair_boarding":2,"routes":[{"route_id":"19647","agency_id":"70006","route_short_name":"15","route_long_name":"Belleville-O'Fallon","route_type":3,"route_color":"#FFFFFF","route_text_color":"#000000"}],"agency_name":"Metro St. Louis"},"geometry":{"type":"Point","coordinates":[-89.91099,38.58027]}},{"type":"Feature","properties":{"stop_id":"12033","stop_code":"12033","stop_name":"LINCOLN @ HARVARD NB","stop_desc":"FAR SIDE LINCOLN @ HARVARD NB","wheelchair_boarding":2,"routes":[{"route_id":"19647","agency_id":"70006","route_short_name":"15","route_long_name":"Belleville-O'Fallon","route_type":3,"route_color":"#FFFFFF","route_text_color":"#000000"}],"agency_name":"Metro St. Louis"},"geometry":{"type":"Point","coordinates":[-89.91096,38.58259]}},{"type":"Feature","properties":{"stop_id":"12170","stop_code":"12170","stop_name":"SCHEEL @ DOUGLAS WB","stop_desc":"NEAR SIDE SCHEEL @ DOUGLAS WB","wheelchair_boarding":2,"routes":[{"route_id":"19636","agency_id":"70006","route_short_name":"1","route_long_name":"Main Street - State Street","route_type":3,"route_color":"#FFFFFF","route_text_color":"#000000"},{"route_id":"19647","agency_id":"70006","route_short_name":"15","route_long_name":"Belleville-O'Fallon","route_type":3,"route_color":"#FFFFFF","route_text_color":"#000000"},{"route_id":"19648","agency_id":"70006","route_short_name":"16","route_long_name":"St. Clair Square","route_type":3,"route_color":"#FFFFFF","route_text_color":"#000000"},{"route_id":"19649","agency_id":"70006","route_short_name":"23","route_long_name":"Belleville-College","route_type":3,"route_color":"#FFFFFF","route_text_color":"#000000"}],"agency_name":"Metro St. Louis"},"geometry":{"type":"Point","coordinates":[-89.97736,38.51957]}},{"type":"Feature","properties":{"stop_id":"14237","stop_code":"14237","stop_name":"LINCOLN @ EAST US-50 NB","stop_desc":"FAR SIDE LINCOLN @ EAST US-50 NB","wheelchair_boarding":2,"routes":[{"route_id":"19644","agency_id":"70006","route_short_name":"12","route_long_name":"OFallon-Fairview Heights","route_type":3,"route_color":"#FFFFFF","route_text_color":"#000000"},{"route_id":"19647","agency_id":"70006","route_short_name":"15","route_long_name":"Belleville-O'Fallon","route_type":3,"route_color":"#FFFFFF","route_text_color":"#000000"}],"agency_name":"Metro St. Louis"},"geometry":{"type":"Point","coordinates":[-89.91104,38.58581]}},{"type":"Feature","properties":{"stop_id":"14263","stop_code":"14263","stop_name":"LINCOLN @ 2ND STREET NB","stop_desc":"NEAR SIDE LINCOLN @ 2ND STREET NB","wheelchair_boarding":2,"routes":[{"route_id":"19644","agency_id":"70006","route_short_name":"12","route_long_name":"OFallon-Fairview Heights","route_type":3,"route_color":"#FFFFFF","route_text_color":"#000000"},{"route_id":"19647","agency_id":"70006","route_short_name":"15","route_long_name":"Belleville-O'Fallon","route_type":3,"route_color":"#FFFFFF","route_text_color":"#000000"}],"agency_name":"Metro St. Louis"},"geometry":{"type":"Point","coordinates":[-89.91076,38.59096]}},{"type":"Feature","properties":{"stop_id":"15365","stop_code":"15365","stop_name":"LEBANON @ PASTORAL CENTER EB","stop_desc":"FAR SIDE LEBANON @ PASTORAL CENTER EB","wheelchair_boarding":2,"routes":[{"route_id":"19647","agency_id":"70006","route_short_name":"15","route_long_name":"Belleville-O'Fallon","route_type":3,"route_color":"#FFFFFF","route_text_color":"#000000"}],"agency_name":"Metro St. Louis"},"geometry":{"type":"Point","coordinates":[-89.93461,38.54541]}},{"type":"Feature","properties":{"stop_id":"16248","stop_code":"16248","stop_name":"MEMORIAL HOSPITAL EAST","stop_desc":"FAR SIDE MEMORIAL HOSPITAL EAST","wheelchair_boarding":2,"routes":[{"route_id":"19647","agency_id":"70006","route_short_name":"15","route_long_name":"Belleville-O'Fallon","route_type":3,"route_color":"#FFFFFF","route_text_color":"#000000"}],"agency_name":"Metro St. Louis"},"geometry":{"type":"Point","coordinates":[-89.90587,38.57315]}}]}