{"type":"FeatureCollection","features":[{"type":"Feature","properties":{"agency_name":"Metro St. Louis","route_id":"19593","agency_id":"70006","route_short_name":"2","route_long_name":"Red","route_type":3,"route_color":"#FFFFFF","route_text_color":"#000000"},"geometry":{"type":"MultiLineString","coordinates":[[[-90.30182,38.68564],[-90.30172,38.6856],[-90.30182,38.68564],[-90.30225,38.68562],[-90.30256,38.68527],[-90.30272,38.68506],[-90.30271,38.68495],[-90.30255,38.68486],[-90.30283,38.68454],[-90.30505,38.68571],[-90.30658,38.68418],[-90.30705,38.68362],[-90.30716,38.68331],[-90.30762,38.68111],[-90.308,38.67939],[-90.30832,38.67857],[-90.30867,38.67746],[-90.30913,38.67464],[-90.31058,38.66531],[-90.3109,38.66336],[-90.31168,38.66344],[-90.31194,38.66349],[-90.31245,38.66364],[-90.31259,38.6637],[-90.31287,38.66385],[-90.31542,38.66541],[-90.31628,38.66516],[-90.31629,38.66505],[-90.31627,38.66483],[-90.31617,38.66451],[-90.31581,38.66391],[-90.31572,38.66367],[-90.31568,38.66348],[-90.31566,38.66326],[-90.3157,38.6629],[-90.31103,38.66245],[-90.30667,38.66201],[-90.30622,38.66194],[-90.30567,38.6618],[-90.30503,38.66157],[-90.3044,38.66123],[-90.30284,38.66026],[-90.30162,38.65959],[-90.30039,38.659],[-90.29955,38.65862],[-90.299,38.65839],[-90.29926,38.6578],[-90.29934,38.65751],[-90.29941,38.65719],[-90.29949,38.65661],[-90.29772,38.65645],[-90.29703,38.65636],[-90.29673,38.65626],[-90.29654,38.65616],[-90.29636,38.65604],[-90.29615,38.65583],[-90.29582,38.65575],[-90.29533,38.65568]],[[-90.29512,38.65559],[-90.29522,38.65564],[-90.29512,38.65559],[-90.29503,38.65552],[-90.29496,38.65543],[-90.29469,38.65495],[-90.29911,38.65539],[-90.29977,38.65507],[-90.29985,38.65453],[-90.30062,38.65006],[-90.3007,38.64932],[-90.30103,38.64735],[-90.30122,38.64598],[-90.31094,38.64693],[-90.31018,38.64714],[-90.30889,38.64696],[-90.30814,38.64688],[-90.30817,38.64666]],[[-90.31109,38.64694],[-90.31094,38.64693],[-90.31197,38.64702],[-90.3125,38.64709],[-90.31401,38.64722],[-90.31586,38.64711],[-90.31596,38.64654],[-90.31649,38.64401],[-90.31696,38.64165],[-90.31709,38.64121],[-90.31727,38.64072],[-90.31752,38.64014],[-90.31768,38.63943],[-90.31772,38.63911],[-90.31789,38.63833],[-90.31813,38.63687],[-90.31839,38.63556],[-90.31855,38.63484],[-90.31864,38.63495],[-90.31872,38.63501],[-90.31905,38.63511],[-90.32022,38.63522],[-90.32053,38.63523],[-90.32496,38.63592],[-90.32595,38.63609],[-90.32727,38.63635],[-90.32901,38.63672],[-90.33248,38.63739],[-90.33304,38.63751],[-90.3343,38.63772],[-90.33455,38.63774],[-90.33514,38.63775],[-90.33653,38.6377],[-90.34054,38.63763],[-90.34139,38.63767],[-90.34342,38.63788],[-90.34354,38.63792],[-90.34394,38.63797],[-90.34504,38.63807],[-90.34557,38.63784],[-90.34569,38.63653],[-90.34575,38.63604],[-90.34603,38.63261],[-90.34615,38.63146],[-90.34616,38.63115],[-90.34623,38.63036],[-90.34623,38.62975],[-90.34626,38.62916],[-90.34657,38.62643],[-90.3466,38.62591],[-90.34664,38.6257],[-90.34677,38.62528],[-90.34685,38.62512],[-90.34696,38.62496],[-90.34717,38.62472],[-90.34787,38.62407],[-90.34814,38.62371],[-90.3478,38.62384],[-90.34742,38.62394],[-90.34656,38.62412],[-90.34278,38.62403],[-90.34221,38.62375],[-90.34178,38.62343],[-90.34059,38.62299],[-90.33987,38.62275],[-90.33943,38.62263],[-90.33879,38.62248],[-90.3384,38.62242],[-90.33815,38.62239],[-90.33774,38.6224],[-90.33756,38.62242],[-90.33726,38.62247],[-90.33611,38.62277],[-90.33432,38.62273],[-90.33312,38.62273],[-90.33313,38.62132],[-90.33429,38.6213],[-90.33432,38.62273],[-90.33433,38.62296],[-90.33436,38.62311],[-90.33444,38.62331],[-90.33456,38.62354],[-90.33478,38.6239],[-90.33491,38.62416],[-90.33498,38.62437],[-90.33502,38.62484],[-90.33498,38.62532],[-90.3349,38.62765],[-90.33486,38.62833],[-90.33472,38.62849],[-90.33454,38.62861],[-90.33411,38.62876],[-90.33403,38.62884],[-90.33398,38.62892],[-90.33399,38.62904],[-90.33401,38.62909],[-90.33406,38.62915],[-90.33416,38.62922],[-90.3343,38.62926],[-90.33492,38.62925],[-90.33636,38.62927],[-90.33675,38.62925],[-90.33691,38.62922],[-90.33763,38.62922],[-90.33771,38.62898],[-90.33773,38.62853],[-90.33773,38.62789],[-90.33776,38.62784],[-90.33778,38.62775],[-90.33786,38.62756],[-90.33788,38.62718],[-90.33798,38.62705],[-90.33803,38.62691],[-90.33801,38.62677],[-90.33797,38.62668],[-90.33792,38.62663],[-90.33787,38.62661],[-90.33779,38.62662],[-90.33773,38.62666],[-90.33759,38.6268],[-90.33752,38.62693],[-90.33754,38.62702],[-90.33757,38.62707],[-90.33767,38.62714],[-90.33777,38.62717]]]}},{"type":"Feature","properties":{"stop_id":"14281","stop_code":"14281","stop_name":"BIG BEND @ FORSYTH SB","stop_desc":"FAR SIDE BIG BEND @ FORSYTH SB","wheelchair_boarding":2,"routes":[{"route_id":"19593","agency_id":"70006","route_short_name":"2","route_long_name":"Red","route_type":3,"route_color":"#FFFFFF","route_text_color":"#000000"}],"agency_name":"Metro St. Louis"},"geometry":{"type":"Point","coordinates":[-90.31594,38.6471]}},{"type":"Feature","properties":{"stop_id":"14447","stop_code":"14447","stop_name":"FORSYTH @ WALLACE CIRCLE WB","stop_desc":"FAR SIDE FORSYTH @ WALLACE CIRCLE WB","wheelchair_boarding":2,"routes":[{"route_id":"19593","agency_id":"70006","route_short_name":"2","route_long_name":"Red","route_type":3,"route_color":"#FFFFFF","route_text_color":"#000000"},{"route_id":"19595","agency_id":"70006","route_short_name":"5","route_long_name":"Green","route_type":3,"route_color":"#FFFFFF","route_text_color":"#000000"}],"agency_name":"Metro St. Louis"},"geometry":{"type":"Point","coordinates":[-90.3113,38.64702]}},{"type":"Feature","properties":{"stop_id":"14779","stop_code":"14779","stop_name":"BRENTWOOD I-64 TRANSIT CENTER","wheelchair_boarding":1,"routes":[{"route_id":"19593","agency_id":"70006","route_short_name":"2","route_long_name":"Red","route_type":3,"route_color":"#FFFFFF","route_text_color":"#000000"},{"route_id":"19606","agency_id":"70006","route_short_name":"31","route_long_name":"Chouteau","route_type":3,"route_color":"#FFFFFF","route_text_color":"#000000"}],"agency_name":"Metro St. Louis"},"geometry":{"type":"Point","coordinates":[-90.33777,38.62757]}},{"type":"Feature","properties":{"stop_id":"14818","stop_code":"14818","stop_name":"MALLINCKRODT CENTER","wheelchair_boarding":1,"routes":[{"route_id":"19592","agency_id":"70006","route_short_name":"1","route_long_name":"Gold","route_type":3,"route_color":"#FFFFFF","route_text_color":"#000000"},{"route_id":"19593","agency_id":"70006","route_short_name":"2","route_long_name":"Red","route_type":3,"route_color":"#FFFFFF","route_text_color":"#000000"},{"route_id":"19595","agency_id":"70006","route_short_name":"5","route_long_name":"Green","route_type":3,"route_color":"#FFFFFF","route_text_color":"#000000"}],"agency_name":"Metro St. Louis"},"geometry":{"type":"Point","coordinates":[-90.30886,38.64695]}},{"type":"Feature","properties":{"stop_id":"14942","stop_code":"14942","stop_name":"MAPLEWOOD COMMONS @ CORCORAN SB","stop_desc":"NEAR SIDE MAPLEWOOD COMMONS @ CORCORAN SB","wheelchair_boarding":1,"routes":[{"route_id":"19593","agency_id":"70006","route_short_name":"2","route_long_name":"Red","route_type":3,"route_color":"#FFFFFF","route_text_color":"#000000"},{"route_id":"19606","agency_id":"70006","route_short_name":"31","route_long_name":"Chouteau","route_type":3,"route_color":"#FFFFFF","route_text_color":"#000000"}],"agency_name":"Metro St. Louis"},"geometry":{"type":"Point","coordinates":[-90.3332,38.62215]}},{"type":"Feature","properties":{"stop_id":"15036","stop_code":"15036","stop_name":"STRASSNER @ URBAN EB","stop_desc":"FAR SIDE STRASSNER @ URBAN EB","wheelchair_boarding":2,"routes":[{"route_id":"19593","agency_id":"70006","route_short_name":"2","route_long_name":"Red","route_type":3,"route_color":"#FFFFFF","route_text_color":"#000000"}],"agency_name":"Metro St. Louis"},"geometry":{"type":"Point","coordinates":[-90.34655,38.62413]}},{"type":"Feature","properties":{"stop_id":"15037","stop_code":"15037","stop_name":"PENNSYLVANIA @ UCITY SHOPPING CTR SB","stop_desc":"NEAR SIDE PENNSYLVANIA @ UCITY SHOPPING CTR SB","wheelchair_boarding":1,"routes":[{"route_id":"19593","agency_id":"70006","route_short_name":"2","route_long_name":"Red","route_type":3,"route_color":"#FFFFFF","route_text_color":"#000000"}],"agency_name":"Metro St. Louis"},"geometry":{"type":"Point","coordinates":[-90.31589,38.66386]}},{"type":"Feature","properties":{"stop_id":"15038","stop_code":"15038","stop_name":"VERNON @ FERGUSON EB","stop_desc":"FAR SIDE VERNON @ FERGUSON EB","wheelchair_boarding":2,"routes":[{"route_id":"19593","agency_id":"70006","route_short_name":"2","route_long_name":"Red","route_type":3,"route_color":"#FFFFFF","route_text_color":"#000000"}],"agency_name":"Metro St. Louis"},"geometry":{"type":"Point","coordinates":[-90.31067,38.66243]}},{"type":"Feature","properties":{"stop_id":"15039","stop_code":"15039","stop_name":"VERNON @ KINGSLAND EB","stop_desc":"FAR SIDE VERNON @ KINGSLAND EB","wheelchair_boarding":2,"routes":[{"route_id":"19593","agency_id":"70006","route_short_name":"2","route_long_name":"Red","route_type":3,"route_color":"#FFFFFF","route_text_color":"#000000"}],"agency_name":"Metro St. Louis"},"geometry":{"type":"Point","coordinates":[-90.30673,38.66201]}},{"type":"Feature","properties":{"stop_id":"15040","stop_code":"15040","stop_name":"VERNON @ WESTGATE EB","stop_desc":"NEAR SIDE VERNON @ WESTGATE EB","wheelchair_boarding":2,"routes":[{"route_id":"19593","agency_id":"70006","route_short_name":"2","route_long_name":"Red","route_type":3,"route_color":"#FFFFFF","route_text_color":"#000000"},{"route_id":"19595","agency_id":"70006","route_short_name":"5","route_long_name":"Green","route_type":3,"route_color":"#FFFFFF","route_text_color":"#000000"}],"agency_name":"Metro St. Louis"},"geometry":{"type":"Point","coordinates":[-90.30449,38.66125]}},{"type":"Feature","properties":{"stop_id":"15041","stop_code":"15041","stop_name":"VERNON @ EASTGATE EB","stop_desc":"NEAR SIDE VERNON @ EASTGATE EB","wheelchair_boarding":2,"routes":[{"route_id":"19593","agency_id":"70006","route_short_name":"2","route_long_name":"Red","route_type":3,"route_color":"#FFFFFF","route_text_color":"#000000"}],"agency_name":"Metro St. Louis"},"geometry":{"type":"Point","coordinates":[-90.30055,38.65903]}},{"type":"Feature","properties":{"stop_id":"15049","stop_code":"15049","stop_name":"ENRIGHT @ ROSEDALE EB","stop_desc":"NEAR SIDE ENRIGHT @ ROSEDALE EB","wheelchair_boarding":1,"routes":[{"route_id":"19593","agency_id":"70006","route_short_name":"2","route_long_name":"Red","route_type":3,"route_color":"#FFFFFF","route_text_color":"#000000"},{"route_id":"19601","agency_id":"70006","route_short_name":"16","route_long_name":"City Limits","route_type":3,"route_color":"#FFFFFF","route_text_color":"#000000"},{"route_id":"19630","agency_id":"70006","route_short_name":"91","route_long_name":"Olive","route_type":3,"route_color":"#FFFFFF","route_text_color":"#000000"}],"agency_name":"Metro St. Louis"},"geometry":{"type":"Point","coordinates":[-90.29771,38.65643]}},{"type":"Feature","properties":{"stop_id":"15056","stop_code":"15056","stop_name":"BRENTWOOD @ DARST COURT SB","stop_desc":"MID-BLOCK BRENTWOOD @ DARST COURT SB","wheelchair_boarding":1,"routes":[{"route_id":"19593","agency_id":"70006","route_short_name":"2","route_long_name":"Red","route_type":3,"route_color":"#FFFFFF","route_text_color":"#000000"}],"agency_name":"Metro St. Louis"},"geometry":{"type":"Point","coordinates":[-90.346,38.63427]}},{"type":"Feature","properties":{"stop_id":"15493","stop_code":"15493","stop_name":"OLIVE @ FERGUSON WB","stop_desc":"MID-BLOCK OLIVE @ FERGUSON WB","wheelchair_boarding":2,"routes":[{"route_id":"19593","agency_id":"70006","route_short_name":"2","route_long_name":"Red","route_type":3,"route_color":"#FFFFFF","route_text_color":"#000000"},{"route_id":"19630","agency_id":"70006","route_short_name":"91","route_long_name":"Olive","route_type":3,"route_color":"#FFFFFF","route_text_color":"#000000"}],"agency_name":"Metro St. Louis"},"geometry":{"type":"Point","coordinates":[-90.31184,38.66356]}},{"type":"Feature","properties":{"stop_id":"15661","stop_code":"15661","stop_name":"FORSYTH @ HOYT WB","stop_desc":"NEAR SIDE FORSYTH @ HOYT WB","wheelchair_boarding":1,"routes":[{"route_id":"19592","agency_id":"70006","route_short_name":"1","route_long_name":"Gold","route_type":3,"route_color":"#FFFFFF","route_text_color":"#000000"},{"route_id":"19593","agency_id":"70006","route_short_name":"2","route_long_name":"Red","route_type":3,"route_color":"#FFFFFF","route_text_color":"#000000"},{"route_id":"19595","agency_id":"70006","route_short_name":"5","route_long_name":"Green","route_type":3,"route_color":"#FFFFFF","route_text_color":"#000000"}],"agency_name":"Metro St. Louis"},"geometry":{"type":"Point","coordinates":[-90.30412,38.64631]}},{"type":"Feature","properties":{"stop_id":"15922","stop_code":"15922","stop_name":"STRASSNER @ BRENTWOOD PARK EB","stop_desc":"MID-BLOCK STRASSNER @ BRENTWOOD PARK EB","wheelchair_boarding":2,"routes":[{"route_id":"19593","agency_id":"70006","route_short_name":"2","route_long_name":"Red","route_type":3,"route_color":"#FFFFFF","route_text_color":"#000000"}],"agency_name":"Metro St. Louis"},"geometry":{"type":"Point","coordinates":[-90.34519,38.62411]}},{"type":"Feature","properties":{"stop_id":"15924","stop_code":"15924","stop_name":"1432 STRASSNER EB","stop_desc":"MID-BLOCK 1432 STRASSNER EB","wheelchair_boarding":2,"routes":[{"route_id":"19593","agency_id":"70006","route_short_name":"2","route_long_name":"Red","route_type":3,"route_color":"#FFFFFF","route_text_color":"#000000"}],"agency_name":"Metro St. Louis"},"geometry":{"type":"Point","coordinates":[-90.3415,38.62326]}},{"type":"Feature","properties":{"stop_id":"15925","stop_code":"15925","stop_name":"1270 STRASSNER EB","stop_desc":"NEAR SIDE 1270 STRASSNER EB","wheelchair_boarding":2,"routes":[{"route_id":"19593","agency_id":"70006","route_short_name":"2","route_long_name":"Red","route_type":3,"route_color":"#FFFFFF","route_text_color":"#000000"}],"agency_name":"Metro St. Louis"},"geometry":{"type":"Point","coordinates":[-90.33588,38.6227]}},{"type":"Feature","properties":{"stop_id":"15974","stop_code":"15974","stop_name":"STRASSNER @ HANLEY INDUSTRIAL COURT EB","stop_desc":"NEAR SIDE STRASSNER @ HANLEY INDUSTRIAL COURT EB","wheelchair_boarding":2,"routes":[{"route_id":"19593","agency_id":"70006","route_short_name":"2","route_long_name":"Red","route_type":3,"route_color":"#FFFFFF","route_text_color":"#000000"}],"agency_name":"Metro St. Louis"},"geometry":{"type":"Point","coordinates":[-90.33884,38.62248]}},{"type":"Feature","properties":{"stop_id":"16142","stop_code":"16142","stop_name":"6901 OLIVE WB","stop_desc":"MID-BLOCK 6901 OLIVE WB","wheelchair_boarding":1,"routes":[{"route_id":"19593","agency_id":"70006","route_short_name":"2","route_long_name":"Red","route_type":3,"route_color":"#FFFFFF","route_text_color":"#000000"},{"route_id":"19630","agency_id":"70006","route_short_name":"91","route_long_name":"Olive","route_type":3,"route_color":"#FFFFFF","route_text_color":"#000000"}],"agency_name":"Metro St. Louis"},"geometry":{"type":"Point","coordinates":[-90.31376,38.66445]}},{"type":"Feature","properties":{"stop_id":"16364","stop_code":"16364","stop_name":"BIG BEND @ WYDOWN SB","stop_desc":"NEAR SIDE BIG BEND @ WYDOWN SB","wheelchair_boarding":2,"routes":[{"route_id":"19593","agency_id":"70006","route_short_name":"2","route_long_name":"Red","route_type":3,"route_color":"#FFFFFF","route_text_color":"#000000"}],"agency_name":"Metro St. Louis"},"geometry":{"type":"Point","coordinates":[-90.3167,38.64351]}},{"type":"Feature","properties":{"stop_id":"172","stop_code":"172","stop_name":"SKINKER @ FOREST PARK PARKWAY SB","stop_desc":"NEAR SIDE SKINKER @ FOREST PARK PARKWAY SB","wheelchair_boarding":1,"routes":[{"route_id":"19592","agency_id":"70006","route_short_name":"1","route_long_name":"Gold","route_type":3,"route_color":"#FFFFFF","route_text_color":"#000000"},{"route_id":"19593","agency_id":"70006","route_short_name":"2","route_long_name":"Red","route_type":3,"route_color":"#FFFFFF","route_text_color":"#000000"},{"route_id":"19595","agency_id":"70006","route_short_name":"5","route_long_name":"Green","route_type":3,"route_color":"#FFFFFF","route_text_color":"#000000"},{"route_id":"19601","agency_id":"70006","route_short_name":"16","route_long_name":"City Limits","route_type":3,"route_color":"#FFFFFF","route_text_color":"#000000"}],"agency_name":"Metro St. Louis"},"geometry":{"type":"Point","coordinates":[-90.30074,38.64962]}},{"type":"Feature","properties":{"stop_id":"2031","stop_code":"2031","stop_name":"DELMAR @ 6161 DELMAR WB","stop_desc":"MID-BLOCK DELMAR @ 6161 DELMAR WB","wheelchair_boarding":1,"routes":[{"route_id":"19593","agency_id":"70006","route_short_name":"2","route_long_name":"Red","route_type":3,"route_color":"#FFFFFF","route_text_color":"#000000"},{"route_id":"19601","agency_id":"70006","route_short_name":"16","route_long_name":"City Limits","route_type":3,"route_color":"#FFFFFF","route_text_color":"#000000"},{"route_id":"19633","agency_id":"70006","route_short_name":"97","route_long_name":"Delmar","route_type":3,"route_color":"#FFFFFF","route_text_color":"#000000"}],"agency_name":"Metro St. Louis"},"geometry":{"type":"Point","coordinates":[-90.29787,38.65528]}},{"type":"Feature","properties":{"stop_id":"2097","stop_code":"2097","stop_name":"DELMAR LOOP TRANSIT CENTER EB","wheelchair_boarding":1,"routes":[{"route_id":"19593","agency_id":"70006","route_short_name":"2","route_long_name":"Red","route_type":3,"route_color":"#FFFFFF","route_text_color":"#000000"},{"route_id":"19601","agency_id":"70006","route_short_name":"16","route_long_name":"City Limits","route_type":3,"route_color":"#FFFFFF","route_text_color":"#000000"},{"route_id":"19630","agency_id":"70006","route_short_name":"91","route_long_name":"Olive","route_type":3,"route_color":"#FFFFFF","route_text_color":"#000000"},{"route_id":"19633","agency_id":"70006","route_short_name":"97","route_long_name":"Delmar","route_type":3,"route_color":"#FFFFFF","route_text_color":"#000000"}],"agency_name":"Metro St. Louis"},"geometry":{"type":"Point","coordinates":[-90.29527,38.65562]}},{"type":"Feature","properties":{"stop_id":"2639","stop_code":"2639","stop_name":"SKINKER METROLINK @ FOREST PARK PARKWAY SB","stop_desc":"FAR SIDE SKINKER METROLINK @ FOREST PARK PARKWAY SB","wheelchair_boarding":1,"routes":[{"route_id":"19592","agency_id":"70006","route_short_name":"1","route_long_name":"Gold","route_type":3,"route_color":"#FFFFFF","route_text_color":"#000000"},{"route_id":"19593","agency_id":"70006","route_short_name":"2","route_long_name":"Red","route_type":3,"route_color":"#FFFFFF","route_text_color":"#000000"},{"route_id":"19595","agency_id":"70006","route_short_name":"5","route_long_name":"Green","route_type":3,"route_color":"#FFFFFF","route_text_color":"#000000"},{"route_id":"19601","agency_id":"70006","route_short_name":"16","route_long_name":"City Limits","route_type":3,"route_color":"#FFFFFF","route_text_color":"#000000"}],"agency_name":"Metro St. Louis"},"geometry":{"type":"Point","coordinates":[-90.30082,38.64859]}},{"type":"Feature","properties":{"stop_id":"2640","stop_code":"2640","stop_name":"SKINKER @ BROOKINGS SB","stop_desc":"FAR SIDE SKINKER @ BROOKINGS SB","wheelchair_boarding":2,"routes":[{"route_id":"19592","agency_id":"70006","route_short_name":"1","route_long_name":"Gold","route_type":3,"route_color":"#FFFFFF","route_text_color":"#000000"},{"route_id":"19593","agency_id":"70006","route_short_name":"2","route_long_name":"Red","route_type":3,"route_color":"#FFFFFF","route_text_color":"#000000"},{"route_id":"19595","agency_id":"70006","route_short_name":"5","route_long_name":"Green","route_type":3,"route_color":"#FFFFFF","route_text_color":"#000000"},{"route_id":"19601","agency_id":"70006","route_short_name":"16","route_long_name":"City Limits","route_type":3,"route_color":"#FFFFFF","route_text_color":"#000000"}],"agency_name":"Metro St. Louis"},"geometry":{"type":"Point","coordinates":[-90.30113,38.64719]}},{"type":"Feature","properties":{"stop_id":"4336","stop_code":"4336","stop_name":"FERGUSON @ MCNAMEE SB","stop_desc":"NEAR SIDE FERGUSON @ MCNAMEE SB","wheelchair_boarding":2,"routes":[{"route_id":"19593","agency_id":"70006","route_short_name":"2","route_long_name":"Red","route_type":3,"route_color":"#FFFFFF","route_text_color":"#000000"}],"agency_name":"Metro St. Louis"},"geometry":{"type":"Point","coordinates":[-90.30926,38.6741]}},{"type":"Feature","properties":{"stop_id":"4337","stop_code":"4337","stop_name":"FERGUSON @ PAGE SB","stop_desc":"NEAR SIDE FERGUSON @ PAGE SB","wheelchair_boarding":2,"routes":[{"route_id":"19593","agency_id":"70006","route_short_name":"2","route_long_name":"Red","route_type":3,"route_color":"#FFFFFF","route_text_color":"#000000"}],"agency_name":"Metro St. Louis"},"geometry":{"type":"Point","coordinates":[-90.30912,38.67519]}},{"type":"Feature","properties":{"stop_id":"4338","stop_code":"4338","stop_name":"FERGUSON @ RAYMOND SB","stop_desc":"FAR SIDE FERGUSON @ RAYMOND SB","wheelchair_boarding":2,"routes":[{"route_id":"19593","agency_id":"70006","route_short_name":"2","route_long_name":"Red","route_type":3,"route_color":"#FFFFFF","route_text_color":"#000000"}],"agency_name":"Metro St. Louis"},"geometry":{"type":"Point","coordinates":[-90.30963,38.67132]}},{"type":"Feature","properties":{"stop_id":"4339","stop_code":"4339","stop_name":"FERGUSON @ JULIAN SB","stop_desc":"NEAR SIDE FERGUSON @ JULIAN SB","wheelchair_boarding":2,"routes":[{"route_id":"19593","agency_id":"70006","route_short_name":"2","route_long_name":"Red","route_type":3,"route_color":"#FFFFFF","route_text_color":"#000000"}],"agency_name":"Metro St. Louis"},"geometry":{"type":"Point","coordinates":[-90.30987,38.67024]}},{"type":"Feature","properties":{"stop_id":"4340","stop_code":"4340","stop_name":"FERGUSON @ ETZEL SB","stop_desc":"NEAR SIDE FERGUSON @ ETZEL SB","wheelchair_boarding":2,"routes":[{"route_id":"19593","agency_id":"70006","route_short_name":"2","route_long_name":"Red","route_type":3,"route_color":"#FFFFFF","route_text_color":"#000000"}],"agency_name":"Metro St. Louis"},"geometry":{"type":"Point","coordinates":[-90.31024,38.66748]}},{"type":"Feature","properties":{"stop_id":"4718","stop_code":"4718","stop_name":"PENNSYLVANIA @ OLIVE SB","stop_desc":"FAR SIDE PENNSYLVANIA @ OLIVE SB","wheelchair_boarding":1,"routes":[{"route_id":"19593","agency_id":"70006","route_short_name":"2","route_long_name":"Red","route_type":3,"route_color":"#FFFFFF","route_text_color":"#000000"}],"agency_name":"Metro St. Louis"},"geometry":{"type":"Point","coordinates":[-90.31625,38.66542]}},{"type":"Feature","properties":{"stop_id":"5359","stop_code":"5359","stop_name":"CLAYTON @ CLAYTONIA TERRACE WB","stop_desc":"NEAR SIDE CLAYTON @ CLAYTONIA TERRACE WB","wheelchair_boarding":1,"routes":[{"route_id":"19593","agency_id":"70006","route_short_name":"2","route_long_name":"Red","route_type":3,"route_color":"#FFFFFF","route_text_color":"#000000"}],"agency_name":"Metro St. Louis"},"geometry":{"type":"Point","coordinates":[-90.32058,38.63531]}},{"type":"Feature","properties":{"stop_id":"5361","stop_code":"5361","stop_name":"CLAYTON @ CRESTWOOD WB","stop_desc":"NEAR SIDE CLAYTON @ CRESTWOOD WB","wheelchair_boarding":2,"routes":[{"route_id":"19593","agency_id":"70006","route_short_name":"2","route_long_name":"Red","route_type":3,"route_color":"#FFFFFF","route_text_color":"#000000"}],"agency_name":"Metro St. Louis"},"geometry":{"type":"Point","coordinates":[-90.32556,38.63609]}},{"type":"Feature","properties":{"stop_id":"5363","stop_code":"5363","stop_name":"CLAYTON @ GLEN RIDGE WB","stop_desc":"FAR SIDE CLAYTON @ GLEN RIDGE WB","wheelchair_boarding":1,"routes":[{"route_id":"19593","agency_id":"70006","route_short_name":"2","route_long_name":"Red","route_type":3,"route_color":"#FFFFFF","route_text_color":"#000000"}],"agency_name":"Metro St. Louis"},"geometry":{"type":"Point","coordinates":[-90.33009,38.63695]}},{"type":"Feature","properties":{"stop_id":"5364","stop_code":"5364","stop_name":"CLAYTON @ CROMWELL WB","stop_desc":"NEAR SIDE CLAYTON @ CROMWELL WB","wheelchair_boarding":1,"routes":[{"route_id":"19593","agency_id":"70006","route_short_name":"2","route_long_name":"Red","route_type":3,"route_color":"#FFFFFF","route_text_color":"#000000"}],"agency_name":"Metro St. Louis"},"geometry":{"type":"Point","coordinates":[-90.33224,38.63741]}},{"type":"Feature","properties":{"stop_id":"5366","stop_code":"5366","stop_name":"CLAYTON @ BILTMORE WB","stop_desc":"FAR SIDE CLAYTON @ BILTMORE WB","wheelchair_boarding":2,"routes":[{"route_id":"19593","agency_id":"70006","route_short_name":"2","route_long_name":"Red","route_type":3,"route_color":"#FFFFFF","route_text_color":"#000000"}],"agency_name":"Metro St. Louis"},"geometry":{"type":"Point","coordinates":[-90.33636,38.63779]}},{"type":"Feature","properties":{"stop_id":"5367","stop_code":"5367","stop_name":"CLAYTON @ CENTRAL WB","stop_desc":"NEAR SIDE CLAYTON @ CENTRAL WB","wheelchair_boarding":2,"routes":[{"route_id":"19593","agency_id":"70006","route_short_name":"2","route_long_name":"Red","route_type":3,"route_color":"#FFFFFF","route_text_color":"#000000"}],"agency_name":"Metro St. Louis"},"geometry":{"type":"Point","coordinates":[-90.33927,38.63772]}},{"type":"Feature","properties":{"stop_id":"5368","stop_code":"5368","stop_name":"CLAYTON @ MERAMEC WB","stop_desc":"FAR SIDE CLAYTON @ MERAMEC WB","wheelchair_boarding":2,"routes":[{"route_id":"19593","agency_id":"70006","route_short_name":"2","route_long_name":"Red","route_type":3,"route_color":"#FFFFFF","route_text_color":"#000000"}],"agency_name":"Metro St. Louis"},"geometry":{"type":"Point","coordinates":[-90.34085,38.6377]}},{"type":"Feature","properties":{"stop_id":"5967","stop_code":"5967","stop_name":"HANLEY @ ELINOR NB","stop_desc":"NEAR SIDE HANLEY @ ELINOR NB","wheelchair_boarding":1,"routes":[{"route_id":"19593","agency_id":"70006","route_short_name":"2","route_long_name":"Red","route_type":3,"route_color":"#FFFFFF","route_text_color":"#000000"},{"route_id":"19606","agency_id":"70006","route_short_name":"31","route_long_name":"Chouteau","route_type":3,"route_color":"#FFFFFF","route_text_color":"#000000"}],"agency_name":"Metro St. Louis"},"geometry":{"type":"Point","coordinates":[-90.33491,38.62491]}},{"type":"Feature","properties":{"stop_id":"7198","stop_code":"7198","stop_name":"FERGUSON @ SAINT CHARLES ROCK ROAD SB","stop_desc":"FAR SIDE FERGUSON @ SAINT CHARLES ROCK ROAD SB","wheelchair_boarding":1,"routes":[{"route_id":"19593","agency_id":"70006","route_short_name":"2","route_long_name":"Red","route_type":3,"route_color":"#FFFFFF","route_text_color":"#000000"}],"agency_name":"Metro St. Louis"},"geometry":{"type":"Point","coordinates":[-90.30556,38.68541]}},{"type":"Feature","properties":{"stop_id":"7199","stop_code":"7199","stop_name":"FERGUSON @ BAERVELDT PARK SB","stop_desc":"MID-BLOCK FERGUSON @ BAERVELDT PARK SB","wheelchair_boarding":1,"routes":[{"route_id":"19593","agency_id":"70006","route_short_name":"2","route_long_name":"Red","route_type":3,"route_color":"#FFFFFF","route_text_color":"#000000"}],"agency_name":"Metro St. Louis"},"geometry":{"type":"Point","coordinates":[-90.30745,38.68193]}},{"type":"Feature","properties":{"stop_id":"7200","stop_code":"7200","stop_name":"FERGUSON @ ROBBINS SB","stop_desc":"FAR SIDE FERGUSON @ ROBBINS SB","wheelchair_boarding":1,"routes":[{"route_id":"19593","agency_id":"70006","route_short_name":"2","route_long_name":"Red","route_type":3,"route_color":"#FFFFFF","route_text_color":"#000000"}],"agency_name":"Metro St. Louis"},"geometry":{"type":"Point","coordinates":[-90.30875,38.67736]}},{"type":"Feature","properties":{"stop_id":"7424","stop_code":"7424","stop_name":"ROCK ROAD TRANSIT CENTER","wheelchair_boarding":1,"routes":[{"route_id":"19593","agency_id":"70006","route_short_name":"2","route_long_name":"Red","route_type":3,"route_color":"#FFFFFF","route_text_color":"#000000"},{"route_id":"19603","agency_id":"70006","route_short_name":"19","route_long_name":"St Louis Ave","route_type":3,"route_color":"#FFFFFF","route_text_color":"#000000"},{"route_id":"19607","agency_id":"70006","route_short_name":"32","route_long_name":"Dr ML King","route_type":3,"route_color":"#FFFFFF","route_text_color":"#000000"},{"route_id":"19610","agency_id":"70006","route_short_name":"35","route_long_name":"Rock Road","route_type":3,"route_color":"#FFFFFF","route_text_color":"#000000"},{"route_id":"19621","agency_id":"70006","route_short_name":"64","route_long_name":"Lucas-Hunt","route_type":3,"route_color":"#FFFFFF","route_text_color":"#000000"}],"agency_name":"Metro St. Louis"},"geometry":{"type":"Point","coordinates":[-90.30164,38.68516]}},{"type":"Feature","properties":{"stop_id":"8067","stop_code":"8067","stop_name":"BRENTWOOD @ CLAYTON SB","stop_desc":"FAR SIDE BRENTWOOD @ CLAYTON SB","wheelchair_boarding":2,"routes":[{"route_id":"19593","agency_id":"70006","route_short_name":"2","route_long_name":"Red","route_type":3,"route_color":"#FFFFFF","route_text_color":"#000000"}],"agency_name":"Metro St. Louis"},"geometry":{"type":"Point","coordinates":[-90.34575,38.63703]}},{"type":"Feature","properties":{"stop_id":"8070","stop_code":"8070","stop_name":"BRENTWOOD @ EAGER SB","stop_desc":"NEAR SIDE BRENTWOOD @ EAGER SB","wheelchair_boarding":2,"routes":[{"route_id":"19593","agency_id":"70006","route_short_name":"2","route_long_name":"Red","route_type":3,"route_color":"#FFFFFF","route_text_color":"#000000"}],"agency_name":"Metro St. Louis"},"geometry":{"type":"Point","coordinates":[-90.34644,38.62883]}},{"type":"Feature","properties":{"stop_id":"8332","stop_code":"8332","stop_name":"SKINKER @ DELMAR SB","stop_desc":"FAR SIDE SKINKER @ DELMAR SB","wheelchair_boarding":1,"routes":[{"route_id":"19593","agency_id":"70006","route_short_name":"2","route_long_name":"Red","route_type":3,"route_color":"#FFFFFF","route_text_color":"#000000"},{"route_id":"19595","agency_id":"70006","route_short_name":"5","route_long_name":"Green","route_type":3,"route_color":"#FFFFFF","route_text_color":"#000000"},{"route_id":"19601","agency_id":"70006","route_short_name":"16","route_long_name":"City Limits","route_type":3,"route_color":"#FFFFFF","route_text_color":"#000000"}],"agency_name":"Metro St. Louis"},"geometry":{"type":"Point","coordinates":[-90.29983,38.65512]}},{"type":"Feature","properties":{"stop_id":"8334","stop_code":"8334","stop_name":"SKINKER @ WESTMINSTER PLACE SB","stop_desc":"FAR SIDE SKINKER @ WESTMINSTER PLACE SB","wheelchair_boarding":1,"routes":[{"route_id":"19593","agency_id":"70006","route_short_name":"2","route_long_name":"Red","route_type":3,"route_color":"#FFFFFF","route_text_color":"#000000"},{"route_id":"19595","agency_id":"70006","route_short_name":"5","route_long_name":"Green","route_type":3,"route_color":"#FFFFFF","route_text_color":"#000000"},{"route_id":"19601","agency_id":"70006","route_short_name":"16","route_long_name":"City Limits","route_type":3,"route_color":"#FFFFFF","route_text_color":"#000000"}],"agency_name":"Metro St. Louis"},"geometry":{"type":"Point","coordinates":[-90.30019,38.65324]}},{"type":"Feature","properties":{"stop_id":"8336","stop_code":"8336","stop_name":"SKINKER @ WATERMAN SB","stop_desc":"NEAR SIDE SKINKER @ WATERMAN SB","wheelchair_boarding":1,"routes":[{"route_id":"19593","agency_id":"70006","route_short_name":"2","route_long_name":"Red","route_type":3,"route_color":"#FFFFFF","route_text_color":"#000000"},{"route_id":"19595","agency_id":"70006","route_short_name":"5","route_long_name":"Green","route_type":3,"route_color":"#FFFFFF","route_text_color":"#000000"},{"route_id":"19601","agency_id":"70006","route_short_name":"16","route_long_name":"City Limits","route_type":3,"route_color":"#FFFFFF","route_text_color":"#000000"}],"agency_name":"Metro St. Louis"},"geometry":{"type":"Point","coordinates":[-90.3005,38.65112]}}]}