{"type":"FeatureCollection","features":[{"type":"Feature","properties":{"agency_name":"Metro St. Louis","route_id":"19611","agency_id":"70006","route_short_name":"40","route_long_name":"Broadway-Halls Ferry","route_type":3,"route_color":"#FFFFFF","route_text_color":"#000000"},"geometry":{"type":"MultiLineString","coordinates":[[[-90.2751,38.76913],[-90.27464,38.76915],[-90.27512,38.76913],[-90.27518,38.76916],[-90.27521,38.7692],[-90.27523,38.77072],[-90.27305,38.77068],[-90.27192,38.77068],[-90.26896,38.77062],[-90.26854,38.77053],[-90.26823,38.77043],[-90.26741,38.7703],[-90.26671,38.77037],[-90.26593,38.77008],[-90.26259,38.76735],[-90.26184,38.76671],[-90.26103,38.76605],[-90.26003,38.76519],[-90.25971,38.76484],[-90.25914,38.76412],[-90.25901,38.76394],[-90.25867,38.76336],[-90.25843,38.76288],[-90.25818,38.76219],[-90.25706,38.75843],[-90.2568,38.75765],[-90.2565,38.75661],[-90.25546,38.75328],[-90.25485,38.75123],[-90.25367,38.7474],[-90.25268,38.74411],[-90.25219,38.74229],[-90.25203,38.74185],[-90.25183,38.7414],[-90.25124,38.74013],[-90.25099,38.73967],[-90.25072,38.73922],[-90.24998,38.73805],[-90.24979,38.73778],[-90.24947,38.73726],[-90.24852,38.73584],[-90.24816,38.73534],[-90.24717,38.73379],[-90.24669,38.73303],[-90.24625,38.73228],[-90.24602,38.73185],[-90.24328,38.72761],[-90.24277,38.72671],[-90.24223,38.72591],[-90.2418,38.72523],[-90.24169,38.72502],[-90.24036,38.72287],[-90.24051,38.7228],[-90.24059,38.72272],[-90.24064,38.72259],[-90.24065,38.72248],[-90.24053,38.72227],[-90.24046,38.72222],[-90.24031,38.72218],[-90.24016,38.72216],[-90.24007,38.72217],[-90.23995,38.72221],[-90.23983,38.72227],[-90.23978,38.72232],[-90.23972,38.72247],[-90.23634,38.72272],[-90.23601,38.72276],[-90.2353,38.72293],[-90.23467,38.72317],[-90.23433,38.72334],[-90.2307,38.72531],[-90.22974,38.72581],[-90.22947,38.72592],[-90.2285,38.7262],[-90.22794,38.72633],[-90.22736,38.72649],[-90.22586,38.72692],[-90.22471,38.72717],[-90.22461,38.72711],[-90.22394,38.72734],[-90.22388,38.7274],[-90.22386,38.72748],[-90.22406,38.72761],[-90.22596,38.72711],[-90.22664,38.72704],[-90.22696,38.72699],[-90.22792,38.72679],[-90.22792,38.72652],[-90.22794,38.72633],[-90.22813,38.72532],[-90.22825,38.72454],[-90.22841,38.72369],[-90.22857,38.72268],[-90.22956,38.71698],[-90.22976,38.71573],[-90.22992,38.71492],[-90.23019,38.71316],[-90.23039,38.7121],[-90.23042,38.71178],[-90.23042,38.71116],[-90.2303,38.70856],[-90.23018,38.70642],[-90.23016,38.70531],[-90.2301,38.70464],[-90.23003,38.70418],[-90.22998,38.70397],[-90.22984,38.70354],[-90.22954,38.7029],[-90.22798,38.69931],[-90.22768,38.69873],[-90.22608,38.69594],[-90.22562,38.69504],[-90.22522,38.69413],[-90.2232,38.68932],[-90.22293,38.68884],[-90.22261,38.68835],[-90.22226,38.68789],[-90.22178,38.68733],[-90.22162,38.68717],[-90.22126,38.68687],[-90.21774,38.6842],[-90.21111,38.68044],[-90.2104,38.68002],[-90.20735,38.67763],[-90.20676,38.67713],[-90.20577,38.67608],[-90.20505,38.67523],[-90.20433,38.67424],[-90.20364,38.67334],[-90.20296,38.67241],[-90.20216,38.67138],[-90.20189,38.67106],[-90.19965,38.66868],[-90.19776,38.66671],[-90.19746,38.66634],[-90.19729,38.66604],[-90.19654,38.66451],[-90.19586,38.66317],[-90.19524,38.66208],[-90.19502,38.66165],[-90.19457,38.66058],[-90.19315,38.65776],[-90.19282,38.65716],[-90.19128,38.65414],[-90.19052,38.65258],[-90.18974,38.65105],[-90.18926,38.65006],[-90.18854,38.64863],[-90.18814,38.64788],[-90.18715,38.6459],[-90.18703,38.64562],[-90.18692,38.64526],[-90.18647,38.64371],[-90.18639,38.64335],[-90.18624,38.64247],[-90.18607,38.64114],[-90.18593,38.64025],[-90.18587,38.63951],[-90.18593,38.6393],[-90.18595,38.63899],[-90.186,38.63878],[-90.1862,38.63836],[-90.18644,38.63794],[-90.18651,38.63779],[-90.18656,38.63762],[-90.18657,38.63749],[-90.18656,38.63711],[-90.18635,38.63567],[-90.18635,38.63528],[-90.18638,38.6351],[-90.18684,38.6337],[-90.18742,38.63207],[-90.1877,38.63139],[-90.18834,38.62942],[-90.18873,38.62848],[-90.191,38.6291],[-90.1921,38.62935],[-90.19428,38.62989],[-90.19543,38.63011],[-90.19712,38.63048],[-90.19839,38.63074],[-90.19859,38.63085],[-90.19878,38.631],[-90.19885,38.63103],[-90.19968,38.63118],[-90.20021,38.6305],[-90.20027,38.63028],[-90.20056,38.62954],[-90.20104,38.62808],[-90.20188,38.62591],[-90.20235,38.62487],[-90.20273,38.62389],[-90.203,38.62398],[-90.20305,38.62403],[-90.20307,38.62409],[-90.20293,38.62434],[-90.20271,38.62491]]]}},{"type":"Feature","properties":{"stop_id":"10127","stop_code":"10127","stop_name":"NEW HALLS FERRY @ CENTRAL CITY SHOPPING CTR SB","stop_desc":"FAR SIDE NEW HALLS FERRY @ CENTRAL CITY SHOPPING CTR SB","wheelchair_boarding":2,"routes":[{"route_id":"19611","agency_id":"70006","route_short_name":"40","route_long_name":"Broadway-Halls Ferry","route_type":3,"route_color":"#FFFFFF","route_text_color":"#000000"}],"agency_name":"Metro St. Louis"},"geometry":{"type":"Point","coordinates":[-90.26322,38.76779]}},{"type":"Feature","properties":{"stop_id":"10128","stop_code":"10128","stop_name":"NEW HALLS FERRY @ WOODWIND SB","stop_desc":"FAR SIDE NEW HALLS FERRY @ WOODWIND SB","wheelchair_boarding":2,"routes":[{"route_id":"19611","agency_id":"70006","route_short_name":"40","route_long_name":"Broadway-Halls Ferry","route_type":3,"route_color":"#FFFFFF","route_text_color":"#000000"}],"agency_name":"Metro St. Louis"},"geometry":{"type":"Point","coordinates":[-90.26259,38.76726]}},{"type":"Feature","properties":{"stop_id":"10129","stop_code":"10129","stop_name":"HALLS FERRY @ OLD MANOR SB","stop_desc":"FAR SIDE HALLS FERRY @ OLD MANOR SB","wheelchair_boarding":2,"routes":[{"route_id":"19611","agency_id":"70006","route_short_name":"40","route_long_name":"Broadway-Halls Ferry","route_type":3,"route_color":"#FFFFFF","route_text_color":"#000000"}],"agency_name":"Metro St. Louis"},"geometry":{"type":"Point","coordinates":[-90.25865,38.76318]}},{"type":"Feature","properties":{"stop_id":"10130","stop_code":"10130","stop_name":"HALLS FERRY @ IBIS COURT SB","stop_desc":"NEAR SIDE HALLS FERRY @ IBIS COURT SB","wheelchair_boarding":2,"routes":[{"route_id":"19611","agency_id":"70006","route_short_name":"40","route_long_name":"Broadway-Halls Ferry","route_type":3,"route_color":"#FFFFFF","route_text_color":"#000000"}],"agency_name":"Metro St. Louis"},"geometry":{"type":"Point","coordinates":[-90.25783,38.76082]}},{"type":"Feature","properties":{"stop_id":"10131","stop_code":"10131","stop_name":"HALLS FERRY @ HUDSON SB","stop_desc":"FAR SIDE HALLS FERRY @ HUDSON SB","wheelchair_boarding":2,"routes":[{"route_id":"19611","agency_id":"70006","route_short_name":"40","route_long_name":"Broadway-Halls Ferry","route_type":3,"route_color":"#FFFFFF","route_text_color":"#000000"}],"agency_name":"Metro St. Louis"},"geometry":{"type":"Point","coordinates":[-90.25729,38.759]}},{"type":"Feature","properties":{"stop_id":"10132","stop_code":"10132","stop_name":"HALLS FERRY @ CAPITOL SB","stop_desc":"NEAR SIDE HALLS FERRY @ CAPITOL SB","wheelchair_boarding":2,"routes":[{"route_id":"19611","agency_id":"70006","route_short_name":"40","route_long_name":"Broadway-Halls Ferry","route_type":3,"route_color":"#FFFFFF","route_text_color":"#000000"}],"agency_name":"Metro St. Louis"},"geometry":{"type":"Point","coordinates":[-90.25599,38.75481]}},{"type":"Feature","properties":{"stop_id":"10133","stop_code":"10133","stop_name":"HALLS FERRY @ EMPIRE SB","stop_desc":"NEAR SIDE HALLS FERRY @ EMPIRE SB","wheelchair_boarding":2,"routes":[{"route_id":"19611","agency_id":"70006","route_short_name":"40","route_long_name":"Broadway-Halls Ferry","route_type":3,"route_color":"#FFFFFF","route_text_color":"#000000"}],"agency_name":"Metro St. Louis"},"geometry":{"type":"Point","coordinates":[-90.25529,38.7525]}},{"type":"Feature","properties":{"stop_id":"10134","stop_code":"10134","stop_name":"HALLS FERRY @ CHAMBERS SB","stop_desc":"FAR SIDE HALLS FERRY @ CHAMBERS SB","wheelchair_boarding":1,"routes":[{"route_id":"19611","agency_id":"70006","route_short_name":"40","route_long_name":"Broadway-Halls Ferry","route_type":3,"route_color":"#FFFFFF","route_text_color":"#000000"}],"agency_name":"Metro St. Louis"},"geometry":{"type":"Point","coordinates":[-90.25413,38.74854]}},{"type":"Feature","properties":{"stop_id":"10135","stop_code":"10135","stop_name":"HALLS FERRY @ HECHT SB","stop_desc":"FAR SIDE HALLS FERRY @ HECHT SB","wheelchair_boarding":2,"routes":[{"route_id":"19611","agency_id":"70006","route_short_name":"40","route_long_name":"Broadway-Halls Ferry","route_type":3,"route_color":"#FFFFFF","route_text_color":"#000000"}],"agency_name":"Metro St. Louis"},"geometry":{"type":"Point","coordinates":[-90.25372,38.74723]}},{"type":"Feature","properties":{"stop_id":"10137","stop_code":"10137","stop_name":"HALLS FERRY @ LUCAS-HUNT SB","stop_desc":"MID-BLOCK HALLS FERRY @ LUCAS-HUNT SB","wheelchair_boarding":2,"routes":[{"route_id":"19611","agency_id":"70006","route_short_name":"40","route_long_name":"Broadway-Halls Ferry","route_type":3,"route_color":"#FFFFFF","route_text_color":"#000000"},{"route_id":"19621","agency_id":"70006","route_short_name":"64","route_long_name":"Lucas-Hunt","route_type":3,"route_color":"#FFFFFF","route_text_color":"#000000"}],"agency_name":"Metro St. Louis"},"geometry":{"type":"Point","coordinates":[-90.25195,38.74149]}},{"type":"Feature","properties":{"stop_id":"10139","stop_code":"10139","stop_name":"HALLS FERRY @ DORWOOD SB","stop_desc":"FAR SIDE HALLS FERRY @ DORWOOD SB","wheelchair_boarding":2,"routes":[{"route_id":"19611","agency_id":"70006","route_short_name":"40","route_long_name":"Broadway-Halls Ferry","route_type":3,"route_color":"#FFFFFF","route_text_color":"#000000"},{"route_id":"19621","agency_id":"70006","route_short_name":"64","route_long_name":"Lucas-Hunt","route_type":3,"route_color":"#FFFFFF","route_text_color":"#000000"}],"agency_name":"Metro St. Louis"},"geometry":{"type":"Point","coordinates":[-90.2506,38.73889]}},{"type":"Feature","properties":{"stop_id":"10141","stop_code":"10141","stop_name":"HALLS FERRY @ ST. CYR SB","stop_desc":"NEAR SIDE HALLS FERRY @ ST. CYR SB","wheelchair_boarding":1,"routes":[{"route_id":"19611","agency_id":"70006","route_short_name":"40","route_long_name":"Broadway-Halls Ferry","route_type":3,"route_color":"#FFFFFF","route_text_color":"#000000"},{"route_id":"19621","agency_id":"70006","route_short_name":"64","route_long_name":"Lucas-Hunt","route_type":3,"route_color":"#FFFFFF","route_text_color":"#000000"}],"agency_name":"Metro St. Louis"},"geometry":{"type":"Point","coordinates":[-90.24868,38.73594]}},{"type":"Feature","properties":{"stop_id":"10143","stop_code":"10143","stop_name":"HALLS FERRY @ GLEN GARDEN SB","stop_desc":"NEAR SIDE HALLS FERRY @ GLEN GARDEN SB","wheelchair_boarding":1,"routes":[{"route_id":"19611","agency_id":"70006","route_short_name":"40","route_long_name":"Broadway-Halls Ferry","route_type":3,"route_color":"#FFFFFF","route_text_color":"#000000"},{"route_id":"19621","agency_id":"70006","route_short_name":"64","route_long_name":"Lucas-Hunt","route_type":3,"route_color":"#FFFFFF","route_text_color":"#000000"}],"agency_name":"Metro St. Louis"},"geometry":{"type":"Point","coordinates":[-90.24731,38.73383]}},{"type":"Feature","properties":{"stop_id":"10144","stop_code":"10144","stop_name":"HALLS FERRY @ COZENS SB","stop_desc":"FAR SIDE HALLS FERRY @ COZENS SB","wheelchair_boarding":1,"routes":[{"route_id":"19611","agency_id":"70006","route_short_name":"40","route_long_name":"Broadway-Halls Ferry","route_type":3,"route_color":"#FFFFFF","route_text_color":"#000000"},{"route_id":"19621","agency_id":"70006","route_short_name":"64","route_long_name":"Lucas-Hunt","route_type":3,"route_color":"#FFFFFF","route_text_color":"#000000"}],"agency_name":"Metro St. Louis"},"geometry":{"type":"Point","coordinates":[-90.24609,38.73183]}},{"type":"Feature","properties":{"stop_id":"14455","stop_code":"14455","stop_name":"LOCUST @ 8TH STREET WB","stop_desc":"FAR SIDE LOCUST @ 8TH STREET WB","wheelchair_boarding":1,"routes":[{"route_id":"19611","agency_id":"70006","route_short_name":"40","route_long_name":"Broadway-Halls Ferry","route_type":3,"route_color":"#FFFFFF","route_text_color":"#000000"}],"agency_name":"Metro St. Louis"},"geometry":{"type":"Point","coordinates":[-90.19228,38.62943]}},{"type":"Feature","properties":{"stop_id":"14472","stop_code":"14472","stop_name":"BROADWAY @ WASHINGTON SB","stop_desc":"NEAR SIDE BROADWAY @ WASHINGTON SB","wheelchair_boarding":1,"routes":[{"route_id":"19611","agency_id":"70006","route_short_name":"40","route_long_name":"Broadway-Halls Ferry","route_type":3,"route_color":"#FFFFFF","route_text_color":"#000000"}],"agency_name":"Metro St. Louis"},"geometry":{"type":"Point","coordinates":[-90.18798,38.63029]}},{"type":"Feature","properties":{"stop_id":"14499","stop_code":"14499","stop_name":"14TH STREET @ PINE SB","stop_desc":"NEAR SIDE 14TH STREET @ PINE SB","wheelchair_boarding":1,"routes":[{"route_id":"19598","agency_id":"70006","route_short_name":"10","route_long_name":"Gravois-Lindell","route_type":3,"route_color":"#FFFFFF","route_text_color":"#000000"},{"route_id":"19607","agency_id":"70006","route_short_name":"32","route_long_name":"Dr ML King","route_type":3,"route_color":"#FFFFFF","route_text_color":"#000000"},{"route_id":"19611","agency_id":"70006","route_short_name":"40","route_long_name":"Broadway-Halls Ferry","route_type":3,"route_color":"#FFFFFF","route_text_color":"#000000"},{"route_id":"19612","agency_id":"70006","route_short_name":"41","route_long_name":"Lee","route_type":3,"route_color":"#FFFFFF","route_text_color":"#000000"},{"route_id":"19624","agency_id":"70006","route_short_name":"74","route_long_name":"Florissant","route_type":3,"route_color":"#FFFFFF","route_text_color":"#000000"},{"route_id":"19633","agency_id":"70006","route_short_name":"97","route_long_name":"Delmar","route_type":3,"route_color":"#FFFFFF","route_text_color":"#000000"}],"agency_name":"Metro St. Louis"},"geometry":{"type":"Point","coordinates":[-90.20057,38.62983]}},{"type":"Feature","properties":{"stop_id":"15073","stop_code":"15073","stop_name":"RIVERVIEW @ BROADWAY EB","stop_desc":"FAR SIDE RIVERVIEW @ BROADWAY EB","wheelchair_boarding":2,"routes":[{"route_id":"19601","agency_id":"70006","route_short_name":"16","route_long_name":"City Limits","route_type":3,"route_color":"#FFFFFF","route_text_color":"#000000"},{"route_id":"19611","agency_id":"70006","route_short_name":"40","route_long_name":"Broadway-Halls Ferry","route_type":3,"route_color":"#FFFFFF","route_text_color":"#000000"},{"route_id":"19612","agency_id":"70006","route_short_name":"41","route_long_name":"Lee","route_type":3,"route_color":"#FFFFFF","route_text_color":"#000000"},{"route_id":"19619","agency_id":"70006","route_short_name":"60","route_long_name":"Shepley-Lilac","route_type":3,"route_color":"#FFFFFF","route_text_color":"#000000"},{"route_id":"19620","agency_id":"70006","route_short_name":"61","route_long_name":"Chambers Rd","route_type":3,"route_color":"#FFFFFF","route_text_color":"#000000"},{"route_id":"19621","agency_id":"70006","route_short_name":"64","route_long_name":"Lucas-Hunt","route_type":3,"route_color":"#FFFFFF","route_text_color":"#000000"},{"route_id":"19627","agency_id":"70006","route_short_name":"78","route_long_name":"Bellefontaine","route_type":3,"route_color":"#FFFFFF","route_text_color":"#000000"},{"route_id":"19629","agency_id":"70006","route_short_name":"90","route_long_name":"Hampton","route_type":3,"route_color":"#FFFFFF","route_text_color":"#000000"}],"agency_name":"Metro St. Louis"},"geometry":{"type":"Point","coordinates":[-90.22708,38.72658]}},{"type":"Feature","properties":{"stop_id":"15489","stop_code":"15489","stop_name":"8937 RIVERVIEW WB","stop_desc":"MID-BLOCK 8937 RIVERVIEW WB","wheelchair_boarding":2,"routes":[{"route_id":"19601","agency_id":"70006","route_short_name":"16","route_long_name":"City Limits","route_type":3,"route_color":"#FFFFFF","route_text_color":"#000000"},{"route_id":"19611","agency_id":"70006","route_short_name":"40","route_long_name":"Broadway-Halls Ferry","route_type":3,"route_color":"#FFFFFF","route_text_color":"#000000"},{"route_id":"19612","agency_id":"70006","route_short_name":"41","route_long_name":"Lee","route_type":3,"route_color":"#FFFFFF","route_text_color":"#000000"},{"route_id":"19619","agency_id":"70006","route_short_name":"60","route_long_name":"Shepley-Lilac","route_type":3,"route_color":"#FFFFFF","route_text_color":"#000000"},{"route_id":"19620","agency_id":"70006","route_short_name":"61","route_long_name":"Chambers Rd","route_type":3,"route_color":"#FFFFFF","route_text_color":"#000000"},{"route_id":"19621","agency_id":"70006","route_short_name":"64","route_long_name":"Lucas-Hunt","route_type":3,"route_color":"#FFFFFF","route_text_color":"#000000"},{"route_id":"19627","agency_id":"70006","route_short_name":"78","route_long_name":"Bellefontaine","route_type":3,"route_color":"#FFFFFF","route_text_color":"#000000"},{"route_id":"19629","agency_id":"70006","route_short_name":"90","route_long_name":"Hampton","route_type":3,"route_color":"#FFFFFF","route_text_color":"#000000"}],"agency_name":"Metro St. Louis"},"geometry":{"type":"Point","coordinates":[-90.22641,38.72709]}},{"type":"Feature","properties":{"stop_id":"1577","stop_code":"1577","stop_name":"LOCUST @ TUCKER WB","stop_desc":"NEAR SIDE LOCUST @ TUCKER WB","wheelchair_boarding":1,"routes":[{"route_id":"19611","agency_id":"70006","route_short_name":"40","route_long_name":"Broadway-Halls Ferry","route_type":3,"route_color":"#FFFFFF","route_text_color":"#000000"}],"agency_name":"Metro St. Louis"},"geometry":{"type":"Point","coordinates":[-90.19669,38.6305]}},{"type":"Feature","properties":{"stop_id":"1579","stop_code":"1579","stop_name":"14TH STREET @ LOCUST SB","stop_desc":"NEAR SIDE 14TH STREET @ LOCUST SB","wheelchair_boarding":1,"routes":[{"route_id":"19611","agency_id":"70006","route_short_name":"40","route_long_name":"Broadway-Halls Ferry","route_type":3,"route_color":"#FFFFFF","route_text_color":"#000000"},{"route_id":"19612","agency_id":"70006","route_short_name":"41","route_long_name":"Lee","route_type":3,"route_color":"#FFFFFF","route_text_color":"#000000"},{"route_id":"19624","agency_id":"70006","route_short_name":"74","route_long_name":"Florissant","route_type":3,"route_color":"#FFFFFF","route_text_color":"#000000"},{"route_id":"19633","agency_id":"70006","route_short_name":"97","route_long_name":"Delmar","route_type":3,"route_color":"#FFFFFF","route_text_color":"#000000"}],"agency_name":"Metro St. Louis"},"geometry":{"type":"Point","coordinates":[-90.20017,38.63106]}},{"type":"Feature","properties":{"stop_id":"15953","stop_code":"15953","stop_name":"HALLS FERRY @ WESTCHESTER SB","stop_desc":"FAR SIDE HALLS FERRY @ WESTCHESTER SB","wheelchair_boarding":1,"routes":[{"route_id":"19611","agency_id":"70006","route_short_name":"40","route_long_name":"Broadway-Halls Ferry","route_type":3,"route_color":"#FFFFFF","route_text_color":"#000000"},{"route_id":"19621","agency_id":"70006","route_short_name":"64","route_long_name":"Lucas-Hunt","route_type":3,"route_color":"#FFFFFF","route_text_color":"#000000"}],"agency_name":"Metro St. Louis"},"geometry":{"type":"Point","coordinates":[-90.24394,38.72845]}},{"type":"Feature","properties":{"stop_id":"16251","stop_code":"16251","stop_name":"NORTH COUNTY TRANSIT CENTER","wheelchair_boarding":1,"routes":[{"route_id":"19611","agency_id":"70006","route_short_name":"40","route_long_name":"Broadway-Halls Ferry","route_type":3,"route_color":"#FFFFFF","route_text_color":"#000000"},{"route_id":"19626","agency_id":"70006","route_short_name":"77","route_long_name":"Village Square","route_type":3,"route_color":"#FFFFFF","route_text_color":"#000000"},{"route_id":"19627","agency_id":"70006","route_short_name":"78","route_long_name":"Bellefontaine","route_type":3,"route_color":"#FFFFFF","route_text_color":"#000000"},{"route_id":"19628","agency_id":"70006","route_short_name":"79","route_long_name":"Ferguson-Clayton","route_type":3,"route_color":"#FFFFFF","route_text_color":"#000000"}],"agency_name":"Metro St. Louis"},"geometry":{"type":"Point","coordinates":[-90.27521,38.7698]}},{"type":"Feature","properties":{"stop_id":"16301","stop_code":"16301","stop_name":"PERSHALL @ TRASK EB","stop_desc":"FAR SIDE PERSHALL @ TRASK EB","wheelchair_boarding":2,"routes":[{"route_id":"19611","agency_id":"70006","route_short_name":"40","route_long_name":"Broadway-Halls Ferry","route_type":3,"route_color":"#FFFFFF","route_text_color":"#000000"},{"route_id":"19619","agency_id":"70006","route_short_name":"60","route_long_name":"Shepley-Lilac","route_type":3,"route_color":"#FFFFFF","route_text_color":"#000000"},{"route_id":"19627","agency_id":"70006","route_short_name":"78","route_long_name":"Bellefontaine","route_type":3,"route_color":"#FFFFFF","route_text_color":"#000000"}],"agency_name":"Metro St. Louis"},"geometry":{"type":"Point","coordinates":[-90.26996,38.77066]}},{"type":"Feature","properties":{"stop_id":"16340","stop_code":"16340","stop_name":"NEW HALLS FERRY @ OLD HALLS FERRY SB","stop_desc":"NEAR SIDE NEW HALLS FERRY @ OLD HALLS FERRY SB","wheelchair_boarding":2,"routes":[{"route_id":"19611","agency_id":"70006","route_short_name":"40","route_long_name":"Broadway-Halls Ferry","route_type":3,"route_color":"#FFFFFF","route_text_color":"#000000"}],"agency_name":"Metro St. Louis"},"geometry":{"type":"Point","coordinates":[-90.26046,38.76551]}},{"type":"Feature","properties":{"stop_id":"1679","stop_code":"1679","stop_name":"BROADWAY @ COLE SB","stop_desc":"NEAR SIDE BROADWAY @ COLE SB","wheelchair_boarding":1,"routes":[{"route_id":"19611","agency_id":"70006","route_short_name":"40","route_long_name":"Broadway-Halls Ferry","route_type":3,"route_color":"#FFFFFF","route_text_color":"#000000"}],"agency_name":"Metro St. Louis"},"geometry":{"type":"Point","coordinates":[-90.18657,38.63498]}},{"type":"Feature","properties":{"stop_id":"1680","stop_code":"1680","stop_name":"BROADWAY @ CONVENTION PLAZA SB","stop_desc":"NEAR SIDE BROADWAY @ CONVENTION PLAZA SB","wheelchair_boarding":1,"routes":[{"route_id":"19611","agency_id":"70006","route_short_name":"40","route_long_name":"Broadway-Halls Ferry","route_type":3,"route_color":"#FFFFFF","route_text_color":"#000000"}],"agency_name":"Metro St. Louis"},"geometry":{"type":"Point","coordinates":[-90.18747,38.63191]}},{"type":"Feature","properties":{"stop_id":"1682","stop_code":"1682","stop_name":"LOCUST @ 6TH STREET WB","stop_desc":"NEAR SIDE LOCUST @ 6TH STREET WB","wheelchair_boarding":1,"routes":[{"route_id":"19611","agency_id":"70006","route_short_name":"40","route_long_name":"Broadway-Halls Ferry","route_type":3,"route_color":"#FFFFFF","route_text_color":"#000000"}],"agency_name":"Metro St. Louis"},"geometry":{"type":"Point","coordinates":[-90.18951,38.62877]}},{"type":"Feature","properties":{"stop_id":"6300","stop_code":"6300","stop_name":"HALLS FERRY @ JENNINGS STATION ROAD SB","stop_desc":"FAR SIDE HALLS FERRY @ JENNINGS STATION ROAD SB","wheelchair_boarding":1,"routes":[{"route_id":"19611","agency_id":"70006","route_short_name":"40","route_long_name":"Broadway-Halls Ferry","route_type":3,"route_color":"#FFFFFF","route_text_color":"#000000"},{"route_id":"19621","agency_id":"70006","route_short_name":"64","route_long_name":"Lucas-Hunt","route_type":3,"route_color":"#FFFFFF","route_text_color":"#000000"}],"agency_name":"Metro St. Louis"},"geometry":{"type":"Point","coordinates":[-90.24302,38.72701]}},{"type":"Feature","properties":{"stop_id":"6301","stop_code":"6301","stop_name":"HALLS FERRY @ HALLS FERRY CIRCLE SB","stop_desc":"NEAR SIDE HALLS FERRY @ HALLS FERRY CIRCLE SB","wheelchair_boarding":1,"routes":[{"route_id":"19611","agency_id":"70006","route_short_name":"40","route_long_name":"Broadway-Halls Ferry","route_type":3,"route_color":"#FFFFFF","route_text_color":"#000000"},{"route_id":"19621","agency_id":"70006","route_short_name":"64","route_long_name":"Lucas-Hunt","route_type":3,"route_color":"#FFFFFF","route_text_color":"#000000"}],"agency_name":"Metro St. Louis"},"geometry":{"type":"Point","coordinates":[-90.24094,38.72365]}},{"type":"Feature","properties":{"stop_id":"6388","stop_code":"6388","stop_name":"RIVERVIEW @ HALLS FERRY CIRCLE EB","stop_desc":"FAR SIDE RIVERVIEW @ HALLS FERRY CIRCLE EB","wheelchair_boarding":1,"routes":[{"route_id":"19611","agency_id":"70006","route_short_name":"40","route_long_name":"Broadway-Halls Ferry","route_type":3,"route_color":"#FFFFFF","route_text_color":"#000000"},{"route_id":"19612","agency_id":"70006","route_short_name":"41","route_long_name":"Lee","route_type":3,"route_color":"#FFFFFF","route_text_color":"#000000"},{"route_id":"19621","agency_id":"70006","route_short_name":"64","route_long_name":"Lucas-Hunt","route_type":3,"route_color":"#FFFFFF","route_text_color":"#000000"},{"route_id":"19629","agency_id":"70006","route_short_name":"90","route_long_name":"Hampton","route_type":3,"route_color":"#FFFFFF","route_text_color":"#000000"}],"agency_name":"Metro St. Louis"},"geometry":{"type":"Point","coordinates":[-90.2393,38.72248]}},{"type":"Feature","properties":{"stop_id":"6390","stop_code":"6390","stop_name":"RIVERVIEW @ NEWBY EB","stop_desc":"NEAR SIDE RIVERVIEW @ NEWBY EB","wheelchair_boarding":2,"routes":[{"route_id":"19611","agency_id":"70006","route_short_name":"40","route_long_name":"Broadway-Halls Ferry","route_type":3,"route_color":"#FFFFFF","route_text_color":"#000000"},{"route_id":"19612","agency_id":"70006","route_short_name":"41","route_long_name":"Lee","route_type":3,"route_color":"#FFFFFF","route_text_color":"#000000"},{"route_id":"19621","agency_id":"70006","route_short_name":"64","route_long_name":"Lucas-Hunt","route_type":3,"route_color":"#FFFFFF","route_text_color":"#000000"},{"route_id":"19629","agency_id":"70006","route_short_name":"90","route_long_name":"Hampton","route_type":3,"route_color":"#FFFFFF","route_text_color":"#000000"}],"agency_name":"Metro St. Louis"},"geometry":{"type":"Point","coordinates":[-90.2349,38.72302]}},{"type":"Feature","properties":{"stop_id":"6392","stop_code":"6392","stop_name":"RIVERVIEW @ JORDAN EB","stop_desc":"NEAR SIDE RIVERVIEW @ JORDAN EB","wheelchair_boarding":2,"routes":[{"route_id":"19611","agency_id":"70006","route_short_name":"40","route_long_name":"Broadway-Halls Ferry","route_type":3,"route_color":"#FFFFFF","route_text_color":"#000000"},{"route_id":"19612","agency_id":"70006","route_short_name":"41","route_long_name":"Lee","route_type":3,"route_color":"#FFFFFF","route_text_color":"#000000"},{"route_id":"19621","agency_id":"70006","route_short_name":"64","route_long_name":"Lucas-Hunt","route_type":3,"route_color":"#FFFFFF","route_text_color":"#000000"},{"route_id":"19629","agency_id":"70006","route_short_name":"90","route_long_name":"Hampton","route_type":3,"route_color":"#FFFFFF","route_text_color":"#000000"}],"agency_name":"Metro St. Louis"},"geometry":{"type":"Point","coordinates":[-90.23086,38.72518]}},{"type":"Feature","properties":{"stop_id":"6393","stop_code":"6393","stop_name":"RIVERVIEW @ BROADWAY EB","stop_desc":"NEAR SIDE RIVERVIEW @ BROADWAY EB","wheelchair_boarding":2,"routes":[{"route_id":"19611","agency_id":"70006","route_short_name":"40","route_long_name":"Broadway-Halls Ferry","route_type":3,"route_color":"#FFFFFF","route_text_color":"#000000"},{"route_id":"19612","agency_id":"70006","route_short_name":"41","route_long_name":"Lee","route_type":3,"route_color":"#FFFFFF","route_text_color":"#000000"},{"route_id":"19621","agency_id":"70006","route_short_name":"64","route_long_name":"Lucas-Hunt","route_type":3,"route_color":"#FFFFFF","route_text_color":"#000000"},{"route_id":"19629","agency_id":"70006","route_short_name":"90","route_long_name":"Hampton","route_type":3,"route_color":"#FFFFFF","route_text_color":"#000000"}],"agency_name":"Metro St. Louis"},"geometry":{"type":"Point","coordinates":[-90.22857,38.72615]}},{"type":"Feature","properties":{"stop_id":"6394","stop_code":"6394","stop_name":"BROADWAY @ RIVERVIEW SB","stop_desc":"FAR SIDE BROADWAY @ RIVERVIEW SB","wheelchair_boarding":1,"routes":[{"route_id":"19611","agency_id":"70006","route_short_name":"40","route_long_name":"Broadway-Halls Ferry","route_type":3,"route_color":"#FFFFFF","route_text_color":"#000000"}],"agency_name":"Metro St. Louis"},"geometry":{"type":"Point","coordinates":[-90.22811,38.72596]}},{"type":"Feature","properties":{"stop_id":"6395","stop_code":"6395","stop_name":"BROADWAY @ GUSTAV SB","stop_desc":"NEAR SIDE BROADWAY @ GUSTAV SB","wheelchair_boarding":2,"routes":[{"route_id":"19611","agency_id":"70006","route_short_name":"40","route_long_name":"Broadway-Halls Ferry","route_type":3,"route_color":"#FFFFFF","route_text_color":"#000000"}],"agency_name":"Metro St. Louis"},"geometry":{"type":"Point","coordinates":[-90.2284,38.72414]}},{"type":"Feature","properties":{"stop_id":"6396","stop_code":"6396","stop_name":"BROADWAY @ HARLAN SB","stop_desc":"FAR SIDE BROADWAY @ HARLAN SB","wheelchair_boarding":1,"routes":[{"route_id":"19611","agency_id":"70006","route_short_name":"40","route_long_name":"Broadway-Halls Ferry","route_type":3,"route_color":"#FFFFFF","route_text_color":"#000000"}],"agency_name":"Metro St. Louis"},"geometry":{"type":"Point","coordinates":[-90.22883,38.72175]}},{"type":"Feature","properties":{"stop_id":"6398","stop_code":"6398","stop_name":"BROADWAY @ HORNSBY SB","stop_desc":"NEAR SIDE BROADWAY @ HORNSBY SB","wheelchair_boarding":1,"routes":[{"route_id":"19611","agency_id":"70006","route_short_name":"40","route_long_name":"Broadway-Halls Ferry","route_type":3,"route_color":"#FFFFFF","route_text_color":"#000000"}],"agency_name":"Metro St. Louis"},"geometry":{"type":"Point","coordinates":[-90.22934,38.71868]}},{"type":"Feature","properties":{"stop_id":"6399","stop_code":"6399","stop_name":"BROADWAY @ GRAPE SB","stop_desc":"NEAR SIDE BROADWAY @ GRAPE SB","wheelchair_boarding":2,"routes":[{"route_id":"19611","agency_id":"70006","route_short_name":"40","route_long_name":"Broadway-Halls Ferry","route_type":3,"route_color":"#FFFFFF","route_text_color":"#000000"}],"agency_name":"Metro St. Louis"},"geometry":{"type":"Point","coordinates":[-90.22977,38.71608]}},{"type":"Feature","properties":{"stop_id":"6400","stop_code":"6400","stop_name":"BROADWAY @ GIMBLIN SB","stop_desc":"FAR SIDE BROADWAY @ GIMBLIN SB","wheelchair_boarding":1,"routes":[{"route_id":"19611","agency_id":"70006","route_short_name":"40","route_long_name":"Broadway-Halls Ferry","route_type":3,"route_color":"#FFFFFF","route_text_color":"#000000"}],"agency_name":"Metro St. Louis"},"geometry":{"type":"Point","coordinates":[-90.23006,38.71443]}},{"type":"Feature","properties":{"stop_id":"6401","stop_code":"6401","stop_name":"BROADWAY @ HALLS FERRY SB","stop_desc":"NEAR SIDE BROADWAY @ HALLS FERRY SB","wheelchair_boarding":1,"routes":[{"route_id":"19611","agency_id":"70006","route_short_name":"40","route_long_name":"Broadway-Halls Ferry","route_type":3,"route_color":"#FFFFFF","route_text_color":"#000000"}],"agency_name":"Metro St. Louis"},"geometry":{"type":"Point","coordinates":[-90.23037,38.71269]}},{"type":"Feature","properties":{"stop_id":"6402","stop_code":"6402","stop_name":"BROADWAY @ BADEN SB","stop_desc":"NEAR SIDE BROADWAY @ BADEN SB","wheelchair_boarding":1,"routes":[{"route_id":"19611","agency_id":"70006","route_short_name":"40","route_long_name":"Broadway-Halls Ferry","route_type":3,"route_color":"#FFFFFF","route_text_color":"#000000"}],"agency_name":"Metro St. Louis"},"geometry":{"type":"Point","coordinates":[-90.23051,38.71167]}},{"type":"Feature","properties":{"stop_id":"6403","stop_code":"6403","stop_name":"BROADWAY @ BITTNER SB","stop_desc":"FAR SIDE BROADWAY @ BITTNER SB","wheelchair_boarding":1,"routes":[{"route_id":"19611","agency_id":"70006","route_short_name":"40","route_long_name":"Broadway-Halls Ferry","route_type":3,"route_color":"#FFFFFF","route_text_color":"#000000"}],"agency_name":"Metro St. Louis"},"geometry":{"type":"Point","coordinates":[-90.23044,38.71011]}},{"type":"Feature","properties":{"stop_id":"6405","stop_code":"6405","stop_name":"BROADWAY @ SWITZER SB","stop_desc":"NEAR SIDE BROADWAY @ SWITZER SB","wheelchair_boarding":2,"routes":[{"route_id":"19611","agency_id":"70006","route_short_name":"40","route_long_name":"Broadway-Halls Ferry","route_type":3,"route_color":"#FFFFFF","route_text_color":"#000000"}],"agency_name":"Metro St. Louis"},"geometry":{"type":"Point","coordinates":[-90.23027,38.7061]}},{"type":"Feature","properties":{"stop_id":"6407","stop_code":"6407","stop_name":"BROADWAY @ CALVARY SB","stop_desc":"NEAR SIDE BROADWAY @ CALVARY SB","wheelchair_boarding":2,"routes":[{"route_id":"19611","agency_id":"70006","route_short_name":"40","route_long_name":"Broadway-Halls Ferry","route_type":3,"route_color":"#FFFFFF","route_text_color":"#000000"}],"agency_name":"Metro St. Louis"},"geometry":{"type":"Point","coordinates":[-90.22854,38.70035]}},{"type":"Feature","properties":{"stop_id":"6409","stop_code":"6409","stop_name":"BROADWAY @ HUMBOLDT SB","stop_desc":"NEAR SIDE BROADWAY @ HUMBOLDT SB","wheelchair_boarding":2,"routes":[{"route_id":"19611","agency_id":"70006","route_short_name":"40","route_long_name":"Broadway-Halls Ferry","route_type":3,"route_color":"#FFFFFF","route_text_color":"#000000"}],"agency_name":"Metro St. Louis"},"geometry":{"type":"Point","coordinates":[-90.22639,38.69635]}},{"type":"Feature","properties":{"stop_id":"6410","stop_code":"6410","stop_name":"BROADWAY @ KEBER SB","stop_desc":"FAR SIDE BROADWAY @ KEBER SB","wheelchair_boarding":2,"routes":[{"route_id":"19611","agency_id":"70006","route_short_name":"40","route_long_name":"Broadway-Halls Ferry","route_type":3,"route_color":"#FFFFFF","route_text_color":"#000000"}],"agency_name":"Metro St. Louis"},"geometry":{"type":"Point","coordinates":[-90.22451,38.69223]}},{"type":"Feature","properties":{"stop_id":"6411","stop_code":"6411","stop_name":"BROADWAY @ SWERINGEN SB","stop_desc":"FAR SIDE BROADWAY @ SWERINGEN SB","wheelchair_boarding":2,"routes":[{"route_id":"19611","agency_id":"70006","route_short_name":"40","route_long_name":"Broadway-Halls Ferry","route_type":3,"route_color":"#FFFFFF","route_text_color":"#000000"}],"agency_name":"Metro St. Louis"},"geometry":{"type":"Point","coordinates":[-90.22319,38.68914]}},{"type":"Feature","properties":{"stop_id":"6412","stop_code":"6412","stop_name":"BROADWAY @ NORTH BROADWAY TRANSIT CTR SB","stop_desc":"FAR SIDE BROADWAY @ NORTH BROADWAY TRANSIT CTR SB","wheelchair_boarding":1,"routes":[{"route_id":"19611","agency_id":"70006","route_short_name":"40","route_long_name":"Broadway-Halls Ferry","route_type":3,"route_color":"#FFFFFF","route_text_color":"#000000"}],"agency_name":"Metro St. Louis"},"geometry":{"type":"Point","coordinates":[-90.22032,38.68607]}},{"type":"Feature","properties":{"stop_id":"6414","stop_code":"6414","stop_name":"BROADWAY @ CLARENCE SB","stop_desc":"FAR SIDE BROADWAY @ CLARENCE SB","wheelchair_boarding":2,"routes":[{"route_id":"19611","agency_id":"70006","route_short_name":"40","route_long_name":"Broadway-Halls Ferry","route_type":3,"route_color":"#FFFFFF","route_text_color":"#000000"},{"route_id":"19622","agency_id":"70006","route_short_name":"70","route_long_name":"Grand","route_type":3,"route_color":"#FFFFFF","route_text_color":"#000000"}],"agency_name":"Metro St. Louis"},"geometry":{"type":"Point","coordinates":[-90.21687,38.68364]}},{"type":"Feature","properties":{"stop_id":"6416","stop_code":"6416","stop_name":"BROADWAY @ RED BUD SB","stop_desc":"NEAR SIDE BROADWAY @ RED BUD SB","wheelchair_boarding":2,"routes":[{"route_id":"19611","agency_id":"70006","route_short_name":"40","route_long_name":"Broadway-Halls Ferry","route_type":3,"route_color":"#FFFFFF","route_text_color":"#000000"},{"route_id":"19622","agency_id":"70006","route_short_name":"70","route_long_name":"Grand","route_type":3,"route_color":"#FFFFFF","route_text_color":"#000000"}],"agency_name":"Metro St. Louis"},"geometry":{"type":"Point","coordinates":[-90.21382,38.6819]}},{"type":"Feature","properties":{"stop_id":"6418","stop_code":"6418","stop_name":"BROADWAY @ ADELAIDE SB","stop_desc":"NEAR SIDE BROADWAY @ ADELAIDE SB","wheelchair_boarding":1,"routes":[{"route_id":"19611","agency_id":"70006","route_short_name":"40","route_long_name":"Broadway-Halls Ferry","route_type":3,"route_color":"#FFFFFF","route_text_color":"#000000"},{"route_id":"19622","agency_id":"70006","route_short_name":"70","route_long_name":"Grand","route_type":3,"route_color":"#FFFFFF","route_text_color":"#000000"}],"agency_name":"Metro St. Louis"},"geometry":{"type":"Point","coordinates":[-90.21108,38.68036]}},{"type":"Feature","properties":{"stop_id":"6420","stop_code":"6420","stop_name":"BROADWAY @ TALCOTT SB","stop_desc":"NEAR SIDE BROADWAY @ TALCOTT SB","wheelchair_boarding":2,"routes":[{"route_id":"19611","agency_id":"70006","route_short_name":"40","route_long_name":"Broadway-Halls Ferry","route_type":3,"route_color":"#FFFFFF","route_text_color":"#000000"},{"route_id":"19622","agency_id":"70006","route_short_name":"70","route_long_name":"Grand","route_type":3,"route_color":"#FFFFFF","route_text_color":"#000000"}],"agency_name":"Metro St. Louis"},"geometry":{"type":"Point","coordinates":[-90.20815,38.67816]}},{"type":"Feature","properties":{"stop_id":"6422","stop_code":"6422","stop_name":"BROADWAY @ PRAIRIE SB","stop_desc":"NEAR SIDE BROADWAY @ PRAIRIE SB","wheelchair_boarding":2,"routes":[{"route_id":"19611","agency_id":"70006","route_short_name":"40","route_long_name":"Broadway-Halls Ferry","route_type":3,"route_color":"#FFFFFF","route_text_color":"#000000"},{"route_id":"19622","agency_id":"70006","route_short_name":"70","route_long_name":"Grand","route_type":3,"route_color":"#FFFFFF","route_text_color":"#000000"}],"agency_name":"Metro St. Louis"},"geometry":{"type":"Point","coordinates":[-90.20608,38.67634]}},{"type":"Feature","properties":{"stop_id":"6424","stop_code":"6424","stop_name":"BROADWAY @ GRAND SB","stop_desc":"NEAR SIDE BROADWAY @ GRAND SB","wheelchair_boarding":2,"routes":[{"route_id":"19611","agency_id":"70006","route_short_name":"40","route_long_name":"Broadway-Halls Ferry","route_type":3,"route_color":"#FFFFFF","route_text_color":"#000000"},{"route_id":"19622","agency_id":"70006","route_short_name":"70","route_long_name":"Grand","route_type":3,"route_color":"#FFFFFF","route_text_color":"#000000"}],"agency_name":"Metro St. Louis"},"geometry":{"type":"Point","coordinates":[-90.20409,38.6738]}},{"type":"Feature","properties":{"stop_id":"6426","stop_code":"6426","stop_name":"BROADWAY @ GRAND SB","stop_desc":"FAR SIDE BROADWAY @ GRAND SB","wheelchair_boarding":2,"routes":[{"route_id":"19611","agency_id":"70006","route_short_name":"40","route_long_name":"Broadway-Halls Ferry","route_type":3,"route_color":"#FFFFFF","route_text_color":"#000000"}],"agency_name":"Metro St. Louis"},"geometry":{"type":"Point","coordinates":[-90.20201,38.67109]}},{"type":"Feature","properties":{"stop_id":"6428","stop_code":"6428","stop_name":"BROADWAY @ PENROSE SB","stop_desc":"NEAR SIDE BROADWAY @ PENROSE SB","wheelchair_boarding":1,"routes":[{"route_id":"19611","agency_id":"70006","route_short_name":"40","route_long_name":"Broadway-Halls Ferry","route_type":3,"route_color":"#FFFFFF","route_text_color":"#000000"}],"agency_name":"Metro St. Louis"},"geometry":{"type":"Point","coordinates":[-90.19987,38.66877]}},{"type":"Feature","properties":{"stop_id":"6430","stop_code":"6430","stop_name":"BROADWAY @ BREMEN SB","stop_desc":"NEAR SIDE BROADWAY @ BREMEN SB","wheelchair_boarding":2,"routes":[{"route_id":"19611","agency_id":"70006","route_short_name":"40","route_long_name":"Broadway-Halls Ferry","route_type":3,"route_color":"#FFFFFF","route_text_color":"#000000"}],"agency_name":"Metro St. Louis"},"geometry":{"type":"Point","coordinates":[-90.19665,38.66458]}},{"type":"Feature","properties":{"stop_id":"6431","stop_code":"6431","stop_name":"BROADWAY @ SALISBURY SB","stop_desc":"NEAR SIDE BROADWAY @ SALISBURY SB","wheelchair_boarding":2,"routes":[{"route_id":"19611","agency_id":"70006","route_short_name":"40","route_long_name":"Broadway-Halls Ferry","route_type":3,"route_color":"#FFFFFF","route_text_color":"#000000"}],"agency_name":"Metro St. Louis"},"geometry":{"type":"Point","coordinates":[-90.19587,38.66292]}},{"type":"Feature","properties":{"stop_id":"6434","stop_code":"6434","stop_name":"BROADWAY @ ANGELRODT SB","stop_desc":"NEAR SIDE BROADWAY @ ANGELRODT SB","wheelchair_boarding":1,"routes":[{"route_id":"19611","agency_id":"70006","route_short_name":"40","route_long_name":"Broadway-Halls Ferry","route_type":3,"route_color":"#FFFFFF","route_text_color":"#000000"}],"agency_name":"Metro St. Louis"},"geometry":{"type":"Point","coordinates":[-90.19411,38.65953]}},{"type":"Feature","properties":{"stop_id":"6435","stop_code":"6435","stop_name":"BROADWAY @ DOCK SB","stop_desc":"NEAR SIDE BROADWAY @ DOCK SB","wheelchair_boarding":1,"routes":[{"route_id":"19611","agency_id":"70006","route_short_name":"40","route_long_name":"Broadway-Halls Ferry","route_type":3,"route_color":"#FFFFFF","route_text_color":"#000000"}],"agency_name":"Metro St. Louis"},"geometry":{"type":"Point","coordinates":[-90.19303,38.65741]}},{"type":"Feature","properties":{"stop_id":"6438","stop_code":"6438","stop_name":"BROADWAY @ ST. LOUIS SB","stop_desc":"FAR SIDE BROADWAY @ ST. LOUIS SB","wheelchair_boarding":1,"routes":[{"route_id":"19611","agency_id":"70006","route_short_name":"40","route_long_name":"Broadway-Halls Ferry","route_type":3,"route_color":"#FFFFFF","route_text_color":"#000000"}],"agency_name":"Metro St. Louis"},"geometry":{"type":"Point","coordinates":[-90.19086,38.65316]}},{"type":"Feature","properties":{"stop_id":"6440","stop_code":"6440","stop_name":"BROADWAY @ NORTH MARKET SB","stop_desc":"FAR SIDE BROADWAY @ NORTH MARKET SB","wheelchair_boarding":1,"routes":[{"route_id":"19611","agency_id":"70006","route_short_name":"40","route_long_name":"Broadway-Halls Ferry","route_type":3,"route_color":"#FFFFFF","route_text_color":"#000000"}],"agency_name":"Metro St. Louis"},"geometry":{"type":"Point","coordinates":[-90.18919,38.6497]}},{"type":"Feature","properties":{"stop_id":"6446","stop_code":"6446","stop_name":"BROADWAY @ BROOKLYN SB","stop_desc":"FAR SIDE BROADWAY @ BROOKLYN SB","wheelchair_boarding":1,"routes":[{"route_id":"19611","agency_id":"70006","route_short_name":"40","route_long_name":"Broadway-Halls Ferry","route_type":3,"route_color":"#FFFFFF","route_text_color":"#000000"}],"agency_name":"Metro St. Louis"},"geometry":{"type":"Point","coordinates":[-90.18653,38.64351]}},{"type":"Feature","properties":{"stop_id":"6447","stop_code":"6447","stop_name":"BROADWAY @ MULLANPHY SB","stop_desc":"NEAR SIDE BROADWAY @ MULLANPHY SB","wheelchair_boarding":2,"routes":[{"route_id":"19611","agency_id":"70006","route_short_name":"40","route_long_name":"Broadway-Halls Ferry","route_type":3,"route_color":"#FFFFFF","route_text_color":"#000000"}],"agency_name":"Metro St. Louis"},"geometry":{"type":"Point","coordinates":[-90.18617,38.64134]}},{"type":"Feature","properties":{"stop_id":"6649","stop_code":"6649","stop_name":"RIVERVIEW TRANSIT CENTER","wheelchair_boarding":1,"routes":[{"route_id":"19601","agency_id":"70006","route_short_name":"16","route_long_name":"City Limits","route_type":3,"route_color":"#FFFFFF","route_text_color":"#000000"},{"route_id":"19611","agency_id":"70006","route_short_name":"40","route_long_name":"Broadway-Halls Ferry","route_type":3,"route_color":"#FFFFFF","route_text_color":"#000000"},{"route_id":"19612","agency_id":"70006","route_short_name":"41","route_long_name":"Lee","route_type":3,"route_color":"#FFFFFF","route_text_color":"#000000"},{"route_id":"19619","agency_id":"70006","route_short_name":"60","route_long_name":"Shepley-Lilac","route_type":3,"route_color":"#FFFFFF","route_text_color":"#000000"}],"agency_name":"Metro St. Louis"},"geometry":{"type":"Point","coordinates":[-90.22406,38.7273]}},{"type":"Feature","properties":{"stop_id":"7852","stop_code":"7852","stop_name":"CIVIC CENTER TRANSIT CENTER","wheelchair_boarding":1,"routes":[{"route_id":"19611","agency_id":"70006","route_short_name":"40","route_long_name":"Broadway-Halls Ferry","route_type":3,"route_color":"#FFFFFF","route_text_color":"#000000"},{"route_id":"19612","agency_id":"70006","route_short_name":"41","route_long_name":"Lee","route_type":3,"route_color":"#FFFFFF","route_text_color":"#000000"},{"route_id":"19624","agency_id":"70006","route_short_name":"74","route_long_name":"Florissant","route_type":3,"route_color":"#FFFFFF","route_text_color":"#000000"}],"agency_name":"Metro St. Louis"},"geometry":{"type":"Point","coordinates":[-90.20277,38.62528]}},{"type":"Feature","properties":{"stop_id":"7855","stop_code":"7855","stop_name":"14TH STREET @ MARKET SB","stop_desc":"MID-BLOCK 14TH STREET @ MARKET SB","wheelchair_boarding":1,"routes":[{"route_id":"19594","agency_id":"70006","route_short_name":"4","route_long_name":"Natural Bridge","route_type":3,"route_color":"#FFFFFF","route_text_color":"#000000"},{"route_id":"19598","agency_id":"70006","route_short_name":"10","route_long_name":"Gravois-Lindell","route_type":3,"route_color":"#FFFFFF","route_text_color":"#000000"},{"route_id":"19607","agency_id":"70006","route_short_name":"32","route_long_name":"Dr ML King","route_type":3,"route_color":"#FFFFFF","route_text_color":"#000000"},{"route_id":"19611","agency_id":"70006","route_short_name":"40","route_long_name":"Broadway-Halls Ferry","route_type":3,"route_color":"#FFFFFF","route_text_color":"#000000"},{"route_id":"19612","agency_id":"70006","route_short_name":"41","route_long_name":"Lee","route_type":3,"route_color":"#FFFFFF","route_text_color":"#000000"},{"route_id":"19624","agency_id":"70006","route_short_name":"74","route_long_name":"Florissant","route_type":3,"route_color":"#FFFFFF","route_text_color":"#000000"},{"route_id":"19631","agency_id":"70006","route_short_name":"94","route_long_name":"Page","route_type":3,"route_color":"#FFFFFF","route_text_color":"#000000"},{"route_id":"19633","agency_id":"70006","route_short_name":"97","route_long_name":"Delmar","route_type":3,"route_color":"#FFFFFF","route_text_color":"#000000"}],"agency_name":"Metro St. Louis"},"geometry":{"type":"Point","coordinates":[-90.20127,38.62775]}}]}