{"type":"FeatureCollection","features":[{"type":"Feature","properties":{"agency_name":"Metro St. Louis","route_id":"19638","agency_id":"70006","route_short_name":"3","route_long_name":"Sauget - Water Street","route_type":3,"route_color":"#FFFFFF","route_text_color":"#000000"},"geometry":{"type":"MultiLineString","coordinates":[[[-90.1592,38.62494],[-90.15903,38.62499],[-90.1592,38.62494],[-90.15959,38.62472],[-90.15961,38.62462],[-90.15959,38.62452],[-90.1595,38.62443],[-90.15897,38.62401],[-90.15982,38.62339],[-90.15966,38.62323],[-90.1581,38.62192],[-90.1615,38.61942],[-90.16522,38.61674],[-90.16793,38.61472],[-90.16814,38.61454],[-90.1685,38.61418],[-90.1688,38.61379],[-90.16906,38.61331],[-90.16929,38.61278],[-90.16942,38.61238],[-90.16982,38.61091],[-90.17032,38.60919],[-90.17082,38.60757],[-90.17104,38.60756],[-90.17104,38.60717],[-90.17118,38.60701],[-90.17143,38.60681],[-90.17156,38.60663],[-90.17152,38.60629],[-90.17151,38.60576],[-90.17161,38.60512],[-90.17184,38.6042],[-90.1729,38.60055],[-90.17319,38.59967],[-90.17378,38.59801],[-90.17652,38.59007],[-90.17469,38.58973],[-90.1741,38.58963],[-90.17383,38.5896],[-90.17354,38.58958],[-90.17326,38.58959],[-90.17288,38.58962],[-90.17217,38.58973],[-90.16925,38.58921],[-90.16946,38.5877],[-90.16972,38.58644],[-90.16994,38.58586],[-90.16809,38.58553],[-90.16763,38.58541],[-90.16696,38.58511],[-90.16413,38.5836],[-90.16113,38.58208],[-90.16081,38.58187],[-90.16045,38.58154],[-90.16027,38.5814],[-90.15976,38.58176],[-90.15816,38.58298],[-90.15732,38.58278],[-90.15619,38.58184],[-90.15458,38.58041],[-90.15241,38.57861],[-90.15081,38.57722],[-90.15024,38.57676],[-90.15003,38.57666],[-90.14992,38.57663],[-90.1496,38.57659],[-90.14939,38.5766],[-90.14905,38.57669],[-90.14883,38.57681],[-90.14739,38.57785],[-90.15428,38.58375],[-90.15465,38.58394],[-90.15501,38.58407],[-90.15537,38.58416],[-90.15572,38.58418],[-90.15607,38.58415],[-90.15642,38.58407],[-90.15675,38.58394],[-90.15709,38.58375]],[[-90.17049,38.5846],[-90.16809,38.58553],[-90.17049,38.5846],[-90.17106,38.58336],[-90.17176,38.58192],[-90.17214,38.58124],[-90.17245,38.58077],[-90.1728,38.58029],[-90.17477,38.5779],[-90.1751,38.57753],[-90.17544,38.57718],[-90.1762,38.57652],[-90.17626,38.57674],[-90.17641,38.57703],[-90.17667,38.57734],[-90.18081,38.58073],[-90.18102,38.58086],[-90.1818,38.58026],[-90.18366,38.57709],[-90.18425,38.57614],[-90.18559,38.57419],[-90.18589,38.57383],[-90.18634,38.57336],[-90.18683,38.57299],[-90.18739,38.57266],[-90.18857,38.57204],[-90.18887,38.57184],[-90.18923,38.57155],[-90.18955,38.57122],[-90.18979,38.57088],[-90.18999,38.5705],[-90.19004,38.57036],[-90.19055,38.56829],[-90.1909,38.56675],[-90.191,38.56674],[-90.19127,38.56665],[-90.19139,38.56657],[-90.19309,38.56481],[-90.19396,38.56378],[-90.19546,38.56191],[-90.19704,38.55998],[-90.19792,38.55887],[-90.19851,38.55795],[-90.20024,38.55507],[-90.20053,38.55452],[-90.20076,38.55402],[-90.20083,38.55383],[-90.20117,38.55265],[-90.20142,38.55173],[-90.20154,38.55119],[-90.20156,38.551],[-90.20153,38.55082],[-90.2015,38.55074],[-90.20069,38.54954],[-90.19989,38.54843]]]}},{"type":"Feature","properties":{"stop_id":"12268","stop_code":"12268","stop_name":"MISSISSIPPI @ HISSRICH SB","stop_desc":"FAR SIDE MISSISSIPPI @ HISSRICH SB","wheelchair_boarding":2,"routes":[{"route_id":"19638","agency_id":"70006","route_short_name":"3","route_long_name":"Sauget - Water Street","route_type":3,"route_color":"#FFFFFF","route_text_color":"#000000"}],"agency_name":"Metro St. Louis"},"geometry":{"type":"Point","coordinates":[-90.18362,38.57737]}},{"type":"Feature","properties":{"stop_id":"12270","stop_code":"12270","stop_name":"4060 MISSISSIPPI SB","stop_desc":"MID-BLOCK 4060 MISSISSIPPI SB","wheelchair_boarding":2,"routes":[{"route_id":"19638","agency_id":"70006","route_short_name":"3","route_long_name":"Sauget - Water Street","route_type":3,"route_color":"#FFFFFF","route_text_color":"#000000"}],"agency_name":"Metro St. Louis"},"geometry":{"type":"Point","coordinates":[-90.18647,38.57341]}},{"type":"Feature","properties":{"stop_id":"12383","stop_code":"12383","stop_name":"ILLINOIS ROUTE 3 @ 3RD STREET SB","stop_desc":"NEAR SIDE ILLINOIS ROUTE 3 @ 3RD STREET SB","wheelchair_boarding":2,"routes":[{"route_id":"19638","agency_id":"70006","route_short_name":"3","route_long_name":"Sauget - Water Street","route_type":3,"route_color":"#FFFFFF","route_text_color":"#000000"}],"agency_name":"Metro St. Louis"},"geometry":{"type":"Point","coordinates":[-90.19053,38.5688]}},{"type":"Feature","properties":{"stop_id":"12560","stop_code":"12560","stop_name":"EAST BROADWAY @ 6TH STREET EB","stop_desc":"FAR SIDE EAST BROADWAY @ 6TH STREET EB","wheelchair_boarding":2,"routes":[{"route_id":"19637","agency_id":"70006","route_short_name":"2","route_long_name":"Cahokia Heights","route_type":3,"route_color":"#FFFFFF","route_text_color":"#000000"},{"route_id":"19638","agency_id":"70006","route_short_name":"3","route_long_name":"Sauget - Water Street","route_type":3,"route_color":"#FFFFFF","route_text_color":"#000000"},{"route_id":"19639","agency_id":"70006","route_short_name":"4","route_long_name":"19th & Central","route_type":3,"route_color":"#FFFFFF","route_text_color":"#000000"}],"agency_name":"Metro St. Louis"},"geometry":{"type":"Point","coordinates":[-90.15961,38.6231]}},{"type":"Feature","properties":{"stop_id":"12561","stop_code":"12561","stop_name":"EAST BROADWAY @ 8TH STREET EB","stop_desc":"NEAR SIDE EAST BROADWAY @ 8TH STREET EB","wheelchair_boarding":2,"routes":[{"route_id":"19637","agency_id":"70006","route_short_name":"2","route_long_name":"Cahokia Heights","route_type":3,"route_color":"#FFFFFF","route_text_color":"#000000"},{"route_id":"19638","agency_id":"70006","route_short_name":"3","route_long_name":"Sauget - Water Street","route_type":3,"route_color":"#FFFFFF","route_text_color":"#000000"},{"route_id":"19639","agency_id":"70006","route_short_name":"4","route_long_name":"19th & Central","route_type":3,"route_color":"#FFFFFF","route_text_color":"#000000"}],"agency_name":"Metro St. Louis"},"geometry":{"type":"Point","coordinates":[-90.1584,38.62209]}},{"type":"Feature","properties":{"stop_id":"12562","stop_code":"12562","stop_name":"8TH STREET @ WALNUT SB","stop_desc":"NEAR SIDE 8TH STREET @ WALNUT SB","wheelchair_boarding":2,"routes":[{"route_id":"19637","agency_id":"70006","route_short_name":"2","route_long_name":"Cahokia Heights","route_type":3,"route_color":"#FFFFFF","route_text_color":"#000000"},{"route_id":"19638","agency_id":"70006","route_short_name":"3","route_long_name":"Sauget - Water Street","route_type":3,"route_color":"#FFFFFF","route_text_color":"#000000"}],"agency_name":"Metro St. Louis"},"geometry":{"type":"Point","coordinates":[-90.1591,38.62123]}},{"type":"Feature","properties":{"stop_id":"12563","stop_code":"12563","stop_name":"8TH STREET @ JAMES R THOMPSON SB","stop_desc":"NEAR SIDE 8TH STREET @ JAMES R THOMPSON SB","wheelchair_boarding":2,"routes":[{"route_id":"19637","agency_id":"70006","route_short_name":"2","route_long_name":"Cahokia Heights","route_type":3,"route_color":"#FFFFFF","route_text_color":"#000000"},{"route_id":"19638","agency_id":"70006","route_short_name":"3","route_long_name":"Sauget - Water Street","route_type":3,"route_color":"#FFFFFF","route_text_color":"#000000"}],"agency_name":"Metro St. Louis"},"geometry":{"type":"Point","coordinates":[-90.16054,38.62021]}},{"type":"Feature","properties":{"stop_id":"12564","stop_code":"12564","stop_name":"8TH STREET @ CONVERSE SB","stop_desc":"FAR SIDE 8TH STREET @ CONVERSE SB","wheelchair_boarding":2,"routes":[{"route_id":"19637","agency_id":"70006","route_short_name":"2","route_long_name":"Cahokia Heights","route_type":3,"route_color":"#FFFFFF","route_text_color":"#000000"},{"route_id":"19638","agency_id":"70006","route_short_name":"3","route_long_name":"Sauget - Water Street","route_type":3,"route_color":"#FFFFFF","route_text_color":"#000000"}],"agency_name":"Metro St. Louis"},"geometry":{"type":"Point","coordinates":[-90.16178,38.6193]}},{"type":"Feature","properties":{"stop_id":"12961","stop_code":"12961","stop_name":"8TH STREET @ MARKET SB","stop_desc":"FAR SIDE 8TH STREET @ MARKET SB","wheelchair_boarding":2,"routes":[{"route_id":"19637","agency_id":"70006","route_short_name":"2","route_long_name":"Cahokia Heights","route_type":3,"route_color":"#FFFFFF","route_text_color":"#000000"},{"route_id":"19638","agency_id":"70006","route_short_name":"3","route_long_name":"Sauget - Water Street","route_type":3,"route_color":"#FFFFFF","route_text_color":"#000000"}],"agency_name":"Metro St. Louis"},"geometry":{"type":"Point","coordinates":[-90.16356,38.618]}},{"type":"Feature","properties":{"stop_id":"12965","stop_code":"12965","stop_name":"MISSISSIPPI @ LIBERTY SB","stop_desc":"NEAR SIDE MISSISSIPPI @ LIBERTY SB","wheelchair_boarding":2,"routes":[{"route_id":"19637","agency_id":"70006","route_short_name":"2","route_long_name":"Cahokia Heights","route_type":3,"route_color":"#FFFFFF","route_text_color":"#000000"},{"route_id":"19638","agency_id":"70006","route_short_name":"3","route_long_name":"Sauget - Water Street","route_type":3,"route_color":"#FFFFFF","route_text_color":"#000000"}],"agency_name":"Metro St. Louis"},"geometry":{"type":"Point","coordinates":[-90.17034,38.6095]}},{"type":"Feature","properties":{"stop_id":"12966","stop_code":"12966","stop_name":"ILLINOIS ROUTE 3 @ YELLOW BRICK ROAD SB","stop_desc":"NEAR SIDE ILLINOIS ROUTE 3 @ YELLOW BRICK ROAD SB","wheelchair_boarding":2,"routes":[{"route_id":"19637","agency_id":"70006","route_short_name":"2","route_long_name":"Cahokia Heights","route_type":3,"route_color":"#FFFFFF","route_text_color":"#000000"},{"route_id":"19638","agency_id":"70006","route_short_name":"3","route_long_name":"Sauget - Water Street","route_type":3,"route_color":"#FFFFFF","route_text_color":"#000000"}],"agency_name":"Metro St. Louis"},"geometry":{"type":"Point","coordinates":[-90.17266,38.60179]}},{"type":"Feature","properties":{"stop_id":"12968","stop_code":"12968","stop_name":"QUEENY @ ILLINOIS ROUTE 3 EB","stop_desc":"FAR SIDE QUEENY @ ILLINOIS ROUTE 3 EB","wheelchair_boarding":2,"routes":[{"route_id":"19637","agency_id":"70006","route_short_name":"2","route_long_name":"Cahokia Heights","route_type":3,"route_color":"#FFFFFF","route_text_color":"#000000"},{"route_id":"19638","agency_id":"70006","route_short_name":"3","route_long_name":"Sauget - Water Street","route_type":3,"route_color":"#FFFFFF","route_text_color":"#000000"}],"agency_name":"Metro St. Louis"},"geometry":{"type":"Point","coordinates":[-90.17581,38.58983]}},{"type":"Feature","properties":{"stop_id":"12970","stop_code":"12970","stop_name":"FALLING SPRINGS  @ CURTIS STEINBERG SB","stop_desc":"FAR SIDE FALLING SPRINGS  @ CURTIS STEINBERG SB","wheelchair_boarding":2,"routes":[{"route_id":"19637","agency_id":"70006","route_short_name":"2","route_long_name":"Cahokia Heights","route_type":3,"route_color":"#FFFFFF","route_text_color":"#000000"},{"route_id":"19638","agency_id":"70006","route_short_name":"3","route_long_name":"Sauget - Water Street","route_type":3,"route_color":"#FFFFFF","route_text_color":"#000000"}],"agency_name":"Metro St. Louis"},"geometry":{"type":"Point","coordinates":[-90.17005,38.58564]}},{"type":"Feature","properties":{"stop_id":"12971","stop_code":"12971","stop_name":"FALLING SPRINGS @ JUDITH SB","stop_desc":"FAR SIDE FALLING SPRINGS @ JUDITH SB","wheelchair_boarding":2,"routes":[{"route_id":"19637","agency_id":"70006","route_short_name":"2","route_long_name":"Cahokia Heights","route_type":3,"route_color":"#FFFFFF","route_text_color":"#000000"},{"route_id":"19638","agency_id":"70006","route_short_name":"3","route_long_name":"Sauget - Water Street","route_type":3,"route_color":"#FFFFFF","route_text_color":"#000000"}],"agency_name":"Metro St. Louis"},"geometry":{"type":"Point","coordinates":[-90.17171,38.58227]}},{"type":"Feature","properties":{"stop_id":"12972","stop_code":"12972","stop_name":"FALLING SPRINGS @ JULIAN SB","stop_desc":"NEAR SIDE FALLING SPRINGS @ JULIAN SB","wheelchair_boarding":2,"routes":[{"route_id":"19637","agency_id":"70006","route_short_name":"2","route_long_name":"Cahokia Heights","route_type":3,"route_color":"#FFFFFF","route_text_color":"#000000"},{"route_id":"19638","agency_id":"70006","route_short_name":"3","route_long_name":"Sauget - Water Street","route_type":3,"route_color":"#FFFFFF","route_text_color":"#000000"}],"agency_name":"Metro St. Louis"},"geometry":{"type":"Point","coordinates":[-90.17279,38.58037]}},{"type":"Feature","properties":{"stop_id":"12973","stop_code":"12973","stop_name":"FALLING SPRINGS @ KINDER SB","stop_desc":"NEAR SIDE FALLING SPRINGS @ KINDER SB","wheelchair_boarding":2,"routes":[{"route_id":"19637","agency_id":"70006","route_short_name":"2","route_long_name":"Cahokia Heights","route_type":3,"route_color":"#FFFFFF","route_text_color":"#000000"},{"route_id":"19638","agency_id":"70006","route_short_name":"3","route_long_name":"Sauget - Water Street","route_type":3,"route_color":"#FFFFFF","route_text_color":"#000000"}],"agency_name":"Metro St. Louis"},"geometry":{"type":"Point","coordinates":[-90.17466,38.57814]}},{"type":"Feature","properties":{"stop_id":"13065","stop_code":"13065","stop_name":"CURTIS STEINBERG @ SAUGET INDUSTRIAL WB","stop_desc":"FAR SIDE CURTIS STEINBERG @ SAUGET INDUSTRIAL WB","wheelchair_boarding":2,"routes":[{"route_id":"19638","agency_id":"70006","route_short_name":"3","route_long_name":"Sauget - Water Street","route_type":3,"route_color":"#FFFFFF","route_text_color":"#000000"}],"agency_name":"Metro St. Louis"},"geometry":{"type":"Point","coordinates":[-90.16059,38.58166]}},{"type":"Feature","properties":{"stop_id":"14158","stop_code":"14158","stop_name":"ILLINOIS ROUTE 3 @ 4TH STREET SB","stop_desc":"NEAR SIDE ILLINOIS ROUTE 3 @ 4TH STREET SB","wheelchair_boarding":2,"routes":[{"route_id":"19638","agency_id":"70006","route_short_name":"3","route_long_name":"Sauget - Water Street","route_type":3,"route_color":"#FFFFFF","route_text_color":"#000000"}],"agency_name":"Metro St. Louis"},"geometry":{"type":"Point","coordinates":[-90.19072,38.56789]}},{"type":"Feature","properties":{"stop_id":"14159","stop_code":"14159","stop_name":"WATER @ 6TH STREET SB","stop_desc":"NEAR SIDE WATER @ 6TH STREET SB","wheelchair_boarding":2,"routes":[{"route_id":"19638","agency_id":"70006","route_short_name":"3","route_long_name":"Sauget - Water Street","route_type":3,"route_color":"#FFFFFF","route_text_color":"#000000"}],"agency_name":"Metro St. Louis"},"geometry":{"type":"Point","coordinates":[-90.19197,38.56607]}},{"type":"Feature","properties":{"stop_id":"14160","stop_code":"14160","stop_name":"WATER @ RUBY SB","stop_desc":"NEAR SIDE WATER @ RUBY SB","wheelchair_boarding":2,"routes":[{"route_id":"19638","agency_id":"70006","route_short_name":"3","route_long_name":"Sauget - Water Street","route_type":3,"route_color":"#FFFFFF","route_text_color":"#000000"}],"agency_name":"Metro St. Louis"},"geometry":{"type":"Point","coordinates":[-90.19384,38.56401]}},{"type":"Feature","properties":{"stop_id":"14161","stop_code":"14161","stop_name":"WATER @ CARDINAL HEIGHTS SB","stop_desc":"NEAR SIDE WATER @ CARDINAL HEIGHTS SB","wheelchair_boarding":2,"routes":[{"route_id":"19638","agency_id":"70006","route_short_name":"3","route_long_name":"Sauget - Water Street","route_type":3,"route_color":"#FFFFFF","route_text_color":"#000000"}],"agency_name":"Metro St. Louis"},"geometry":{"type":"Point","coordinates":[-90.19552,38.56197]}},{"type":"Feature","properties":{"stop_id":"14162","stop_code":"14162","stop_name":"WATER @ ISABELL SB","stop_desc":"FAR SIDE WATER @ ISABELL SB","wheelchair_boarding":2,"routes":[{"route_id":"19638","agency_id":"70006","route_short_name":"3","route_long_name":"Sauget - Water Street","route_type":3,"route_color":"#FFFFFF","route_text_color":"#000000"}],"agency_name":"Metro St. Louis"},"geometry":{"type":"Point","coordinates":[-90.198,38.5588]}},{"type":"Feature","properties":{"stop_id":"14163","stop_code":"14163","stop_name":"WATER @ GARDEN SB","stop_desc":"NEAR SIDE WATER @ GARDEN SB","wheelchair_boarding":2,"routes":[{"route_id":"19638","agency_id":"70006","route_short_name":"3","route_long_name":"Sauget - Water Street","route_type":3,"route_color":"#FFFFFF","route_text_color":"#000000"}],"agency_name":"Metro St. Louis"},"geometry":{"type":"Point","coordinates":[-90.19928,38.55675]}},{"type":"Feature","properties":{"stop_id":"14164","stop_code":"14164","stop_name":"WATER @ ST. GREGORY SB","stop_desc":"FAR SIDE WATER @ ST. GREGORY SB","wheelchair_boarding":2,"routes":[{"route_id":"19638","agency_id":"70006","route_short_name":"3","route_long_name":"Sauget - Water Street","route_type":3,"route_color":"#FFFFFF","route_text_color":"#000000"}],"agency_name":"Metro St. Louis"},"geometry":{"type":"Point","coordinates":[-90.20081,38.55393]}},{"type":"Feature","properties":{"stop_id":"14165","stop_code":"14165","stop_name":"WATER @ ADAMS SB","stop_desc":"FAR SIDE WATER @ ADAMS SB","wheelchair_boarding":2,"routes":[{"route_id":"19638","agency_id":"70006","route_short_name":"3","route_long_name":"Sauget - Water Street","route_type":3,"route_color":"#FFFFFF","route_text_color":"#000000"}],"agency_name":"Metro St. Louis"},"geometry":{"type":"Point","coordinates":[-90.20067,38.54944]}},{"type":"Feature","properties":{"stop_id":"14174","stop_code":"14174","stop_name":"MISSISSIPPI @ SYCAMORE SB","stop_desc":"NEAR SIDE MISSISSIPPI @ SYCAMORE SB","wheelchair_boarding":2,"routes":[{"route_id":"19637","agency_id":"70006","route_short_name":"2","route_long_name":"Cahokia Heights","route_type":3,"route_color":"#FFFFFF","route_text_color":"#000000"},{"route_id":"19638","agency_id":"70006","route_short_name":"3","route_long_name":"Sauget - Water Street","route_type":3,"route_color":"#FFFFFF","route_text_color":"#000000"}],"agency_name":"Metro St. Louis"},"geometry":{"type":"Point","coordinates":[-90.1697,38.61165]}},{"type":"Feature","properties":{"stop_id":"14277","stop_code":"14277","stop_name":"1ST STREET @ WATER EB TP ONLY","stop_desc":"NEAR SIDE 1ST STREET @ WATER EB TP ONLY","wheelchair_boarding":2,"routes":[{"route_id":"19638","agency_id":"70006","route_short_name":"3","route_long_name":"Sauget - Water Street","route_type":3,"route_color":"#FFFFFF","route_text_color":"#000000"}],"agency_name":"Metro St. Louis"},"geometry":{"type":"Point","coordinates":[-90.19892,38.54735]}},{"type":"Feature","properties":{"stop_id":"14330","stop_code":"14330","stop_name":"5TH & MISSOURI TRANSIT CENTER","wheelchair_boarding":1,"routes":[{"route_id":"19636","agency_id":"70006","route_short_name":"1","route_long_name":"Main Street - State Street","route_type":3,"route_color":"#FFFFFF","route_text_color":"#000000"},{"route_id":"19637","agency_id":"70006","route_short_name":"2","route_long_name":"Cahokia Heights","route_type":3,"route_color":"#FFFFFF","route_text_color":"#000000"},{"route_id":"19638","agency_id":"70006","route_short_name":"3","route_long_name":"Sauget - Water Street","route_type":3,"route_color":"#FFFFFF","route_text_color":"#000000"},{"route_id":"19639","agency_id":"70006","route_short_name":"4","route_long_name":"19th & Central","route_type":3,"route_color":"#FFFFFF","route_text_color":"#000000"},{"route_id":"19640","agency_id":"70006","route_short_name":"5","route_long_name":"Missouri Ave - ML King","route_type":3,"route_color":"#FFFFFF","route_text_color":"#000000"}],"agency_name":"Metro St. Louis"},"geometry":{"type":"Point","coordinates":[-90.15906,38.62501]}},{"type":"Feature","properties":{"stop_id":"14881","stop_code":"14881","stop_name":"NICKELL @ FALLING SPRINGS SB","stop_desc":"NEAR SIDE NICKELL @ FALLING SPRINGS SB","wheelchair_boarding":2,"routes":[{"route_id":"19637","agency_id":"70006","route_short_name":"2","route_long_name":"Cahokia Heights","route_type":3,"route_color":"#FFFFFF","route_text_color":"#000000"},{"route_id":"19638","agency_id":"70006","route_short_name":"3","route_long_name":"Sauget - Water Street","route_type":3,"route_color":"#FFFFFF","route_text_color":"#000000"}],"agency_name":"Metro St. Louis"},"geometry":{"type":"Point","coordinates":[-90.16951,38.58934]}},{"type":"Feature","properties":{"stop_id":"16309","stop_code":"16309","stop_name":"SAUGET BUSINESS @ SAUGET INDUSTRIAL PKWY WB","stop_desc":"FAR SIDE SAUGET BUSINESS @ SAUGET INDUSTRIAL PKWY WB","wheelchair_boarding":2,"routes":[{"route_id":"19638","agency_id":"70006","route_short_name":"3","route_long_name":"Sauget - Water Street","route_type":3,"route_color":"#FFFFFF","route_text_color":"#000000"}],"agency_name":"Metro St. Louis"},"geometry":{"type":"Point","coordinates":[-90.14868,38.57904]}},{"type":"Feature","properties":{"stop_id":"16319","stop_code":"16319","stop_name":"SAUGET INDUSTRIAL PKWY @ CURTIS STEINBERG NB","stop_desc":"FAR SIDE SAUGET INDUSTRIAL PKWY @ CURTIS STEINBERG NB","wheelchair_boarding":2,"routes":[{"route_id":"19638","agency_id":"70006","route_short_name":"3","route_long_name":"Sauget - Water Street","route_type":3,"route_color":"#FFFFFF","route_text_color":"#000000"}],"agency_name":"Metro St. Louis"},"geometry":{"type":"Point","coordinates":[-90.15995,38.58161]}},{"type":"Feature","properties":{"stop_id":"16320","stop_code":"16320","stop_name":"SAUGET INDUSTRIAL PKWY @ SAUGET INDUSTRIAL PKWY NB","stop_desc":"NEAR SIDE SAUGET INDUSTRIAL PKWY @ SAUGET INDUSTRIAL PKWY NB","wheelchair_boarding":2,"routes":[{"route_id":"19638","agency_id":"70006","route_short_name":"3","route_long_name":"Sauget - Water Street","route_type":3,"route_color":"#FFFFFF","route_text_color":"#000000"}],"agency_name":"Metro St. Louis"},"geometry":{"type":"Point","coordinates":[-90.15808,38.5829]}},{"type":"Feature","properties":{"stop_id":"16321","stop_code":"16321","stop_name":"1640 SAUGET INDUSTRIAL PKWY EB","stop_desc":"MID-BLOCK 1640 SAUGET INDUSTRIAL PKWY EB","wheelchair_boarding":2,"routes":[{"route_id":"19638","agency_id":"70006","route_short_name":"3","route_long_name":"Sauget - Water Street","route_type":3,"route_color":"#FFFFFF","route_text_color":"#000000"}],"agency_name":"Metro St. Louis"},"geometry":{"type":"Point","coordinates":[-90.15664,38.58213]}},{"type":"Feature","properties":{"stop_id":"16322","stop_code":"16322","stop_name":"SAUGET INDUSTRIAL PKWY @ ST. LOUIS DOWNTOWN AIRPORT EB","stop_desc":"MID-BLOCK SAUGET INDUSTRIAL PKWY @ ST. LOUIS DOWNTOWN AIRPORT EB","wheelchair_boarding":2,"routes":[{"route_id":"19638","agency_id":"70006","route_short_name":"3","route_long_name":"Sauget - Water Street","route_type":3,"route_color":"#FFFFFF","route_text_color":"#000000"}],"agency_name":"Metro St. Louis"},"geometry":{"type":"Point","coordinates":[-90.15238,38.57849]}},{"type":"Feature","properties":{"stop_id":"16324","stop_code":"16324","stop_name":"SAUGET BUSINESS @ STELLAR ENTRANCE WB","stop_desc":"MID-BLOCK SAUGET BUSINESS @ STELLAR ENTRANCE WB","wheelchair_boarding":2,"routes":[{"route_id":"19638","agency_id":"70006","route_short_name":"3","route_long_name":"Sauget - Water Street","route_type":3,"route_color":"#FFFFFF","route_text_color":"#000000"}],"agency_name":"Metro St. Louis"},"geometry":{"type":"Point","coordinates":[-90.15357,38.58319]}},{"type":"Feature","properties":{"stop_id":"16325","stop_code":"16325","stop_name":"SAUGET BUSINESS @ FEDEX SB","stop_desc":"MID-BLOCK SAUGET BUSINESS @ FEDEX SB","wheelchair_boarding":2,"routes":[{"route_id":"19638","agency_id":"70006","route_short_name":"3","route_long_name":"Sauget - Water Street","route_type":3,"route_color":"#FFFFFF","route_text_color":"#000000"}],"agency_name":"Metro St. Louis"},"geometry":{"type":"Point","coordinates":[-90.15532,38.58418]}},{"type":"Feature","properties":{"stop_id":"16326","stop_code":"16326","stop_name":"SAUGET BUSINESS @ SAUGET INDUSTRIAL SB","stop_desc":"NEAR SIDE SAUGET BUSINESS @ SAUGET INDUSTRIAL SB","wheelchair_boarding":2,"routes":[{"route_id":"19638","agency_id":"70006","route_short_name":"3","route_long_name":"Sauget - Water Street","route_type":3,"route_color":"#FFFFFF","route_text_color":"#000000"}],"agency_name":"Metro St. Louis"},"geometry":{"type":"Point","coordinates":[-90.15758,38.58348]}},{"type":"Feature","properties":{"stop_id":"16430","stop_code":"16430","stop_name":"JEROME @ KINDER WB","stop_desc":"NEAR SIDE JEROME @ KINDER WB","wheelchair_boarding":2,"routes":[{"route_id":"19638","agency_id":"70006","route_short_name":"3","route_long_name":"Sauget - Water Street","route_type":3,"route_color":"#FFFFFF","route_text_color":"#000000"}],"agency_name":"Metro St. Louis"},"geometry":{"type":"Point","coordinates":[-90.18057,38.58058]}},{"type":"Feature","properties":{"stop_id":"16433","stop_code":"16433","stop_name":"JEROME @ FALLING SPRINGS WB","stop_desc":"MID-BLOCK JEROME @ FALLING SPRINGS WB","wheelchair_boarding":2,"routes":[{"route_id":"19638","agency_id":"70006","route_short_name":"3","route_long_name":"Sauget - Water Street","route_type":3,"route_color":"#FFFFFF","route_text_color":"#000000"}],"agency_name":"Metro St. Louis"},"geometry":{"type":"Point","coordinates":[-90.1765,38.57715]}}]}