{"type":"FeatureCollection","features":[{"type":"Feature","properties":{"agency_name":"Metro St. Louis","route_id":"19644","agency_id":"70006","route_short_name":"12","route_long_name":"OFallon-Fairview Heights","route_type":3,"route_color":"#FFFFFF","route_text_color":"#000000"},"geometry":{"type":"MultiLineString","coordinates":[[[-90.04771,38.5939],[-90.04791,38.59407],[-90.04771,38.5939],[-90.04753,38.59382],[-90.04584,38.59381],[-90.04584,38.59465],[-90.04449,38.59567],[-90.04253,38.59552],[-90.04198,38.5955],[-90.04062,38.59541],[-90.0327,38.59496],[-90.02967,38.59477],[-90.01676,38.59405],[-90.01375,38.59391],[-90.01293,38.59382],[-90.01139,38.59359],[-90.00987,38.59331],[-90.00879,38.59313],[-90.00815,38.59307],[-90.0069,38.59298],[-90.00344,38.59297],[-90.00182,38.59294],[-89.99422,38.59292],[-89.99263,38.59287],[-89.99035,38.59286],[-89.99037,38.59313],[-89.99045,38.59341],[-89.99045,38.5953],[-89.99039,38.59644],[-89.99035,38.59818],[-89.99031,38.5991],[-89.99196,38.5993],[-89.99403,38.59946],[-89.99436,38.59939],[-89.99488,38.59914],[-89.99535,38.59905],[-89.99533,38.59977],[-89.99534,38.59998],[-89.99533,38.60055],[-89.99131,38.60097],[-89.98852,38.60081],[-89.98808,38.60094],[-89.98794,38.60101],[-89.98694,38.60179],[-89.98681,38.60187],[-89.98636,38.60198],[-89.98611,38.60199],[-89.9851,38.60143],[-89.98507,38.59902],[-89.98504,38.59861],[-89.98503,38.59746],[-89.98499,38.59711],[-89.98503,38.59639],[-89.98502,38.59553],[-89.98497,38.59483],[-89.98498,38.59429],[-89.98495,38.59278],[-89.98484,38.59276],[-89.98258,38.59274],[-89.98133,38.59271],[-89.97616,38.59271],[-89.97424,38.59268],[-89.97079,38.59266],[-89.96351,38.59267],[-89.95701,38.59264],[-89.95071,38.59258],[-89.94994,38.59252],[-89.94937,38.59252],[-89.94839,38.59249],[-89.94833,38.59234],[-89.94814,38.59205],[-89.94771,38.59168],[-89.94762,38.59158],[-89.94757,38.59148],[-89.94753,38.59124],[-89.94752,38.59013],[-89.94753,38.58955],[-89.94533,38.58955],[-89.94509,38.58952],[-89.9441,38.58925],[-89.9439,38.58913],[-89.94375,38.58898],[-89.94264,38.58748],[-89.94214,38.58677],[-89.94203,38.58667],[-89.9418,38.58651],[-89.94157,38.58641],[-89.94145,38.58638],[-89.94089,38.58632],[-89.94074,38.58628],[-89.94049,38.58616],[-89.94026,38.58599],[-89.94012,38.58581],[-89.94008,38.58571],[-89.94004,38.58551],[-89.94005,38.58454],[-89.93999,38.58413],[-89.93986,38.58379],[-89.93971,38.5835],[-89.93646,38.57916],[-89.93526,38.57748],[-89.9347,38.57677],[-89.93421,38.57631],[-89.93295,38.57526],[-89.93261,38.57496],[-89.93203,38.57433],[-89.93098,38.5731],[-89.93081,38.57295],[-89.93061,38.57282],[-89.9304,38.57273],[-89.93014,38.57268],[-89.92971,38.57265],[-89.92906,38.57268],[-89.92906,38.57346],[-89.92897,38.5739],[-89.92896,38.57423],[-89.92897,38.57456],[-89.92894,38.57788],[-89.92895,38.5782],[-89.92901,38.57845],[-89.92899,38.57955],[-89.9305,38.57957],[-89.9317,38.57956],[-89.93218,38.57959],[-89.93239,38.57965],[-89.93268,38.57979],[-89.93291,38.58],[-89.9339,38.58098],[-89.93427,38.58137],[-89.93445,38.58203],[-89.93395,38.58217],[-89.93333,38.58248],[-89.93319,38.58252],[-89.93359,38.58314],[-89.93392,38.58361],[-89.93464,38.58376],[-89.93514,38.58356],[-89.93549,38.58398],[-89.93562,38.58406],[-89.93582,38.58414],[-89.93604,38.58421],[-89.93679,38.58423],[-89.93706,38.58428],[-89.93731,38.58436],[-89.93753,38.5845],[-89.93796,38.58509],[-89.93988,38.58761],[-89.93999,38.58781],[-89.94003,38.58807],[-89.93999,38.59024],[-89.93975,38.59089],[-89.93967,38.59102],[-89.93957,38.59111],[-89.93948,38.59116],[-89.93871,38.59143],[-89.93845,38.59156],[-89.93833,38.59167],[-89.93826,38.59181],[-89.93824,38.59233],[-89.93702,38.59237],[-89.93582,38.59245],[-89.93484,38.59248],[-89.93424,38.59244],[-89.93378,38.59235],[-89.93319,38.59219],[-89.93277,38.592],[-89.93236,38.59177],[-89.93182,38.59133],[-89.93155,38.59118],[-89.93028,38.58977],[-89.92996,38.5895],[-89.92971,38.58932],[-89.92913,38.58901],[-89.92892,38.58893],[-89.92895,38.59091],[-89.92894,38.59138],[-89.92877,38.59174],[-89.92874,38.59187],[-89.92877,38.59205],[-89.92867,38.59222],[-89.92862,38.59226],[-89.92839,38.59231],[-89.92802,38.59235],[-89.92764,38.59237],[-89.92592,38.5924],[-89.92127,38.59227],[-89.92093,38.59228],[-89.92077,38.5923],[-89.92047,38.59237],[-89.91981,38.59255],[-89.91942,38.59258],[-89.91347,38.5923],[-89.91232,38.5923],[-89.91097,38.59215],[-89.91096,38.59206],[-89.91086,38.59173],[-89.9108,38.59147],[-89.91098,38.58913],[-89.91108,38.58824],[-89.91107,38.5875],[-89.91109,38.58704],[-89.91109,38.5865],[-89.91108,38.58594],[-89.91104,38.58518],[-89.91086,38.58512],[-89.91033,38.58499],[-89.91005,38.58494],[-89.90966,38.5849],[-89.90616,38.58479],[-89.90505,38.5847],[-89.90449,38.58463],[-89.90351,38.58448],[-89.90264,38.5843],[-89.90181,38.58409],[-89.90066,38.58374]],[[-89.89936,38.58325],[-89.90015,38.58356],[-89.89936,38.58325],[-89.89862,38.58293],[-89.89641,38.58193],[-89.89553,38.58157],[-89.89526,38.58148],[-89.89434,38.58123],[-89.89381,38.58112],[-89.89273,38.58097],[-89.89182,38.58092],[-89.89111,38.58095],[-89.88901,38.58095],[-89.88213,38.58093],[-89.88091,38.5809],[-89.88018,38.58092],[-89.87978,38.58095],[-89.87919,38.58105],[-89.87869,38.58117],[-89.87818,38.58133],[-89.87782,38.58147],[-89.87735,38.58168],[-89.87638,38.58217],[-89.87489,38.58287],[-89.87439,38.58302],[-89.87429,38.583],[-89.87408,38.58287],[-89.87403,38.58063],[-89.87414,38.57927],[-89.87421,38.57885],[-89.8743,38.57848],[-89.87463,38.57759],[-89.8752,38.57584],[-89.87616,38.57313],[-89.87639,38.57254],[-89.87712,38.5703],[-89.87782,38.56839],[-89.87972,38.56289],[-89.88033,38.56122],[-89.88194,38.5566],[-89.88279,38.55421],[-89.88319,38.55302],[-89.88339,38.55234],[-89.88349,38.55192],[-89.88363,38.55118],[-89.88372,38.55052],[-89.88378,38.54985],[-89.8838,38.54828],[-89.88379,38.54216],[-89.88364,38.54131],[-89.88353,38.54045],[-89.88344,38.54028],[-89.88325,38.54019],[-89.88313,38.54017],[-89.88099,38.54019],[-89.88069,38.5401],[-89.88062,38.53991],[-89.8806,38.53896]],[[-89.98485,38.59581],[-89.98502,38.59582],[-89.98485,38.59581],[-89.98449,38.59583],[-89.98424,38.59586],[-89.98397,38.59592],[-89.98347,38.5957],[-89.98335,38.59551],[-89.98317,38.59539],[-89.98299,38.59531],[-89.98284,38.5952],[-89.98262,38.59479],[-89.98253,38.59448],[-89.98253,38.59381],[-89.98106,38.59415],[-89.98104,38.5942],[-89.98107,38.59434],[-89.98112,38.59449],[-89.98119,38.59462],[-89.98142,38.59474],[-89.98158,38.59486],[-89.98169,38.595],[-89.98174,38.59514],[-89.98171,38.59532],[-89.98162,38.59549],[-89.98161,38.59565],[-89.98167,38.5958],[-89.98195,38.59608],[-89.98264,38.5979],[-89.98246,38.59797],[-89.98207,38.59801],[-89.97732,38.59801],[-89.97674,38.59799],[-89.97656,38.59795],[-89.97635,38.59787],[-89.97613,38.59776],[-89.97603,38.59764],[-89.97593,38.59738],[-89.97589,38.59705],[-89.9759,38.59624],[-89.97597,38.59607],[-89.9761,38.59589],[-89.97612,38.59571],[-89.9761,38.5954],[-89.97613,38.59523],[-89.9762,38.59514],[-89.97632,38.59507],[-89.97651,38.59503],[-89.97681,38.59503],[-89.97681,38.59271]],[[-89.93973,38.59132],[-89.93957,38.59111]]]}},{"type":"Feature","properties":{"stop_id":"10980","stop_code":"10980","stop_name":"LINCOLN @ 5TH STREET SB","stop_desc":"NEAR SIDE LINCOLN @ 5TH STREET SB","wheelchair_boarding":2,"routes":[{"route_id":"19644","agency_id":"70006","route_short_name":"12","route_long_name":"OFallon-Fairview Heights","route_type":3,"route_color":"#FFFFFF","route_text_color":"#000000"},{"route_id":"19647","agency_id":"70006","route_short_name":"15","route_long_name":"Belleville-O'Fallon","route_type":3,"route_color":"#FFFFFF","route_text_color":"#000000"}],"agency_name":"Metro St. Louis"},"geometry":{"type":"Point","coordinates":[-89.91106,38.58865]}},{"type":"Feature","properties":{"stop_id":"10983","stop_code":"10983","stop_name":"LINCOLN @ 7TH STREET SB","stop_desc":"FAR SIDE LINCOLN @ 7TH STREET SB","wheelchair_boarding":2,"routes":[{"route_id":"19644","agency_id":"70006","route_short_name":"12","route_long_name":"OFallon-Fairview Heights","route_type":3,"route_color":"#FFFFFF","route_text_color":"#000000"},{"route_id":"19647","agency_id":"70006","route_short_name":"15","route_long_name":"Belleville-O'Fallon","route_type":3,"route_color":"#FFFFFF","route_text_color":"#000000"}],"agency_name":"Metro St. Louis"},"geometry":{"type":"Point","coordinates":[-89.91111,38.5864]}},{"type":"Feature","properties":{"stop_id":"10985","stop_code":"10985","stop_name":"904 EAST US-50 EB","stop_desc":"MID-BLOCK 904 EAST US-50 EB","wheelchair_boarding":2,"routes":[{"route_id":"19644","agency_id":"70006","route_short_name":"12","route_long_name":"OFallon-Fairview Heights","route_type":3,"route_color":"#FFFFFF","route_text_color":"#000000"}],"agency_name":"Metro St. Louis"},"geometry":{"type":"Point","coordinates":[-89.89631,38.58184]}},{"type":"Feature","properties":{"stop_id":"10986","stop_code":"10986","stop_name":"EAST US-50 @ TIMBER CREEK EB","stop_desc":"FAR SIDE EAST US-50 @ TIMBER CREEK EB","wheelchair_boarding":2,"routes":[{"route_id":"19644","agency_id":"70006","route_short_name":"12","route_long_name":"OFallon-Fairview Heights","route_type":3,"route_color":"#FFFFFF","route_text_color":"#000000"}],"agency_name":"Metro St. Louis"},"geometry":{"type":"Point","coordinates":[-89.89282,38.58094]}},{"type":"Feature","properties":{"stop_id":"10987","stop_code":"10987","stop_name":"EAST US-50 @ COUNTRY OAKS EB","stop_desc":"FAR SIDE EAST US-50 @ COUNTRY OAKS EB","wheelchair_boarding":2,"routes":[{"route_id":"19644","agency_id":"70006","route_short_name":"12","route_long_name":"OFallon-Fairview Heights","route_type":3,"route_color":"#FFFFFF","route_text_color":"#000000"}],"agency_name":"Metro St. Louis"},"geometry":{"type":"Point","coordinates":[-89.886,38.58091]}},{"type":"Feature","properties":{"stop_id":"10988","stop_code":"10988","stop_name":"EAST US-50 @ LAKEPOINTE CENTRE EB","stop_desc":"NEAR SIDE EAST US-50 @ LAKEPOINTE CENTRE EB","wheelchair_boarding":2,"routes":[{"route_id":"19644","agency_id":"70006","route_short_name":"12","route_long_name":"OFallon-Fairview Heights","route_type":3,"route_color":"#FFFFFF","route_text_color":"#000000"}],"agency_name":"Metro St. Louis"},"geometry":{"type":"Point","coordinates":[-89.88266,38.58089]}},{"type":"Feature","properties":{"stop_id":"10989","stop_code":"10989","stop_name":"EAST US-50 @ EASTGATE EB","stop_desc":"FAR SIDE EAST US-50 @ EASTGATE EB","wheelchair_boarding":2,"routes":[{"route_id":"19644","agency_id":"70006","route_short_name":"12","route_long_name":"OFallon-Fairview Heights","route_type":3,"route_color":"#FFFFFF","route_text_color":"#000000"}],"agency_name":"Metro St. Louis"},"geometry":{"type":"Point","coordinates":[-89.8771,38.58175]}},{"type":"Feature","properties":{"stop_id":"11819","stop_code":"11819","stop_name":"ST. CLAIR @ MONTCLAIR EB","stop_desc":"FAR SIDE ST. CLAIR @ MONTCLAIR EB","wheelchair_boarding":2,"routes":[{"route_id":"19644","agency_id":"70006","route_short_name":"12","route_long_name":"OFallon-Fairview Heights","route_type":3,"route_color":"#FFFFFF","route_text_color":"#000000"}],"agency_name":"Metro St. Louis"},"geometry":{"type":"Point","coordinates":[-90.04177,38.59543]}},{"type":"Feature","properties":{"stop_id":"11820","stop_code":"11820","stop_name":"ST. CLAIR @ CLIFFORD TERRACE EB","stop_desc":"FAR SIDE ST. CLAIR @ CLIFFORD TERRACE EB","wheelchair_boarding":2,"routes":[{"route_id":"19644","agency_id":"70006","route_short_name":"12","route_long_name":"OFallon-Fairview Heights","route_type":3,"route_color":"#FFFFFF","route_text_color":"#000000"}],"agency_name":"Metro St. Louis"},"geometry":{"type":"Point","coordinates":[-90.03404,38.59499]}},{"type":"Feature","properties":{"stop_id":"11821","stop_code":"11821","stop_name":"ST. CLAIR @ EDGEWOOD EB","stop_desc":"FAR SIDE ST. CLAIR @ EDGEWOOD EB","wheelchair_boarding":2,"routes":[{"route_id":"19644","agency_id":"70006","route_short_name":"12","route_long_name":"OFallon-Fairview Heights","route_type":3,"route_color":"#FFFFFF","route_text_color":"#000000"}],"agency_name":"Metro St. Louis"},"geometry":{"type":"Point","coordinates":[-90.03227,38.59487]}},{"type":"Feature","properties":{"stop_id":"11822","stop_code":"11822","stop_name":"ST. CLAIR @ ESTATES VIEW EB","stop_desc":"NEAR SIDE ST. CLAIR @ ESTATES VIEW EB","wheelchair_boarding":2,"routes":[{"route_id":"19644","agency_id":"70006","route_short_name":"12","route_long_name":"OFallon-Fairview Heights","route_type":3,"route_color":"#FFFFFF","route_text_color":"#000000"}],"agency_name":"Metro St. Louis"},"geometry":{"type":"Point","coordinates":[-90.02715,38.5946]}},{"type":"Feature","properties":{"stop_id":"11823","stop_code":"11823","stop_name":"ST. CLAIR @ FAIRVIEW EB","stop_desc":"NEAR SIDE ST. CLAIR @ FAIRVIEW EB","wheelchair_boarding":2,"routes":[{"route_id":"19644","agency_id":"70006","route_short_name":"12","route_long_name":"OFallon-Fairview Heights","route_type":3,"route_color":"#FFFFFF","route_text_color":"#000000"}],"agency_name":"Metro St. Louis"},"geometry":{"type":"Point","coordinates":[-90.02095,38.59425]}},{"type":"Feature","properties":{"stop_id":"11824","stop_code":"11824","stop_name":"ST. CLAIR @ WEINEL EB","stop_desc":"NEAR SIDE ST. CLAIR @ WEINEL EB","wheelchair_boarding":2,"routes":[{"route_id":"19644","agency_id":"70006","route_short_name":"12","route_long_name":"OFallon-Fairview Heights","route_type":3,"route_color":"#FFFFFF","route_text_color":"#000000"}],"agency_name":"Metro St. Louis"},"geometry":{"type":"Point","coordinates":[-90.01841,38.5941]}},{"type":"Feature","properties":{"stop_id":"11825","stop_code":"11825","stop_name":"ST. CLAIR @ ST. CLAIR EB","stop_desc":"NEAR SIDE ST. CLAIR @ ST. CLAIR EB","wheelchair_boarding":2,"routes":[{"route_id":"19644","agency_id":"70006","route_short_name":"12","route_long_name":"OFallon-Fairview Heights","route_type":3,"route_color":"#FFFFFF","route_text_color":"#000000"}],"agency_name":"Metro St. Louis"},"geometry":{"type":"Point","coordinates":[-90.01628,38.59398]}},{"type":"Feature","properties":{"stop_id":"11826","stop_code":"11826","stop_name":"ST. CLAIR @ BUNKUM EB","stop_desc":"NEAR SIDE ST. CLAIR @ BUNKUM EB","wheelchair_boarding":2,"routes":[{"route_id":"19644","agency_id":"70006","route_short_name":"12","route_long_name":"OFallon-Fairview Heights","route_type":3,"route_color":"#FFFFFF","route_text_color":"#000000"}],"agency_name":"Metro St. Louis"},"geometry":{"type":"Point","coordinates":[-90.01322,38.59376]}},{"type":"Feature","properties":{"stop_id":"11827","stop_code":"11827","stop_name":"LINCOLN TRAIL @ PHILLIPS EB","stop_desc":"FAR SIDE LINCOLN TRAIL @ PHILLIPS EB","wheelchair_boarding":2,"routes":[{"route_id":"19644","agency_id":"70006","route_short_name":"12","route_long_name":"OFallon-Fairview Heights","route_type":3,"route_color":"#FFFFFF","route_text_color":"#000000"}],"agency_name":"Metro St. Louis"},"geometry":{"type":"Point","coordinates":[-90.01127,38.59347]}},{"type":"Feature","properties":{"stop_id":"11828","stop_code":"11828","stop_name":"LINCOLN TRAIL @ OLD LINCOLN TRAIL EB","stop_desc":"NEAR SIDE LINCOLN TRAIL @ OLD LINCOLN TRAIL EB","wheelchair_boarding":2,"routes":[{"route_id":"19644","agency_id":"70006","route_short_name":"12","route_long_name":"OFallon-Fairview Heights","route_type":3,"route_color":"#FFFFFF","route_text_color":"#000000"}],"agency_name":"Metro St. Louis"},"geometry":{"type":"Point","coordinates":[-90.00957,38.59317]}},{"type":"Feature","properties":{"stop_id":"11829","stop_code":"11829","stop_name":"LINCOLN TRAIL @ NORTH POINT EB","stop_desc":"NEAR SIDE LINCOLN TRAIL @ NORTH POINT EB","wheelchair_boarding":2,"routes":[{"route_id":"19644","agency_id":"70006","route_short_name":"12","route_long_name":"OFallon-Fairview Heights","route_type":3,"route_color":"#FFFFFF","route_text_color":"#000000"}],"agency_name":"Metro St. Louis"},"geometry":{"type":"Point","coordinates":[-90.00738,38.59294]}},{"type":"Feature","properties":{"stop_id":"11830","stop_code":"11830","stop_name":"LINCOLN TRAIL @ UNION HILL EB","stop_desc":"NEAR SIDE LINCOLN TRAIL @ UNION HILL EB","wheelchair_boarding":2,"routes":[{"route_id":"19644","agency_id":"70006","route_short_name":"12","route_long_name":"OFallon-Fairview Heights","route_type":3,"route_color":"#FFFFFF","route_text_color":"#000000"}],"agency_name":"Metro St. Louis"},"geometry":{"type":"Point","coordinates":[-90.00419,38.59289]}},{"type":"Feature","properties":{"stop_id":"11831","stop_code":"11831","stop_name":"LINCOLN TRAIL @ ROSELAWN EB","stop_desc":"NEAR SIDE LINCOLN TRAIL @ ROSELAWN EB","wheelchair_boarding":2,"routes":[{"route_id":"19644","agency_id":"70006","route_short_name":"12","route_long_name":"OFallon-Fairview Heights","route_type":3,"route_color":"#FFFFFF","route_text_color":"#000000"}],"agency_name":"Metro St. Louis"},"geometry":{"type":"Point","coordinates":[-90.00234,38.59288]}},{"type":"Feature","properties":{"stop_id":"11833","stop_code":"11833","stop_name":"LINCOLN TRAIL @ CATHERINE EB","stop_desc":"FAR SIDE LINCOLN TRAIL @ CATHERINE EB","wheelchair_boarding":2,"routes":[{"route_id":"19644","agency_id":"70006","route_short_name":"12","route_long_name":"OFallon-Fairview Heights","route_type":3,"route_color":"#FFFFFF","route_text_color":"#000000"}],"agency_name":"Metro St. Louis"},"geometry":{"type":"Point","coordinates":[-89.99837,38.59287]}},{"type":"Feature","properties":{"stop_id":"11834","stop_code":"11834","stop_name":"LINCOLN TRAIL @ BLUFF COURT EB","stop_desc":"FAR SIDE LINCOLN TRAIL @ BLUFF COURT EB","wheelchair_boarding":2,"routes":[{"route_id":"19644","agency_id":"70006","route_short_name":"12","route_long_name":"OFallon-Fairview Heights","route_type":3,"route_color":"#FFFFFF","route_text_color":"#000000"}],"agency_name":"Metro St. Louis"},"geometry":{"type":"Point","coordinates":[-89.99586,38.59287]}},{"type":"Feature","properties":{"stop_id":"11835","stop_code":"11835","stop_name":"LINCOLN TRAIL @ RUBY EB","stop_desc":"FAR SIDE LINCOLN TRAIL @ RUBY EB","wheelchair_boarding":2,"routes":[{"route_id":"19644","agency_id":"70006","route_short_name":"12","route_long_name":"OFallon-Fairview Heights","route_type":3,"route_color":"#FFFFFF","route_text_color":"#000000"}],"agency_name":"Metro St. Louis"},"geometry":{"type":"Point","coordinates":[-89.99388,38.59282]}},{"type":"Feature","properties":{"stop_id":"11836","stop_code":"11836","stop_name":"LINCOLN TRAIL @ CANTY EB","stop_desc":"FAR SIDE LINCOLN TRAIL @ CANTY EB","wheelchair_boarding":2,"routes":[{"route_id":"19644","agency_id":"70006","route_short_name":"12","route_long_name":"OFallon-Fairview Heights","route_type":3,"route_color":"#FFFFFF","route_text_color":"#000000"}],"agency_name":"Metro St. Louis"},"geometry":{"type":"Point","coordinates":[-89.99198,38.59281]}},{"type":"Feature","properties":{"stop_id":"11837","stop_code":"11837","stop_name":"COMMERCE @ MARKET PLACE NB","stop_desc":"NEAR SIDE COMMERCE @ MARKET PLACE NB","wheelchair_boarding":2,"routes":[{"route_id":"19644","agency_id":"70006","route_short_name":"12","route_long_name":"OFallon-Fairview Heights","route_type":3,"route_color":"#FFFFFF","route_text_color":"#000000"}],"agency_name":"Metro St. Louis"},"geometry":{"type":"Point","coordinates":[-89.99034,38.59496]}},{"type":"Feature","properties":{"stop_id":"11838","stop_code":"11838","stop_name":"58 COMMERCE NB","stop_desc":"MID-BLOCK 58 COMMERCE NB","wheelchair_boarding":2,"routes":[{"route_id":"19644","agency_id":"70006","route_short_name":"12","route_long_name":"OFallon-Fairview Heights","route_type":3,"route_color":"#FFFFFF","route_text_color":"#000000"}],"agency_name":"Metro St. Louis"},"geometry":{"type":"Point","coordinates":[-89.99029,38.59632]}},{"type":"Feature","properties":{"stop_id":"11839","stop_code":"11839","stop_name":"COMMERCE @ VATTEROTT COLLEGE NB","stop_desc":"MID-BLOCK COMMERCE @ VATTEROTT COLLEGE NB","wheelchair_boarding":2,"routes":[{"route_id":"19644","agency_id":"70006","route_short_name":"12","route_long_name":"OFallon-Fairview Heights","route_type":3,"route_color":"#FFFFFF","route_text_color":"#000000"}],"agency_name":"Metro St. Louis"},"geometry":{"type":"Point","coordinates":[-89.99025,38.5976]}},{"type":"Feature","properties":{"stop_id":"11840","stop_code":"11840","stop_name":"PLAZA @ BEST BUY WB","stop_desc":"MID-BLOCK PLAZA @ BEST BUY WB","wheelchair_boarding":2,"routes":[{"route_id":"19644","agency_id":"70006","route_short_name":"12","route_long_name":"OFallon-Fairview Heights","route_type":3,"route_color":"#FFFFFF","route_text_color":"#000000"}],"agency_name":"Metro St. Louis"},"geometry":{"type":"Point","coordinates":[-89.99355,38.59948]}},{"type":"Feature","properties":{"stop_id":"11841","stop_code":"11841","stop_name":"140 LUDWIG EB","stop_desc":"MID-BLOCK 140 LUDWIG EB","wheelchair_boarding":2,"routes":[{"route_id":"19644","agency_id":"70006","route_short_name":"12","route_long_name":"OFallon-Fairview Heights","route_type":3,"route_color":"#FFFFFF","route_text_color":"#000000"}],"agency_name":"Metro St. Louis"},"geometry":{"type":"Point","coordinates":[-89.99354,38.60105]}},{"type":"Feature","properties":{"stop_id":"11842","stop_code":"11842","stop_name":"LUDWIG @ FAIRVIEW HEIGHTS PLAZA - RED LOBSTER EB","stop_desc":"MID-BLOCK LUDWIG @ FAIRVIEW HEIGHTS PLAZA - RED LOBSTER EB","wheelchair_boarding":2,"routes":[{"route_id":"19644","agency_id":"70006","route_short_name":"12","route_long_name":"OFallon-Fairview Heights","route_type":3,"route_color":"#FFFFFF","route_text_color":"#000000"}],"agency_name":"Metro St. Louis"},"geometry":{"type":"Point","coordinates":[-89.99144,38.60092]}},{"type":"Feature","properties":{"stop_id":"11843","stop_code":"11843","stop_name":"LUDWIG @ ST. CLAIR 10 EB","stop_desc":"MID-BLOCK LUDWIG @ ST. CLAIR 10 EB","wheelchair_boarding":2,"routes":[{"route_id":"19644","agency_id":"70006","route_short_name":"12","route_long_name":"OFallon-Fairview Heights","route_type":3,"route_color":"#FFFFFF","route_text_color":"#000000"}],"agency_name":"Metro St. Louis"},"geometry":{"type":"Point","coordinates":[-89.98899,38.60077]}},{"type":"Feature","properties":{"stop_id":"11844","stop_code":"11844","stop_name":"LUDWIG @ DRURY INN ENTRANCE - OLIVE GARDEN EB","stop_desc":"FAR SIDE LUDWIG @ DRURY INN ENTRANCE - OLIVE GARDEN EB","wheelchair_boarding":2,"routes":[{"route_id":"19644","agency_id":"70006","route_short_name":"12","route_long_name":"OFallon-Fairview Heights","route_type":3,"route_color":"#FFFFFF","route_text_color":"#000000"}],"agency_name":"Metro St. Louis"},"geometry":{"type":"Point","coordinates":[-89.98683,38.60175]}},{"type":"Feature","properties":{"stop_id":"11846","stop_code":"11846","stop_name":"ST. CLAIR SQUARE MACYS ENTRANCE","stop_desc":"MID-BLOCK ST. CLAIR SQUARE MACYS ENTRANCE","wheelchair_boarding":2,"routes":[{"route_id":"19644","agency_id":"70006","route_short_name":"12","route_long_name":"OFallon-Fairview Heights","route_type":3,"route_color":"#FFFFFF","route_text_color":"#000000"},{"route_id":"19648","agency_id":"70006","route_short_name":"16","route_long_name":"St. Clair Square","route_type":3,"route_color":"#FFFFFF","route_text_color":"#000000"}],"agency_name":"Metro St. Louis"},"geometry":{"type":"Point","coordinates":[-89.98176,38.59597]}},{"type":"Feature","properties":{"stop_id":"11851","stop_code":"11851","stop_name":"LINCOLN HIGHWAY @ JOSEPH EB","stop_desc":"FAR SIDE LINCOLN HIGHWAY @ JOSEPH EB","wheelchair_boarding":2,"routes":[{"route_id":"19644","agency_id":"70006","route_short_name":"12","route_long_name":"OFallon-Fairview Heights","route_type":3,"route_color":"#FFFFFF","route_text_color":"#000000"}],"agency_name":"Metro St. Louis"},"geometry":{"type":"Point","coordinates":[-89.97593,38.59261]}},{"type":"Feature","properties":{"stop_id":"11852","stop_code":"11852","stop_name":"LINCOLN HIGHWAY @ AUBUCHON EB","stop_desc":"NEAR SIDE LINCOLN HIGHWAY @ AUBUCHON EB","wheelchair_boarding":2,"routes":[{"route_id":"19644","agency_id":"70006","route_short_name":"12","route_long_name":"OFallon-Fairview Heights","route_type":3,"route_color":"#FFFFFF","route_text_color":"#000000"}],"agency_name":"Metro St. Louis"},"geometry":{"type":"Point","coordinates":[-89.97402,38.5926]}},{"type":"Feature","properties":{"stop_id":"11853","stop_code":"11853","stop_name":"LINCOLN HIGHWAY @ BEL-ROSE EB","stop_desc":"NEAR SIDE LINCOLN HIGHWAY @ BEL-ROSE EB","wheelchair_boarding":2,"routes":[{"route_id":"19644","agency_id":"70006","route_short_name":"12","route_long_name":"OFallon-Fairview Heights","route_type":3,"route_color":"#FFFFFF","route_text_color":"#000000"}],"agency_name":"Metro St. Louis"},"geometry":{"type":"Point","coordinates":[-89.97156,38.5926]}},{"type":"Feature","properties":{"stop_id":"11854","stop_code":"11854","stop_name":"LINCOLN HIGHWAY @ HAMPTON EB","stop_desc":"NEAR SIDE LINCOLN HIGHWAY @ HAMPTON EB","wheelchair_boarding":2,"routes":[{"route_id":"19644","agency_id":"70006","route_short_name":"12","route_long_name":"OFallon-Fairview Heights","route_type":3,"route_color":"#FFFFFF","route_text_color":"#000000"}],"agency_name":"Metro St. Louis"},"geometry":{"type":"Point","coordinates":[-89.96986,38.59259]}},{"type":"Feature","properties":{"stop_id":"11855","stop_code":"11855","stop_name":"LINCOLN HIGHWAY @ SCHAPERKOETTER EB","stop_desc":"NEAR SIDE LINCOLN HIGHWAY @ SCHAPERKOETTER EB","wheelchair_boarding":2,"routes":[{"route_id":"19644","agency_id":"70006","route_short_name":"12","route_long_name":"OFallon-Fairview Heights","route_type":3,"route_color":"#FFFFFF","route_text_color":"#000000"}],"agency_name":"Metro St. Louis"},"geometry":{"type":"Point","coordinates":[-89.96761,38.5926]}},{"type":"Feature","properties":{"stop_id":"11856","stop_code":"11856","stop_name":"WEST US-50 @ OLD COLLINSVILLE EB","stop_desc":"FAR SIDE WEST US-50 @ OLD COLLINSVILLE EB","wheelchair_boarding":2,"routes":[{"route_id":"19644","agency_id":"70006","route_short_name":"12","route_long_name":"OFallon-Fairview Heights","route_type":3,"route_color":"#FFFFFF","route_text_color":"#000000"}],"agency_name":"Metro St. Louis"},"geometry":{"type":"Point","coordinates":[-89.96576,38.5926]}},{"type":"Feature","properties":{"stop_id":"11857","stop_code":"11857","stop_name":"2003 WEST US-50 EB","stop_desc":"MID-BLOCK 2003 WEST US-50 EB","wheelchair_boarding":2,"routes":[{"route_id":"19644","agency_id":"70006","route_short_name":"12","route_long_name":"OFallon-Fairview Heights","route_type":3,"route_color":"#FFFFFF","route_text_color":"#000000"}],"agency_name":"Metro St. Louis"},"geometry":{"type":"Point","coordinates":[-89.96345,38.5926]}},{"type":"Feature","properties":{"stop_id":"11858","stop_code":"11858","stop_name":"WEST US-50 @ MARI EB","stop_desc":"FAR SIDE WEST US-50 @ MARI EB","wheelchair_boarding":2,"routes":[{"route_id":"19644","agency_id":"70006","route_short_name":"12","route_long_name":"OFallon-Fairview Heights","route_type":3,"route_color":"#FFFFFF","route_text_color":"#000000"}],"agency_name":"Metro St. Louis"},"geometry":{"type":"Point","coordinates":[-89.96097,38.59258]}},{"type":"Feature","properties":{"stop_id":"11859","stop_code":"11859","stop_name":"WEST US-50 @ CASTLE ACRES EB","stop_desc":"FAR SIDE WEST US-50 @ CASTLE ACRES EB","wheelchair_boarding":2,"routes":[{"route_id":"19644","agency_id":"70006","route_short_name":"12","route_long_name":"OFallon-Fairview Heights","route_type":3,"route_color":"#FFFFFF","route_text_color":"#000000"}],"agency_name":"Metro St. Louis"},"geometry":{"type":"Point","coordinates":[-89.95858,38.59258]}},{"type":"Feature","properties":{"stop_id":"11860","stop_code":"11860","stop_name":"WEST US-50 @ ST. ELLEN EB","stop_desc":"NEAR SIDE WEST US-50 @ ST. ELLEN EB","wheelchair_boarding":2,"routes":[{"route_id":"19644","agency_id":"70006","route_short_name":"12","route_long_name":"OFallon-Fairview Heights","route_type":3,"route_color":"#FFFFFF","route_text_color":"#000000"}],"agency_name":"Metro St. Louis"},"geometry":{"type":"Point","coordinates":[-89.95608,38.59257]}},{"type":"Feature","properties":{"stop_id":"11861","stop_code":"11861","stop_name":"WEST US-50 @ DEAN EB","stop_desc":"NEAR SIDE WEST US-50 @ DEAN EB","wheelchair_boarding":1,"routes":[{"route_id":"19644","agency_id":"70006","route_short_name":"12","route_long_name":"OFallon-Fairview Heights","route_type":3,"route_color":"#FFFFFF","route_text_color":"#000000"}],"agency_name":"Metro St. Louis"},"geometry":{"type":"Point","coordinates":[-89.95466,38.59255]}},{"type":"Feature","properties":{"stop_id":"11862","stop_code":"11862","stop_name":"WEST US-50 @ LONG EB","stop_desc":"NEAR SIDE WEST US-50 @ LONG EB","wheelchair_boarding":2,"routes":[{"route_id":"19644","agency_id":"70006","route_short_name":"12","route_long_name":"OFallon-Fairview Heights","route_type":3,"route_color":"#FFFFFF","route_text_color":"#000000"}],"agency_name":"Metro St. Louis"},"geometry":{"type":"Point","coordinates":[-89.95095,38.59251]}},{"type":"Feature","properties":{"stop_id":"11863","stop_code":"11863","stop_name":"WEST US-50 @ HARTMAN EB","stop_desc":"NEAR SIDE WEST US-50 @ HARTMAN EB","wheelchair_boarding":2,"routes":[{"route_id":"19644","agency_id":"70006","route_short_name":"12","route_long_name":"OFallon-Fairview Heights","route_type":3,"route_color":"#FFFFFF","route_text_color":"#000000"}],"agency_name":"Metro St. Louis"},"geometry":{"type":"Point","coordinates":[-89.949,38.59248]}},{"type":"Feature","properties":{"stop_id":"11864","stop_code":"11864","stop_name":"1325 CENTRAL PARK EB","stop_desc":"MID-BLOCK 1325 CENTRAL PARK EB","wheelchair_boarding":2,"routes":[{"route_id":"19644","agency_id":"70006","route_short_name":"12","route_long_name":"OFallon-Fairview Heights","route_type":3,"route_color":"#FFFFFF","route_text_color":"#000000"}],"agency_name":"Metro St. Louis"},"geometry":{"type":"Point","coordinates":[-89.9461,38.58952]}},{"type":"Feature","properties":{"stop_id":"11865","stop_code":"11865","stop_name":"CENTRAL PARK @ CHEVYS FRESH MEX SB","stop_desc":"MID-BLOCK CENTRAL PARK @ CHEVYS FRESH MEX SB","wheelchair_boarding":2,"routes":[{"route_id":"19644","agency_id":"70006","route_short_name":"12","route_long_name":"OFallon-Fairview Heights","route_type":3,"route_color":"#FFFFFF","route_text_color":"#000000"}],"agency_name":"Metro St. Louis"},"geometry":{"type":"Point","coordinates":[-89.94351,38.58854]}},{"type":"Feature","properties":{"stop_id":"11866","stop_code":"11866","stop_name":"CENTRAL PARK @ CENTRAL PARK PLAZA SB","stop_desc":"FAR SIDE CENTRAL PARK @ CENTRAL PARK PLAZA SB","wheelchair_boarding":2,"routes":[{"route_id":"19644","agency_id":"70006","route_short_name":"12","route_long_name":"OFallon-Fairview Heights","route_type":3,"route_color":"#FFFFFF","route_text_color":"#000000"}],"agency_name":"Metro St. Louis"},"geometry":{"type":"Point","coordinates":[-89.94258,38.58732]}},{"type":"Feature","properties":{"stop_id":"11870","stop_code":"11870","stop_name":"WEST US-50 @ MAIN EB","stop_desc":"NEAR SIDE WEST US-50 @ MAIN EB","wheelchair_boarding":2,"routes":[{"route_id":"19644","agency_id":"70006","route_short_name":"12","route_long_name":"OFallon-Fairview Heights","route_type":3,"route_color":"#FFFFFF","route_text_color":"#000000"}],"agency_name":"Metro St. Louis"},"geometry":{"type":"Point","coordinates":[-89.93739,38.59231]}},{"type":"Feature","properties":{"stop_id":"11874","stop_code":"11874","stop_name":"STATE @ COUNTRYSIDE EB","stop_desc":"NEAR SIDE STATE @ COUNTRYSIDE EB","wheelchair_boarding":2,"routes":[{"route_id":"19644","agency_id":"70006","route_short_name":"12","route_long_name":"OFallon-Fairview Heights","route_type":3,"route_color":"#FFFFFF","route_text_color":"#000000"}],"agency_name":"Metro St. Louis"},"geometry":{"type":"Point","coordinates":[-89.92588,38.59239]}},{"type":"Feature","properties":{"stop_id":"11875","stop_code":"11875","stop_name":"STATE @ LAWN EB","stop_desc":"NEAR SIDE STATE @ LAWN EB","wheelchair_boarding":2,"routes":[{"route_id":"19644","agency_id":"70006","route_short_name":"12","route_long_name":"OFallon-Fairview Heights","route_type":3,"route_color":"#FFFFFF","route_text_color":"#000000"}],"agency_name":"Metro St. Louis"},"geometry":{"type":"Point","coordinates":[-89.92215,38.59228]}},{"type":"Feature","properties":{"stop_id":"11876","stop_code":"11876","stop_name":"STATE @ DOUGLAS EB","stop_desc":"NEAR SIDE STATE @ DOUGLAS EB","wheelchair_boarding":2,"routes":[{"route_id":"19644","agency_id":"70006","route_short_name":"12","route_long_name":"OFallon-Fairview Heights","route_type":3,"route_color":"#FFFFFF","route_text_color":"#000000"}],"agency_name":"Metro St. Louis"},"geometry":{"type":"Point","coordinates":[-89.92109,38.59226]}},{"type":"Feature","properties":{"stop_id":"11877","stop_code":"11877","stop_name":"STATE @ SPRUCE EB","stop_desc":"NEAR SIDE STATE @ SPRUCE EB","wheelchair_boarding":2,"routes":[{"route_id":"19644","agency_id":"70006","route_short_name":"12","route_long_name":"OFallon-Fairview Heights","route_type":3,"route_color":"#FFFFFF","route_text_color":"#000000"}],"agency_name":"Metro St. Louis"},"geometry":{"type":"Point","coordinates":[-89.91871,38.59255]}},{"type":"Feature","properties":{"stop_id":"11878","stop_code":"11878","stop_name":"STATE @ CHARLES EB","stop_desc":"FAR SIDE STATE @ CHARLES EB","wheelchair_boarding":2,"routes":[{"route_id":"19644","agency_id":"70006","route_short_name":"12","route_long_name":"OFallon-Fairview Heights","route_type":3,"route_color":"#FFFFFF","route_text_color":"#000000"}],"agency_name":"Metro St. Louis"},"geometry":{"type":"Point","coordinates":[-89.91631,38.59244]}},{"type":"Feature","properties":{"stop_id":"11879","stop_code":"11879","stop_name":"STATE @ OAK EB","stop_desc":"FAR SIDE STATE @ OAK EB","wheelchair_boarding":2,"routes":[{"route_id":"19644","agency_id":"70006","route_short_name":"12","route_long_name":"OFallon-Fairview Heights","route_type":3,"route_color":"#FFFFFF","route_text_color":"#000000"}],"agency_name":"Metro St. Louis"},"geometry":{"type":"Point","coordinates":[-89.9137,38.59228]}},{"type":"Feature","properties":{"stop_id":"11880","stop_code":"11880","stop_name":"STATE @ CHERRY EB","stop_desc":"NEAR SIDE STATE @ CHERRY EB","wheelchair_boarding":2,"routes":[{"route_id":"19644","agency_id":"70006","route_short_name":"12","route_long_name":"OFallon-Fairview Heights","route_type":3,"route_color":"#FFFFFF","route_text_color":"#000000"}],"agency_name":"Metro St. Louis"},"geometry":{"type":"Point","coordinates":[-89.9125,38.59229]}},{"type":"Feature","properties":{"stop_id":"11881","stop_code":"11881","stop_name":"STATE @ LINCOLN EB","stop_desc":"NEAR SIDE STATE @ LINCOLN EB","wheelchair_boarding":2,"routes":[{"route_id":"19644","agency_id":"70006","route_short_name":"12","route_long_name":"OFallon-Fairview Heights","route_type":3,"route_color":"#FFFFFF","route_text_color":"#000000"}],"agency_name":"Metro St. Louis"},"geometry":{"type":"Point","coordinates":[-89.9112,38.59228]}},{"type":"Feature","properties":{"stop_id":"11957","stop_code":"11957","stop_name":"LUDWIG @ DRURY INN ENTRANCE - BOB EVANS EB","stop_desc":"FAR SIDE LUDWIG @ DRURY INN ENTRANCE - BOB EVANS EB","wheelchair_boarding":2,"routes":[{"route_id":"19644","agency_id":"70006","route_short_name":"12","route_long_name":"OFallon-Fairview Heights","route_type":3,"route_color":"#FFFFFF","route_text_color":"#000000"}],"agency_name":"Metro St. Louis"},"geometry":{"type":"Point","coordinates":[-89.98623,38.60191]}},{"type":"Feature","properties":{"stop_id":"12036","stop_code":"12036","stop_name":"EAST US-50 @ PARK ENTRANCE PLACE EB","stop_desc":"NEAR SIDE EAST US-50 @ PARK ENTRANCE PLACE EB","wheelchair_boarding":2,"routes":[{"route_id":"19644","agency_id":"70006","route_short_name":"12","route_long_name":"OFallon-Fairview Heights","route_type":3,"route_color":"#FFFFFF","route_text_color":"#000000"}],"agency_name":"Metro St. Louis"},"geometry":{"type":"Point","coordinates":[-89.90608,38.58474]}},{"type":"Feature","properties":{"stop_id":"12037","stop_code":"12037","stop_name":"EAST US-50 @ SOUTHVIEW EB","stop_desc":"NEAR SIDE EAST US-50 @ SOUTHVIEW EB","wheelchair_boarding":2,"routes":[{"route_id":"19644","agency_id":"70006","route_short_name":"12","route_long_name":"OFallon-Fairview Heights","route_type":3,"route_color":"#FFFFFF","route_text_color":"#000000"}],"agency_name":"Metro St. Louis"},"geometry":{"type":"Point","coordinates":[-89.90409,38.58454]}},{"type":"Feature","properties":{"stop_id":"12052","stop_code":"12052","stop_name":"LINCOLN @ 2ND STREET SB","stop_desc":"FAR SIDE LINCOLN @ 2ND STREET SB","wheelchair_boarding":2,"routes":[{"route_id":"19644","agency_id":"70006","route_short_name":"12","route_long_name":"OFallon-Fairview Heights","route_type":3,"route_color":"#FFFFFF","route_text_color":"#000000"}],"agency_name":"Metro St. Louis"},"geometry":{"type":"Point","coordinates":[-89.91084,38.59137]}},{"type":"Feature","properties":{"stop_id":"14124","stop_code":"14124","stop_name":"FAIRVIEW HEIGHTS TRANSIT CENTER","wheelchair_boarding":1,"routes":[{"route_id":"19636","agency_id":"70006","route_short_name":"1","route_long_name":"Main Street - State Street","route_type":3,"route_color":"#FFFFFF","route_text_color":"#000000"},{"route_id":"19641","agency_id":"70006","route_short_name":"6","route_long_name":"Rosemont","route_type":3,"route_color":"#FFFFFF","route_text_color":"#000000"},{"route_id":"19644","agency_id":"70006","route_short_name":"12","route_long_name":"OFallon-Fairview Heights","route_type":3,"route_color":"#FFFFFF","route_text_color":"#000000"},{"route_id":"19645","agency_id":"70006","route_short_name":"13","route_long_name":"Caseyville","route_type":3,"route_color":"#FFFFFF","route_text_color":"#000000"}],"agency_name":"Metro St. Louis"},"geometry":{"type":"Point","coordinates":[-90.04828,38.5947]}},{"type":"Feature","properties":{"stop_id":"14253","stop_code":"14253","stop_name":"100 LUDWIG EB","stop_desc":"MID-BLOCK 100 LUDWIG EB","wheelchair_boarding":2,"routes":[{"route_id":"19644","agency_id":"70006","route_short_name":"12","route_long_name":"OFallon-Fairview Heights","route_type":3,"route_color":"#FFFFFF","route_text_color":"#000000"}],"agency_name":"Metro St. Louis"},"geometry":{"type":"Point","coordinates":[-89.99024,38.60085]}},{"type":"Feature","properties":{"stop_id":"14254","stop_code":"14254","stop_name":"WEST US-50 @ ALICE EB","stop_desc":"NEAR SIDE WEST US-50 @ ALICE EB","wheelchair_boarding":2,"routes":[{"route_id":"19644","agency_id":"70006","route_short_name":"12","route_long_name":"OFallon-Fairview Heights","route_type":3,"route_color":"#FFFFFF","route_text_color":"#000000"}],"agency_name":"Metro St. Louis"},"geometry":{"type":"Point","coordinates":[-89.95369,38.59253]}},{"type":"Feature","properties":{"stop_id":"14255","stop_code":"14255","stop_name":"HARTMAN @ BELT SB","stop_desc":"NEAR SIDE HARTMAN @ BELT SB","wheelchair_boarding":2,"routes":[{"route_id":"19644","agency_id":"70006","route_short_name":"12","route_long_name":"OFallon-Fairview Heights","route_type":3,"route_color":"#FFFFFF","route_text_color":"#000000"}],"agency_name":"Metro St. Louis"},"geometry":{"type":"Point","coordinates":[-89.94761,38.59068]}},{"type":"Feature","properties":{"stop_id":"14256","stop_code":"14256","stop_name":"WEST US-50 @ EAGLE CENTER EB","stop_desc":"NEAR SIDE WEST US-50 @ EAGLE CENTER EB","wheelchair_boarding":2,"routes":[{"route_id":"19644","agency_id":"70006","route_short_name":"12","route_long_name":"OFallon-Fairview Heights","route_type":3,"route_color":"#FFFFFF","route_text_color":"#000000"}],"agency_name":"Metro St. Louis"},"geometry":{"type":"Point","coordinates":[-89.9309,38.5903]}},{"type":"Feature","properties":{"stop_id":"14261","stop_code":"14261","stop_name":"EAST US-50 @ WHITEHALL EB","stop_desc":"NEAR SIDE EAST US-50 @ WHITEHALL EB","wheelchair_boarding":2,"routes":[{"route_id":"19644","agency_id":"70006","route_short_name":"12","route_long_name":"OFallon-Fairview Heights","route_type":3,"route_color":"#FFFFFF","route_text_color":"#000000"}],"agency_name":"Metro St. Louis"},"geometry":{"type":"Point","coordinates":[-89.90896,38.58483]}},{"type":"Feature","properties":{"stop_id":"14264","stop_code":"14264","stop_name":"STATE @ 9 EAGLE PARK EB","stop_desc":"MID-BLOCK STATE @ 9 EAGLE PARK EB","wheelchair_boarding":2,"routes":[{"route_id":"19644","agency_id":"70006","route_short_name":"12","route_long_name":"OFallon-Fairview Heights","route_type":3,"route_color":"#FFFFFF","route_text_color":"#000000"}],"agency_name":"Metro St. Louis"},"geometry":{"type":"Point","coordinates":[-89.928,38.5923]}},{"type":"Feature","properties":{"stop_id":"14272","stop_code":"14272","stop_name":"SHILOH-SCOTT TRANSIT CENTER","wheelchair_boarding":1,"routes":[{"route_id":"19644","agency_id":"70006","route_short_name":"12","route_long_name":"OFallon-Fairview Heights","route_type":3,"route_color":"#FFFFFF","route_text_color":"#000000"}],"agency_name":"Metro St. Louis"},"geometry":{"type":"Point","coordinates":[-89.87964,38.53947]}},{"type":"Feature","properties":{"stop_id":"14282","stop_code":"14282","stop_name":"GREEN MOUNT @ GREEN MOUNT CROSSING NB","stop_desc":"FAR SIDE GREEN MOUNT @ GREEN MOUNT CROSSING NB","wheelchair_boarding":2,"routes":[{"route_id":"19644","agency_id":"70006","route_short_name":"12","route_long_name":"OFallon-Fairview Heights","route_type":3,"route_color":"#FFFFFF","route_text_color":"#000000"}],"agency_name":"Metro St. Louis"},"geometry":{"type":"Point","coordinates":[-89.92892,38.57328]}},{"type":"Feature","properties":{"stop_id":"15270","stop_code":"15270","stop_name":"COMMERCE @ LINCOLN TRAIL NB","stop_desc":"FAR SIDE COMMERCE @ LINCOLN TRAIL NB","wheelchair_boarding":2,"routes":[{"route_id":"19644","agency_id":"70006","route_short_name":"12","route_long_name":"OFallon-Fairview Heights","route_type":3,"route_color":"#FFFFFF","route_text_color":"#000000"}],"agency_name":"Metro St. Louis"},"geometry":{"type":"Point","coordinates":[-89.99037,38.59357]}},{"type":"Feature","properties":{"stop_id":"15271","stop_code":"15271","stop_name":"ST. CLAIR SQUARE @ PLAZA ST. CLAIR SB","stop_desc":"FAR SIDE ST. CLAIR SQUARE @ PLAZA ST. CLAIR SB","wheelchair_boarding":2,"routes":[{"route_id":"19644","agency_id":"70006","route_short_name":"12","route_long_name":"OFallon-Fairview Heights","route_type":3,"route_color":"#FFFFFF","route_text_color":"#000000"}],"agency_name":"Metro St. Louis"},"geometry":{"type":"Point","coordinates":[-89.97683,38.59405]}},{"type":"Feature","properties":{"stop_id":"15272","stop_code":"15272","stop_name":"CENTRAL PARK @ GARDEN RIDGE ENTRANCE SB","stop_desc":"MID-BLOCK CENTRAL PARK @ GARDEN RIDGE ENTRANCE SB","wheelchair_boarding":2,"routes":[{"route_id":"19644","agency_id":"70006","route_short_name":"12","route_long_name":"OFallon-Fairview Heights","route_type":3,"route_color":"#FFFFFF","route_text_color":"#000000"}],"agency_name":"Metro St. Louis"},"geometry":{"type":"Point","coordinates":[-89.94106,38.58634]}},{"type":"Feature","properties":{"stop_id":"15273","stop_code":"15273","stop_name":"CENTRAL PARK @ AT HOME SB","stop_desc":"MID-BLOCK CENTRAL PARK @ AT HOME SB","wheelchair_boarding":2,"routes":[{"route_id":"19644","agency_id":"70006","route_short_name":"12","route_long_name":"OFallon-Fairview Heights","route_type":3,"route_color":"#FFFFFF","route_text_color":"#000000"}],"agency_name":"Metro St. Louis"},"geometry":{"type":"Point","coordinates":[-89.94011,38.58536]}},{"type":"Feature","properties":{"stop_id":"15274","stop_code":"15274","stop_name":"1247 CENTRAL PARK SB","stop_desc":"MID-BLOCK 1247 CENTRAL PARK SB","wheelchair_boarding":2,"routes":[{"route_id":"19644","agency_id":"70006","route_short_name":"12","route_long_name":"OFallon-Fairview Heights","route_type":3,"route_color":"#FFFFFF","route_text_color":"#000000"}],"agency_name":"Metro St. Louis"},"geometry":{"type":"Point","coordinates":[-89.93705,38.57987]}},{"type":"Feature","properties":{"stop_id":"15275","stop_code":"15275","stop_name":"CENTRAL PARK @ MENARDS SB","stop_desc":"MID-BLOCK CENTRAL PARK @ MENARDS SB","wheelchair_boarding":2,"routes":[{"route_id":"19644","agency_id":"70006","route_short_name":"12","route_long_name":"OFallon-Fairview Heights","route_type":3,"route_color":"#FFFFFF","route_text_color":"#000000"}],"agency_name":"Metro St. Louis"},"geometry":{"type":"Point","coordinates":[-89.93344,38.57564]}},{"type":"Feature","properties":{"stop_id":"15281","stop_code":"15281","stop_name":"EAST US-50 @ ARBOR PARKWAY EB","stop_desc":"FAR SIDE EAST US-50 @ ARBOR PARKWAY EB","wheelchair_boarding":2,"routes":[{"route_id":"19644","agency_id":"70006","route_short_name":"12","route_long_name":"OFallon-Fairview Heights","route_type":3,"route_color":"#FFFFFF","route_text_color":"#000000"}],"agency_name":"Metro St. Louis"},"geometry":{"type":"Point","coordinates":[-89.87898,38.58104]}},{"type":"Feature","properties":{"stop_id":"15282","stop_code":"15282","stop_name":"EAST US-50 @ AIR MOBILITY EB","stop_desc":"NEAR SIDE EAST US-50 @ AIR MOBILITY EB","wheelchair_boarding":2,"routes":[{"route_id":"19644","agency_id":"70006","route_short_name":"12","route_long_name":"OFallon-Fairview Heights","route_type":3,"route_color":"#FFFFFF","route_text_color":"#000000"}],"agency_name":"Metro St. Louis"},"geometry":{"type":"Point","coordinates":[-89.87466,38.5829]}},{"type":"Feature","properties":{"stop_id":"15283","stop_code":"15283","stop_name":"AIR MOBILITY @ MAPLE SB","stop_desc":"FAR SIDE AIR MOBILITY @ MAPLE SB","wheelchair_boarding":2,"routes":[{"route_id":"19644","agency_id":"70006","route_short_name":"12","route_long_name":"OFallon-Fairview Heights","route_type":3,"route_color":"#FFFFFF","route_text_color":"#000000"}],"agency_name":"Metro St. Louis"},"geometry":{"type":"Point","coordinates":[-89.88055,38.56075]}},{"type":"Feature","properties":{"stop_id":"15284","stop_code":"15284","stop_name":"AIR MOBILITY @ SEIBERT SB","stop_desc":"FAR SIDE AIR MOBILITY @ SEIBERT SB","wheelchair_boarding":2,"routes":[{"route_id":"19644","agency_id":"70006","route_short_name":"12","route_long_name":"OFallon-Fairview Heights","route_type":3,"route_color":"#FFFFFF","route_text_color":"#000000"}],"agency_name":"Metro St. Louis"},"geometry":{"type":"Point","coordinates":[-89.88385,38.54764]}},{"type":"Feature","properties":{"stop_id":"15285","stop_code":"15285","stop_name":"METRO PLAZA @ SECTION LINE EB","stop_desc":"NEAR SIDE METRO PLAZA @ SECTION LINE EB","wheelchair_boarding":2,"routes":[{"route_id":"19644","agency_id":"70006","route_short_name":"12","route_long_name":"OFallon-Fairview Heights","route_type":3,"route_color":"#FFFFFF","route_text_color":"#000000"}],"agency_name":"Metro St. Louis"},"geometry":{"type":"Point","coordinates":[-89.88236,38.54016]}},{"type":"Feature","properties":{"stop_id":"15805","stop_code":"15805","stop_name":"REGENCY @ GREENMOUNT WB","stop_desc":"FAR SIDE REGENCY @ GREENMOUNT WB","wheelchair_boarding":2,"routes":[{"route_id":"19644","agency_id":"70006","route_short_name":"12","route_long_name":"OFallon-Fairview Heights","route_type":3,"route_color":"#FFFFFF","route_text_color":"#000000"}],"agency_name":"Metro St. Louis"},"geometry":{"type":"Point","coordinates":[-89.92986,38.5796]}},{"type":"Feature","properties":{"stop_id":"15806","stop_code":"15806","stop_name":"REGENCY @ REGENCY CONFERENCE CENTER NB","stop_desc":"MID-BLOCK REGENCY @ REGENCY CONFERENCE CENTER NB","wheelchair_boarding":2,"routes":[{"route_id":"19644","agency_id":"70006","route_short_name":"12","route_long_name":"OFallon-Fairview Heights","route_type":3,"route_color":"#FFFFFF","route_text_color":"#000000"}],"agency_name":"Metro St. Louis"},"geometry":{"type":"Point","coordinates":[-89.93138,38.5796]}},{"type":"Feature","properties":{"stop_id":"15807","stop_code":"15807","stop_name":"REGENGY @ HILTON GARDEN INN ENTRANCE NB","stop_desc":"NEAR SIDE REGENGY @ HILTON GARDEN INN ENTRANCE NB","wheelchair_boarding":2,"routes":[{"route_id":"19644","agency_id":"70006","route_short_name":"12","route_long_name":"OFallon-Fairview Heights","route_type":3,"route_color":"#FFFFFF","route_text_color":"#000000"}],"agency_name":"Metro St. Louis"},"geometry":{"type":"Point","coordinates":[-89.93337,38.58054]}},{"type":"Feature","properties":{"stop_id":"15808","stop_code":"15808","stop_name":"REGENCY @ EXTENDED STAY AMERICA 2ND ENTRANCE NB","stop_desc":"FAR SIDE REGENCY @ EXTENDED STAY AMERICA 2ND ENTRANCE NB","wheelchair_boarding":2,"routes":[{"route_id":"19644","agency_id":"70006","route_short_name":"12","route_long_name":"OFallon-Fairview Heights","route_type":3,"route_color":"#FFFFFF","route_text_color":"#000000"}],"agency_name":"Metro St. Louis"},"geometry":{"type":"Point","coordinates":[-89.93957,38.58725]}},{"type":"Feature","properties":{"stop_id":"15809","stop_code":"15809","stop_name":"REGENCY @ BAYMONT ENTRANCE NB","stop_desc":"NEAR SIDE REGENCY @ BAYMONT ENTRANCE NB","wheelchair_boarding":2,"routes":[{"route_id":"19644","agency_id":"70006","route_short_name":"12","route_long_name":"OFallon-Fairview Heights","route_type":3,"route_color":"#FFFFFF","route_text_color":"#000000"}],"agency_name":"Metro St. Louis"},"geometry":{"type":"Point","coordinates":[-89.94,38.58876]}},{"type":"Feature","properties":{"stop_id":"15810","stop_code":"15810","stop_name":"REGENCY @ 124 REGENCY PARK EB","stop_desc":"NEAR SIDE REGENCY @ 124 REGENCY PARK EB","wheelchair_boarding":2,"routes":[{"route_id":"19644","agency_id":"70006","route_short_name":"12","route_long_name":"OFallon-Fairview Heights","route_type":3,"route_color":"#FFFFFF","route_text_color":"#000000"}],"agency_name":"Metro St. Louis"},"geometry":{"type":"Point","coordinates":[-89.93992,38.58976]}},{"type":"Feature","properties":{"stop_id":"15815","stop_code":"15815","stop_name":"SCHWAEGEL @ CENTER GROVE NB","stop_desc":"NEAR SIDE SCHWAEGEL @ CENTER GROVE NB","wheelchair_boarding":2,"routes":[{"route_id":"19644","agency_id":"70006","route_short_name":"12","route_long_name":"OFallon-Fairview Heights","route_type":3,"route_color":"#FFFFFF","route_text_color":"#000000"}],"agency_name":"Metro St. Louis"},"geometry":{"type":"Point","coordinates":[-89.92895,38.59082]}},{"type":"Feature","properties":{"stop_id":"15905","stop_code":"15905","stop_name":"CENTRAL PARK @ MERCHANTS WAY EB","stop_desc":"FAR SIDE CENTRAL PARK @ MERCHANTS WAY EB","wheelchair_boarding":2,"routes":[{"route_id":"19644","agency_id":"70006","route_short_name":"12","route_long_name":"OFallon-Fairview Heights","route_type":3,"route_color":"#FFFFFF","route_text_color":"#000000"},{"route_id":"19647","agency_id":"70006","route_short_name":"15","route_long_name":"Belleville-O'Fallon","route_type":3,"route_color":"#FFFFFF","route_text_color":"#000000"}],"agency_name":"Metro St. Louis"},"geometry":{"type":"Point","coordinates":[-89.93076,38.5728]}},{"type":"Feature","properties":{"stop_id":"16389","stop_code":"16389","stop_name":"ST. ELIZABETH HOSPITAL LOOP","stop_desc":"MID-BLOCK ST. ELIZABETH HOSPITAL LOOP","wheelchair_boarding":1,"routes":[{"route_id":"19644","agency_id":"70006","route_short_name":"12","route_long_name":"OFallon-Fairview Heights","route_type":3,"route_color":"#FFFFFF","route_text_color":"#000000"}],"agency_name":"Metro St. Louis"},"geometry":{"type":"Point","coordinates":[-89.93345,38.583]}},{"type":"Feature","properties":{"stop_id":"16443","stop_code":"16443","stop_name":"CENTRAL PARK @ GATEWAY CLASSIC CARS SB","stop_desc":"NEAR SIDE CENTRAL PARK @ GATEWAY CLASSIC CARS SB","wheelchair_boarding":2,"routes":[{"route_id":"19644","agency_id":"70006","route_short_name":"12","route_long_name":"OFallon-Fairview Heights","route_type":3,"route_color":"#FFFFFF","route_text_color":"#000000"}],"agency_name":"Metro St. Louis"},"geometry":{"type":"Point","coordinates":[-89.9349,38.57695]}},{"type":"Feature","properties":{"stop_id":"16491","stop_code":"16491","stop_name":"GREEN MOUNT @ W US-50 NB","stop_desc":"FAR SIDE GREEN MOUNT @ W US-50 NB","wheelchair_boarding":1,"routes":[{"route_id":"19644","agency_id":"70006","route_short_name":"12","route_long_name":"OFallon-Fairview Heights","route_type":3,"route_color":"#FFFFFF","route_text_color":"#000000"}],"agency_name":"Metro St. Louis"},"geometry":{"type":"Point","coordinates":[-89.92882,38.5894]}},{"type":"Feature","properties":{"stop_id":"16493","stop_code":"16493","stop_name":"EAST US-50 @ JAMESTOWN EB","stop_desc":"NEAR SIDE EAST US-50 @ JAMESTOWN EB","wheelchair_boarding":1,"routes":[{"route_id":"19644","agency_id":"70006","route_short_name":"12","route_long_name":"OFallon-Fairview Heights","route_type":3,"route_color":"#FFFFFF","route_text_color":"#000000"}],"agency_name":"Metro St. Louis"},"geometry":{"type":"Point","coordinates":[-89.90046,38.58356]}}]}