{"type":"FeatureCollection","features":[{"type":"Feature","properties":{"agency_name":"Metro St. Louis","route_id":"19603","agency_id":"70006","route_short_name":"19","route_long_name":"St Louis Ave","route_type":3,"route_color":"#FFFFFF","route_text_color":"#000000"},"geometry":{"type":"MultiLineString","coordinates":[[[-90.20282,38.62414],[-90.20278,38.6243],[-90.20284,38.62405],[-90.20283,38.62399],[-90.20284,38.62393],[-90.203,38.62398],[-90.20305,38.62403],[-90.20307,38.62407],[-90.20307,38.62411],[-90.20293,38.62434],[-90.20271,38.62491],[-90.20271,38.62522],[-90.20267,38.62561],[-90.20264,38.62566],[-90.20257,38.62568],[-90.20249,38.62565],[-90.20246,38.62559],[-90.20257,38.62504],[-90.20253,38.62498],[-90.20231,38.62495],[-90.20235,38.62487],[-90.2017,38.62481],[-90.19954,38.6243],[-90.19856,38.62658],[-90.19822,38.62744],[-90.19801,38.62813],[-90.19771,38.62897],[-90.19712,38.63048],[-90.19692,38.63121],[-90.19673,38.63176],[-90.19633,38.63276],[-90.19613,38.63322],[-90.19588,38.63373],[-90.19568,38.63426],[-90.19529,38.63536],[-90.19499,38.6363],[-90.19469,38.6371],[-90.19443,38.63787],[-90.1943,38.63815],[-90.19407,38.63849],[-90.19421,38.63859],[-90.19451,38.63897],[-90.1946,38.63939],[-90.19457,38.63963],[-90.19404,38.64115],[-90.1939,38.64149],[-90.19382,38.64183],[-90.19366,38.6421],[-90.19287,38.64436],[-90.19286,38.64448],[-90.19289,38.64461],[-90.19353,38.64575],[-90.19413,38.64691],[-90.19609,38.65085],[-90.19766,38.65127],[-90.19927,38.65077],[-90.19973,38.65066],[-90.19998,38.65062],[-90.20363,38.65141],[-90.2127,38.65332],[-90.21316,38.65337],[-90.2172,38.65333],[-90.21734,38.65333],[-90.21754,38.65336],[-90.22076,38.6549],[-90.22289,38.65583],[-90.22384,38.65626],[-90.22402,38.65664],[-90.22426,38.65708],[-90.22433,38.65715],[-90.22448,38.65723],[-90.23551,38.66206],[-90.2367,38.66255],[-90.25063,38.66863],[-90.25151,38.669],[-90.25165,38.66909],[-90.25185,38.6693],[-90.25205,38.66957],[-90.25233,38.67003],[-90.25252,38.67021],[-90.25266,38.67029],[-90.25973,38.67341],[-90.26176,38.67429],[-90.26357,38.67511],[-90.26476,38.67562],[-90.26732,38.67677],[-90.26769,38.6773],[-90.26852,38.67767],[-90.27107,38.6788],[-90.27309,38.67942],[-90.27369,38.67966],[-90.2746,38.67914],[-90.27488,38.6787],[-90.27569,38.67754],[-90.27939,38.67208],[-90.29023,38.67789],[-90.29209,38.67886],[-90.29402,38.67992],[-90.29631,38.68111],[-90.29861,38.68234],[-90.30114,38.68363],[-90.30149,38.68383],[-90.30283,38.68454],[-90.30212,38.68467],[-90.30195,38.68459],[-90.30182,38.68464]]]}},{"type":"Feature","properties":{"stop_id":"13297","stop_code":"13297","stop_name":"DR ML KING @ HODIAMONT WB","stop_desc":"NEAR SIDE DR ML KING @ HODIAMONT WB","wheelchair_boarding":1,"routes":[{"route_id":"19603","agency_id":"70006","route_short_name":"19","route_long_name":"St Louis Ave","route_type":3,"route_color":"#FFFFFF","route_text_color":"#000000"},{"route_id":"19607","agency_id":"70006","route_short_name":"32","route_long_name":"Dr ML King","route_type":3,"route_color":"#FFFFFF","route_text_color":"#000000"}],"agency_name":"Metro St. Louis"},"geometry":{"type":"Point","coordinates":[-90.28498,38.67511]}},{"type":"Feature","properties":{"stop_id":"13311","stop_code":"13311","stop_name":"ST. CHARLES ROCK ROAD @ LUCAS-HUNT WB","stop_desc":"FAR SIDE ST. CHARLES ROCK ROAD @ LUCAS-HUNT WB","wheelchair_boarding":1,"routes":[{"route_id":"19603","agency_id":"70006","route_short_name":"19","route_long_name":"St Louis Ave","route_type":3,"route_color":"#FFFFFF","route_text_color":"#000000"},{"route_id":"19607","agency_id":"70006","route_short_name":"32","route_long_name":"Dr ML King","route_type":3,"route_color":"#FFFFFF","route_text_color":"#000000"},{"route_id":"19621","agency_id":"70006","route_short_name":"64","route_long_name":"Lucas-Hunt","route_type":3,"route_color":"#FFFFFF","route_text_color":"#000000"}],"agency_name":"Metro St. Louis"},"geometry":{"type":"Point","coordinates":[-90.29615,38.6811]}},{"type":"Feature","properties":{"stop_id":"13312","stop_code":"13312","stop_name":"DR ML KING @ WELLSTON PLACE WB","stop_desc":"FAR SIDE DR ML KING @ WELLSTON PLACE WB","wheelchair_boarding":1,"routes":[{"route_id":"19603","agency_id":"70006","route_short_name":"19","route_long_name":"St Louis Ave","route_type":3,"route_color":"#FFFFFF","route_text_color":"#000000"},{"route_id":"19607","agency_id":"70006","route_short_name":"32","route_long_name":"Dr ML King","route_type":3,"route_color":"#FFFFFF","route_text_color":"#000000"}],"agency_name":"Metro St. Louis"},"geometry":{"type":"Point","coordinates":[-90.28944,38.67754]}},{"type":"Feature","properties":{"stop_id":"13314","stop_code":"13314","stop_name":"DR ML KING @ OGDEN WB","stop_desc":"NEAR SIDE DR ML KING @ OGDEN WB","wheelchair_boarding":1,"routes":[{"route_id":"19603","agency_id":"70006","route_short_name":"19","route_long_name":"St Louis Ave","route_type":3,"route_color":"#FFFFFF","route_text_color":"#000000"},{"route_id":"19607","agency_id":"70006","route_short_name":"32","route_long_name":"Dr ML King","route_type":3,"route_color":"#FFFFFF","route_text_color":"#000000"}],"agency_name":"Metro St. Louis"},"geometry":{"type":"Point","coordinates":[-90.29186,38.67882]}},{"type":"Feature","properties":{"stop_id":"13520","stop_code":"13520","stop_name":"TUCKER @ ST. CHARLES NB","stop_desc":"FAR SIDE TUCKER @ ST. CHARLES NB","wheelchair_boarding":1,"routes":[{"route_id":"19603","agency_id":"70006","route_short_name":"19","route_long_name":"St Louis Ave","route_type":3,"route_color":"#FFFFFF","route_text_color":"#000000"},{"route_id":"19607","agency_id":"70006","route_short_name":"32","route_long_name":"Dr ML King","route_type":3,"route_color":"#FFFFFF","route_text_color":"#000000"}],"agency_name":"Metro St. Louis"},"geometry":{"type":"Point","coordinates":[-90.19672,38.63137]}},{"type":"Feature","properties":{"stop_id":"13832","stop_code":"13832","stop_name":"13TH STREET @ CHAMBERS NB","stop_desc":"NEAR SIDE 13TH STREET @ CHAMBERS NB","wheelchair_boarding":2,"routes":[{"route_id":"19603","agency_id":"70006","route_short_name":"19","route_long_name":"St Louis Ave","route_type":3,"route_color":"#FFFFFF","route_text_color":"#000000"}],"agency_name":"Metro St. Louis"},"geometry":{"type":"Point","coordinates":[-90.19325,38.64534]}},{"type":"Feature","properties":{"stop_id":"13835","stop_code":"13835","stop_name":"13TH STREET @ CLINTON NB","stop_desc":"NEAR SIDE 13TH STREET @ CLINTON NB","wheelchair_boarding":2,"routes":[{"route_id":"19603","agency_id":"70006","route_short_name":"19","route_long_name":"St Louis Ave","route_type":3,"route_color":"#FFFFFF","route_text_color":"#000000"}],"agency_name":"Metro St. Louis"},"geometry":{"type":"Point","coordinates":[-90.19404,38.64684]}},{"type":"Feature","properties":{"stop_id":"13837","stop_code":"13837","stop_name":"13TH STREET @ NORTH MARKET NB","stop_desc":"FAR SIDE 13TH STREET @ NORTH MARKET NB","wheelchair_boarding":2,"routes":[{"route_id":"19603","agency_id":"70006","route_short_name":"19","route_long_name":"St Louis Ave","route_type":3,"route_color":"#FFFFFF","route_text_color":"#000000"}],"agency_name":"Metro St. Louis"},"geometry":{"type":"Point","coordinates":[-90.19496,38.6487]}},{"type":"Feature","properties":{"stop_id":"13838","stop_code":"13838","stop_name":"13TH STREET @ WARREN NB","stop_desc":"FAR SIDE 13TH STREET @ WARREN NB","wheelchair_boarding":1,"routes":[{"route_id":"19603","agency_id":"70006","route_short_name":"19","route_long_name":"St Louis Ave","route_type":3,"route_color":"#FFFFFF","route_text_color":"#000000"}],"agency_name":"Metro St. Louis"},"geometry":{"type":"Point","coordinates":[-90.19577,38.65029]}},{"type":"Feature","properties":{"stop_id":"14102","stop_code":"14102","stop_name":"ST. CHARLES ROCK ROAD @ LULU WB","stop_desc":"FAR SIDE ST. CHARLES ROCK ROAD @ LULU WB","wheelchair_boarding":1,"routes":[{"route_id":"19603","agency_id":"70006","route_short_name":"19","route_long_name":"St Louis Ave","route_type":3,"route_color":"#FFFFFF","route_text_color":"#000000"},{"route_id":"19607","agency_id":"70006","route_short_name":"32","route_long_name":"Dr ML King","route_type":3,"route_color":"#FFFFFF","route_text_color":"#000000"},{"route_id":"19621","agency_id":"70006","route_short_name":"64","route_long_name":"Lucas-Hunt","route_type":3,"route_color":"#FFFFFF","route_text_color":"#000000"}],"agency_name":"Metro St. Louis"},"geometry":{"type":"Point","coordinates":[-90.29922,38.68273]}},{"type":"Feature","properties":{"stop_id":"14465","stop_code":"14465","stop_name":"13TH STREET @ CASS NB","stop_desc":"FAR SIDE 13TH STREET @ CASS NB","wheelchair_boarding":2,"routes":[{"route_id":"19603","agency_id":"70006","route_short_name":"19","route_long_name":"St Louis Ave","route_type":3,"route_color":"#FFFFFF","route_text_color":"#000000"}],"agency_name":"Metro St. Louis"},"geometry":{"type":"Point","coordinates":[-90.19385,38.64151]}},{"type":"Feature","properties":{"stop_id":"16387","stop_code":"16387","stop_name":"13TH STREET @TUCKER NB","stop_desc":"FAR SIDE 13TH STREET @TUCKER NB","wheelchair_boarding":2,"routes":[{"route_id":"19603","agency_id":"70006","route_short_name":"19","route_long_name":"St Louis Ave","route_type":3,"route_color":"#FFFFFF","route_text_color":"#000000"}],"agency_name":"Metro St. Louis"},"geometry":{"type":"Point","coordinates":[-90.19445,38.63904]}},{"type":"Feature","properties":{"stop_id":"1650","stop_code":"1650","stop_name":"TUCKER @ CLARK NB","stop_desc":"NEAR SIDE TUCKER @ CLARK NB","wheelchair_boarding":1,"routes":[{"route_id":"19603","agency_id":"70006","route_short_name":"19","route_long_name":"St Louis Ave","route_type":3,"route_color":"#FFFFFF","route_text_color":"#000000"}],"agency_name":"Metro St. Louis"},"geometry":{"type":"Point","coordinates":[-90.19909,38.625]}},{"type":"Feature","properties":{"stop_id":"1652","stop_code":"1652","stop_name":"TUCKER @ PINE NB","stop_desc":"FAR SIDE TUCKER @ PINE NB","wheelchair_boarding":1,"routes":[{"route_id":"19603","agency_id":"70006","route_short_name":"19","route_long_name":"St Louis Ave","route_type":3,"route_color":"#FFFFFF","route_text_color":"#000000"}],"agency_name":"Metro St. Louis"},"geometry":{"type":"Point","coordinates":[-90.19752,38.62922]}},{"type":"Feature","properties":{"stop_id":"1656","stop_code":"1656","stop_name":"TUCKER @ COLE NB","stop_desc":"FAR SIDE TUCKER @ COLE NB","wheelchair_boarding":1,"routes":[{"route_id":"19603","agency_id":"70006","route_short_name":"19","route_long_name":"St Louis Ave","route_type":3,"route_color":"#FFFFFF","route_text_color":"#000000"}],"agency_name":"Metro St. Louis"},"geometry":{"type":"Point","coordinates":[-90.19516,38.63596]}},{"type":"Feature","properties":{"stop_id":"1662","stop_code":"1662","stop_name":"TUCKER @ MARKET NB","stop_desc":"NEAR SIDE TUCKER @ MARKET NB","wheelchair_boarding":1,"routes":[{"route_id":"19603","agency_id":"70006","route_short_name":"19","route_long_name":"St Louis Ave","route_type":3,"route_color":"#FFFFFF","route_text_color":"#000000"}],"agency_name":"Metro St. Louis"},"geometry":{"type":"Point","coordinates":[-90.19827,38.6273]}},{"type":"Feature","properties":{"stop_id":"6233","stop_code":"6233","stop_name":"ST. LOUIS @ 23RD STREET WB","stop_desc":"FAR SIDE ST. LOUIS @ 23RD STREET WB","wheelchair_boarding":1,"routes":[{"route_id":"19603","agency_id":"70006","route_short_name":"19","route_long_name":"St Louis Ave","route_type":3,"route_color":"#FFFFFF","route_text_color":"#000000"},{"route_id":"19612","agency_id":"70006","route_short_name":"41","route_long_name":"Lee","route_type":3,"route_color":"#FFFFFF","route_text_color":"#000000"}],"agency_name":"Metro St. Louis"},"geometry":{"type":"Point","coordinates":[-90.20737,38.65228]}},{"type":"Feature","properties":{"stop_id":"7213","stop_code":"7213","stop_name":"GOODFELLOW @ THEODOSIA SB","stop_desc":"NEAR SIDE GOODFELLOW @ THEODOSIA SB","wheelchair_boarding":2,"routes":[{"route_id":"19603","agency_id":"70006","route_short_name":"19","route_long_name":"St Louis Ave","route_type":3,"route_color":"#FFFFFF","route_text_color":"#000000"},{"route_id":"19629","agency_id":"70006","route_short_name":"90","route_long_name":"Hampton","route_type":3,"route_color":"#FFFFFF","route_text_color":"#000000"}],"agency_name":"Metro St. Louis"},"geometry":{"type":"Point","coordinates":[-90.27877,38.67299]}},{"type":"Feature","properties":{"stop_id":"7372","stop_code":"7372","stop_name":"ST. LOUIS @ GRAND WB","stop_desc":"NEAR SIDE ST. LOUIS @ GRAND WB","wheelchair_boarding":1,"routes":[{"route_id":"19603","agency_id":"70006","route_short_name":"19","route_long_name":"St Louis Ave","route_type":3,"route_color":"#FFFFFF","route_text_color":"#000000"}],"agency_name":"Metro St. Louis"},"geometry":{"type":"Point","coordinates":[-90.22083,38.65501]}},{"type":"Feature","properties":{"stop_id":"7374","stop_code":"7374","stop_name":"ST. LOUIS @ PRAIRIE WB","stop_desc":"NEAR SIDE ST. LOUIS @ PRAIRIE WB","wheelchair_boarding":2,"routes":[{"route_id":"19603","agency_id":"70006","route_short_name":"19","route_long_name":"St Louis Ave","route_type":3,"route_color":"#FFFFFF","route_text_color":"#000000"}],"agency_name":"Metro St. Louis"},"geometry":{"type":"Point","coordinates":[-90.22412,38.65699]}},{"type":"Feature","properties":{"stop_id":"7375","stop_code":"7375","stop_name":"ST. LOUIS @ VANDEVENTER WB","stop_desc":"NEAR SIDE ST. LOUIS @ VANDEVENTER WB","wheelchair_boarding":2,"routes":[{"route_id":"19603","agency_id":"70006","route_short_name":"19","route_long_name":"St Louis Ave","route_type":3,"route_color":"#FFFFFF","route_text_color":"#000000"}],"agency_name":"Metro St. Louis"},"geometry":{"type":"Point","coordinates":[-90.22625,38.65809]}},{"type":"Feature","properties":{"stop_id":"7376","stop_code":"7376","stop_name":"ST. LOUIS @ BISHOP PL SCOTT WB","stop_desc":"NEAR SIDE ST. LOUIS @ BISHOP PL SCOTT WB","wheelchair_boarding":1,"routes":[{"route_id":"19603","agency_id":"70006","route_short_name":"19","route_long_name":"St Louis Ave","route_type":3,"route_color":"#FFFFFF","route_text_color":"#000000"}],"agency_name":"Metro St. Louis"},"geometry":{"type":"Point","coordinates":[-90.22867,38.65914]}},{"type":"Feature","properties":{"stop_id":"7377","stop_code":"7377","stop_name":"ST. LOUIS @ SARAH WB","stop_desc":"NEAR SIDE ST. LOUIS @ SARAH WB","wheelchair_boarding":1,"routes":[{"route_id":"19603","agency_id":"70006","route_short_name":"19","route_long_name":"St Louis Ave","route_type":3,"route_color":"#FFFFFF","route_text_color":"#000000"}],"agency_name":"Metro St. Louis"},"geometry":{"type":"Point","coordinates":[-90.23106,38.66017]}},{"type":"Feature","properties":{"stop_id":"7378","stop_code":"7378","stop_name":"ST. LOUIS @ WHITTIER WB","stop_desc":"FAR SIDE ST. LOUIS @ WHITTIER WB","wheelchair_boarding":2,"routes":[{"route_id":"19603","agency_id":"70006","route_short_name":"19","route_long_name":"St Louis Ave","route_type":3,"route_color":"#FFFFFF","route_text_color":"#000000"}],"agency_name":"Metro St. Louis"},"geometry":{"type":"Point","coordinates":[-90.23324,38.66115]}},{"type":"Feature","properties":{"stop_id":"7379","stop_code":"7379","stop_name":"ST. LOUIS @ LAMBDIN WB","stop_desc":"FAR SIDE ST. LOUIS @ LAMBDIN WB","wheelchair_boarding":2,"routes":[{"route_id":"19603","agency_id":"70006","route_short_name":"19","route_long_name":"St Louis Ave","route_type":3,"route_color":"#FFFFFF","route_text_color":"#000000"}],"agency_name":"Metro St. Louis"},"geometry":{"type":"Point","coordinates":[-90.23649,38.6625]}},{"type":"Feature","properties":{"stop_id":"7381","stop_code":"7381","stop_name":"ST. LOUIS @ NEWSTEAD WB","stop_desc":"FAR SIDE ST. LOUIS @ NEWSTEAD WB","wheelchair_boarding":2,"routes":[{"route_id":"19603","agency_id":"70006","route_short_name":"19","route_long_name":"St Louis Ave","route_type":3,"route_color":"#FFFFFF","route_text_color":"#000000"}],"agency_name":"Metro St. Louis"},"geometry":{"type":"Point","coordinates":[-90.24089,38.66441]}},{"type":"Feature","properties":{"stop_id":"7383","stop_code":"7383","stop_name":"ST. LOUIS @ TAYLOR WB","stop_desc":"NEAR SIDE ST. LOUIS @ TAYLOR WB","wheelchair_boarding":1,"routes":[{"route_id":"19603","agency_id":"70006","route_short_name":"19","route_long_name":"St Louis Ave","route_type":3,"route_color":"#FFFFFF","route_text_color":"#000000"}],"agency_name":"Metro St. Louis"},"geometry":{"type":"Point","coordinates":[-90.24265,38.6652]}},{"type":"Feature","properties":{"stop_id":"7384","stop_code":"7384","stop_name":"ST. LOUIS @ CORA WB","stop_desc":"NEAR SIDE ST. LOUIS @ CORA WB","wheelchair_boarding":2,"routes":[{"route_id":"19603","agency_id":"70006","route_short_name":"19","route_long_name":"St Louis Ave","route_type":3,"route_color":"#FFFFFF","route_text_color":"#000000"}],"agency_name":"Metro St. Louis"},"geometry":{"type":"Point","coordinates":[-90.24626,38.66678]}},{"type":"Feature","properties":{"stop_id":"7385","stop_code":"7385","stop_name":"ST. LOUIS @ MARCUS WB","stop_desc":"NEAR SIDE ST. LOUIS @ MARCUS WB","wheelchair_boarding":2,"routes":[{"route_id":"19603","agency_id":"70006","route_short_name":"19","route_long_name":"St Louis Ave","route_type":3,"route_color":"#FFFFFF","route_text_color":"#000000"}],"agency_name":"Metro St. Louis"},"geometry":{"type":"Point","coordinates":[-90.24794,38.6675]}},{"type":"Feature","properties":{"stop_id":"7387","stop_code":"7387","stop_name":"4829 ST. LOUIS WB","stop_desc":"MID-BLOCK 4829 ST. LOUIS WB","wheelchair_boarding":2,"routes":[{"route_id":"19603","agency_id":"70006","route_short_name":"19","route_long_name":"St Louis Ave","route_type":3,"route_color":"#FFFFFF","route_text_color":"#000000"}],"agency_name":"Metro St. Louis"},"geometry":{"type":"Point","coordinates":[-90.25143,38.66903]}},{"type":"Feature","properties":{"stop_id":"7388","stop_code":"7388","stop_name":"ST. LOUIS @ EUCLID WB","stop_desc":"NEAR SIDE ST. LOUIS @ EUCLID WB","wheelchair_boarding":2,"routes":[{"route_id":"19603","agency_id":"70006","route_short_name":"19","route_long_name":"St Louis Ave","route_type":3,"route_color":"#FFFFFF","route_text_color":"#000000"}],"agency_name":"Metro St. Louis"},"geometry":{"type":"Point","coordinates":[-90.25322,38.67059]}},{"type":"Feature","properties":{"stop_id":"7389","stop_code":"7389","stop_name":"ST. LOUIS @ KINGSHIGHWAY WB","stop_desc":"NEAR SIDE ST. LOUIS @ KINGSHIGHWAY WB","wheelchair_boarding":2,"routes":[{"route_id":"19603","agency_id":"70006","route_short_name":"19","route_long_name":"St Louis Ave","route_type":3,"route_color":"#FFFFFF","route_text_color":"#000000"}],"agency_name":"Metro St. Louis"},"geometry":{"type":"Point","coordinates":[-90.25489,38.67133]}},{"type":"Feature","properties":{"stop_id":"7391","stop_code":"7391","stop_name":"ST. LOUIS @ NORWOOD WB","stop_desc":"FAR SIDE ST. LOUIS @ NORWOOD WB","wheelchair_boarding":2,"routes":[{"route_id":"19603","agency_id":"70006","route_short_name":"19","route_long_name":"St Louis Ave","route_type":3,"route_color":"#FFFFFF","route_text_color":"#000000"}],"agency_name":"Metro St. Louis"},"geometry":{"type":"Point","coordinates":[-90.25994,38.67356]}},{"type":"Feature","properties":{"stop_id":"7392","stop_code":"7392","stop_name":"ST. LOUIS @ UNION WB","stop_desc":"NEAR SIDE ST. LOUIS @ UNION WB","wheelchair_boarding":1,"routes":[{"route_id":"19603","agency_id":"70006","route_short_name":"19","route_long_name":"St Louis Ave","route_type":3,"route_color":"#FFFFFF","route_text_color":"#000000"}],"agency_name":"Metro St. Louis"},"geometry":{"type":"Point","coordinates":[-90.26135,38.67418]}},{"type":"Feature","properties":{"stop_id":"7394","stop_code":"7394","stop_name":"ST. LOUIS @ ARLINGTON WB","stop_desc":"NEAR SIDE ST. LOUIS @ ARLINGTON WB","wheelchair_boarding":2,"routes":[{"route_id":"19603","agency_id":"70006","route_short_name":"19","route_long_name":"St Louis Ave","route_type":3,"route_color":"#FFFFFF","route_text_color":"#000000"}],"agency_name":"Metro St. Louis"},"geometry":{"type":"Point","coordinates":[-90.26454,38.67558]}},{"type":"Feature","properties":{"stop_id":"7396","stop_code":"7396","stop_name":"ST. LOUIS @ BELT WB","stop_desc":"NEAR SIDE ST. LOUIS @ BELT WB","wheelchair_boarding":2,"routes":[{"route_id":"19603","agency_id":"70006","route_short_name":"19","route_long_name":"St Louis Ave","route_type":3,"route_color":"#FFFFFF","route_text_color":"#000000"}],"agency_name":"Metro St. Louis"},"geometry":{"type":"Point","coordinates":[-90.26702,38.67668]}},{"type":"Feature","properties":{"stop_id":"7398","stop_code":"7398","stop_name":"ST. LOUIS @ CLARA WB","stop_desc":"NEAR SIDE ST. LOUIS @ CLARA WB","wheelchair_boarding":1,"routes":[{"route_id":"19603","agency_id":"70006","route_short_name":"19","route_long_name":"St Louis Ave","route_type":3,"route_color":"#FFFFFF","route_text_color":"#000000"}],"agency_name":"Metro St. Louis"},"geometry":{"type":"Point","coordinates":[-90.26957,38.6782]}},{"type":"Feature","properties":{"stop_id":"7400","stop_code":"7400","stop_name":"GOODFELLOW @ ST. LOUIS SB","stop_desc":"FAR SIDE GOODFELLOW @ ST. LOUIS SB","wheelchair_boarding":1,"routes":[{"route_id":"19603","agency_id":"70006","route_short_name":"19","route_long_name":"St Louis Ave","route_type":3,"route_color":"#FFFFFF","route_text_color":"#000000"},{"route_id":"19629","agency_id":"70006","route_short_name":"90","route_long_name":"Hampton","route_type":3,"route_color":"#FFFFFF","route_text_color":"#000000"}],"agency_name":"Metro St. Louis"},"geometry":{"type":"Point","coordinates":[-90.27432,38.67963]}},{"type":"Feature","properties":{"stop_id":"7401","stop_code":"7401","stop_name":"GOODFELLOW @ TERRY SB","stop_desc":"NEAR SIDE GOODFELLOW @ TERRY SB","wheelchair_boarding":2,"routes":[{"route_id":"19603","agency_id":"70006","route_short_name":"19","route_long_name":"St Louis Ave","route_type":3,"route_color":"#FFFFFF","route_text_color":"#000000"},{"route_id":"19629","agency_id":"70006","route_short_name":"90","route_long_name":"Hampton","route_type":3,"route_color":"#FFFFFF","route_text_color":"#000000"}],"agency_name":"Metro St. Louis"},"geometry":{"type":"Point","coordinates":[-90.27502,38.67861]}},{"type":"Feature","properties":{"stop_id":"7402","stop_code":"7402","stop_name":"GOODFELLOW @ KENNERLY SB","stop_desc":"NEAR SIDE GOODFELLOW @ KENNERLY SB","wheelchair_boarding":1,"routes":[{"route_id":"19603","agency_id":"70006","route_short_name":"19","route_long_name":"St Louis Ave","route_type":3,"route_color":"#FFFFFF","route_text_color":"#000000"},{"route_id":"19629","agency_id":"70006","route_short_name":"90","route_long_name":"Hampton","route_type":3,"route_color":"#FFFFFF","route_text_color":"#000000"}],"agency_name":"Metro St. Louis"},"geometry":{"type":"Point","coordinates":[-90.27618,38.67691]}},{"type":"Feature","properties":{"stop_id":"7403","stop_code":"7403","stop_name":"GOODFELLOW @ HIGHLAND SB","stop_desc":"NEAR SIDE GOODFELLOW @ HIGHLAND SB","wheelchair_boarding":1,"routes":[{"route_id":"19603","agency_id":"70006","route_short_name":"19","route_long_name":"St Louis Ave","route_type":3,"route_color":"#FFFFFF","route_text_color":"#000000"},{"route_id":"19629","agency_id":"70006","route_short_name":"90","route_long_name":"Hampton","route_type":3,"route_color":"#FFFFFF","route_text_color":"#000000"}],"agency_name":"Metro St. Louis"},"geometry":{"type":"Point","coordinates":[-90.27671,38.67607]}},{"type":"Feature","properties":{"stop_id":"7404","stop_code":"7404","stop_name":"GOODFELLOW @ WABADA SB","stop_desc":"FAR SIDE GOODFELLOW @ WABADA SB","wheelchair_boarding":2,"routes":[{"route_id":"19603","agency_id":"70006","route_short_name":"19","route_long_name":"St Louis Ave","route_type":3,"route_color":"#FFFFFF","route_text_color":"#000000"},{"route_id":"19629","agency_id":"70006","route_short_name":"90","route_long_name":"Hampton","route_type":3,"route_color":"#FFFFFF","route_text_color":"#000000"}],"agency_name":"Metro St. Louis"},"geometry":{"type":"Point","coordinates":[-90.27742,38.67506]}},{"type":"Feature","properties":{"stop_id":"7408","stop_code":"7408","stop_name":"DR ML KING @ HAMILTON WB","stop_desc":"NEAR SIDE DR ML KING @ HAMILTON WB","wheelchair_boarding":1,"routes":[{"route_id":"19603","agency_id":"70006","route_short_name":"19","route_long_name":"St Louis Ave","route_type":3,"route_color":"#FFFFFF","route_text_color":"#000000"},{"route_id":"19607","agency_id":"70006","route_short_name":"32","route_long_name":"Dr ML King","route_type":3,"route_color":"#FFFFFF","route_text_color":"#000000"}],"agency_name":"Metro St. Louis"},"geometry":{"type":"Point","coordinates":[-90.2829,38.674]}},{"type":"Feature","properties":{"stop_id":"7424","stop_code":"7424","stop_name":"ROCK ROAD TRANSIT CENTER","wheelchair_boarding":1,"routes":[{"route_id":"19593","agency_id":"70006","route_short_name":"2","route_long_name":"Red","route_type":3,"route_color":"#FFFFFF","route_text_color":"#000000"},{"route_id":"19603","agency_id":"70006","route_short_name":"19","route_long_name":"St Louis Ave","route_type":3,"route_color":"#FFFFFF","route_text_color":"#000000"},{"route_id":"19607","agency_id":"70006","route_short_name":"32","route_long_name":"Dr ML King","route_type":3,"route_color":"#FFFFFF","route_text_color":"#000000"},{"route_id":"19610","agency_id":"70006","route_short_name":"35","route_long_name":"Rock Road","route_type":3,"route_color":"#FFFFFF","route_text_color":"#000000"},{"route_id":"19621","agency_id":"70006","route_short_name":"64","route_long_name":"Lucas-Hunt","route_type":3,"route_color":"#FFFFFF","route_text_color":"#000000"}],"agency_name":"Metro St. Louis"},"geometry":{"type":"Point","coordinates":[-90.30164,38.68516]}},{"type":"Feature","properties":{"stop_id":"7653","stop_code":"7653","stop_name":"CIVIC CENTER TRANSIT CENTER","wheelchair_boarding":1,"routes":[{"route_id":"19594","agency_id":"70006","route_short_name":"4","route_long_name":"Natural Bridge","route_type":3,"route_color":"#FFFFFF","route_text_color":"#000000"},{"route_id":"19598","agency_id":"70006","route_short_name":"10","route_long_name":"Gravois-Lindell","route_type":3,"route_color":"#FFFFFF","route_text_color":"#000000"},{"route_id":"19599","agency_id":"70006","route_short_name":"11","route_long_name":"Chippewa","route_type":3,"route_color":"#FFFFFF","route_text_color":"#000000"},{"route_id":"19603","agency_id":"70006","route_short_name":"19","route_long_name":"St Louis Ave","route_type":3,"route_color":"#FFFFFF","route_text_color":"#000000"}],"agency_name":"Metro St. Louis"},"geometry":{"type":"Point","coordinates":[-90.20281,38.62428]}},{"type":"Feature","properties":{"stop_id":"7853","stop_code":"7853","stop_name":"SPRUCE @ 14TH STREET EB","stop_desc":"FAR SIDE SPRUCE @ 14TH STREET EB","wheelchair_boarding":1,"routes":[{"route_id":"19603","agency_id":"70006","route_short_name":"19","route_long_name":"St Louis Ave","route_type":3,"route_color":"#FFFFFF","route_text_color":"#000000"}],"agency_name":"Metro St. Louis"},"geometry":{"type":"Point","coordinates":[-90.2017,38.62478]}},{"type":"Feature","properties":{"stop_id":"7897","stop_code":"7897","stop_name":"13TH STREET @ ST. LOUIS NB","stop_desc":"NEAR SIDE 13TH STREET @ ST. LOUIS NB","wheelchair_boarding":1,"routes":[{"route_id":"19603","agency_id":"70006","route_short_name":"19","route_long_name":"St Louis Ave","route_type":3,"route_color":"#FFFFFF","route_text_color":"#000000"}],"agency_name":"Metro St. Louis"},"geometry":{"type":"Point","coordinates":[-90.19642,38.65152]}},{"type":"Feature","properties":{"stop_id":"7899","stop_code":"7899","stop_name":"ST. LOUIS @ BLAIR WB","stop_desc":"FAR SIDE ST. LOUIS @ BLAIR WB","wheelchair_boarding":2,"routes":[{"route_id":"19603","agency_id":"70006","route_short_name":"19","route_long_name":"St Louis Ave","route_type":3,"route_color":"#FFFFFF","route_text_color":"#000000"}],"agency_name":"Metro St. Louis"},"geometry":{"type":"Point","coordinates":[-90.19907,38.65091]}},{"type":"Feature","properties":{"stop_id":"7900","stop_code":"7900","stop_name":"ST. LOUIS @ NORTH FLORISSANT WB","stop_desc":"FAR SIDE ST. LOUIS @ NORTH FLORISSANT WB","wheelchair_boarding":1,"routes":[{"route_id":"19603","agency_id":"70006","route_short_name":"19","route_long_name":"St Louis Ave","route_type":3,"route_color":"#FFFFFF","route_text_color":"#000000"}],"agency_name":"Metro St. Louis"},"geometry":{"type":"Point","coordinates":[-90.20047,38.65082]}},{"type":"Feature","properties":{"stop_id":"7901","stop_code":"7901","stop_name":"ST. LOUIS @ 21ST STREET WB","stop_desc":"FAR SIDE ST. LOUIS @ 21ST STREET WB","wheelchair_boarding":2,"routes":[{"route_id":"19603","agency_id":"70006","route_short_name":"19","route_long_name":"St Louis Ave","route_type":3,"route_color":"#FFFFFF","route_text_color":"#000000"},{"route_id":"19612","agency_id":"70006","route_short_name":"41","route_long_name":"Lee","route_type":3,"route_color":"#FFFFFF","route_text_color":"#000000"}],"agency_name":"Metro St. Louis"},"geometry":{"type":"Point","coordinates":[-90.20372,38.65153]}},{"type":"Feature","properties":{"stop_id":"7904","stop_code":"7904","stop_name":"ST. LOUIS @ PARNELL WB","stop_desc":"NEAR SIDE ST. LOUIS @ PARNELL WB","wheelchair_boarding":1,"routes":[{"route_id":"19603","agency_id":"70006","route_short_name":"19","route_long_name":"St Louis Ave","route_type":3,"route_color":"#FFFFFF","route_text_color":"#000000"}],"agency_name":"Metro St. Louis"},"geometry":{"type":"Point","coordinates":[-90.21043,38.65291]}},{"type":"Feature","properties":{"stop_id":"7907","stop_code":"7907","stop_name":"ST. LOUIS @ BALDWIN WB","stop_desc":"NEAR SIDE ST. LOUIS @ BALDWIN WB","wheelchair_boarding":2,"routes":[{"route_id":"19603","agency_id":"70006","route_short_name":"19","route_long_name":"St Louis Ave","route_type":3,"route_color":"#FFFFFF","route_text_color":"#000000"}],"agency_name":"Metro St. Louis"},"geometry":{"type":"Point","coordinates":[-90.21651,38.65338]}},{"type":"Feature","properties":{"stop_id":"8385","stop_code":"8385","stop_name":"DR ML KING @ KIENLEN WB","stop_desc":"NEAR SIDE DR ML KING @ KIENLEN WB","wheelchair_boarding":1,"routes":[{"route_id":"19603","agency_id":"70006","route_short_name":"19","route_long_name":"St Louis Ave","route_type":3,"route_color":"#FFFFFF","route_text_color":"#000000"},{"route_id":"19607","agency_id":"70006","route_short_name":"32","route_long_name":"Dr ML King","route_type":3,"route_color":"#FFFFFF","route_text_color":"#000000"}],"agency_name":"Metro St. Louis"},"geometry":{"type":"Point","coordinates":[-90.28674,38.67609]}},{"type":"Feature","properties":{"stop_id":"9913","stop_code":"9913","stop_name":"SPRUCE @ 13TH STREET EB","stop_desc":"FAR SIDE SPRUCE @ 13TH STREET EB","wheelchair_boarding":1,"routes":[{"route_id":"19603","agency_id":"70006","route_short_name":"19","route_long_name":"St Louis Ave","route_type":3,"route_color":"#FFFFFF","route_text_color":"#000000"}],"agency_name":"Metro St. Louis"},"geometry":{"type":"Point","coordinates":[-90.20052,38.62449]}}]}