{"type":"FeatureCollection","features":[{"type":"Feature","properties":{"agency_name":"Metro St. Louis","route_id":"19630","agency_id":"70006","route_short_name":"91","route_long_name":"Olive","route_type":3,"route_color":"#FFFFFF","route_text_color":"#000000"},"geometry":{"type":"MultiLineString","coordinates":[[[-90.49719,38.68018],[-90.4977,38.68011],[-90.49657,38.68027],[-90.49606,38.68036],[-90.49504,38.6806],[-90.49431,38.68084],[-90.4921,38.68163],[-90.49165,38.68176],[-90.49121,38.68186],[-90.49072,38.68197],[-90.49018,38.68206],[-90.48894,38.68219],[-90.48761,38.68227],[-90.48661,38.68235],[-90.48255,38.68271],[-90.48224,38.68272],[-90.48178,38.68271],[-90.48134,38.68267],[-90.48051,38.68254],[-90.48015,38.68245],[-90.47988,38.68236],[-90.47791,38.68152],[-90.47697,38.68119],[-90.47598,38.68093],[-90.47517,38.68074],[-90.47372,38.68043],[-90.4734,38.68032],[-90.46993,38.67864],[-90.4688,38.67818],[-90.46597,38.67695],[-90.46211,38.6753],[-90.46091,38.67477],[-90.45908,38.67401],[-90.45879,38.67392],[-90.45845,38.67385],[-90.45077,38.67249],[-90.44717,38.6717],[-90.44454,38.67093],[-90.44402,38.6708],[-90.44325,38.67063],[-90.44224,38.67048],[-90.44182,38.67044],[-90.44153,38.67045],[-90.44102,38.67052],[-90.43735,38.67128],[-90.43675,38.67136],[-90.43618,38.67136],[-90.43542,38.67131],[-90.43463,38.67123],[-90.43412,38.6712],[-90.43095,38.6712],[-90.43052,38.67124],[-90.43015,38.67132],[-90.42961,38.67153],[-90.42567,38.67332],[-90.42517,38.67352],[-90.42498,38.67358],[-90.42474,38.67363],[-90.4243,38.67367],[-90.42354,38.67365],[-90.42291,38.6736],[-90.42264,38.67356],[-90.42014,38.67298],[-90.41995,38.67294],[-90.41962,38.67291],[-90.41936,38.67291],[-90.41894,38.67295],[-90.41825,38.6731],[-90.41772,38.67317],[-90.41733,38.6732],[-90.41353,38.67328],[-90.41305,38.67322],[-90.41271,38.67321],[-90.41137,38.67322],[-90.41026,38.67319],[-90.40705,38.67316],[-90.39985,38.67305],[-90.3984,38.67299],[-90.39718,38.6729],[-90.3953,38.67272],[-90.39502,38.6727],[-90.39482,38.67271],[-90.39468,38.6727],[-90.39424,38.67263],[-90.39361,38.67256],[-90.39334,38.67255],[-90.39198,38.67263],[-90.39135,38.6727],[-90.39101,38.67277],[-90.38661,38.67386],[-90.3859,38.67402],[-90.38544,38.67408],[-90.38482,38.6741],[-90.37523,38.67412],[-90.37241,38.67409],[-90.36893,38.67409],[-90.36446,38.67411],[-90.36248,38.67409],[-90.36185,38.6741],[-90.35771,38.67409],[-90.35505,38.67405],[-90.34725,38.67354],[-90.34545,38.67334],[-90.33743,38.67234],[-90.33548,38.67211],[-90.33498,38.67207],[-90.33246,38.67176],[-90.3304,38.67145],[-90.32933,38.67135],[-90.32611,38.67116],[-90.32559,38.67111],[-90.32533,38.67107],[-90.3251,38.67101],[-90.32361,38.6705],[-90.32201,38.66991],[-90.32155,38.66967],[-90.32118,38.66944],[-90.32029,38.66869],[-90.31906,38.66773],[-90.31865,38.66745],[-90.31753,38.66672],[-90.31616,38.66586],[-90.31287,38.66385],[-90.31245,38.66364],[-90.31194,38.66349],[-90.31168,38.66344],[-90.30425,38.66271],[-90.30357,38.66262],[-90.30338,38.66257],[-90.30152,38.6619],[-90.2983,38.66078],[-90.29814,38.66057],[-90.29807,38.6604],[-90.29806,38.66033],[-90.29847,38.65941],[-90.29867,38.65903],[-90.29868,38.6589],[-90.299,38.65839],[-90.29926,38.6578],[-90.29941,38.65719],[-90.29949,38.65661],[-90.29772,38.65645],[-90.29703,38.65636],[-90.29673,38.65626],[-90.29654,38.65616],[-90.29636,38.65604],[-90.29615,38.65583],[-90.29582,38.65575],[-90.29533,38.65568],[-90.29512,38.65559],[-90.29503,38.65552]],[[-90.56466,38.66102],[-90.56427,38.66137],[-90.56629,38.65957],[-90.56662,38.65926],[-90.56758,38.65819],[-90.56768,38.65806],[-90.56783,38.65774],[-90.56798,38.65726],[-90.56809,38.65683],[-90.5688,38.65368],[-90.56918,38.6521],[-90.56953,38.65074],[-90.56959,38.65047],[-90.5696,38.65019],[-90.56958,38.64996],[-90.56954,38.64979],[-90.56944,38.64953],[-90.56935,38.64936],[-90.56914,38.64905],[-90.56882,38.64875],[-90.56864,38.64862],[-90.56842,38.64849],[-90.5681,38.64833],[-90.5679,38.64825],[-90.5677,38.64819],[-90.56724,38.6481],[-90.56535,38.64791],[-90.56447,38.64781],[-90.56404,38.64774],[-90.56346,38.64757],[-90.56277,38.6473],[-90.56175,38.64934],[-90.56117,38.6501],[-90.56096,38.65035],[-90.56042,38.6509],[-90.55884,38.65242],[-90.55743,38.65372],[-90.55684,38.65433],[-90.55623,38.65502],[-90.55585,38.6554],[-90.55549,38.65573],[-90.55513,38.65603],[-90.55412,38.65682],[-90.55403,38.65695],[-90.55292,38.65764],[-90.55246,38.65788],[-90.54849,38.65988],[-90.54335,38.6624],[-90.54276,38.66271],[-90.54247,38.66288],[-90.542,38.66321],[-90.54141,38.66367],[-90.53801,38.66639],[-90.53615,38.6679],[-90.53573,38.66828],[-90.53525,38.66877],[-90.53504,38.66901],[-90.53454,38.66967],[-90.53431,38.67004],[-90.53403,38.67058],[-90.5338,38.6711],[-90.53324,38.67301],[-90.53312,38.67329],[-90.53277,38.67385],[-90.53247,38.67419],[-90.53229,38.67436],[-90.532,38.6746],[-90.53171,38.6748],[-90.5311,38.67519],[-90.52936,38.67624],[-90.5291,38.67638],[-90.52852,38.67664],[-90.52821,38.67675],[-90.52775,38.67688],[-90.52376,38.67789],[-90.52303,38.67808],[-90.52262,38.67821],[-90.5222,38.67836],[-90.52137,38.6787],[-90.51686,38.68067],[-90.51627,38.68089],[-90.51602,38.68096],[-90.51584,38.68101],[-90.51525,38.68112],[-90.51448,38.68117],[-90.51418,38.68117],[-90.51288,38.68108],[-90.50989,38.68082],[-90.50882,38.68071],[-90.50791,38.68059],[-90.50271,38.67983],[-90.50227,38.67978],[-90.50163,38.67974],[-90.50131,38.67974],[-90.50082,38.67977],[-90.49802,38.68007]]]}},{"type":"Feature","properties":{"stop_id":"10092","stop_code":"10092","stop_name":"CLARKSON @ SOUTH OUTER FORTY NB","stop_desc":"NEAR SIDE CLARKSON @ SOUTH OUTER FORTY NB","wheelchair_boarding":2,"routes":[{"route_id":"19630","agency_id":"70006","route_short_name":"91","route_long_name":"Olive","route_type":3,"route_color":"#FFFFFF","route_text_color":"#000000"}],"agency_name":"Metro St. Louis"},"geometry":{"type":"Point","coordinates":[-90.56107,38.65013]}},{"type":"Feature","properties":{"stop_id":"14133","stop_code":"14133","stop_name":"SWINGLEY RIDGE @ CHESTERFIELD CITY HALL SB","stop_desc":"MID-BLOCK SWINGLEY RIDGE @ CHESTERFIELD CITY HALL SB","wheelchair_boarding":1,"routes":[{"route_id":"19630","agency_id":"70006","route_short_name":"91","route_long_name":"Olive","route_type":3,"route_color":"#FFFFFF","route_text_color":"#000000"}],"agency_name":"Metro St. Louis"},"geometry":{"type":"Point","coordinates":[-90.56556,38.66224]}},{"type":"Feature","properties":{"stop_id":"14830","stop_code":"14830","stop_name":"CHESTERFIELD PARKWAY @ BURKHARDT SB","stop_desc":"FAR SIDE CHESTERFIELD PARKWAY @ BURKHARDT SB","wheelchair_boarding":2,"routes":[{"route_id":"19630","agency_id":"70006","route_short_name":"91","route_long_name":"Olive","route_type":3,"route_color":"#FFFFFF","route_text_color":"#000000"}],"agency_name":"Metro St. Louis"},"geometry":{"type":"Point","coordinates":[-90.56897,38.65351]}},{"type":"Feature","properties":{"stop_id":"15015","stop_code":"15015","stop_name":"OLIVE @ SWINGLEY RIDGE EB","stop_desc":"FAR SIDE OLIVE @ SWINGLEY RIDGE EB","wheelchair_boarding":2,"routes":[{"route_id":"19630","agency_id":"70006","route_short_name":"91","route_long_name":"Olive","route_type":3,"route_color":"#FFFFFF","route_text_color":"#000000"}],"agency_name":"Metro St. Louis"},"geometry":{"type":"Point","coordinates":[-90.5548,38.65622]}},{"type":"Feature","properties":{"stop_id":"15049","stop_code":"15049","stop_name":"ENRIGHT @ ROSEDALE EB","stop_desc":"NEAR SIDE ENRIGHT @ ROSEDALE EB","wheelchair_boarding":1,"routes":[{"route_id":"19593","agency_id":"70006","route_short_name":"2","route_long_name":"Red","route_type":3,"route_color":"#FFFFFF","route_text_color":"#000000"},{"route_id":"19601","agency_id":"70006","route_short_name":"16","route_long_name":"City Limits","route_type":3,"route_color":"#FFFFFF","route_text_color":"#000000"},{"route_id":"19630","agency_id":"70006","route_short_name":"91","route_long_name":"Olive","route_type":3,"route_color":"#FFFFFF","route_text_color":"#000000"}],"agency_name":"Metro St. Louis"},"geometry":{"type":"Point","coordinates":[-90.29771,38.65643]}},{"type":"Feature","properties":{"stop_id":"15155","stop_code":"15155","stop_name":"OLIVE @ OLD OLIVE STREET EB","stop_desc":"FAR SIDE OLIVE @ OLD OLIVE STREET EB","wheelchair_boarding":2,"routes":[{"route_id":"19614","agency_id":"70006","route_short_name":"49","route_long_name":"Lindbergh","route_type":3,"route_color":"#FFFFFF","route_text_color":"#000000"},{"route_id":"19630","agency_id":"70006","route_short_name":"91","route_long_name":"Olive","route_type":3,"route_color":"#FFFFFF","route_text_color":"#000000"}],"agency_name":"Metro St. Louis"},"geometry":{"type":"Point","coordinates":[-90.41172,38.67316]}},{"type":"Feature","properties":{"stop_id":"15174","stop_code":"15174","stop_name":"OLIVE @ MIDLAND EB","stop_desc":"FAR SIDE OLIVE @ MIDLAND EB","wheelchair_boarding":1,"routes":[{"route_id":"19630","agency_id":"70006","route_short_name":"91","route_long_name":"Olive","route_type":3,"route_color":"#FFFFFF","route_text_color":"#000000"}],"agency_name":"Metro St. Louis"},"geometry":{"type":"Point","coordinates":[-90.32556,38.67106]}},{"type":"Feature","properties":{"stop_id":"15175","stop_code":"15175","stop_name":"OLIVE @ PENNSYLVANIA EB","stop_desc":"NEAR SIDE OLIVE @ PENNSYLVANIA EB","wheelchair_boarding":1,"routes":[{"route_id":"19630","agency_id":"70006","route_short_name":"91","route_long_name":"Olive","route_type":3,"route_color":"#FFFFFF","route_text_color":"#000000"}],"agency_name":"Metro St. Louis"},"geometry":{"type":"Point","coordinates":[-90.31656,38.66601]}},{"type":"Feature","properties":{"stop_id":"15176","stop_code":"15176","stop_name":"OLIVE @ FERGUSON EB","stop_desc":"NEAR SIDE OLIVE @ FERGUSON EB","wheelchair_boarding":1,"routes":[{"route_id":"19630","agency_id":"70006","route_short_name":"91","route_long_name":"Olive","route_type":3,"route_color":"#FFFFFF","route_text_color":"#000000"}],"agency_name":"Metro St. Louis"},"geometry":{"type":"Point","coordinates":[-90.31124,38.66332]}},{"type":"Feature","properties":{"stop_id":"15177","stop_code":"15177","stop_name":"OLIVE @ KINGSLAND EB","stop_desc":"FAR SIDE OLIVE @ KINGSLAND EB","wheelchair_boarding":2,"routes":[{"route_id":"19630","agency_id":"70006","route_short_name":"91","route_long_name":"Olive","route_type":3,"route_color":"#FFFFFF","route_text_color":"#000000"}],"agency_name":"Metro St. Louis"},"geometry":{"type":"Point","coordinates":[-90.30794,38.66304]}},{"type":"Feature","properties":{"stop_id":"15179","stop_code":"15179","stop_name":"OLIVE @ WESTGATE EB","stop_desc":"NEAR SIDE OLIVE @ WESTGATE EB","wheelchair_boarding":2,"routes":[{"route_id":"19630","agency_id":"70006","route_short_name":"91","route_long_name":"Olive","route_type":3,"route_color":"#FFFFFF","route_text_color":"#000000"}],"agency_name":"Metro St. Louis"},"geometry":{"type":"Point","coordinates":[-90.30363,38.66259]}},{"type":"Feature","properties":{"stop_id":"15180","stop_code":"15180","stop_name":"OLIVE @ PARK INDUSTRIAL EB","stop_desc":"NEAR SIDE OLIVE @ PARK INDUSTRIAL EB","wheelchair_boarding":2,"routes":[{"route_id":"19630","agency_id":"70006","route_short_name":"91","route_long_name":"Olive","route_type":3,"route_color":"#FFFFFF","route_text_color":"#000000"}],"agency_name":"Metro St. Louis"},"geometry":{"type":"Point","coordinates":[-90.30123,38.66175]}},{"type":"Feature","properties":{"stop_id":"15181","stop_code":"15181","stop_name":"OLIVE @ HAYS EB","stop_desc":"NEAR SIDE OLIVE @ HAYS EB","wheelchair_boarding":2,"routes":[{"route_id":"19630","agency_id":"70006","route_short_name":"91","route_long_name":"Olive","route_type":3,"route_color":"#FFFFFF","route_text_color":"#000000"}],"agency_name":"Metro St. Louis"},"geometry":{"type":"Point","coordinates":[-90.29978,38.66123]}},{"type":"Feature","properties":{"stop_id":"15182","stop_code":"15182","stop_name":"SKINKER @ VERNON SB","stop_desc":"NEAR SIDE SKINKER @ VERNON SB","wheelchair_boarding":1,"routes":[{"route_id":"19601","agency_id":"70006","route_short_name":"16","route_long_name":"City Limits","route_type":3,"route_color":"#FFFFFF","route_text_color":"#000000"},{"route_id":"19630","agency_id":"70006","route_short_name":"91","route_long_name":"Olive","route_type":3,"route_color":"#FFFFFF","route_text_color":"#000000"}],"agency_name":"Metro St. Louis"},"geometry":{"type":"Point","coordinates":[-90.29886,38.65874]}},{"type":"Feature","properties":{"stop_id":"16100","stop_code":"16100","stop_name":"OLIVE @ MONTERRA EB","stop_desc":"FAR SIDE OLIVE @ MONTERRA EB","wheelchair_boarding":2,"routes":[{"route_id":"19630","agency_id":"70006","route_short_name":"91","route_long_name":"Olive","route_type":3,"route_color":"#FFFFFF","route_text_color":"#000000"}],"agency_name":"Metro St. Louis"},"geometry":{"type":"Point","coordinates":[-90.53069,38.67539]}},{"type":"Feature","properties":{"stop_id":"16101","stop_code":"16101","stop_name":"OLIVE @ CHESTERFIELD POINTE PARKWAY EB","stop_desc":"NEAR SIDE OLIVE @ CHESTERFIELD POINTE PARKWAY EB","wheelchair_boarding":1,"routes":[{"route_id":"19630","agency_id":"70006","route_short_name":"91","route_long_name":"Olive","route_type":3,"route_color":"#FFFFFF","route_text_color":"#000000"}],"agency_name":"Metro St. Louis"},"geometry":{"type":"Point","coordinates":[-90.54553,38.66126]}},{"type":"Feature","properties":{"stop_id":"16102","stop_code":"16102","stop_name":"OLIVE @ CAZADO EB","stop_desc":"NEAR SIDE OLIVE @ CAZADO EB","wheelchair_boarding":2,"routes":[{"route_id":"19630","agency_id":"70006","route_short_name":"91","route_long_name":"Olive","route_type":3,"route_color":"#FFFFFF","route_text_color":"#000000"}],"agency_name":"Metro St. Louis"},"geometry":{"type":"Point","coordinates":[-90.52739,38.67694]}},{"type":"Feature","properties":{"stop_id":"16103","stop_code":"16103","stop_name":"OLIVE @ STABLESTONE EB","stop_desc":"FAR SIDE OLIVE @ STABLESTONE EB","wheelchair_boarding":2,"routes":[{"route_id":"19630","agency_id":"70006","route_short_name":"91","route_long_name":"Olive","route_type":3,"route_color":"#FFFFFF","route_text_color":"#000000"}],"agency_name":"Metro St. Louis"},"geometry":{"type":"Point","coordinates":[-90.52028,38.67912]}},{"type":"Feature","properties":{"stop_id":"16143","stop_code":"16143","stop_name":"6950 OLIVE EB","stop_desc":"MID-BLOCK 6950 OLIVE EB","wheelchair_boarding":1,"routes":[{"route_id":"19593","agency_id":"70006","route_short_name":"2","route_long_name":"Red","route_type":3,"route_color":"#FFFFFF","route_text_color":"#000000"},{"route_id":"19630","agency_id":"70006","route_short_name":"91","route_long_name":"Olive","route_type":3,"route_color":"#FFFFFF","route_text_color":"#000000"}],"agency_name":"Metro St. Louis"},"geometry":{"type":"Point","coordinates":[-90.31405,38.6645]}},{"type":"Feature","properties":{"stop_id":"16156","stop_code":"16156","stop_name":"OLIVE @ EAGLE MANOR EB","stop_desc":"NEAR SIDE OLIVE @ EAGLE MANOR EB","wheelchair_boarding":2,"routes":[{"route_id":"19630","agency_id":"70006","route_short_name":"91","route_long_name":"Olive","route_type":3,"route_color":"#FFFFFF","route_text_color":"#000000"}],"agency_name":"Metro St. Louis"},"geometry":{"type":"Point","coordinates":[-90.51684,38.68057]}},{"type":"Feature","properties":{"stop_id":"2097","stop_code":"2097","stop_name":"DELMAR LOOP TRANSIT CENTER EB","wheelchair_boarding":1,"routes":[{"route_id":"19593","agency_id":"70006","route_short_name":"2","route_long_name":"Red","route_type":3,"route_color":"#FFFFFF","route_text_color":"#000000"},{"route_id":"19601","agency_id":"70006","route_short_name":"16","route_long_name":"City Limits","route_type":3,"route_color":"#FFFFFF","route_text_color":"#000000"},{"route_id":"19630","agency_id":"70006","route_short_name":"91","route_long_name":"Olive","route_type":3,"route_color":"#FFFFFF","route_text_color":"#000000"},{"route_id":"19633","agency_id":"70006","route_short_name":"97","route_long_name":"Delmar","route_type":3,"route_color":"#FFFFFF","route_text_color":"#000000"}],"agency_name":"Metro St. Louis"},"geometry":{"type":"Point","coordinates":[-90.29527,38.65562]}},{"type":"Feature","properties":{"stop_id":"3072","stop_code":"3072","stop_name":"CHESTERFIELD PARKWAY @ FONTAINE EB","stop_desc":"NEAR SIDE CHESTERFIELD PARKWAY @ FONTAINE EB","wheelchair_boarding":2,"routes":[{"route_id":"19630","agency_id":"70006","route_short_name":"91","route_long_name":"Olive","route_type":3,"route_color":"#FFFFFF","route_text_color":"#000000"}],"agency_name":"Metro St. Louis"},"geometry":{"type":"Point","coordinates":[-90.56627,38.64793]}},{"type":"Feature","properties":{"stop_id":"3074","stop_code":"3074","stop_name":"CHESTRFD PARKWAY @ WILD HORSE CREEK SB","stop_desc":"FAR SIDE CHESTRFD PARKWAY @ WILD HORSE CREEK SB","wheelchair_boarding":2,"routes":[{"route_id":"19630","agency_id":"70006","route_short_name":"91","route_long_name":"Olive","route_type":3,"route_color":"#FFFFFF","route_text_color":"#000000"}],"agency_name":"Metro St. Louis"},"geometry":{"type":"Point","coordinates":[-90.56784,38.65803]}},{"type":"Feature","properties":{"stop_id":"3081","stop_code":"3081","stop_name":"OLIVE @ WHITE PLAINS EB","stop_desc":"FAR SIDE OLIVE @ WHITE PLAINS EB","wheelchair_boarding":1,"routes":[{"route_id":"19630","agency_id":"70006","route_short_name":"91","route_long_name":"Olive","route_type":3,"route_color":"#FFFFFF","route_text_color":"#000000"}],"agency_name":"Metro St. Louis"},"geometry":{"type":"Point","coordinates":[-90.5497,38.65919]}},{"type":"Feature","properties":{"stop_id":"3083","stop_code":"3083","stop_name":"OLIVE @ APPALACHIAN TRAIL EB","stop_desc":"FAR SIDE OLIVE @ APPALACHIAN TRAIL EB","wheelchair_boarding":1,"routes":[{"route_id":"19630","agency_id":"70006","route_short_name":"91","route_long_name":"Olive","route_type":3,"route_color":"#FFFFFF","route_text_color":"#000000"}],"agency_name":"Metro St. Louis"},"geometry":{"type":"Point","coordinates":[-90.54292,38.66251]}},{"type":"Feature","properties":{"stop_id":"3084","stop_code":"3084","stop_name":"OLIVE @ WHITE EB","stop_desc":"FAR SIDE OLIVE @ WHITE EB","wheelchair_boarding":1,"routes":[{"route_id":"19630","agency_id":"70006","route_short_name":"91","route_long_name":"Olive","route_type":3,"route_color":"#FFFFFF","route_text_color":"#000000"}],"agency_name":"Metro St. Louis"},"geometry":{"type":"Point","coordinates":[-90.53547,38.6684]}},{"type":"Feature","properties":{"stop_id":"3085","stop_code":"3085","stop_name":"OLIVE @ LADUE EB","stop_desc":"FAR SIDE OLIVE @ LADUE EB","wheelchair_boarding":1,"routes":[{"route_id":"19630","agency_id":"70006","route_short_name":"91","route_long_name":"Olive","route_type":3,"route_color":"#FFFFFF","route_text_color":"#000000"}],"agency_name":"Metro St. Louis"},"geometry":{"type":"Point","coordinates":[-90.53381,38.67082]}},{"type":"Feature","properties":{"stop_id":"3086","stop_code":"3086","stop_name":"OLIVE @ RIVER VALLEY EB","stop_desc":"FAR SIDE OLIVE @ RIVER VALLEY EB","wheelchair_boarding":2,"routes":[{"route_id":"19630","agency_id":"70006","route_short_name":"91","route_long_name":"Olive","route_type":3,"route_color":"#FFFFFF","route_text_color":"#000000"}],"agency_name":"Metro St. Louis"},"geometry":{"type":"Point","coordinates":[-90.50509,38.68007]}},{"type":"Feature","properties":{"stop_id":"3087","stop_code":"3087","stop_name":"OLIVE @ HIGHLAND PARK EB","stop_desc":"NEAR SIDE OLIVE @ HIGHLAND PARK EB","wheelchair_boarding":2,"routes":[{"route_id":"19630","agency_id":"70006","route_short_name":"91","route_long_name":"Olive","route_type":3,"route_color":"#FFFFFF","route_text_color":"#000000"}],"agency_name":"Metro St. Louis"},"geometry":{"type":"Point","coordinates":[-90.50256,38.67969]}},{"type":"Feature","properties":{"stop_id":"3088","stop_code":"3088","stop_name":"OLIVE @ WOODS MILL EB","stop_desc":"NEAR SIDE OLIVE @ WOODS MILL EB","wheelchair_boarding":2,"routes":[{"route_id":"19630","agency_id":"70006","route_short_name":"91","route_long_name":"Olive","route_type":3,"route_color":"#FFFFFF","route_text_color":"#000000"}],"agency_name":"Metro St. Louis"},"geometry":{"type":"Point","coordinates":[-90.50038,38.67969]}},{"type":"Feature","properties":{"stop_id":"3089","stop_code":"3089","stop_name":"OLIVE @ WOODCHASE EB","stop_desc":"NEAR SIDE OLIVE @ WOODCHASE EB","wheelchair_boarding":2,"routes":[{"route_id":"19630","agency_id":"70006","route_short_name":"91","route_long_name":"Olive","route_type":3,"route_color":"#FFFFFF","route_text_color":"#000000"}],"agency_name":"Metro St. Louis"},"geometry":{"type":"Point","coordinates":[-90.49754,38.68005]}},{"type":"Feature","properties":{"stop_id":"3091","stop_code":"3091","stop_name":"OLIVE @ CREVE COEUR MILL EB","stop_desc":"FAR SIDE OLIVE @ CREVE COEUR MILL EB","wheelchair_boarding":2,"routes":[{"route_id":"19630","agency_id":"70006","route_short_name":"91","route_long_name":"Olive","route_type":3,"route_color":"#FFFFFF","route_text_color":"#000000"}],"agency_name":"Metro St. Louis"},"geometry":{"type":"Point","coordinates":[-90.48731,38.68222]}},{"type":"Feature","properties":{"stop_id":"3092","stop_code":"3092","stop_name":"OLIVE @ MILL CROSSING EB","stop_desc":"FAR SIDE OLIVE @ MILL CROSSING EB","wheelchair_boarding":2,"routes":[{"route_id":"19630","agency_id":"70006","route_short_name":"91","route_long_name":"Olive","route_type":3,"route_color":"#FFFFFF","route_text_color":"#000000"}],"agency_name":"Metro St. Louis"},"geometry":{"type":"Point","coordinates":[-90.48462,38.68245]}},{"type":"Feature","properties":{"stop_id":"3093","stop_code":"3093","stop_name":"OLIVE @ FERNVIEW EB","stop_desc":"NEAR SIDE OLIVE @ FERNVIEW EB","wheelchair_boarding":2,"routes":[{"route_id":"19630","agency_id":"70006","route_short_name":"91","route_long_name":"Olive","route_type":3,"route_color":"#FFFFFF","route_text_color":"#000000"}],"agency_name":"Metro St. Louis"},"geometry":{"type":"Point","coordinates":[-90.48107,38.68255]}},{"type":"Feature","properties":{"stop_id":"3094","stop_code":"3094","stop_name":"OLIVE @ FEE FEE EB","stop_desc":"NEAR SIDE OLIVE @ FEE FEE EB","wheelchair_boarding":2,"routes":[{"route_id":"19630","agency_id":"70006","route_short_name":"91","route_long_name":"Olive","route_type":3,"route_color":"#FFFFFF","route_text_color":"#000000"}],"agency_name":"Metro St. Louis"},"geometry":{"type":"Point","coordinates":[-90.47732,38.68123]}},{"type":"Feature","properties":{"stop_id":"3095","stop_code":"3095","stop_name":"OLIVE @ TOWN AND FOUR PARKWAY EB","stop_desc":"NEAR SIDE OLIVE @ TOWN AND FOUR PARKWAY EB","wheelchair_boarding":1,"routes":[{"route_id":"19630","agency_id":"70006","route_short_name":"91","route_long_name":"Olive","route_type":3,"route_color":"#FFFFFF","route_text_color":"#000000"}],"agency_name":"Metro St. Louis"},"geometry":{"type":"Point","coordinates":[-90.47536,38.68071]}},{"type":"Feature","properties":{"stop_id":"3096","stop_code":"3096","stop_name":"OLIVE @ TIMBER RUN EB","stop_desc":"NEAR SIDE OLIVE @ TIMBER RUN EB","wheelchair_boarding":1,"routes":[{"route_id":"19630","agency_id":"70006","route_short_name":"91","route_long_name":"Olive","route_type":3,"route_color":"#FFFFFF","route_text_color":"#000000"}],"agency_name":"Metro St. Louis"},"geometry":{"type":"Point","coordinates":[-90.47247,38.6798]}},{"type":"Feature","properties":{"stop_id":"3097","stop_code":"3097","stop_name":"OLIVE @ MASON EB","stop_desc":"FAR SIDE OLIVE @ MASON EB","wheelchair_boarding":1,"routes":[{"route_id":"19630","agency_id":"70006","route_short_name":"91","route_long_name":"Olive","route_type":3,"route_color":"#FFFFFF","route_text_color":"#000000"}],"agency_name":"Metro St. Louis"},"geometry":{"type":"Point","coordinates":[-90.46833,38.67782]}},{"type":"Feature","properties":{"stop_id":"3098","stop_code":"3098","stop_name":"OLIVE @ BARNES WEST EB","stop_desc":"NEAR SIDE OLIVE @ BARNES WEST EB","wheelchair_boarding":2,"routes":[{"route_id":"19630","agency_id":"70006","route_short_name":"91","route_long_name":"Olive","route_type":3,"route_color":"#FFFFFF","route_text_color":"#000000"}],"agency_name":"Metro St. Louis"},"geometry":{"type":"Point","coordinates":[-90.46612,38.67693]}},{"type":"Feature","properties":{"stop_id":"3099","stop_code":"3099","stop_name":"OLIVE @ QUESTOVER EB","stop_desc":"FAR SIDE OLIVE @ QUESTOVER EB","wheelchair_boarding":1,"routes":[{"route_id":"19630","agency_id":"70006","route_short_name":"91","route_long_name":"Olive","route_type":3,"route_color":"#FFFFFF","route_text_color":"#000000"}],"agency_name":"Metro St. Louis"},"geometry":{"type":"Point","coordinates":[-90.46185,38.67506]}},{"type":"Feature","properties":{"stop_id":"3100","stop_code":"3100","stop_name":"OLIVE @ TEMPO EB","stop_desc":"FAR SIDE OLIVE @ TEMPO EB","wheelchair_boarding":1,"routes":[{"route_id":"19630","agency_id":"70006","route_short_name":"91","route_long_name":"Olive","route_type":3,"route_color":"#FFFFFF","route_text_color":"#000000"}],"agency_name":"Metro St. Louis"},"geometry":{"type":"Point","coordinates":[-90.45815,38.67366]}},{"type":"Feature","properties":{"stop_id":"3101","stop_code":"3101","stop_name":"OLIVE @ CROSS CREEK EB","stop_desc":"FAR SIDE OLIVE @ CROSS CREEK EB","wheelchair_boarding":2,"routes":[{"route_id":"19630","agency_id":"70006","route_short_name":"91","route_long_name":"Olive","route_type":3,"route_color":"#FFFFFF","route_text_color":"#000000"}],"agency_name":"Metro St. Louis"},"geometry":{"type":"Point","coordinates":[-90.45391,38.6729]}},{"type":"Feature","properties":{"stop_id":"3102","stop_code":"3102","stop_name":"OLIVE @ CENTER PARKWAY EB","stop_desc":"FAR SIDE OLIVE @ CENTER PARKWAY EB","wheelchair_boarding":2,"routes":[{"route_id":"19630","agency_id":"70006","route_short_name":"91","route_long_name":"Olive","route_type":3,"route_color":"#FFFFFF","route_text_color":"#000000"}],"agency_name":"Metro St. Louis"},"geometry":{"type":"Point","coordinates":[-90.44571,38.67113]}},{"type":"Feature","properties":{"stop_id":"3117","stop_code":"3117","stop_name":"OLIVE @ WILL EB","stop_desc":"NEAR SIDE OLIVE @ WILL EB","wheelchair_boarding":1,"routes":[{"route_id":"19630","agency_id":"70006","route_short_name":"91","route_long_name":"Olive","route_type":3,"route_color":"#FFFFFF","route_text_color":"#000000"}],"agency_name":"Metro St. Louis"},"geometry":{"type":"Point","coordinates":[-90.44216,38.67034]}},{"type":"Feature","properties":{"stop_id":"3118","stop_code":"3118","stop_name":"OLIVE @ OLD BALLAS EB","stop_desc":"FAR SIDE OLIVE @ OLD BALLAS EB","wheelchair_boarding":1,"routes":[{"route_id":"19630","agency_id":"70006","route_short_name":"91","route_long_name":"Olive","route_type":3,"route_color":"#FFFFFF","route_text_color":"#000000"}],"agency_name":"Metro St. Louis"},"geometry":{"type":"Point","coordinates":[-90.43812,38.67104]}},{"type":"Feature","properties":{"stop_id":"3119","stop_code":"3119","stop_name":"OLIVE @ OFFICE PARKWAY EB","stop_desc":"FAR SIDE OLIVE @ OFFICE PARKWAY EB","wheelchair_boarding":1,"routes":[{"route_id":"19630","agency_id":"70006","route_short_name":"91","route_long_name":"Olive","route_type":3,"route_color":"#FFFFFF","route_text_color":"#000000"}],"agency_name":"Metro St. Louis"},"geometry":{"type":"Point","coordinates":[-90.43301,38.67114]}},{"type":"Feature","properties":{"stop_id":"3121","stop_code":"3121","stop_name":"OLIVE @ MOSLEY EB","stop_desc":"FAR SIDE OLIVE @ MOSLEY EB","wheelchair_boarding":1,"routes":[{"route_id":"19630","agency_id":"70006","route_short_name":"91","route_long_name":"Olive","route_type":3,"route_color":"#FFFFFF","route_text_color":"#000000"}],"agency_name":"Metro St. Louis"},"geometry":{"type":"Point","coordinates":[-90.42935,38.67157]}},{"type":"Feature","properties":{"stop_id":"3122","stop_code":"3122","stop_name":"OLIVE @ RENEE EB","stop_desc":"FAR SIDE OLIVE @ RENEE EB","wheelchair_boarding":1,"routes":[{"route_id":"19630","agency_id":"70006","route_short_name":"91","route_long_name":"Olive","route_type":3,"route_color":"#FFFFFF","route_text_color":"#000000"}],"agency_name":"Metro St. Louis"},"geometry":{"type":"Point","coordinates":[-90.42717,38.67254]}},{"type":"Feature","properties":{"stop_id":"3123","stop_code":"3123","stop_name":"OLIVE @ MARY MEADOWS EB","stop_desc":"FAR SIDE OLIVE @ MARY MEADOWS EB","wheelchair_boarding":2,"routes":[{"route_id":"19630","agency_id":"70006","route_short_name":"91","route_long_name":"Olive","route_type":3,"route_color":"#FFFFFF","route_text_color":"#000000"}],"agency_name":"Metro St. Louis"},"geometry":{"type":"Point","coordinates":[-90.42413,38.67361]}},{"type":"Feature","properties":{"stop_id":"3124","stop_code":"3124","stop_name":"OLIVE @ GRAESER EB","stop_desc":"FAR SIDE OLIVE @ GRAESER EB","wheelchair_boarding":1,"routes":[{"route_id":"19630","agency_id":"70006","route_short_name":"91","route_long_name":"Olive","route_type":3,"route_color":"#FFFFFF","route_text_color":"#000000"}],"agency_name":"Metro St. Louis"},"geometry":{"type":"Point","coordinates":[-90.42153,38.67324]}},{"type":"Feature","properties":{"stop_id":"3125","stop_code":"3125","stop_name":"OLIVE @ DEAVER EB","stop_desc":"FAR SIDE OLIVE @ DEAVER EB","wheelchair_boarding":1,"routes":[{"route_id":"19630","agency_id":"70006","route_short_name":"91","route_long_name":"Olive","route_type":3,"route_color":"#FFFFFF","route_text_color":"#000000"}],"agency_name":"Metro St. Louis"},"geometry":{"type":"Point","coordinates":[-90.41882,38.67292]}},{"type":"Feature","properties":{"stop_id":"3126","stop_code":"3126","stop_name":"OLIVE @ LARKIN EB","stop_desc":"FAR SIDE OLIVE @ LARKIN EB","wheelchair_boarding":2,"routes":[{"route_id":"19630","agency_id":"70006","route_short_name":"91","route_long_name":"Olive","route_type":3,"route_color":"#FFFFFF","route_text_color":"#000000"}],"agency_name":"Metro St. Louis"},"geometry":{"type":"Point","coordinates":[-90.4161,38.67317]}},{"type":"Feature","properties":{"stop_id":"3139","stop_code":"3139","stop_name":"OLIVE @ BAYER EB","stop_desc":"NEAR SIDE OLIVE @ BAYER EB","wheelchair_boarding":2,"routes":[{"route_id":"19630","agency_id":"70006","route_short_name":"91","route_long_name":"Olive","route_type":3,"route_color":"#FFFFFF","route_text_color":"#000000"}],"agency_name":"Metro St. Louis"},"geometry":{"type":"Point","coordinates":[-90.39719,38.67281]}},{"type":"Feature","properties":{"stop_id":"3140","stop_code":"3140","stop_name":"OLIVE @ WARSON EB","stop_desc":"FAR SIDE OLIVE @ WARSON EB","wheelchair_boarding":2,"routes":[{"route_id":"19630","agency_id":"70006","route_short_name":"91","route_long_name":"Olive","route_type":3,"route_color":"#FFFFFF","route_text_color":"#000000"}],"agency_name":"Metro St. Louis"},"geometry":{"type":"Point","coordinates":[-90.3944,38.67258]}},{"type":"Feature","properties":{"stop_id":"3141","stop_code":"3141","stop_name":"OLIVE @ OLD BONHOMME EB","stop_desc":"FAR SIDE OLIVE @ OLD BONHOMME EB","wheelchair_boarding":1,"routes":[{"route_id":"19630","agency_id":"70006","route_short_name":"91","route_long_name":"Olive","route_type":3,"route_color":"#FFFFFF","route_text_color":"#000000"}],"agency_name":"Metro St. Louis"},"geometry":{"type":"Point","coordinates":[-90.38909,38.67317]}},{"type":"Feature","properties":{"stop_id":"3143","stop_code":"3143","stop_name":"OLIVE @ OLIVAIRE EB","stop_desc":"FAR SIDE OLIVE @ OLIVAIRE EB","wheelchair_boarding":2,"routes":[{"route_id":"19630","agency_id":"70006","route_short_name":"91","route_long_name":"Olive","route_type":3,"route_color":"#FFFFFF","route_text_color":"#000000"}],"agency_name":"Metro St. Louis"},"geometry":{"type":"Point","coordinates":[-90.38551,38.674]}},{"type":"Feature","properties":{"stop_id":"3144","stop_code":"3144","stop_name":"OLIVE @ INDIAN MEADOWS EB","stop_desc":"FAR SIDE OLIVE @ INDIAN MEADOWS EB","wheelchair_boarding":2,"routes":[{"route_id":"19630","agency_id":"70006","route_short_name":"91","route_long_name":"Olive","route_type":3,"route_color":"#FFFFFF","route_text_color":"#000000"}],"agency_name":"Metro St. Louis"},"geometry":{"type":"Point","coordinates":[-90.38323,38.67404]}},{"type":"Feature","properties":{"stop_id":"3145","stop_code":"3145","stop_name":"OLIVE @ FRIESE EB","stop_desc":"FAR SIDE OLIVE @ FRIESE EB","wheelchair_boarding":2,"routes":[{"route_id":"19630","agency_id":"70006","route_short_name":"91","route_long_name":"Olive","route_type":3,"route_color":"#FFFFFF","route_text_color":"#000000"}],"agency_name":"Metro St. Louis"},"geometry":{"type":"Point","coordinates":[-90.3794,38.67404]}},{"type":"Feature","properties":{"stop_id":"3146","stop_code":"3146","stop_name":"OLIVE @ DIELMAN EB","stop_desc":"FAR SIDE OLIVE @ DIELMAN EB","wheelchair_boarding":2,"routes":[{"route_id":"19630","agency_id":"70006","route_short_name":"91","route_long_name":"Olive","route_type":3,"route_color":"#FFFFFF","route_text_color":"#000000"}],"agency_name":"Metro St. Louis"},"geometry":{"type":"Point","coordinates":[-90.37542,38.67404]}},{"type":"Feature","properties":{"stop_id":"3147","stop_code":"3147","stop_name":"OLIVE @ LLEWELLYN EB","stop_desc":"NEAR SIDE OLIVE @ LLEWELLYN EB","wheelchair_boarding":2,"routes":[{"route_id":"19630","agency_id":"70006","route_short_name":"91","route_long_name":"Olive","route_type":3,"route_color":"#FFFFFF","route_text_color":"#000000"}],"agency_name":"Metro St. Louis"},"geometry":{"type":"Point","coordinates":[-90.37156,38.67404]}},{"type":"Feature","properties":{"stop_id":"3149","stop_code":"3149","stop_name":"OLIVE @ PRICE EB","stop_desc":"NEAR SIDE OLIVE @ PRICE EB","wheelchair_boarding":1,"routes":[{"route_id":"19630","agency_id":"70006","route_short_name":"91","route_long_name":"Olive","route_type":3,"route_color":"#FFFFFF","route_text_color":"#000000"}],"agency_name":"Metro St. Louis"},"geometry":{"type":"Point","coordinates":[-90.3657,38.67401]}},{"type":"Feature","properties":{"stop_id":"3152","stop_code":"3152","stop_name":"8660 OLIVE EB","stop_desc":"MID-BLOCK 8660 OLIVE EB","wheelchair_boarding":1,"routes":[{"route_id":"19630","agency_id":"70006","route_short_name":"91","route_long_name":"Olive","route_type":3,"route_color":"#FFFFFF","route_text_color":"#000000"}],"agency_name":"Metro St. Louis"},"geometry":{"type":"Point","coordinates":[-90.35979,38.67405]}},{"type":"Feature","properties":{"stop_id":"3153","stop_code":"3153","stop_name":"OLIVE @ MCKNIGHT EB","stop_desc":"FAR SIDE OLIVE @ MCKNIGHT EB","wheelchair_boarding":1,"routes":[{"route_id":"19630","agency_id":"70006","route_short_name":"91","route_long_name":"Olive","route_type":3,"route_color":"#FFFFFF","route_text_color":"#000000"}],"agency_name":"Metro St. Louis"},"geometry":{"type":"Point","coordinates":[-90.35693,38.67403]}},{"type":"Feature","properties":{"stop_id":"3154","stop_code":"3154","stop_name":"OLIVE @ COOLIDGE EB","stop_desc":"FAR SIDE OLIVE @ COOLIDGE EB","wheelchair_boarding":2,"routes":[{"route_id":"19630","agency_id":"70006","route_short_name":"91","route_long_name":"Olive","route_type":3,"route_color":"#FFFFFF","route_text_color":"#000000"}],"agency_name":"Metro St. Louis"},"geometry":{"type":"Point","coordinates":[-90.35309,38.67388]}},{"type":"Feature","properties":{"stop_id":"3155","stop_code":"3155","stop_name":"OLIVE @ 82ND STREET EB","stop_desc":"NEAR SIDE OLIVE @ 82ND STREET EB","wheelchair_boarding":2,"routes":[{"route_id":"19630","agency_id":"70006","route_short_name":"91","route_long_name":"Olive","route_type":3,"route_color":"#FFFFFF","route_text_color":"#000000"}],"agency_name":"Metro St. Louis"},"geometry":{"type":"Point","coordinates":[-90.34904,38.6736]}},{"type":"Feature","properties":{"stop_id":"3157","stop_code":"3157","stop_name":"OLIVE @ 81ST STREET EB","stop_desc":"NEAR SIDE OLIVE @ 81ST STREET EB","wheelchair_boarding":2,"routes":[{"route_id":"19630","agency_id":"70006","route_short_name":"91","route_long_name":"Olive","route_type":3,"route_color":"#FFFFFF","route_text_color":"#000000"}],"agency_name":"Metro St. Louis"},"geometry":{"type":"Point","coordinates":[-90.34564,38.67328]}},{"type":"Feature","properties":{"stop_id":"3158","stop_code":"3158","stop_name":"8014 OLIVE EB","stop_desc":"MID-BLOCK 8014 OLIVE EB","wheelchair_boarding":1,"routes":[{"route_id":"19630","agency_id":"70006","route_short_name":"91","route_long_name":"Olive","route_type":3,"route_color":"#FFFFFF","route_text_color":"#000000"}],"agency_name":"Metro St. Louis"},"geometry":{"type":"Point","coordinates":[-90.34312,38.67296]}},{"type":"Feature","properties":{"stop_id":"3160","stop_code":"3160","stop_name":"OLIVE @ EASTOVER EB","stop_desc":"NEAR SIDE OLIVE @ EASTOVER EB","wheelchair_boarding":1,"routes":[{"route_id":"19630","agency_id":"70006","route_short_name":"91","route_long_name":"Olive","route_type":3,"route_color":"#FFFFFF","route_text_color":"#000000"}],"agency_name":"Metro St. Louis"},"geometry":{"type":"Point","coordinates":[-90.33967,38.67256]}},{"type":"Feature","properties":{"stop_id":"3162","stop_code":"3162","stop_name":"OLIVE @ NORTH AND SOUTH EB","stop_desc":"NEAR SIDE OLIVE @ NORTH AND SOUTH EB","wheelchair_boarding":1,"routes":[{"route_id":"19630","agency_id":"70006","route_short_name":"91","route_long_name":"Olive","route_type":3,"route_color":"#FFFFFF","route_text_color":"#000000"}],"agency_name":"Metro St. Louis"},"geometry":{"type":"Point","coordinates":[-90.33657,38.67218]}},{"type":"Feature","properties":{"stop_id":"3163","stop_code":"3163","stop_name":"OLIVE @ HANLEY EB","stop_desc":"FAR SIDE OLIVE @ HANLEY EB","wheelchair_boarding":1,"routes":[{"route_id":"19630","agency_id":"70006","route_short_name":"91","route_long_name":"Olive","route_type":3,"route_color":"#FFFFFF","route_text_color":"#000000"}],"agency_name":"Metro St. Louis"},"geometry":{"type":"Point","coordinates":[-90.33095,38.67146]}},{"type":"Feature","properties":{"stop_id":"3164","stop_code":"3164","stop_name":"7350 OLIVE EB","stop_desc":"MID-BLOCK 7350 OLIVE EB","wheelchair_boarding":1,"routes":[{"route_id":"19630","agency_id":"70006","route_short_name":"91","route_long_name":"Olive","route_type":3,"route_color":"#FFFFFF","route_text_color":"#000000"}],"agency_name":"Metro St. Louis"},"geometry":{"type":"Point","coordinates":[-90.32859,38.67123]}},{"type":"Feature","properties":{"stop_id":"4715","stop_code":"4715","stop_name":"OLIVE @ PURDUE SB","stop_desc":"FAR SIDE OLIVE @ PURDUE SB","wheelchair_boarding":1,"routes":[{"route_id":"19630","agency_id":"70006","route_short_name":"91","route_long_name":"Olive","route_type":3,"route_color":"#FFFFFF","route_text_color":"#000000"}],"agency_name":"Metro St. Louis"},"geometry":{"type":"Point","coordinates":[-90.32327,38.67028]}},{"type":"Feature","properties":{"stop_id":"4716","stop_code":"4716","stop_name":"OLIVE @ MEYER SB","stop_desc":"NEAR SIDE OLIVE @ MEYER SB","wheelchair_boarding":2,"routes":[{"route_id":"19630","agency_id":"70006","route_short_name":"91","route_long_name":"Olive","route_type":3,"route_color":"#FFFFFF","route_text_color":"#000000"}],"agency_name":"Metro St. Louis"},"geometry":{"type":"Point","coordinates":[-90.32141,38.6695]}},{"type":"Feature","properties":{"stop_id":"4717","stop_code":"4717","stop_name":"OLIVE @ PARTRIDGE SB","stop_desc":"NEAR SIDE OLIVE @ PARTRIDGE SB","wheelchair_boarding":2,"routes":[{"route_id":"19630","agency_id":"70006","route_short_name":"91","route_long_name":"Olive","route_type":3,"route_color":"#FFFFFF","route_text_color":"#000000"}],"agency_name":"Metro St. Louis"},"geometry":{"type":"Point","coordinates":[-90.31975,38.66812]}},{"type":"Feature","properties":{"stop_id":"5631","stop_code":"5631","stop_name":"OLIVE @ LINDBERGH NORTH RAMP EB","stop_desc":"FAR SIDE OLIVE @ LINDBERGH NORTH RAMP EB","wheelchair_boarding":1,"routes":[{"route_id":"19630","agency_id":"70006","route_short_name":"91","route_long_name":"Olive","route_type":3,"route_color":"#FFFFFF","route_text_color":"#000000"}],"agency_name":"Metro St. Louis"},"geometry":{"type":"Point","coordinates":[-90.40195,38.67305]}}]}