{"type":"FeatureCollection","features":[{"type":"Feature","properties":{"agency_name":"Metro St. Louis","route_id":"19608","agency_id":"70006","route_short_name":"33","route_long_name":"Midland","route_type":3,"route_color":"#FFFFFF","route_text_color":"#000000"},"geometry":{"type":"MultiLineString","coordinates":[[[-90.44396,38.71452],[-90.44401,38.71356],[-90.44396,38.71452],[-90.43295,38.71453],[-90.43203,38.71455],[-90.42449,38.71453],[-90.42415,38.71452],[-90.42393,38.71449],[-90.42369,38.71445],[-90.42327,38.71435],[-90.4218,38.71374],[-90.41954,38.71283],[-90.4191,38.71259],[-90.41896,38.71249],[-90.41857,38.71213],[-90.41797,38.71137],[-90.41765,38.71102],[-90.41735,38.71075],[-90.41631,38.70985],[-90.41581,38.70945],[-90.41507,38.70892],[-90.4146,38.70866],[-90.41429,38.70852],[-90.41376,38.70832],[-90.4134,38.70821],[-90.41302,38.70812],[-90.41219,38.708],[-90.41057,38.70789],[-90.40989,38.70777],[-90.40915,38.70755],[-90.40828,38.70723],[-90.40775,38.70696],[-90.40723,38.70662],[-90.40698,38.70644],[-90.40579,38.70536],[-90.40546,38.7051],[-90.4049,38.70475],[-90.4046,38.70459],[-90.40433,38.70445],[-90.40385,38.70424],[-90.40125,38.70313],[-90.40055,38.7029],[-90.40005,38.7028],[-90.39966,38.70275],[-90.39931,38.70273],[-90.39897,38.70273],[-90.39865,38.70275],[-90.39822,38.70281],[-90.3979,38.70288],[-90.39403,38.70404],[-90.39369,38.70413],[-90.39319,38.70423],[-90.39287,38.70427],[-90.39213,38.70432],[-90.39014,38.70452],[-90.38956,38.70456],[-90.38787,38.70472],[-90.38714,38.70478],[-90.38653,38.70473],[-90.38585,38.7047],[-90.38386,38.7045],[-90.38268,38.7044],[-90.38222,38.70438],[-90.38065,38.70437],[-90.38006,38.7044],[-90.37923,38.70453],[-90.37858,38.70469],[-90.37815,38.70483],[-90.37345,38.7066],[-90.37295,38.70677],[-90.37015,38.7078],[-90.36925,38.70802],[-90.36882,38.70807],[-90.36837,38.70811],[-90.3679,38.70813],[-90.367,38.7081],[-90.36664,38.70806],[-90.36573,38.7079],[-90.36507,38.70772],[-90.36439,38.70746],[-90.36394,38.70723],[-90.36344,38.70691],[-90.3629,38.70648],[-90.36251,38.70606],[-90.3619,38.70524],[-90.36168,38.70492],[-90.3615,38.7047],[-90.36168,38.70377],[-90.36205,38.70152],[-90.36248,38.69876],[-90.36284,38.69676],[-90.36325,38.69429],[-90.36324,38.69395],[-90.36319,38.69366],[-90.36277,38.69148],[-90.36244,38.68965],[-90.36207,38.68776],[-90.36192,38.68708],[-90.36173,38.68576],[-90.36162,38.68525],[-90.36151,38.68497],[-90.36141,38.68479],[-90.36128,38.68463],[-90.35756,38.68145],[-90.35735,38.68124],[-90.35718,38.68101],[-90.35711,38.68087],[-90.35705,38.68068],[-90.35702,38.68046],[-90.35701,38.68008],[-90.35702,38.67825],[-90.357,38.67695],[-90.35697,38.67678],[-90.35666,38.67627],[-90.35662,38.6761],[-90.35661,38.67595],[-90.35663,38.67519],[-90.35664,38.67346],[-90.35666,38.6732],[-90.35672,38.67286],[-90.35679,38.67262],[-90.35695,38.67226],[-90.35708,38.67189],[-90.35714,38.67147],[-90.35715,38.66207],[-90.35714,38.66106],[-90.35711,38.66082],[-90.35655,38.6608],[-90.35288,38.66079],[-90.3488,38.66042],[-90.34237,38.65979],[-90.34147,38.65969],[-90.33865,38.65943],[-90.33748,38.6593],[-90.33625,38.6592],[-90.33275,38.65886],[-90.33311,38.65664],[-90.33349,38.65403],[-90.33361,38.65332],[-90.33404,38.65014],[-90.3342,38.65002],[-90.33438,38.64993],[-90.33684,38.65014],[-90.33844,38.64895],[-90.33862,38.64765],[-90.34003,38.64751],[-90.34022,38.6462],[-90.33918,38.64609],[-90.33914,38.64606],[-90.33913,38.64599],[-90.33917,38.64593],[-90.33923,38.64593]]]}},{"type":"Feature","properties":{"stop_id":"14425","stop_code":"14425","stop_name":"CLAYTON TRANSIT CENTER","wheelchair_boarding":1,"routes":[{"route_id":"19608","agency_id":"70006","route_short_name":"33","route_long_name":"Midland","route_type":3,"route_color":"#FFFFFF","route_text_color":"#000000"},{"route_id":"19617","agency_id":"70006","route_short_name":"58","route_long_name":"Chesterfield Valley","route_type":3,"route_color":"#FFFFFF","route_text_color":"#000000"}],"agency_name":"Metro St. Louis"},"geometry":{"type":"Point","coordinates":[-90.34009,38.64597]}},{"type":"Feature","properties":{"stop_id":"14674","stop_code":"14674","stop_name":"CENTRAL @ CARONDELET SB","stop_desc":"FAR SIDE CENTRAL @ CARONDELET SB","wheelchair_boarding":1,"routes":[{"route_id":"19608","agency_id":"70006","route_short_name":"33","route_long_name":"Midland","route_type":3,"route_color":"#FFFFFF","route_text_color":"#000000"},{"route_id":"19628","agency_id":"70006","route_short_name":"79","route_long_name":"Ferguson-Clayton","route_type":3,"route_color":"#FFFFFF","route_text_color":"#000000"},{"route_id":"19633","agency_id":"70006","route_short_name":"97","route_long_name":"Delmar","route_type":3,"route_color":"#FFFFFF","route_text_color":"#000000"}],"agency_name":"Metro St. Louis"},"geometry":{"type":"Point","coordinates":[-90.33865,38.64834]}},{"type":"Feature","properties":{"stop_id":"14684","stop_code":"14684","stop_name":"DORSETT @ WELDON PARKWAY EB","stop_desc":"FAR SIDE DORSETT @ WELDON PARKWAY EB","wheelchair_boarding":2,"routes":[{"route_id":"19608","agency_id":"70006","route_short_name":"33","route_long_name":"Midland","route_type":3,"route_color":"#FFFFFF","route_text_color":"#000000"}],"agency_name":"Metro St. Louis"},"geometry":{"type":"Point","coordinates":[-90.44097,38.71447]}},{"type":"Feature","properties":{"stop_id":"15825","stop_code":"15825","stop_name":"DORSETT @ SCHUETZ EB","stop_desc":"FAR SIDE DORSETT @ SCHUETZ EB","wheelchair_boarding":2,"routes":[{"route_id":"19608","agency_id":"70006","route_short_name":"33","route_long_name":"Midland","route_type":3,"route_color":"#FFFFFF","route_text_color":"#000000"}],"agency_name":"Metro St. Louis"},"geometry":{"type":"Point","coordinates":[-90.4315,38.71447]}},{"type":"Feature","properties":{"stop_id":"15827","stop_code":"15827","stop_name":"DORSETT @ MILLWELL EB","stop_desc":"FAR SIDE DORSETT @ MILLWELL EB","wheelchair_boarding":2,"routes":[{"route_id":"19608","agency_id":"70006","route_short_name":"33","route_long_name":"Midland","route_type":3,"route_color":"#FFFFFF","route_text_color":"#000000"}],"agency_name":"Metro St. Louis"},"geometry":{"type":"Point","coordinates":[-90.43649,38.71449]}},{"type":"Feature","properties":{"stop_id":"15937","stop_code":"15937","stop_name":"PROGRESS PARKWAY @ DORSETT SB","stop_desc":"FAR SIDE PROGRESS PARKWAY @ DORSETT SB","wheelchair_boarding":2,"routes":[{"route_id":"19608","agency_id":"70006","route_short_name":"33","route_long_name":"Midland","route_type":3,"route_color":"#FFFFFF","route_text_color":"#000000"}],"agency_name":"Metro St. Louis"},"geometry":{"type":"Point","coordinates":[-90.44409,38.7138]}},{"type":"Feature","properties":{"stop_id":"16306","stop_code":"16306","stop_name":"MIDLAND @ BRUNO EB","stop_desc":"FAR SIDE MIDLAND @ BRUNO EB","wheelchair_boarding":1,"routes":[{"route_id":"19608","agency_id":"70006","route_short_name":"33","route_long_name":"Midland","route_type":3,"route_color":"#FFFFFF","route_text_color":"#000000"},{"route_id":"19614","agency_id":"70006","route_short_name":"49","route_long_name":"Lindbergh","route_type":3,"route_color":"#FFFFFF","route_text_color":"#000000"}],"agency_name":"Metro St. Louis"},"geometry":{"type":"Point","coordinates":[-90.40083,38.70292]}},{"type":"Feature","properties":{"stop_id":"16527","stop_code":"16527","stop_name":"WOODSON @ PENNELL SB","stop_desc":"FAR SIDE WOODSON @ PENNELL SB","wheelchair_boarding":2,"routes":[{"route_id":"19608","agency_id":"70006","route_short_name":"33","route_long_name":"Midland","route_type":3,"route_color":"#FFFFFF","route_text_color":"#000000"}],"agency_name":"Metro St. Louis"},"geometry":{"type":"Point","coordinates":[-90.35738,38.68111]}},{"type":"Feature","properties":{"stop_id":"2054","stop_code":"2054","stop_name":"MCKNIGHT @ GANNON SB","stop_desc":"FAR SIDE MCKNIGHT @ GANNON SB","wheelchair_boarding":2,"routes":[{"route_id":"19608","agency_id":"70006","route_short_name":"33","route_long_name":"Midland","route_type":3,"route_color":"#FFFFFF","route_text_color":"#000000"}],"agency_name":"Metro St. Louis"},"geometry":{"type":"Point","coordinates":[-90.35721,38.66198]}},{"type":"Feature","properties":{"stop_id":"2070","stop_code":"2070","stop_name":"MCKNIGHT @ BROOKSHIRE SB","stop_desc":"FAR SIDE MCKNIGHT @ BROOKSHIRE SB","wheelchair_boarding":2,"routes":[{"route_id":"19608","agency_id":"70006","route_short_name":"33","route_long_name":"Midland","route_type":3,"route_color":"#FFFFFF","route_text_color":"#000000"}],"agency_name":"Metro St. Louis"},"geometry":{"type":"Point","coordinates":[-90.35721,38.66683]}},{"type":"Feature","properties":{"stop_id":"2072","stop_code":"2072","stop_name":"DELMAR @ DELCREST EB","stop_desc":"FAR SIDE DELMAR @ DELCREST EB","wheelchair_boarding":2,"routes":[{"route_id":"19608","agency_id":"70006","route_short_name":"33","route_long_name":"Midland","route_type":3,"route_color":"#FFFFFF","route_text_color":"#000000"}],"agency_name":"Metro St. Louis"},"geometry":{"type":"Point","coordinates":[-90.35028,38.6605]}},{"type":"Feature","properties":{"stop_id":"2073","stop_code":"2073","stop_name":"DELMAR @ OLD BONHOMME EB","stop_desc":"FAR SIDE DELMAR @ OLD BONHOMME EB","wheelchair_boarding":1,"routes":[{"route_id":"19608","agency_id":"70006","route_short_name":"33","route_long_name":"Midland","route_type":3,"route_color":"#FFFFFF","route_text_color":"#000000"}],"agency_name":"Metro St. Louis"},"geometry":{"type":"Point","coordinates":[-90.34808,38.66029]}},{"type":"Feature","properties":{"stop_id":"2074","stop_code":"2074","stop_name":"DELMAR @ CENTER EB","stop_desc":"FAR SIDE DELMAR @ CENTER EB","wheelchair_boarding":1,"routes":[{"route_id":"19608","agency_id":"70006","route_short_name":"33","route_long_name":"Midland","route_type":3,"route_color":"#FFFFFF","route_text_color":"#000000"}],"agency_name":"Metro St. Louis"},"geometry":{"type":"Point","coordinates":[-90.3442,38.65992]}},{"type":"Feature","properties":{"stop_id":"2077","stop_code":"2077","stop_name":"DELMAR @ NORTH AND SOUTH EB","stop_desc":"NEAR SIDE DELMAR @ NORTH AND SOUTH EB","wheelchair_boarding":1,"routes":[{"route_id":"19608","agency_id":"70006","route_short_name":"33","route_long_name":"Midland","route_type":3,"route_color":"#FFFFFF","route_text_color":"#000000"}],"agency_name":"Metro St. Louis"},"geometry":{"type":"Point","coordinates":[-90.33786,38.65929]}},{"type":"Feature","properties":{"stop_id":"2714","stop_code":"2714","stop_name":"MCKNIGHT @ LONGACRE SB","stop_desc":"FAR SIDE MCKNIGHT @ LONGACRE SB","wheelchair_boarding":2,"routes":[{"route_id":"19608","agency_id":"70006","route_short_name":"33","route_long_name":"Midland","route_type":3,"route_color":"#FFFFFF","route_text_color":"#000000"}],"agency_name":"Metro St. Louis"},"geometry":{"type":"Point","coordinates":[-90.35721,38.66424]}},{"type":"Feature","properties":{"stop_id":"2991","stop_code":"2991","stop_name":"MCKNIGHT @ OLIVE SB","stop_desc":"FAR SIDE MCKNIGHT @ OLIVE SB","wheelchair_boarding":1,"routes":[{"route_id":"19608","agency_id":"70006","route_short_name":"33","route_long_name":"Midland","route_type":3,"route_color":"#FFFFFF","route_text_color":"#000000"}],"agency_name":"Metro St. Louis"},"geometry":{"type":"Point","coordinates":[-90.35673,38.67368]}},{"type":"Feature","properties":{"stop_id":"4387","stop_code":"4387","stop_name":"2509 WOODSON SB","stop_desc":"MID-BLOCK 2509 WOODSON SB","wheelchair_boarding":1,"routes":[{"route_id":"19608","agency_id":"70006","route_short_name":"33","route_long_name":"Midland","route_type":3,"route_color":"#FFFFFF","route_text_color":"#000000"}],"agency_name":"Metro St. Louis"},"geometry":{"type":"Point","coordinates":[-90.3618,38.70312]}},{"type":"Feature","properties":{"stop_id":"4388","stop_code":"4388","stop_name":"WOODSON @ MARLOWE SB","stop_desc":"FAR SIDE WOODSON @ MARLOWE SB","wheelchair_boarding":1,"routes":[{"route_id":"19608","agency_id":"70006","route_short_name":"33","route_long_name":"Midland","route_type":3,"route_color":"#FFFFFF","route_text_color":"#000000"}],"agency_name":"Metro St. Louis"},"geometry":{"type":"Point","coordinates":[-90.36215,38.70132]}},{"type":"Feature","properties":{"stop_id":"4389","stop_code":"4389","stop_name":"WOODSON @ LACKLAND SB","stop_desc":"FAR SIDE WOODSON @ LACKLAND SB","wheelchair_boarding":2,"routes":[{"route_id":"19608","agency_id":"70006","route_short_name":"33","route_long_name":"Midland","route_type":3,"route_color":"#FFFFFF","route_text_color":"#000000"}],"agency_name":"Metro St. Louis"},"geometry":{"type":"Point","coordinates":[-90.36238,38.69973]}},{"type":"Feature","properties":{"stop_id":"4390","stop_code":"4390","stop_name":"WOODSON @ TRESCOTT SB","stop_desc":"NEAR SIDE WOODSON @ TRESCOTT SB","wheelchair_boarding":2,"routes":[{"route_id":"19608","agency_id":"70006","route_short_name":"33","route_long_name":"Midland","route_type":3,"route_color":"#FFFFFF","route_text_color":"#000000"}],"agency_name":"Metro St. Louis"},"geometry":{"type":"Point","coordinates":[-90.3628,38.6972]}},{"type":"Feature","properties":{"stop_id":"4397","stop_code":"4397","stop_name":"WOODSON @ PAGE SB","stop_desc":"FAR SIDE WOODSON @ PAGE SB","wheelchair_boarding":2,"routes":[{"route_id":"19608","agency_id":"70006","route_short_name":"33","route_long_name":"Midland","route_type":3,"route_color":"#FFFFFF","route_text_color":"#000000"}],"agency_name":"Metro St. Louis"},"geometry":{"type":"Point","coordinates":[-90.36199,38.68668]}},{"type":"Feature","properties":{"stop_id":"4400","stop_code":"4400","stop_name":"1655 WOODSON SB","stop_desc":"MID-BLOCK 1655 WOODSON SB","wheelchair_boarding":1,"routes":[{"route_id":"19608","agency_id":"70006","route_short_name":"33","route_long_name":"Midland","route_type":3,"route_color":"#FFFFFF","route_text_color":"#000000"}],"agency_name":"Metro St. Louis"},"geometry":{"type":"Point","coordinates":[-90.36054,38.6839]}},{"type":"Feature","properties":{"stop_id":"4432","stop_code":"4432","stop_name":"WOODSON @ VARNEY SB","stop_desc":"FAR SIDE WOODSON @ VARNEY SB","wheelchair_boarding":2,"routes":[{"route_id":"19608","agency_id":"70006","route_short_name":"33","route_long_name":"Midland","route_type":3,"route_color":"#FFFFFF","route_text_color":"#000000"}],"agency_name":"Metro St. Louis"},"geometry":{"type":"Point","coordinates":[-90.35709,38.67812]}},{"type":"Feature","properties":{"stop_id":"4441","stop_code":"4441","stop_name":"WOODSON @ THEODOSIA SB","stop_desc":"FAR SIDE WOODSON @ THEODOSIA SB","wheelchair_boarding":2,"routes":[{"route_id":"19608","agency_id":"70006","route_short_name":"33","route_long_name":"Midland","route_type":3,"route_color":"#FFFFFF","route_text_color":"#000000"}],"agency_name":"Metro St. Louis"},"geometry":{"type":"Point","coordinates":[-90.36297,38.69232]}},{"type":"Feature","properties":{"stop_id":"4679","stop_code":"4679","stop_name":"MIDLAND @ PROUHET EB","stop_desc":"FAR SIDE MIDLAND @ PROUHET EB","wheelchair_boarding":2,"routes":[{"route_id":"19608","agency_id":"70006","route_short_name":"33","route_long_name":"Midland","route_type":3,"route_color":"#FFFFFF","route_text_color":"#000000"},{"route_id":"19614","agency_id":"70006","route_short_name":"49","route_long_name":"Lindbergh","route_type":3,"route_color":"#FFFFFF","route_text_color":"#000000"}],"agency_name":"Metro St. Louis"},"geometry":{"type":"Point","coordinates":[-90.3947,38.70377]}},{"type":"Feature","properties":{"stop_id":"4681","stop_code":"4681","stop_name":"MIDLAND @ FOX HILL EB","stop_desc":"NEAR SIDE MIDLAND @ FOX HILL EB","wheelchair_boarding":2,"routes":[{"route_id":"19608","agency_id":"70006","route_short_name":"33","route_long_name":"Midland","route_type":3,"route_color":"#FFFFFF","route_text_color":"#000000"}],"agency_name":"Metro St. Louis"},"geometry":{"type":"Point","coordinates":[-90.38456,38.7045]}},{"type":"Feature","properties":{"stop_id":"4684","stop_code":"4684","stop_name":"MIDLAND @ SIMS EB","stop_desc":"NEAR SIDE MIDLAND @ SIMS EB","wheelchair_boarding":2,"routes":[{"route_id":"19608","agency_id":"70006","route_short_name":"33","route_long_name":"Midland","route_type":3,"route_color":"#FFFFFF","route_text_color":"#000000"}],"agency_name":"Metro St. Louis"},"geometry":{"type":"Point","coordinates":[-90.37725,38.70509]}},{"type":"Feature","properties":{"stop_id":"4687","stop_code":"4687","stop_name":"MIDLAND @ MILTON EB","stop_desc":"FAR SIDE MIDLAND @ MILTON EB","wheelchair_boarding":1,"routes":[{"route_id":"19608","agency_id":"70006","route_short_name":"33","route_long_name":"Midland","route_type":3,"route_color":"#FFFFFF","route_text_color":"#000000"}],"agency_name":"Metro St. Louis"},"geometry":{"type":"Point","coordinates":[-90.37063,38.7076]}},{"type":"Feature","properties":{"stop_id":"4690","stop_code":"4690","stop_name":"MIDLAND @ BURNS EB","stop_desc":"FAR SIDE MIDLAND @ BURNS EB","wheelchair_boarding":2,"routes":[{"route_id":"19608","agency_id":"70006","route_short_name":"33","route_long_name":"Midland","route_type":3,"route_color":"#FFFFFF","route_text_color":"#000000"}],"agency_name":"Metro St. Louis"},"geometry":{"type":"Point","coordinates":[-90.36371,38.70704]}},{"type":"Feature","properties":{"stop_id":"4691","stop_code":"4691","stop_name":"MIDLAND @ WOODSON EB","stop_desc":"NEAR SIDE MIDLAND @ WOODSON EB","wheelchair_boarding":1,"routes":[{"route_id":"19608","agency_id":"70006","route_short_name":"33","route_long_name":"Midland","route_type":3,"route_color":"#FFFFFF","route_text_color":"#000000"}],"agency_name":"Metro St. Louis"},"geometry":{"type":"Point","coordinates":[-90.36165,38.70472]}},{"type":"Feature","properties":{"stop_id":"5218","stop_code":"5218","stop_name":"NORTH HANLEY @ MARYLAND SB","stop_desc":"FAR SIDE NORTH HANLEY @ MARYLAND SB","wheelchair_boarding":2,"routes":[{"route_id":"19608","agency_id":"70006","route_short_name":"33","route_long_name":"Midland","route_type":3,"route_color":"#FFFFFF","route_text_color":"#000000"},{"route_id":"19628","agency_id":"70006","route_short_name":"79","route_long_name":"Ferguson-Clayton","route_type":3,"route_color":"#FFFFFF","route_text_color":"#000000"},{"route_id":"19633","agency_id":"70006","route_short_name":"97","route_long_name":"Delmar","route_type":3,"route_color":"#FFFFFF","route_text_color":"#000000"}],"agency_name":"Metro St. Louis"},"geometry":{"type":"Point","coordinates":[-90.33405,38.6508]}},{"type":"Feature","properties":{"stop_id":"5929","stop_code":"5929","stop_name":"NORTH HANLEY @ DELMAR SB","stop_desc":"FAR SIDE NORTH HANLEY @ DELMAR SB","wheelchair_boarding":2,"routes":[{"route_id":"19608","agency_id":"70006","route_short_name":"33","route_long_name":"Midland","route_type":3,"route_color":"#FFFFFF","route_text_color":"#000000"},{"route_id":"19628","agency_id":"70006","route_short_name":"79","route_long_name":"Ferguson-Clayton","route_type":3,"route_color":"#FFFFFF","route_text_color":"#000000"},{"route_id":"19633","agency_id":"70006","route_short_name":"97","route_long_name":"Delmar","route_type":3,"route_color":"#FFFFFF","route_text_color":"#000000"}],"agency_name":"Metro St. Louis"},"geometry":{"type":"Point","coordinates":[-90.33289,38.65847]}},{"type":"Feature","properties":{"stop_id":"5930","stop_code":"5930","stop_name":"NORTH HANLEY @ STRATFORD SB","stop_desc":"FAR SIDE NORTH HANLEY @ STRATFORD SB","wheelchair_boarding":1,"routes":[{"route_id":"19608","agency_id":"70006","route_short_name":"33","route_long_name":"Midland","route_type":3,"route_color":"#FFFFFF","route_text_color":"#000000"},{"route_id":"19628","agency_id":"70006","route_short_name":"79","route_long_name":"Ferguson-Clayton","route_type":3,"route_color":"#FFFFFF","route_text_color":"#000000"},{"route_id":"19633","agency_id":"70006","route_short_name":"97","route_long_name":"Delmar","route_type":3,"route_color":"#FFFFFF","route_text_color":"#000000"}],"agency_name":"Metro St. Louis"},"geometry":{"type":"Point","coordinates":[-90.33327,38.65598]}},{"type":"Feature","properties":{"stop_id":"5931","stop_code":"5931","stop_name":"NORTH HANLEY @ PERSHING SB","stop_desc":"NEAR SIDE NORTH HANLEY @ PERSHING SB","wheelchair_boarding":1,"routes":[{"route_id":"19608","agency_id":"70006","route_short_name":"33","route_long_name":"Midland","route_type":3,"route_color":"#FFFFFF","route_text_color":"#000000"},{"route_id":"19628","agency_id":"70006","route_short_name":"79","route_long_name":"Ferguson-Clayton","route_type":3,"route_color":"#FFFFFF","route_text_color":"#000000"},{"route_id":"19633","agency_id":"70006","route_short_name":"97","route_long_name":"Delmar","route_type":3,"route_color":"#FFFFFF","route_text_color":"#000000"}],"agency_name":"Metro St. Louis"},"geometry":{"type":"Point","coordinates":[-90.33352,38.65443]}},{"type":"Feature","properties":{"stop_id":"6973","stop_code":"6973","stop_name":"DORSETT @ INDUSTRIAL EB","stop_desc":"NEAR SIDE DORSETT @ INDUSTRIAL EB","wheelchair_boarding":2,"routes":[{"route_id":"19608","agency_id":"70006","route_short_name":"33","route_long_name":"Midland","route_type":3,"route_color":"#FFFFFF","route_text_color":"#000000"}],"agency_name":"Metro St. Louis"},"geometry":{"type":"Point","coordinates":[-90.42676,38.71446]}},{"type":"Feature","properties":{"stop_id":"6974","stop_code":"6974","stop_name":"DORSETT @ OLD DORSETT EB","stop_desc":"NEAR SIDE DORSETT @ OLD DORSETT EB","wheelchair_boarding":2,"routes":[{"route_id":"19608","agency_id":"70006","route_short_name":"33","route_long_name":"Midland","route_type":3,"route_color":"#FFFFFF","route_text_color":"#000000"}],"agency_name":"Metro St. Louis"},"geometry":{"type":"Point","coordinates":[-90.42435,38.71445]}},{"type":"Feature","properties":{"stop_id":"6976","stop_code":"6976","stop_name":"DORSETT @ WARNEN EB","stop_desc":"NEAR SIDE DORSETT @ WARNEN EB","wheelchair_boarding":2,"routes":[{"route_id":"19608","agency_id":"70006","route_short_name":"33","route_long_name":"Midland","route_type":3,"route_color":"#FFFFFF","route_text_color":"#000000"}],"agency_name":"Metro St. Louis"},"geometry":{"type":"Point","coordinates":[-90.41857,38.712]}},{"type":"Feature","properties":{"stop_id":"6977","stop_code":"6977","stop_name":"DORSETT @ SCHENK EB","stop_desc":"NEAR SIDE DORSETT @ SCHENK EB","wheelchair_boarding":2,"routes":[{"route_id":"19608","agency_id":"70006","route_short_name":"33","route_long_name":"Midland","route_type":3,"route_color":"#FFFFFF","route_text_color":"#000000"}],"agency_name":"Metro St. Louis"},"geometry":{"type":"Point","coordinates":[-90.41697,38.71029]}},{"type":"Feature","properties":{"stop_id":"6978","stop_code":"6978","stop_name":"DORSETT @ ADIE EB","stop_desc":"NEAR SIDE DORSETT @ ADIE EB","wheelchair_boarding":2,"routes":[{"route_id":"19608","agency_id":"70006","route_short_name":"33","route_long_name":"Midland","route_type":3,"route_color":"#FFFFFF","route_text_color":"#000000"}],"agency_name":"Metro St. Louis"},"geometry":{"type":"Point","coordinates":[-90.41506,38.70881]}},{"type":"Feature","properties":{"stop_id":"6980","stop_code":"6980","stop_name":"MIDLAND @ BROUSTER EB","stop_desc":"NEAR SIDE MIDLAND @ BROUSTER EB","wheelchair_boarding":2,"routes":[{"route_id":"19608","agency_id":"70006","route_short_name":"33","route_long_name":"Midland","route_type":3,"route_color":"#FFFFFF","route_text_color":"#000000"},{"route_id":"19614","agency_id":"70006","route_short_name":"49","route_long_name":"Lindbergh","route_type":3,"route_color":"#FFFFFF","route_text_color":"#000000"}],"agency_name":"Metro St. Louis"},"geometry":{"type":"Point","coordinates":[-90.40747,38.70665]}},{"type":"Feature","properties":{"stop_id":"6981","stop_code":"6981","stop_name":"MIDLAND @ LINK EB","stop_desc":"FAR SIDE MIDLAND @ LINK EB","wheelchair_boarding":2,"routes":[{"route_id":"19608","agency_id":"70006","route_short_name":"33","route_long_name":"Midland","route_type":3,"route_color":"#FFFFFF","route_text_color":"#000000"},{"route_id":"19614","agency_id":"70006","route_short_name":"49","route_long_name":"Lindbergh","route_type":3,"route_color":"#FFFFFF","route_text_color":"#000000"}],"agency_name":"Metro St. Louis"},"geometry":{"type":"Point","coordinates":[-90.40571,38.70517]}},{"type":"Feature","properties":{"stop_id":"8058","stop_code":"8058","stop_name":"FORSYTH @ NORTH HANLEY WB","stop_desc":"FAR SIDE FORSYTH @ NORTH HANLEY WB","wheelchair_boarding":1,"routes":[{"route_id":"19608","agency_id":"70006","route_short_name":"33","route_long_name":"Midland","route_type":3,"route_color":"#FFFFFF","route_text_color":"#000000"},{"route_id":"19628","agency_id":"70006","route_short_name":"79","route_long_name":"Ferguson-Clayton","route_type":3,"route_color":"#FFFFFF","route_text_color":"#000000"},{"route_id":"19633","agency_id":"70006","route_short_name":"97","route_long_name":"Delmar","route_type":3,"route_color":"#FFFFFF","route_text_color":"#000000"}],"agency_name":"Metro St. Louis"},"geometry":{"type":"Point","coordinates":[-90.33524,38.65006]}}]}