{"type":"FeatureCollection","features":[{"type":"Feature","properties":{"agency_name":"Metro St. Louis","route_id":"19620","agency_id":"70006","route_short_name":"61","route_long_name":"Chambers Rd","route_type":3,"route_color":"#FFFFFF","route_text_color":"#000000"},"geometry":{"type":"MultiLineString","coordinates":[[[-90.31561,38.71975],[-90.315,38.71977],[-90.31561,38.71975],[-90.31577,38.71967],[-90.31586,38.7195],[-90.31606,38.71875],[-90.3161,38.71825],[-90.31606,38.71782],[-90.31624,38.71782],[-90.31782,38.71823],[-90.31762,38.71869],[-90.31721,38.71952],[-90.31716,38.71967],[-90.3171,38.72013],[-90.31713,38.72098],[-90.31719,38.72146],[-90.31718,38.72166],[-90.31708,38.7221],[-90.31685,38.7229],[-90.31677,38.72334],[-90.31679,38.72365],[-90.31687,38.72395],[-90.31696,38.72414],[-90.31723,38.72455],[-90.31906,38.72665],[-90.31928,38.72689],[-90.31953,38.72712],[-90.3198,38.72732],[-90.32011,38.7275],[-90.32373,38.72935],[-90.32411,38.72958],[-90.32439,38.72978],[-90.32519,38.73046],[-90.32658,38.73149],[-90.32729,38.73206],[-90.33078,38.73469],[-90.33102,38.73493],[-90.33123,38.73519],[-90.33162,38.73574],[-90.33447,38.74017],[-90.33456,38.74036],[-90.33465,38.74067],[-90.33469,38.74089],[-90.3347,38.74116],[-90.33469,38.7432],[-90.33471,38.74461],[-90.33496,38.74841],[-90.335,38.7489],[-90.33508,38.74955],[-90.33516,38.75003],[-90.33471,38.75006],[-90.33357,38.75004],[-90.32833,38.75001],[-90.32795,38.74998],[-90.32774,38.74993],[-90.32755,38.74988],[-90.32684,38.74962],[-90.32645,38.74952],[-90.32616,38.74948],[-90.32589,38.74946],[-90.32522,38.74945],[-90.32273,38.74944],[-90.32198,38.74942],[-90.32153,38.74937],[-90.31804,38.74848],[-90.31765,38.74833],[-90.31741,38.74819],[-90.31723,38.74806],[-90.31585,38.74678],[-90.31567,38.74666],[-90.31525,38.74648],[-90.31491,38.74642],[-90.31468,38.7464],[-90.31392,38.74638],[-90.31369,38.74634],[-90.31262,38.74632],[-90.31219,38.74633],[-90.31194,38.74638],[-90.31153,38.74651],[-90.31123,38.74664],[-90.311,38.74677],[-90.31051,38.7471],[-90.31027,38.74724],[-90.30995,38.7474],[-90.30977,38.74754],[-90.30971,38.74764],[-90.30903,38.74809],[-90.30861,38.74827],[-90.30838,38.74834],[-90.30718,38.74855],[-90.30569,38.74872],[-90.30489,38.74879],[-90.30232,38.7489],[-90.30153,38.74896],[-90.30066,38.74915],[-90.30036,38.7492],[-90.29998,38.74924],[-90.29647,38.74931],[-90.2904,38.7494],[-90.28767,38.74939],[-90.28536,38.74942],[-90.28445,38.74941],[-90.28197,38.74942],[-90.27316,38.74938],[-90.2718,38.74939],[-90.25529,38.74926],[-90.25443,38.74924],[-90.25353,38.74937],[-90.25303,38.74946],[-90.25277,38.74953],[-90.25172,38.74996],[-90.25016,38.75064],[-90.24972,38.7508],[-90.24915,38.75097],[-90.24852,38.75108],[-90.24711,38.75116],[-90.24442,38.7511],[-90.24173,38.75108],[-90.2415,38.75109],[-90.24091,38.75105],[-90.2385,38.75076],[-90.23638,38.75056],[-90.23502,38.75039],[-90.23033,38.7499],[-90.22996,38.74988],[-90.22912,38.74995],[-90.22848,38.74996],[-90.22402,38.74948],[-90.22486,38.74553],[-90.22512,38.74419],[-90.22552,38.74237],[-90.22609,38.73994],[-90.22615,38.7396],[-90.22621,38.73903],[-90.22618,38.73765],[-90.2262,38.73728],[-90.22624,38.73708],[-90.22639,38.73665],[-90.22667,38.73549],[-90.22714,38.73371],[-90.22744,38.73261],[-90.22786,38.73119],[-90.22793,38.73084],[-90.22808,38.73026],[-90.22816,38.72958],[-90.22815,38.72912],[-90.22805,38.72824],[-90.22792,38.72679],[-90.22792,38.72652],[-90.22794,38.72633],[-90.22353,38.72757],[-90.22325,38.72761],[-90.22319,38.72759],[-90.22316,38.72754],[-90.22318,38.72741],[-90.22332,38.72731],[-90.22369,38.72708],[-90.22376,38.72716],[-90.2238,38.72717]]]}},{"type":"Feature","properties":{"stop_id":"13330","stop_code":"13330","stop_name":"NORTH HANLEY TRANSIT CENTER","wheelchair_boarding":1,"routes":[{"route_id":"19594","agency_id":"70006","route_short_name":"4","route_long_name":"Natural Bridge","route_type":3,"route_color":"#FFFFFF","route_text_color":"#000000"},{"route_id":"19609","agency_id":"70006","route_short_name":"34","route_long_name":"Earth City","route_type":3,"route_color":"#FFFFFF","route_text_color":"#000000"},{"route_id":"19614","agency_id":"70006","route_short_name":"49","route_long_name":"Lindbergh","route_type":3,"route_color":"#FFFFFF","route_text_color":"#000000"},{"route_id":"19620","agency_id":"70006","route_short_name":"61","route_long_name":"Chambers Rd","route_type":3,"route_color":"#FFFFFF","route_text_color":"#000000"},{"route_id":"19625","agency_id":"70006","route_short_name":"76","route_long_name":"N Hanley Shuttle","route_type":3,"route_color":"#FFFFFF","route_text_color":"#000000"},{"route_id":"19626","agency_id":"70006","route_short_name":"77","route_long_name":"Village Square","route_type":3,"route_color":"#FFFFFF","route_text_color":"#000000"},{"route_id":"19628","agency_id":"70006","route_short_name":"79","route_long_name":"Ferguson-Clayton","route_type":3,"route_color":"#FFFFFF","route_text_color":"#000000"}],"agency_name":"Metro St. Louis"},"geometry":{"type":"Point","coordinates":[-90.31495,38.71976]}},{"type":"Feature","properties":{"stop_id":"13567","stop_code":"13567","stop_name":"NORTH HANLEY @ AIRPORT NB","stop_desc":"NEAR SIDE NORTH HANLEY @ AIRPORT NB","wheelchair_boarding":1,"routes":[{"route_id":"19620","agency_id":"70006","route_short_name":"61","route_long_name":"Chambers Rd","route_type":3,"route_color":"#FFFFFF","route_text_color":"#000000"},{"route_id":"19625","agency_id":"70006","route_short_name":"76","route_long_name":"N Hanley Shuttle","route_type":3,"route_color":"#FFFFFF","route_text_color":"#000000"},{"route_id":"19626","agency_id":"70006","route_short_name":"77","route_long_name":"Village Square","route_type":3,"route_color":"#FFFFFF","route_text_color":"#000000"}],"agency_name":"Metro St. Louis"},"geometry":{"type":"Point","coordinates":[-90.33493,38.74927]}},{"type":"Feature","properties":{"stop_id":"14654","stop_code":"14654","stop_name":"NORTH HANLEY @ MADISON NB","stop_desc":"FAR SIDE NORTH HANLEY @ MADISON NB","wheelchair_boarding":1,"routes":[{"route_id":"19620","agency_id":"70006","route_short_name":"61","route_long_name":"Chambers Rd","route_type":3,"route_color":"#FFFFFF","route_text_color":"#000000"},{"route_id":"19625","agency_id":"70006","route_short_name":"76","route_long_name":"N Hanley Shuttle","route_type":3,"route_color":"#FFFFFF","route_text_color":"#000000"},{"route_id":"19626","agency_id":"70006","route_short_name":"77","route_long_name":"Village Square","route_type":3,"route_color":"#FFFFFF","route_text_color":"#000000"},{"route_id":"19635","agency_id":"70006","route_short_name":"100","route_long_name":"Hazelwood","route_type":3,"route_color":"#FFFFFF","route_text_color":"#000000"}],"agency_name":"Metro St. Louis"},"geometry":{"type":"Point","coordinates":[-90.33479,38.74691]}},{"type":"Feature","properties":{"stop_id":"14723","stop_code":"14723","stop_name":"AIRPORT @ GARFIELD EB","stop_desc":"NEAR SIDE AIRPORT @ GARFIELD EB","wheelchair_boarding":2,"routes":[{"route_id":"19620","agency_id":"70006","route_short_name":"61","route_long_name":"Chambers Rd","route_type":3,"route_color":"#FFFFFF","route_text_color":"#000000"}],"agency_name":"Metro St. Louis"},"geometry":{"type":"Point","coordinates":[-90.33372,38.74998]}},{"type":"Feature","properties":{"stop_id":"15073","stop_code":"15073","stop_name":"RIVERVIEW @ BROADWAY EB","stop_desc":"FAR SIDE RIVERVIEW @ BROADWAY EB","wheelchair_boarding":2,"routes":[{"route_id":"19601","agency_id":"70006","route_short_name":"16","route_long_name":"City Limits","route_type":3,"route_color":"#FFFFFF","route_text_color":"#000000"},{"route_id":"19611","agency_id":"70006","route_short_name":"40","route_long_name":"Broadway-Halls Ferry","route_type":3,"route_color":"#FFFFFF","route_text_color":"#000000"},{"route_id":"19612","agency_id":"70006","route_short_name":"41","route_long_name":"Lee","route_type":3,"route_color":"#FFFFFF","route_text_color":"#000000"},{"route_id":"19619","agency_id":"70006","route_short_name":"60","route_long_name":"Shepley-Lilac","route_type":3,"route_color":"#FFFFFF","route_text_color":"#000000"},{"route_id":"19620","agency_id":"70006","route_short_name":"61","route_long_name":"Chambers Rd","route_type":3,"route_color":"#FFFFFF","route_text_color":"#000000"},{"route_id":"19621","agency_id":"70006","route_short_name":"64","route_long_name":"Lucas-Hunt","route_type":3,"route_color":"#FFFFFF","route_text_color":"#000000"},{"route_id":"19627","agency_id":"70006","route_short_name":"78","route_long_name":"Bellefontaine","route_type":3,"route_color":"#FFFFFF","route_text_color":"#000000"},{"route_id":"19629","agency_id":"70006","route_short_name":"90","route_long_name":"Hampton","route_type":3,"route_color":"#FFFFFF","route_text_color":"#000000"}],"agency_name":"Metro St. Louis"},"geometry":{"type":"Point","coordinates":[-90.22708,38.72658]}},{"type":"Feature","properties":{"stop_id":"16090","stop_code":"16090","stop_name":"RIVERVIEW TRANSIT CENTER","wheelchair_boarding":1,"routes":[{"route_id":"19620","agency_id":"70006","route_short_name":"61","route_long_name":"Chambers Rd","route_type":3,"route_color":"#FFFFFF","route_text_color":"#000000"},{"route_id":"19621","agency_id":"70006","route_short_name":"64","route_long_name":"Lucas-Hunt","route_type":3,"route_color":"#FFFFFF","route_text_color":"#000000"},{"route_id":"19627","agency_id":"70006","route_short_name":"78","route_long_name":"Bellefontaine","route_type":3,"route_color":"#FFFFFF","route_text_color":"#000000"},{"route_id":"19629","agency_id":"70006","route_short_name":"90","route_long_name":"Hampton","route_type":3,"route_color":"#FFFFFF","route_text_color":"#000000"}],"agency_name":"Metro St. Louis"},"geometry":{"type":"Point","coordinates":[-90.22399,38.72717]}},{"type":"Feature","properties":{"stop_id":"16404","stop_code":"16404","stop_name":"NORTH HANLEY @ IRVINGTON NB","stop_desc":"FAR SIDE NORTH HANLEY @ IRVINGTON NB","wheelchair_boarding":2,"routes":[{"route_id":"19620","agency_id":"70006","route_short_name":"61","route_long_name":"Chambers Rd","route_type":3,"route_color":"#FFFFFF","route_text_color":"#000000"},{"route_id":"19625","agency_id":"70006","route_short_name":"76","route_long_name":"N Hanley Shuttle","route_type":3,"route_color":"#FFFFFF","route_text_color":"#000000"},{"route_id":"19626","agency_id":"70006","route_short_name":"77","route_long_name":"Village Square","route_type":3,"route_color":"#FFFFFF","route_text_color":"#000000"},{"route_id":"19635","agency_id":"70006","route_short_name":"100","route_long_name":"Hazelwood","route_type":3,"route_color":"#FFFFFF","route_text_color":"#000000"}],"agency_name":"Metro St. Louis"},"geometry":{"type":"Point","coordinates":[-90.33064,38.73465]}},{"type":"Feature","properties":{"stop_id":"3708","stop_code":"3708","stop_name":"AIRPORT @ EVERGREEN EB","stop_desc":"FAR SIDE AIRPORT @ EVERGREEN EB","wheelchair_boarding":2,"routes":[{"route_id":"19620","agency_id":"70006","route_short_name":"61","route_long_name":"Chambers Rd","route_type":3,"route_color":"#FFFFFF","route_text_color":"#000000"}],"agency_name":"Metro St. Louis"},"geometry":{"type":"Point","coordinates":[-90.33137,38.74997]}},{"type":"Feature","properties":{"stop_id":"3710","stop_code":"3710","stop_name":"AIRPORT @ WHITEWATER EB","stop_desc":"NEAR SIDE AIRPORT @ WHITEWATER EB","wheelchair_boarding":1,"routes":[{"route_id":"19620","agency_id":"70006","route_short_name":"61","route_long_name":"Chambers Rd","route_type":3,"route_color":"#FFFFFF","route_text_color":"#000000"}],"agency_name":"Metro St. Louis"},"geometry":{"type":"Point","coordinates":[-90.32667,38.7495]}},{"type":"Feature","properties":{"stop_id":"3711","stop_code":"3711","stop_name":"AIRPORT @ FAY EB","stop_desc":"NEAR SIDE AIRPORT @ FAY EB","wheelchair_boarding":1,"routes":[{"route_id":"19620","agency_id":"70006","route_short_name":"61","route_long_name":"Chambers Rd","route_type":3,"route_color":"#FFFFFF","route_text_color":"#000000"}],"agency_name":"Metro St. Louis"},"geometry":{"type":"Point","coordinates":[-90.32481,38.7494]}},{"type":"Feature","properties":{"stop_id":"3712","stop_code":"3712","stop_name":"AIRPORT @ EATON EB","stop_desc":"FAR SIDE AIRPORT @ EATON EB","wheelchair_boarding":1,"routes":[{"route_id":"19620","agency_id":"70006","route_short_name":"61","route_long_name":"Chambers Rd","route_type":3,"route_color":"#FFFFFF","route_text_color":"#000000"}],"agency_name":"Metro St. Louis"},"geometry":{"type":"Point","coordinates":[-90.32157,38.74931]}},{"type":"Feature","properties":{"stop_id":"3713","stop_code":"3713","stop_name":"AIRPORT @ WULFF EB","stop_desc":"FAR SIDE AIRPORT @ WULFF EB","wheelchair_boarding":1,"routes":[{"route_id":"19620","agency_id":"70006","route_short_name":"61","route_long_name":"Chambers Rd","route_type":3,"route_color":"#FFFFFF","route_text_color":"#000000"}],"agency_name":"Metro St. Louis"},"geometry":{"type":"Point","coordinates":[-90.31907,38.74869]}},{"type":"Feature","properties":{"stop_id":"3715","stop_code":"3715","stop_name":"AIRPORT @ DADE EB","stop_desc":"NEAR SIDE AIRPORT @ DADE EB","wheelchair_boarding":1,"routes":[{"route_id":"19620","agency_id":"70006","route_short_name":"61","route_long_name":"Chambers Rd","route_type":3,"route_color":"#FFFFFF","route_text_color":"#000000"}],"agency_name":"Metro St. Louis"},"geometry":{"type":"Point","coordinates":[-90.31541,38.74645]}},{"type":"Feature","properties":{"stop_id":"3732","stop_code":"3732","stop_name":"HEREFORD @ FLORISSANT EB","stop_desc":"FAR SIDE HEREFORD @ FLORISSANT EB","wheelchair_boarding":1,"routes":[{"route_id":"19620","agency_id":"70006","route_short_name":"61","route_long_name":"Chambers Rd","route_type":3,"route_color":"#FFFFFF","route_text_color":"#000000"}],"agency_name":"Metro St. Louis"},"geometry":{"type":"Point","coordinates":[-90.30665,38.74854]}},{"type":"Feature","properties":{"stop_id":"3735","stop_code":"3735","stop_name":"HEREFORD @ ELIZABETH EB","stop_desc":"NEAR SIDE HEREFORD @ ELIZABETH EB","wheelchair_boarding":1,"routes":[{"route_id":"19620","agency_id":"70006","route_short_name":"61","route_long_name":"Chambers Rd","route_type":3,"route_color":"#FFFFFF","route_text_color":"#000000"}],"agency_name":"Metro St. Louis"},"geometry":{"type":"Point","coordinates":[-90.29985,38.74918]}},{"type":"Feature","properties":{"stop_id":"3736","stop_code":"3736","stop_name":"CHAMBERS @ MILLMAN EB","stop_desc":"NEAR SIDE CHAMBERS @ MILLMAN EB","wheelchair_boarding":2,"routes":[{"route_id":"19620","agency_id":"70006","route_short_name":"61","route_long_name":"Chambers Rd","route_type":3,"route_color":"#FFFFFF","route_text_color":"#000000"}],"agency_name":"Metro St. Louis"},"geometry":{"type":"Point","coordinates":[-90.29776,38.74922]}},{"type":"Feature","properties":{"stop_id":"3737","stop_code":"3737","stop_name":"CHAMBERS @ HARTNETT EB","stop_desc":"FAR SIDE CHAMBERS @ HARTNETT EB","wheelchair_boarding":1,"routes":[{"route_id":"19620","agency_id":"70006","route_short_name":"61","route_long_name":"Chambers Rd","route_type":3,"route_color":"#FFFFFF","route_text_color":"#000000"}],"agency_name":"Metro St. Louis"},"geometry":{"type":"Point","coordinates":[-90.29403,38.74928]}},{"type":"Feature","properties":{"stop_id":"3739","stop_code":"3739","stop_name":"CHAMBERS @ DELWORTH COURT EB","stop_desc":"NEAR SIDE CHAMBERS @ DELWORTH COURT EB","wheelchair_boarding":1,"routes":[{"route_id":"19620","agency_id":"70006","route_short_name":"61","route_long_name":"Chambers Rd","route_type":3,"route_color":"#FFFFFF","route_text_color":"#000000"}],"agency_name":"Metro St. Louis"},"geometry":{"type":"Point","coordinates":[-90.28989,38.74936]}},{"type":"Feature","properties":{"stop_id":"3740","stop_code":"3740","stop_name":"CHAMBERS @ FORESTWOOD EB","stop_desc":"FAR SIDE CHAMBERS @ FORESTWOOD EB","wheelchair_boarding":1,"routes":[{"route_id":"19620","agency_id":"70006","route_short_name":"61","route_long_name":"Chambers Rd","route_type":3,"route_color":"#FFFFFF","route_text_color":"#000000"}],"agency_name":"Metro St. Louis"},"geometry":{"type":"Point","coordinates":[-90.28732,38.74934]}},{"type":"Feature","properties":{"stop_id":"3742","stop_code":"3742","stop_name":"CHAMBERS @ DELLWOOD EB","stop_desc":"FAR SIDE CHAMBERS @ DELLWOOD EB","wheelchair_boarding":1,"routes":[{"route_id":"19620","agency_id":"70006","route_short_name":"61","route_long_name":"Chambers Rd","route_type":3,"route_color":"#FFFFFF","route_text_color":"#000000"}],"agency_name":"Metro St. Louis"},"geometry":{"type":"Point","coordinates":[-90.28284,38.74935]}},{"type":"Feature","properties":{"stop_id":"4614","stop_code":"4614","stop_name":"CHAMBERS @ WEST FLORISSANT EB","stop_desc":"FAR SIDE CHAMBERS @ WEST FLORISSANT EB","wheelchair_boarding":1,"routes":[{"route_id":"19620","agency_id":"70006","route_short_name":"61","route_long_name":"Chambers Rd","route_type":3,"route_color":"#FFFFFF","route_text_color":"#000000"}],"agency_name":"Metro St. Louis"},"geometry":{"type":"Point","coordinates":[-90.2789,38.74932]}},{"type":"Feature","properties":{"stop_id":"4615","stop_code":"4615","stop_name":"CHAMBERS @ DENNIS EB","stop_desc":"NEAR SIDE CHAMBERS @ DENNIS EB","wheelchair_boarding":2,"routes":[{"route_id":"19620","agency_id":"70006","route_short_name":"61","route_long_name":"Chambers Rd","route_type":3,"route_color":"#FFFFFF","route_text_color":"#000000"}],"agency_name":"Metro St. Louis"},"geometry":{"type":"Point","coordinates":[-90.27656,38.74936]}},{"type":"Feature","properties":{"stop_id":"4616","stop_code":"4616","stop_name":"CHAMBERS @ LORNA EB","stop_desc":"NEAR SIDE CHAMBERS @ LORNA EB","wheelchair_boarding":1,"routes":[{"route_id":"19620","agency_id":"70006","route_short_name":"61","route_long_name":"Chambers Rd","route_type":3,"route_color":"#FFFFFF","route_text_color":"#000000"}],"agency_name":"Metro St. Louis"},"geometry":{"type":"Point","coordinates":[-90.27482,38.74933]}},{"type":"Feature","properties":{"stop_id":"4617","stop_code":"4617","stop_name":"CHAMBERS @ MEDFORD EB","stop_desc":"NEAR SIDE CHAMBERS @ MEDFORD EB","wheelchair_boarding":1,"routes":[{"route_id":"19620","agency_id":"70006","route_short_name":"61","route_long_name":"Chambers Rd","route_type":3,"route_color":"#FFFFFF","route_text_color":"#000000"}],"agency_name":"Metro St. Louis"},"geometry":{"type":"Point","coordinates":[-90.27328,38.74935]}},{"type":"Feature","properties":{"stop_id":"4618","stop_code":"4618","stop_name":"CHAMBERS @ SCOTTDALE EB","stop_desc":"NEAR SIDE CHAMBERS @ SCOTTDALE EB","wheelchair_boarding":1,"routes":[{"route_id":"19620","agency_id":"70006","route_short_name":"61","route_long_name":"Chambers Rd","route_type":3,"route_color":"#FFFFFF","route_text_color":"#000000"}],"agency_name":"Metro St. Louis"},"geometry":{"type":"Point","coordinates":[-90.27094,38.74931]}},{"type":"Feature","properties":{"stop_id":"4619","stop_code":"4619","stop_name":"CHAMBERS @ CLAIRMONT EB","stop_desc":"FAR SIDE CHAMBERS @ CLAIRMONT EB","wheelchair_boarding":1,"routes":[{"route_id":"19620","agency_id":"70006","route_short_name":"61","route_long_name":"Chambers Rd","route_type":3,"route_color":"#FFFFFF","route_text_color":"#000000"}],"agency_name":"Metro St. Louis"},"geometry":{"type":"Point","coordinates":[-90.26839,38.74929]}},{"type":"Feature","properties":{"stop_id":"4622","stop_code":"4622","stop_name":"CHAMBERS @ GREEN VALLEY EB","stop_desc":"FAR SIDE CHAMBERS @ GREEN VALLEY EB","wheelchair_boarding":2,"routes":[{"route_id":"19620","agency_id":"70006","route_short_name":"61","route_long_name":"Chambers Rd","route_type":3,"route_color":"#FFFFFF","route_text_color":"#000000"}],"agency_name":"Metro St. Louis"},"geometry":{"type":"Point","coordinates":[-90.26357,38.74929]}},{"type":"Feature","properties":{"stop_id":"4625","stop_code":"4625","stop_name":"CHAMBERS @ JACOBI EB","stop_desc":"FAR SIDE CHAMBERS @ JACOBI EB","wheelchair_boarding":1,"routes":[{"route_id":"19620","agency_id":"70006","route_short_name":"61","route_long_name":"Chambers Rd","route_type":3,"route_color":"#FFFFFF","route_text_color":"#000000"}],"agency_name":"Metro St. Louis"},"geometry":{"type":"Point","coordinates":[-90.25978,38.74922]}},{"type":"Feature","properties":{"stop_id":"4626","stop_code":"4626","stop_name":"CHAMBERS @ NOLTE EB","stop_desc":"NEAR SIDE CHAMBERS @ NOLTE EB","wheelchair_boarding":2,"routes":[{"route_id":"19620","agency_id":"70006","route_short_name":"61","route_long_name":"Chambers Rd","route_type":3,"route_color":"#FFFFFF","route_text_color":"#000000"}],"agency_name":"Metro St. Louis"},"geometry":{"type":"Point","coordinates":[-90.25828,38.74925]}},{"type":"Feature","properties":{"stop_id":"4627","stop_code":"4627","stop_name":"CHAMBERS @ HOBBITS GLEN COURT EB","stop_desc":"NEAR SIDE CHAMBERS @ HOBBITS GLEN COURT EB","wheelchair_boarding":1,"routes":[{"route_id":"19620","agency_id":"70006","route_short_name":"61","route_long_name":"Chambers Rd","route_type":3,"route_color":"#FFFFFF","route_text_color":"#000000"}],"agency_name":"Metro St. Louis"},"geometry":{"type":"Point","coordinates":[-90.25626,38.74923]}},{"type":"Feature","properties":{"stop_id":"4628","stop_code":"4628","stop_name":"CHAMBERS @ HALLS FERRY EB","stop_desc":"FAR SIDE CHAMBERS @ HALLS FERRY EB","wheelchair_boarding":2,"routes":[{"route_id":"19620","agency_id":"70006","route_short_name":"61","route_long_name":"Chambers Rd","route_type":3,"route_color":"#FFFFFF","route_text_color":"#000000"}],"agency_name":"Metro St. Louis"},"geometry":{"type":"Point","coordinates":[-90.25366,38.7493]}},{"type":"Feature","properties":{"stop_id":"4629","stop_code":"4629","stop_name":"CHAMBERS @ MONARCH EB","stop_desc":"FAR SIDE CHAMBERS @ MONARCH EB","wheelchair_boarding":1,"routes":[{"route_id":"19620","agency_id":"70006","route_short_name":"61","route_long_name":"Chambers Rd","route_type":3,"route_color":"#FFFFFF","route_text_color":"#000000"}],"agency_name":"Metro St. Louis"},"geometry":{"type":"Point","coordinates":[-90.25019,38.75053]}},{"type":"Feature","properties":{"stop_id":"4632","stop_code":"4632","stop_name":"CHAMBERS @ DUKE EB","stop_desc":"NEAR SIDE CHAMBERS @ DUKE EB","wheelchair_boarding":1,"routes":[{"route_id":"19620","agency_id":"70006","route_short_name":"61","route_long_name":"Chambers Rd","route_type":3,"route_color":"#FFFFFF","route_text_color":"#000000"}],"agency_name":"Metro St. Louis"},"geometry":{"type":"Point","coordinates":[-90.24581,38.75106]}},{"type":"Feature","properties":{"stop_id":"4634","stop_code":"4634","stop_name":"CHAMBERS @ GARDNER EB","stop_desc":"FAR SIDE CHAMBERS @ GARDNER EB","wheelchair_boarding":1,"routes":[{"route_id":"19620","agency_id":"70006","route_short_name":"61","route_long_name":"Chambers Rd","route_type":3,"route_color":"#FFFFFF","route_text_color":"#000000"}],"agency_name":"Metro St. Louis"},"geometry":{"type":"Point","coordinates":[-90.24093,38.75099]}},{"type":"Feature","properties":{"stop_id":"4635","stop_code":"4635","stop_name":"CHAMBERS @ NORBRIDGE EB","stop_desc":"NEAR SIDE CHAMBERS @ NORBRIDGE EB","wheelchair_boarding":1,"routes":[{"route_id":"19620","agency_id":"70006","route_short_name":"61","route_long_name":"Chambers Rd","route_type":3,"route_color":"#FFFFFF","route_text_color":"#000000"}],"agency_name":"Metro St. Louis"},"geometry":{"type":"Point","coordinates":[-90.23794,38.75065]}},{"type":"Feature","properties":{"stop_id":"4637","stop_code":"4637","stop_name":"CHAMBERS @ NORTHAMPTON EB","stop_desc":"NEAR SIDE CHAMBERS @ NORTHAMPTON EB","wheelchair_boarding":1,"routes":[{"route_id":"19620","agency_id":"70006","route_short_name":"61","route_long_name":"Chambers Rd","route_type":3,"route_color":"#FFFFFF","route_text_color":"#000000"}],"agency_name":"Metro St. Louis"},"geometry":{"type":"Point","coordinates":[-90.23491,38.75035]}},{"type":"Feature","properties":{"stop_id":"4639","stop_code":"4639","stop_name":"CHAMBERS @ COBURG LANDS EB","stop_desc":"NEAR SIDE CHAMBERS @ COBURG LANDS EB","wheelchair_boarding":2,"routes":[{"route_id":"19620","agency_id":"70006","route_short_name":"61","route_long_name":"Chambers Rd","route_type":3,"route_color":"#FFFFFF","route_text_color":"#000000"}],"agency_name":"Metro St. Louis"},"geometry":{"type":"Point","coordinates":[-90.23192,38.75]}},{"type":"Feature","properties":{"stop_id":"4640","stop_code":"4640","stop_name":"CHAMBERS @ COLONNADE MEADOWS EB","stop_desc":"NEAR SIDE CHAMBERS @ COLONNADE MEADOWS EB","wheelchair_boarding":2,"routes":[{"route_id":"19620","agency_id":"70006","route_short_name":"61","route_long_name":"Chambers Rd","route_type":3,"route_color":"#FFFFFF","route_text_color":"#000000"}],"agency_name":"Metro St. Louis"},"geometry":{"type":"Point","coordinates":[-90.22894,38.74994]}},{"type":"Feature","properties":{"stop_id":"4642","stop_code":"4642","stop_name":"CHAMBERS @ BELLEFONTAINE EB","stop_desc":"NEAR SIDE CHAMBERS @ BELLEFONTAINE EB","wheelchair_boarding":1,"routes":[{"route_id":"19620","agency_id":"70006","route_short_name":"61","route_long_name":"Chambers Rd","route_type":3,"route_color":"#FFFFFF","route_text_color":"#000000"}],"agency_name":"Metro St. Louis"},"geometry":{"type":"Point","coordinates":[-90.22437,38.74945]}},{"type":"Feature","properties":{"stop_id":"6064","stop_code":"6064","stop_name":"NORTH HANLEY @ EVANS NB","stop_desc":"NEAR SIDE NORTH HANLEY @ EVANS NB","wheelchair_boarding":1,"routes":[{"route_id":"19620","agency_id":"70006","route_short_name":"61","route_long_name":"Chambers Rd","route_type":3,"route_color":"#FFFFFF","route_text_color":"#000000"},{"route_id":"19625","agency_id":"70006","route_short_name":"76","route_long_name":"N Hanley Shuttle","route_type":3,"route_color":"#FFFFFF","route_text_color":"#000000"},{"route_id":"19626","agency_id":"70006","route_short_name":"77","route_long_name":"Village Square","route_type":3,"route_color":"#FFFFFF","route_text_color":"#000000"},{"route_id":"19635","agency_id":"70006","route_short_name":"100","route_long_name":"Hazelwood","route_type":3,"route_color":"#FFFFFF","route_text_color":"#000000"}],"agency_name":"Metro St. Louis"},"geometry":{"type":"Point","coordinates":[-90.3168,38.72282]}},{"type":"Feature","properties":{"stop_id":"6067","stop_code":"6067","stop_name":"NORTH HANLEY @ ZEV NB","stop_desc":"FAR SIDE NORTH HANLEY @ ZEV NB","wheelchair_boarding":1,"routes":[{"route_id":"19620","agency_id":"70006","route_short_name":"61","route_long_name":"Chambers Rd","route_type":3,"route_color":"#FFFFFF","route_text_color":"#000000"},{"route_id":"19625","agency_id":"70006","route_short_name":"76","route_long_name":"N Hanley Shuttle","route_type":3,"route_color":"#FFFFFF","route_text_color":"#000000"},{"route_id":"19626","agency_id":"70006","route_short_name":"77","route_long_name":"Village Square","route_type":3,"route_color":"#FFFFFF","route_text_color":"#000000"},{"route_id":"19635","agency_id":"70006","route_short_name":"100","route_long_name":"Hazelwood","route_type":3,"route_color":"#FFFFFF","route_text_color":"#000000"}],"agency_name":"Metro St. Louis"},"geometry":{"type":"Point","coordinates":[-90.3216,38.72835]}},{"type":"Feature","properties":{"stop_id":"6068","stop_code":"6068","stop_name":"NORTH HANLEY @ REV JOHN MITCHELL NB","stop_desc":"NEAR SIDE NORTH HANLEY @ REV JOHN MITCHELL NB","wheelchair_boarding":1,"routes":[{"route_id":"19620","agency_id":"70006","route_short_name":"61","route_long_name":"Chambers Rd","route_type":3,"route_color":"#FFFFFF","route_text_color":"#000000"},{"route_id":"19625","agency_id":"70006","route_short_name":"76","route_long_name":"N Hanley Shuttle","route_type":3,"route_color":"#FFFFFF","route_text_color":"#000000"},{"route_id":"19626","agency_id":"70006","route_short_name":"77","route_long_name":"Village Square","route_type":3,"route_color":"#FFFFFF","route_text_color":"#000000"},{"route_id":"19635","agency_id":"70006","route_short_name":"100","route_long_name":"Hazelwood","route_type":3,"route_color":"#FFFFFF","route_text_color":"#000000"}],"agency_name":"Metro St. Louis"},"geometry":{"type":"Point","coordinates":[-90.32493,38.73034]}},{"type":"Feature","properties":{"stop_id":"6078","stop_code":"6078","stop_name":"NORTH HANLEY @ SCUDDER NB","stop_desc":"NEAR SIDE NORTH HANLEY @ SCUDDER NB","wheelchair_boarding":1,"routes":[{"route_id":"19620","agency_id":"70006","route_short_name":"61","route_long_name":"Chambers Rd","route_type":3,"route_color":"#FFFFFF","route_text_color":"#000000"},{"route_id":"19625","agency_id":"70006","route_short_name":"76","route_long_name":"N Hanley Shuttle","route_type":3,"route_color":"#FFFFFF","route_text_color":"#000000"},{"route_id":"19626","agency_id":"70006","route_short_name":"77","route_long_name":"Village Square","route_type":3,"route_color":"#FFFFFF","route_text_color":"#000000"},{"route_id":"19635","agency_id":"70006","route_short_name":"100","route_long_name":"Hazelwood","route_type":3,"route_color":"#FFFFFF","route_text_color":"#000000"}],"agency_name":"Metro St. Louis"},"geometry":{"type":"Point","coordinates":[-90.3346,38.74079]}},{"type":"Feature","properties":{"stop_id":"6079","stop_code":"6079","stop_name":"5860 NORTH HANLEY NB","stop_desc":"MID-BLOCK 5860 NORTH HANLEY NB","wheelchair_boarding":1,"routes":[{"route_id":"19620","agency_id":"70006","route_short_name":"61","route_long_name":"Chambers Rd","route_type":3,"route_color":"#FFFFFF","route_text_color":"#000000"},{"route_id":"19625","agency_id":"70006","route_short_name":"76","route_long_name":"N Hanley Shuttle","route_type":3,"route_color":"#FFFFFF","route_text_color":"#000000"},{"route_id":"19626","agency_id":"70006","route_short_name":"77","route_long_name":"Village Square","route_type":3,"route_color":"#FFFFFF","route_text_color":"#000000"},{"route_id":"19635","agency_id":"70006","route_short_name":"100","route_long_name":"Hazelwood","route_type":3,"route_color":"#FFFFFF","route_text_color":"#000000"}],"agency_name":"Metro St. Louis"},"geometry":{"type":"Point","coordinates":[-90.33463,38.74285]}},{"type":"Feature","properties":{"stop_id":"6080","stop_code":"6080","stop_name":"NORTH HANLEY @ 5TH AVENUE NB","stop_desc":"FAR SIDE NORTH HANLEY @ 5TH AVENUE NB","wheelchair_boarding":1,"routes":[{"route_id":"19620","agency_id":"70006","route_short_name":"61","route_long_name":"Chambers Rd","route_type":3,"route_color":"#FFFFFF","route_text_color":"#000000"},{"route_id":"19625","agency_id":"70006","route_short_name":"76","route_long_name":"N Hanley Shuttle","route_type":3,"route_color":"#FFFFFF","route_text_color":"#000000"},{"route_id":"19626","agency_id":"70006","route_short_name":"77","route_long_name":"Village Square","route_type":3,"route_color":"#FFFFFF","route_text_color":"#000000"},{"route_id":"19635","agency_id":"70006","route_short_name":"100","route_long_name":"Hazelwood","route_type":3,"route_color":"#FFFFFF","route_text_color":"#000000"}],"agency_name":"Metro St. Louis"},"geometry":{"type":"Point","coordinates":[-90.33468,38.74538]}},{"type":"Feature","properties":{"stop_id":"6766","stop_code":"6766","stop_name":"BELLEFONTAINE @ CHAMBERS SB","stop_desc":"FAR SIDE BELLEFONTAINE @ CHAMBERS SB","wheelchair_boarding":1,"routes":[{"route_id":"19619","agency_id":"70006","route_short_name":"60","route_long_name":"Shepley-Lilac","route_type":3,"route_color":"#FFFFFF","route_text_color":"#000000"},{"route_id":"19620","agency_id":"70006","route_short_name":"61","route_long_name":"Chambers Rd","route_type":3,"route_color":"#FFFFFF","route_text_color":"#000000"},{"route_id":"19627","agency_id":"70006","route_short_name":"78","route_long_name":"Bellefontaine","route_type":3,"route_color":"#FFFFFF","route_text_color":"#000000"}],"agency_name":"Metro St. Louis"},"geometry":{"type":"Point","coordinates":[-90.22432,38.74836]}},{"type":"Feature","properties":{"stop_id":"6767","stop_code":"6767","stop_name":"BELLEFONTAINE @ GREEN ACRES SB","stop_desc":"FAR SIDE BELLEFONTAINE @ GREEN ACRES SB","wheelchair_boarding":2,"routes":[{"route_id":"19619","agency_id":"70006","route_short_name":"60","route_long_name":"Shepley-Lilac","route_type":3,"route_color":"#FFFFFF","route_text_color":"#000000"},{"route_id":"19620","agency_id":"70006","route_short_name":"61","route_long_name":"Chambers Rd","route_type":3,"route_color":"#FFFFFF","route_text_color":"#000000"},{"route_id":"19627","agency_id":"70006","route_short_name":"78","route_long_name":"Bellefontaine","route_type":3,"route_color":"#FFFFFF","route_text_color":"#000000"}],"agency_name":"Metro St. Louis"},"geometry":{"type":"Point","coordinates":[-90.22467,38.74661]}},{"type":"Feature","properties":{"stop_id":"6768","stop_code":"6768","stop_name":"BELLEFONTAINE @ FOREST HOME SB","stop_desc":"NEAR SIDE BELLEFONTAINE @ FOREST HOME SB","wheelchair_boarding":2,"routes":[{"route_id":"19619","agency_id":"70006","route_short_name":"60","route_long_name":"Shepley-Lilac","route_type":3,"route_color":"#FFFFFF","route_text_color":"#000000"},{"route_id":"19620","agency_id":"70006","route_short_name":"61","route_long_name":"Chambers Rd","route_type":3,"route_color":"#FFFFFF","route_text_color":"#000000"},{"route_id":"19627","agency_id":"70006","route_short_name":"78","route_long_name":"Bellefontaine","route_type":3,"route_color":"#FFFFFF","route_text_color":"#000000"}],"agency_name":"Metro St. Louis"},"geometry":{"type":"Point","coordinates":[-90.22504,38.74475]}},{"type":"Feature","properties":{"stop_id":"6769","stop_code":"6769","stop_name":"BELLEFONTAINE @ ZELLWEGER SB","stop_desc":"FAR SIDE BELLEFONTAINE @ ZELLWEGER SB","wheelchair_boarding":2,"routes":[{"route_id":"19619","agency_id":"70006","route_short_name":"60","route_long_name":"Shepley-Lilac","route_type":3,"route_color":"#FFFFFF","route_text_color":"#000000"},{"route_id":"19620","agency_id":"70006","route_short_name":"61","route_long_name":"Chambers Rd","route_type":3,"route_color":"#FFFFFF","route_text_color":"#000000"},{"route_id":"19627","agency_id":"70006","route_short_name":"78","route_long_name":"Bellefontaine","route_type":3,"route_color":"#FFFFFF","route_text_color":"#000000"}],"agency_name":"Metro St. Louis"},"geometry":{"type":"Point","coordinates":[-90.22581,38.74126]}},{"type":"Feature","properties":{"stop_id":"6770","stop_code":"6770","stop_name":"BELLEFONTAINE @ ST. CYR SB","stop_desc":"FAR SIDE BELLEFONTAINE @ ST. CYR SB","wheelchair_boarding":2,"routes":[{"route_id":"19619","agency_id":"70006","route_short_name":"60","route_long_name":"Shepley-Lilac","route_type":3,"route_color":"#FFFFFF","route_text_color":"#000000"},{"route_id":"19620","agency_id":"70006","route_short_name":"61","route_long_name":"Chambers Rd","route_type":3,"route_color":"#FFFFFF","route_text_color":"#000000"},{"route_id":"19627","agency_id":"70006","route_short_name":"78","route_long_name":"Bellefontaine","route_type":3,"route_color":"#FFFFFF","route_text_color":"#000000"}],"agency_name":"Metro St. Louis"},"geometry":{"type":"Point","coordinates":[-90.22635,38.7371]}},{"type":"Feature","properties":{"stop_id":"6771","stop_code":"6771","stop_name":"BELLEFONTAINE @ TEURVILLE SB","stop_desc":"FAR SIDE BELLEFONTAINE @ TEURVILLE SB","wheelchair_boarding":2,"routes":[{"route_id":"19619","agency_id":"70006","route_short_name":"60","route_long_name":"Shepley-Lilac","route_type":3,"route_color":"#FFFFFF","route_text_color":"#000000"},{"route_id":"19620","agency_id":"70006","route_short_name":"61","route_long_name":"Chambers Rd","route_type":3,"route_color":"#FFFFFF","route_text_color":"#000000"},{"route_id":"19627","agency_id":"70006","route_short_name":"78","route_long_name":"Bellefontaine","route_type":3,"route_color":"#FFFFFF","route_text_color":"#000000"}],"agency_name":"Metro St. Louis"},"geometry":{"type":"Point","coordinates":[-90.22726,38.73355]}},{"type":"Feature","properties":{"stop_id":"6772","stop_code":"6772","stop_name":"BELLEFONTAINE @ FONTAINE PLACE SB","stop_desc":"NEAR SIDE BELLEFONTAINE @ FONTAINE PLACE SB","wheelchair_boarding":2,"routes":[{"route_id":"19619","agency_id":"70006","route_short_name":"60","route_long_name":"Shepley-Lilac","route_type":3,"route_color":"#FFFFFF","route_text_color":"#000000"},{"route_id":"19620","agency_id":"70006","route_short_name":"61","route_long_name":"Chambers Rd","route_type":3,"route_color":"#FFFFFF","route_text_color":"#000000"},{"route_id":"19627","agency_id":"70006","route_short_name":"78","route_long_name":"Bellefontaine","route_type":3,"route_color":"#FFFFFF","route_text_color":"#000000"}],"agency_name":"Metro St. Louis"},"geometry":{"type":"Point","coordinates":[-90.22791,38.73109]}},{"type":"Feature","properties":{"stop_id":"7551","stop_code":"7551","stop_name":"AIRPORT @ MARGUERITE EB","stop_desc":"FAR SIDE AIRPORT @ MARGUERITE EB","wheelchair_boarding":2,"routes":[{"route_id":"19620","agency_id":"70006","route_short_name":"61","route_long_name":"Chambers Rd","route_type":3,"route_color":"#FFFFFF","route_text_color":"#000000"},{"route_id":"19628","agency_id":"70006","route_short_name":"79","route_long_name":"Ferguson-Clayton","route_type":3,"route_color":"#FFFFFF","route_text_color":"#000000"}],"agency_name":"Metro St. Louis"},"geometry":{"type":"Point","coordinates":[-90.31347,38.74632]}},{"type":"Feature","properties":{"stop_id":"7553","stop_code":"7553","stop_name":"AIRPORT @ CLARK EB","stop_desc":"NEAR SIDE AIRPORT @ CLARK EB","wheelchair_boarding":2,"routes":[{"route_id":"19620","agency_id":"70006","route_short_name":"61","route_long_name":"Chambers Rd","route_type":3,"route_color":"#FFFFFF","route_text_color":"#000000"},{"route_id":"19628","agency_id":"70006","route_short_name":"79","route_long_name":"Ferguson-Clayton","route_type":3,"route_color":"#FFFFFF","route_text_color":"#000000"}],"agency_name":"Metro St. Louis"},"geometry":{"type":"Point","coordinates":[-90.30963,38.74757]}}]}