{"type":"FeatureCollection","features":[{"type":"Feature","properties":{"agency_name":"Metro St. Louis","route_id":"19634","agency_id":"70006","route_short_name":"98","route_long_name":"Ballas-North Hanley","route_type":3,"route_color":"#FFFFFF","route_text_color":"#000000"},"geometry":{"type":"MultiLineString","coordinates":[[[-90.4428,38.63898],[-90.44277,38.63897],[-90.44285,38.63902],[-90.44289,38.6391],[-90.44287,38.63916],[-90.4428,38.63922],[-90.44274,38.63924],[-90.44267,38.63924],[-90.44113,38.63983],[-90.44104,38.64],[-90.44099,38.64014],[-90.44096,38.64043],[-90.44111,38.64044],[-90.44147,38.64041],[-90.44166,38.64036],[-90.44197,38.64024],[-90.44295,38.63981],[-90.44309,38.63977],[-90.44348,38.63971],[-90.44356,38.63777],[-90.44355,38.637],[-90.44358,38.63598],[-90.44416,38.63593],[-90.44443,38.63583],[-90.44457,38.63572],[-90.4447,38.63553],[-90.44479,38.63546],[-90.44497,38.63525],[-90.44502,38.63513],[-90.44505,38.63488],[-90.44505,38.63479],[-90.44495,38.63473],[-90.44488,38.63466],[-90.44484,38.63452],[-90.44477,38.63441],[-90.44459,38.63421],[-90.4442,38.63426],[-90.44359,38.63426],[-90.44359,38.63472]],[[-90.44346,38.64011],[-90.44348,38.63971],[-90.44345,38.64079],[-90.44428,38.64155],[-90.44518,38.64153],[-90.44562,38.64156],[-90.44594,38.64162],[-90.44651,38.64179],[-90.4465,38.64208],[-90.44653,38.64227],[-90.44656,38.64241],[-90.44666,38.64271],[-90.44686,38.6427],[-90.4471,38.64272],[-90.44731,38.64278],[-90.4475,38.64287],[-90.44764,38.64298],[-90.44777,38.64312],[-90.44777,38.64354],[-90.44718,38.6435],[-90.44661,38.64342],[-90.44675,38.64311],[-90.44674,38.643]],[[-90.44345,38.64156],[-90.44428,38.64155],[-90.44345,38.64156],[-90.44345,38.64226],[-90.44341,38.64376],[-90.44339,38.64686],[-90.44335,38.64955],[-90.44326,38.65857],[-90.44327,38.65981],[-90.44325,38.6628],[-90.44327,38.66487],[-90.44332,38.66744],[-90.44333,38.6693],[-90.4433,38.67011],[-90.44325,38.67063],[-90.44316,38.67241],[-90.44306,38.67262],[-90.443,38.67286],[-90.44287,38.67307],[-90.44273,38.67322],[-90.44254,38.67337],[-90.44228,38.6735],[-90.44198,38.67358],[-90.44025,38.67396],[-90.43998,38.67404],[-90.43974,38.67416],[-90.43957,38.67428],[-90.43916,38.67475],[-90.43901,38.67486],[-90.43863,38.67505],[-90.43823,38.67515],[-90.4381,38.67522],[-90.43811,38.67544],[-90.43808,38.67571],[-90.43796,38.67619],[-90.43771,38.67748],[-90.43771,38.67764],[-90.43774,38.67781],[-90.43779,38.67799],[-90.43792,38.67828],[-90.43808,38.67851],[-90.43845,38.67892],[-90.43864,38.6791],[-90.4406,38.68132],[-90.44201,38.68297],[-90.44397,38.68522],[-90.44439,38.68573],[-90.44458,38.68601],[-90.44467,38.68625],[-90.44471,38.68656],[-90.44461,38.68749],[-90.4446,38.6878],[-90.44462,38.68806],[-90.44485,38.68887],[-90.44499,38.68928],[-90.44504,38.68955],[-90.44503,38.68983],[-90.44493,38.69027],[-90.44446,38.69188],[-90.44407,38.6934],[-90.4439,38.69395],[-90.44381,38.69417],[-90.44368,38.69441],[-90.44354,38.6946],[-90.44284,38.6954],[-90.44259,38.69571],[-90.44236,38.69607],[-90.44224,38.69632],[-90.44215,38.6966],[-90.44214,38.69668],[-90.44216,38.69706],[-90.44226,38.69749],[-90.44313,38.7004],[-90.44329,38.70077],[-90.44339,38.70095],[-90.44351,38.70112],[-90.44365,38.7013],[-90.44401,38.70164],[-90.44422,38.70179],[-90.44452,38.70197],[-90.4468,38.70325],[-90.44717,38.70343],[-90.44755,38.70359],[-90.44785,38.70369],[-90.44819,38.70378],[-90.44909,38.70391],[-90.44943,38.70393],[-90.45,38.7039],[-90.45038,38.70385],[-90.45078,38.70377],[-90.45122,38.70365],[-90.45216,38.70333],[-90.45267,38.70323],[-90.45294,38.70321],[-90.45457,38.7032],[-90.45698,38.70319],[-90.45724,38.70335],[-90.45731,38.70344],[-90.45734,38.70354],[-90.45736,38.70373],[-90.4572,38.70403],[-90.45704,38.70443],[-90.45695,38.70472],[-90.456,38.7084],[-90.45582,38.70921],[-90.45498,38.71269],[-90.45491,38.7129],[-90.45482,38.7131],[-90.45469,38.71331],[-90.4542,38.71399],[-90.45415,38.71408],[-90.45406,38.71426],[-90.45399,38.71454],[-90.44993,38.71451],[-90.44894,38.71454],[-90.44833,38.71454],[-90.44804,38.71461],[-90.44772,38.71465],[-90.44719,38.71465],[-90.44699,38.71468],[-90.44684,38.71475],[-90.44669,38.71491],[-90.4466,38.71505],[-90.44667,38.71597],[-90.44668,38.71636],[-90.44663,38.71757],[-90.44657,38.7179],[-90.44585,38.72085],[-90.44366,38.73036],[-90.44348,38.73088],[-90.44335,38.73139],[-90.44276,38.73402],[-90.44128,38.74035],[-90.44084,38.74211],[-90.44037,38.74382],[-90.44,38.74478],[-90.43982,38.74511],[-90.43962,38.74537],[-90.43942,38.74558],[-90.43909,38.74586],[-90.43869,38.74613],[-90.43826,38.74636],[-90.43777,38.74654],[-90.43729,38.74667],[-90.43693,38.74673],[-90.43654,38.74676],[-90.43591,38.74675],[-90.43546,38.7467],[-90.43456,38.74655],[-90.4337,38.74628],[-90.43295,38.7461],[-90.43208,38.74602],[-90.43098,38.74579],[-90.42016,38.74372],[-90.41956,38.74362],[-90.41876,38.74354],[-90.41824,38.74352],[-90.41765,38.74352],[-90.41695,38.74355],[-90.41274,38.74381],[-90.41228,38.74382],[-90.41162,38.74386],[-90.41079,38.74393],[-90.4074,38.74412],[-90.40596,38.74414],[-90.40535,38.74413],[-90.40439,38.74408],[-90.39104,38.74323],[-90.39066,38.74319],[-90.38626,38.74292],[-90.38488,38.74289],[-90.383,38.74295],[-90.38131,38.74303],[-90.38058,38.74304],[-90.38023,38.74303],[-90.37974,38.74298],[-90.3791,38.74289],[-90.37865,38.74279],[-90.37833,38.7427],[-90.37773,38.74249],[-90.3769,38.74212],[-90.3751,38.7412],[-90.3743,38.74081],[-90.3737,38.74055],[-90.37321,38.74037],[-90.37212,38.74005],[-90.37139,38.73989],[-90.37109,38.73986],[-90.37071,38.7398],[-90.36474,38.73917],[-90.36412,38.73907],[-90.36359,38.73896],[-90.36256,38.73868],[-90.36203,38.7385],[-90.36149,38.73827],[-90.36089,38.73799],[-90.35844,38.73675],[-90.35288,38.73377],[-90.35152,38.73308],[-90.35117,38.73296],[-90.35052,38.7328],[-90.34975,38.73274],[-90.34911,38.73278],[-90.34651,38.73313],[-90.34541,38.73322],[-90.34508,38.73323],[-90.34436,38.73319],[-90.34391,38.73313],[-90.34362,38.73307],[-90.34024,38.73222],[-90.33938,38.73197],[-90.33858,38.7317],[-90.33763,38.73133],[-90.33683,38.73098],[-90.3301,38.72779],[-90.3293,38.72742],[-90.329,38.7273],[-90.32847,38.72703],[-90.32788,38.7267],[-90.32711,38.72619],[-90.32673,38.7259],[-90.3249,38.72439],[-90.32435,38.72396],[-90.32256,38.7225],[-90.32181,38.72194],[-90.32156,38.72178],[-90.32131,38.72163],[-90.32054,38.72126],[-90.31966,38.72097],[-90.31954,38.72088],[-90.31946,38.72085],[-90.31811,38.72042],[-90.31761,38.72023],[-90.31729,38.72015],[-90.3171,38.72013],[-90.31716,38.71967],[-90.31721,38.71952],[-90.31762,38.71869],[-90.31782,38.71823],[-90.31624,38.71782],[-90.31606,38.71782],[-90.3161,38.71825],[-90.31605,38.7188],[-90.31578,38.71877],[-90.31546,38.71876],[-90.31514,38.7188],[-90.3152,38.71924],[-90.3153,38.71956]]]}},{"type":"Feature","properties":{"stop_id":"13526","stop_code":"13526","stop_name":"MERCY HOSPITAL DRIVEWAY","stop_desc":"MID-BLOCK MERCY HOSPITAL DRIVEWAY","wheelchair_boarding":1,"routes":[{"route_id":"19634","agency_id":"70006","route_short_name":"98","route_long_name":"Ballas-North Hanley","route_type":3,"route_color":"#FFFFFF","route_text_color":"#000000"}],"agency_name":"Metro St. Louis"},"geometry":{"type":"Point","coordinates":[-90.44692,38.64345]}},{"type":"Feature","properties":{"stop_id":"13967","stop_code":"13967","stop_name":"BALLAS TRANSIT CENTER","wheelchair_boarding":1,"routes":[{"route_id":"19617","agency_id":"70006","route_short_name":"58","route_long_name":"Chesterfield Valley","route_type":3,"route_color":"#FFFFFF","route_text_color":"#000000"},{"route_id":"19634","agency_id":"70006","route_short_name":"98","route_long_name":"Ballas-North Hanley","route_type":3,"route_color":"#FFFFFF","route_text_color":"#000000"}],"agency_name":"Metro St. Louis"},"geometry":{"type":"Point","coordinates":[-90.44237,38.63899]}},{"type":"Feature","properties":{"stop_id":"14681","stop_code":"14681","stop_name":"CRAIG @ LACKLAND NB","stop_desc":"NEAR SIDE CRAIG @ LACKLAND NB","wheelchair_boarding":1,"routes":[{"route_id":"19634","agency_id":"70006","route_short_name":"98","route_long_name":"Ballas-North Hanley","route_type":3,"route_color":"#FFFFFF","route_text_color":"#000000"}],"agency_name":"Metro St. Louis"},"geometry":{"type":"Point","coordinates":[-90.44241,38.69582]}},{"type":"Feature","properties":{"stop_id":"15872","stop_code":"15872","stop_name":"NEW BALLAS @ OLIVE NB","stop_desc":"FAR SIDE NEW BALLAS @ OLIVE NB","wheelchair_boarding":2,"routes":[{"route_id":"19634","agency_id":"70006","route_short_name":"98","route_long_name":"Ballas-North Hanley","route_type":3,"route_color":"#FFFFFF","route_text_color":"#000000"}],"agency_name":"Metro St. Louis"},"geometry":{"type":"Point","coordinates":[-90.44315,38.67089]}},{"type":"Feature","properties":{"stop_id":"15883","stop_code":"15883","stop_name":"NEW BALLAS @ CITY PLACE NB","stop_desc":"FAR SIDE NEW BALLAS @ CITY PLACE NB","wheelchair_boarding":1,"routes":[{"route_id":"19634","agency_id":"70006","route_short_name":"98","route_long_name":"Ballas-North Hanley","route_type":3,"route_color":"#FFFFFF","route_text_color":"#000000"}],"agency_name":"Metro St. Louis"},"geometry":{"type":"Point","coordinates":[-90.44028,38.67395]}},{"type":"Feature","properties":{"stop_id":"15884","stop_code":"15884","stop_name":"CRAIG @ DEBONNAIRE NB","stop_desc":"FAR SIDE CRAIG @ DEBONNAIRE NB","wheelchair_boarding":2,"routes":[{"route_id":"19634","agency_id":"70006","route_short_name":"98","route_long_name":"Ballas-North Hanley","route_type":3,"route_color":"#FFFFFF","route_text_color":"#000000"}],"agency_name":"Metro St. Louis"},"geometry":{"type":"Point","coordinates":[-90.43789,38.6762]}},{"type":"Feature","properties":{"stop_id":"15885","stop_code":"15885","stop_name":"CRAIG @ CRAIG ELEMENTARY SCHOOL NB","stop_desc":"MID-BLOCK CRAIG @ CRAIG ELEMENTARY SCHOOL NB","wheelchair_boarding":2,"routes":[{"route_id":"19634","agency_id":"70006","route_short_name":"98","route_long_name":"Ballas-North Hanley","route_type":3,"route_color":"#FFFFFF","route_text_color":"#000000"}],"agency_name":"Metro St. Louis"},"geometry":{"type":"Point","coordinates":[-90.443,38.68411]}},{"type":"Feature","properties":{"stop_id":"15886","stop_code":"15886","stop_name":"CRAIG @ BORMAN NB","stop_desc":"NEAR SIDE CRAIG @ BORMAN NB","wheelchair_boarding":2,"routes":[{"route_id":"19634","agency_id":"70006","route_short_name":"98","route_long_name":"Ballas-North Hanley","route_type":3,"route_color":"#FFFFFF","route_text_color":"#000000"}],"agency_name":"Metro St. Louis"},"geometry":{"type":"Point","coordinates":[-90.44393,38.69356]}},{"type":"Feature","properties":{"stop_id":"16063","stop_code":"16063","stop_name":"NORTH HANLEY TRANSIT CENTER","wheelchair_boarding":1,"routes":[{"route_id":"19628","agency_id":"70006","route_short_name":"79","route_long_name":"Ferguson-Clayton","route_type":3,"route_color":"#FFFFFF","route_text_color":"#000000"},{"route_id":"19634","agency_id":"70006","route_short_name":"98","route_long_name":"Ballas-North Hanley","route_type":3,"route_color":"#FFFFFF","route_text_color":"#000000"},{"route_id":"19635","agency_id":"70006","route_short_name":"100","route_long_name":"Hazelwood","route_type":3,"route_color":"#FFFFFF","route_text_color":"#000000"}],"agency_name":"Metro St. Louis"},"geometry":{"type":"Point","coordinates":[-90.31522,38.71962]}},{"type":"Feature","properties":{"stop_id":"16075","stop_code":"16075","stop_name":"CRAIG @ CRAIGVIEW NB","stop_desc":"FAR SIDE CRAIG @ CRAIGVIEW NB","wheelchair_boarding":2,"routes":[{"route_id":"19634","agency_id":"70006","route_short_name":"98","route_long_name":"Ballas-North Hanley","route_type":3,"route_color":"#FFFFFF","route_text_color":"#000000"}],"agency_name":"Metro St. Louis"},"geometry":{"type":"Point","coordinates":[-90.43915,38.67976]}},{"type":"Feature","properties":{"stop_id":"2468","stop_code":"2468","stop_name":"WESTPORT PLAZA @ WESTLINE INDUSTRIAL WB","stop_desc":"FAR SIDE WESTPORT PLAZA @ WESTLINE INDUSTRIAL WB","wheelchair_boarding":1,"routes":[{"route_id":"19631","agency_id":"70006","route_short_name":"94","route_long_name":"Page","route_type":3,"route_color":"#FFFFFF","route_text_color":"#000000"},{"route_id":"19634","agency_id":"70006","route_short_name":"98","route_long_name":"Ballas-North Hanley","route_type":3,"route_color":"#FFFFFF","route_text_color":"#000000"}],"agency_name":"Metro St. Louis"},"geometry":{"type":"Point","coordinates":[-90.44349,38.7013]}},{"type":"Feature","properties":{"stop_id":"2471","stop_code":"2471","stop_name":"WESTPORT PLAZA @ FEE FEE WB","stop_desc":"FAR SIDE WESTPORT PLAZA @ FEE FEE WB","wheelchair_boarding":1,"routes":[{"route_id":"19631","agency_id":"70006","route_short_name":"94","route_long_name":"Page","route_type":3,"route_color":"#FFFFFF","route_text_color":"#000000"},{"route_id":"19634","agency_id":"70006","route_short_name":"98","route_long_name":"Ballas-North Hanley","route_type":3,"route_color":"#FFFFFF","route_text_color":"#000000"}],"agency_name":"Metro St. Louis"},"geometry":{"type":"Point","coordinates":[-90.44535,38.70253]}},{"type":"Feature","properties":{"stop_id":"2473","stop_code":"2473","stop_name":"MARINE @ GLENMEADE WB","stop_desc":"FAR SIDE MARINE @ GLENMEADE WB","wheelchair_boarding":1,"routes":[{"route_id":"19634","agency_id":"70006","route_short_name":"98","route_long_name":"Ballas-North Hanley","route_type":3,"route_color":"#FFFFFF","route_text_color":"#000000"}],"agency_name":"Metro St. Louis"},"geometry":{"type":"Point","coordinates":[-90.45314,38.70325]}},{"type":"Feature","properties":{"stop_id":"2476","stop_code":"2476","stop_name":"MCKELVEY @ GLENLEA NB","stop_desc":"NEAR SIDE MCKELVEY @ GLENLEA NB","wheelchair_boarding":1,"routes":[{"route_id":"19634","agency_id":"70006","route_short_name":"98","route_long_name":"Ballas-North Hanley","route_type":3,"route_color":"#FFFFFF","route_text_color":"#000000"}],"agency_name":"Metro St. Louis"},"geometry":{"type":"Point","coordinates":[-90.4562,38.70739]}},{"type":"Feature","properties":{"stop_id":"2477","stop_code":"2477","stop_name":"MCKELVEY @ DAWN BETH NB","stop_desc":"NEAR SIDE MCKELVEY @ DAWN BETH NB","wheelchair_boarding":1,"routes":[{"route_id":"19634","agency_id":"70006","route_short_name":"98","route_long_name":"Ballas-North Hanley","route_type":3,"route_color":"#FFFFFF","route_text_color":"#000000"}],"agency_name":"Metro St. Louis"},"geometry":{"type":"Point","coordinates":[-90.45537,38.7107]}},{"type":"Feature","properties":{"stop_id":"3108","stop_code":"3108","stop_name":"NEW BALLAS @ LADUE NB","stop_desc":"FAR SIDE NEW BALLAS @ LADUE NB","wheelchair_boarding":2,"routes":[{"route_id":"19634","agency_id":"70006","route_short_name":"98","route_long_name":"Ballas-North Hanley","route_type":3,"route_color":"#FFFFFF","route_text_color":"#000000"}],"agency_name":"Metro St. Louis"},"geometry":{"type":"Point","coordinates":[-90.44322,38.65675]}},{"type":"Feature","properties":{"stop_id":"3112","stop_code":"3112","stop_name":"NEW BALLAS @ RONYN PARK NB","stop_desc":"FAR SIDE NEW BALLAS @ RONYN PARK NB","wheelchair_boarding":2,"routes":[{"route_id":"19634","agency_id":"70006","route_short_name":"98","route_long_name":"Ballas-North Hanley","route_type":3,"route_color":"#FFFFFF","route_text_color":"#000000"}],"agency_name":"Metro St. Louis"},"geometry":{"type":"Point","coordinates":[-90.44338,38.64449]}},{"type":"Feature","properties":{"stop_id":"3115","stop_code":"3115","stop_name":"NEW BALLAS @ CITY GOVERNMENT CENTER NB","stop_desc":"MID-BLOCK NEW BALLAS @ CITY GOVERNMENT CENTER NB","wheelchair_boarding":2,"routes":[{"route_id":"19634","agency_id":"70006","route_short_name":"98","route_long_name":"Ballas-North Hanley","route_type":3,"route_color":"#FFFFFF","route_text_color":"#000000"}],"agency_name":"Metro St. Louis"},"geometry":{"type":"Point","coordinates":[-90.44319,38.66122]}},{"type":"Feature","properties":{"stop_id":"3116","stop_code":"3116","stop_name":"NEW BALLAS @ OLD BALLAS NB","stop_desc":"NEAR SIDE NEW BALLAS @ OLD BALLAS NB","wheelchair_boarding":2,"routes":[{"route_id":"19634","agency_id":"70006","route_short_name":"98","route_long_name":"Ballas-North Hanley","route_type":3,"route_color":"#FFFFFF","route_text_color":"#000000"}],"agency_name":"Metro St. Louis"},"geometry":{"type":"Point","coordinates":[-90.44321,38.66516]}},{"type":"Feature","properties":{"stop_id":"4822","stop_code":"4822","stop_name":"MISSOURI BAPTIST HOSPITAL LOOP","stop_desc":"MID-BLOCK MISSOURI BAPTIST HOSPITAL LOOP","wheelchair_boarding":1,"routes":[{"route_id":"19617","agency_id":"70006","route_short_name":"58","route_long_name":"Chesterfield Valley","route_type":3,"route_color":"#FFFFFF","route_text_color":"#000000"},{"route_id":"19634","agency_id":"70006","route_short_name":"98","route_long_name":"Ballas-North Hanley","route_type":3,"route_color":"#FFFFFF","route_text_color":"#000000"}],"agency_name":"Metro St. Louis"},"geometry":{"type":"Point","coordinates":[-90.44482,38.63453]}},{"type":"Feature","properties":{"stop_id":"6965","stop_code":"6965","stop_name":"DORSETT @ WOOD HOLLOW EB","stop_desc":"FAR SIDE DORSETT @ WOOD HOLLOW EB","wheelchair_boarding":1,"routes":[{"route_id":"19634","agency_id":"70006","route_short_name":"98","route_long_name":"Ballas-North Hanley","route_type":3,"route_color":"#FFFFFF","route_text_color":"#000000"}],"agency_name":"Metro St. Louis"},"geometry":{"type":"Point","coordinates":[-90.45234,38.71448]}}]}