{"type":"FeatureCollection","features":[{"type":"Feature","properties":{"agency_name":"Metro St. Louis","route_id":"19651B","agency_id":"70006","route_short_name":"MLB","route_long_name":"MetroLink Blue Line","route_type":2,"route_color":"#333399","route_text_color":"#f6f6fc"},"geometry":{"type":"MultiLineString","coordinates":[[[-90.12579,38.62375],[-90.12535,38.62359],[-90.13016,38.62534],[-90.13412,38.62682],[-90.13454,38.62699],[-90.13499,38.62723],[-90.1354,38.62753],[-90.13761,38.62945],[-90.13781,38.62961],[-90.13814,38.62981],[-90.1385,38.62996],[-90.13876,38.63003],[-90.13905,38.63007],[-90.13934,38.63008],[-90.13964,38.63007],[-90.13993,38.63003],[-90.14315,38.6295],[-90.14375,38.62944],[-90.14401,38.62944],[-90.14426,38.62947],[-90.14464,38.62955],[-90.14512,38.62971],[-90.14592,38.62998],[-90.14627,38.63014],[-90.14663,38.63035],[-90.14719,38.63083],[-90.14752,38.63108],[-90.14773,38.63121],[-90.14796,38.63132],[-90.14819,38.63139],[-90.14843,38.63145],[-90.14867,38.63148],[-90.14892,38.63149],[-90.1492,38.63146],[-90.14949,38.63141],[-90.1499,38.63128],[-90.15203,38.6303],[-90.15245,38.63009],[-90.15286,38.62986],[-90.15343,38.62949],[-90.1552,38.6282],[-90.15695,38.62684],[-90.16029,38.6244],[-90.16056,38.62425],[-90.16085,38.62416],[-90.16177,38.62405],[-90.16211,38.62402],[-90.16227,38.62402],[-90.16251,38.62407],[-90.16272,38.62418],[-90.16545,38.62646],[-90.16596,38.62685],[-90.1664,38.62711],[-90.1667,38.62726],[-90.16718,38.62744],[-90.16766,38.62757],[-90.168,38.62763],[-90.16866,38.62772],[-90.1732,38.62832],[-90.17485,38.62852],[-90.17793,38.62888],[-90.18154,38.62926],[-90.18507,38.6296],[-90.18686,38.62971],[-90.19127,38.63059],[-90.19139,38.63058],[-90.1915,38.63054],[-90.19159,38.63047],[-90.19167,38.63039],[-90.1921,38.62935],[-90.19239,38.62861],[-90.19304,38.62706],[-90.19411,38.62438],[-90.19469,38.62301],[-90.1948,38.62284],[-90.19493,38.62269],[-90.19515,38.62251],[-90.19542,38.62238],[-90.19575,38.62228],[-90.19604,38.62222],[-90.19649,38.62217],[-90.19711,38.62217],[-90.19744,38.6222],[-90.19792,38.62229],[-90.19888,38.62254],[-90.2027,38.62319],[-90.20288,38.62324],[-90.20306,38.62331],[-90.20318,38.62339],[-90.20325,38.62347],[-90.2033,38.62361],[-90.20331,38.62372],[-90.20329,38.62394],[-90.20308,38.62491],[-90.20304,38.62522],[-90.20303,38.62539],[-90.20307,38.62563],[-90.20322,38.62579],[-90.20334,38.62588],[-90.20347,38.62594],[-90.20361,38.62598],[-90.2101,38.62731],[-90.21043,38.62732],[-90.21075,38.62727],[-90.21105,38.62717],[-90.21129,38.62703],[-90.21143,38.62691],[-90.21155,38.62678],[-90.21176,38.62644],[-90.21208,38.62584],[-90.21223,38.62562],[-90.21241,38.6254],[-90.2126,38.62521],[-90.21281,38.62503],[-90.21308,38.62488],[-90.21337,38.62474],[-90.21381,38.62459],[-90.21411,38.62452],[-90.21442,38.62448],[-90.21585,38.6244],[-90.2162,38.62441],[-90.21656,38.62445],[-90.2209,38.62532],[-90.22469,38.62614],[-90.22569,38.62639],[-90.2297,38.6275],[-90.23021,38.62766],[-90.23098,38.62794],[-90.23297,38.62884],[-90.23345,38.62902],[-90.23396,38.62919],[-90.23474,38.62938],[-90.23785,38.62997],[-90.23852,38.63014],[-90.23927,38.63039],[-90.24056,38.63096],[-90.24102,38.63114],[-90.24162,38.63134],[-90.24398,38.63193],[-90.24617,38.63251],[-90.24691,38.63269],[-90.25703,38.63485],[-90.25954,38.63537],[-90.26157,38.63575],[-90.26291,38.63609],[-90.26357,38.63631],[-90.264,38.63648],[-90.26441,38.63668],[-90.26534,38.63719],[-90.2661,38.63766],[-90.26624,38.63778],[-90.26642,38.63798],[-90.26661,38.63826],[-90.26672,38.63848],[-90.26681,38.63871],[-90.26688,38.63895],[-90.26697,38.63945],[-90.26707,38.6405],[-90.26715,38.64093],[-90.26724,38.64118],[-90.26741,38.64154],[-90.26763,38.64187],[-90.268,38.64228],[-90.26833,38.64257],[-90.26857,38.64273],[-90.26882,38.64288],[-90.26926,38.64309],[-90.26959,38.6432],[-90.27258,38.64393],[-90.27313,38.64411],[-90.27367,38.64434],[-90.27413,38.64461],[-90.27455,38.64492],[-90.27481,38.64515],[-90.27583,38.64619],[-90.27621,38.64649],[-90.27648,38.64666],[-90.27676,38.6468],[-90.2772,38.64698],[-90.27751,38.64708],[-90.27797,38.64718],[-90.27899,38.64728],[-90.28051,38.6474],[-90.28345,38.64768],[-90.28514,38.64782],[-90.28726,38.64794],[-90.29299,38.6485],[-90.29464,38.64865],[-90.29789,38.64897],[-90.29962,38.64912],[-90.3003,38.64925],[-90.30114,38.64944],[-90.30135,38.64947],[-90.30177,38.64952],[-90.30219,38.64955],[-90.30382,38.64974],[-90.30575,38.65001],[-90.30665,38.65012],[-90.30717,38.6502],[-90.31051,38.65097],[-90.31173,38.65127],[-90.3124,38.6514],[-90.31284,38.65146],[-90.31418,38.65153],[-90.32126,38.65223],[-90.3216,38.65224],[-90.32216,38.65217],[-90.32251,38.6521],[-90.323,38.65195],[-90.32331,38.65184],[-90.32377,38.65162],[-90.32407,38.65145],[-90.32532,38.65066],[-90.32722,38.64943],[-90.32863,38.64866],[-90.32904,38.64846],[-90.32929,38.64836],[-90.32981,38.64817],[-90.33033,38.64801],[-90.33159,38.64767],[-90.33382,38.647],[-90.33533,38.6466],[-90.33764,38.64594],[-90.33824,38.64579],[-90.33887,38.6457],[-90.34119,38.64555],[-90.34174,38.64556],[-90.34198,38.64558],[-90.34456,38.64594],[-90.34499,38.64597],[-90.34529,38.64596],[-90.3456,38.6459],[-90.34581,38.64584],[-90.3461,38.64572],[-90.34641,38.64551],[-90.34665,38.64529],[-90.34682,38.64504],[-90.34691,38.64483],[-90.34696,38.64462],[-90.34695,38.6443],[-90.3469,38.64402],[-90.3468,38.64381],[-90.34512,38.64084],[-90.34365,38.63836],[-90.34307,38.63727],[-90.34294,38.63693],[-90.34288,38.63668],[-90.34284,38.63601],[-90.34281,38.63585],[-90.34274,38.63565],[-90.34263,38.63547],[-90.3415,38.63431],[-90.34,38.633],[-90.33964,38.63264],[-90.33928,38.63225],[-90.33901,38.63193],[-90.33856,38.6313],[-90.33841,38.63106],[-90.33829,38.6308],[-90.33819,38.63053],[-90.33811,38.63026],[-90.33809,38.63005],[-90.33805,38.62943],[-90.33815,38.62689],[-90.33814,38.62622],[-90.3381,38.62585],[-90.33806,38.6256],[-90.33792,38.62512],[-90.33778,38.62477],[-90.33763,38.62447],[-90.3374,38.62406],[-90.33397,38.61837],[-90.33382,38.61812],[-90.33322,38.61728],[-90.33296,38.61688],[-90.3321,38.61543],[-90.33164,38.61453],[-90.33085,38.61321],[-90.33045,38.61265],[-90.33032,38.61237],[-90.33025,38.61216],[-90.33021,38.61192],[-90.33018,38.61156],[-90.3302,38.61132],[-90.3304,38.60991],[-90.3304,38.60949],[-90.33029,38.60819],[-90.33028,38.60625],[-90.33023,38.60593],[-90.33015,38.60568],[-90.33007,38.60548],[-90.32987,38.60519],[-90.3296,38.60491],[-90.32928,38.60467],[-90.32892,38.60449],[-90.32853,38.60435],[-90.32826,38.60429],[-90.32709,38.60414],[-90.32682,38.60409],[-90.32642,38.60397],[-90.32616,38.60386],[-90.32593,38.60374],[-90.32565,38.60353],[-90.32548,38.60337],[-90.32441,38.60211],[-90.32421,38.60191],[-90.32386,38.60164],[-90.32359,38.60146],[-90.32332,38.60132],[-90.32188,38.60069],[-90.32136,38.60044],[-90.3211,38.60028],[-90.32085,38.60011],[-90.32062,38.59991],[-90.32035,38.59965],[-90.32006,38.59925],[-90.31991,38.59901],[-90.31978,38.59875],[-90.31966,38.59834],[-90.31961,38.59805],[-90.31959,38.59766],[-90.31972,38.59636],[-90.31973,38.59605],[-90.31968,38.59543],[-90.31953,38.5941],[-90.31947,38.5934]]]}},{"type":"Feature","properties":{"stop_id":"10599","stop_code":"10599","stop_name":"EMERSON PARK METROLINK STATION","wheelchair_boarding":1,"routes":[{"route_id":"19251B","agency_id":"70006","route_short_name":"MLB","route_long_name":"MetroLink Blue Line","route_type":2,"route_color":"#333399","route_text_color":"#f6f6fc"},{"route_id":"19251R","agency_id":"70006","route_short_name":"MLR","route_long_name":"MetroLink Red Line","route_type":2,"route_color":"#CC0033","route_text_color":"#f6f6fc"},{"route_id":"19651B","agency_id":"70006","route_short_name":"MLB","route_long_name":"MetroLink Blue Line","route_type":2,"route_color":"#333399","route_text_color":"#f6f6fc"},{"route_id":"19651R","agency_id":"70006","route_short_name":"MLR","route_long_name":"MetroLink Red Line","route_type":2,"route_color":"#CC0033","route_text_color":"#f6f6fc"}],"agency_name":"Metro St. Louis"},"geometry":{"type":"Point","coordinates":[-90.13723,38.62911]}},{"type":"Feature","properties":{"stop_id":"10600","stop_code":"10600","stop_name":"JJK CENTER METROLINK STATION","wheelchair_boarding":1,"routes":[{"route_id":"19251B","agency_id":"70006","route_short_name":"MLB","route_long_name":"MetroLink Blue Line","route_type":2,"route_color":"#333399","route_text_color":"#f6f6fc"},{"route_id":"19251R","agency_id":"70006","route_short_name":"MLR","route_long_name":"MetroLink Red Line","route_type":2,"route_color":"#CC0033","route_text_color":"#f6f6fc"},{"route_id":"19651B","agency_id":"70006","route_short_name":"MLB","route_long_name":"MetroLink Blue Line","route_type":2,"route_color":"#333399","route_text_color":"#f6f6fc"},{"route_id":"19651R","agency_id":"70006","route_short_name":"MLR","route_long_name":"MetroLink Red Line","route_type":2,"route_color":"#CC0033","route_text_color":"#f6f6fc"}],"agency_name":"Metro St. Louis"},"geometry":{"type":"Point","coordinates":[-90.12441,38.62324]}},{"type":"Feature","properties":{"stop_id":"10616","stop_code":"10616","stop_name":"5TH & MISSOURI METROLINK STATION","wheelchair_boarding":1,"routes":[{"route_id":"19251B","agency_id":"70006","route_short_name":"MLB","route_long_name":"MetroLink Blue Line","route_type":2,"route_color":"#333399","route_text_color":"#f6f6fc"},{"route_id":"19251R","agency_id":"70006","route_short_name":"MLR","route_long_name":"MetroLink Red Line","route_type":2,"route_color":"#CC0033","route_text_color":"#f6f6fc"},{"route_id":"19651B","agency_id":"70006","route_short_name":"MLB","route_long_name":"MetroLink Blue Line","route_type":2,"route_color":"#333399","route_text_color":"#f6f6fc"},{"route_id":"19651R","agency_id":"70006","route_short_name":"MLR","route_long_name":"MetroLink Red Line","route_type":2,"route_color":"#CC0033","route_text_color":"#f6f6fc"}],"agency_name":"Metro St. Louis"},"geometry":{"type":"Point","coordinates":[-90.15938,38.62506]}},{"type":"Feature","properties":{"stop_id":"10617","stop_code":"10617","stop_name":"EAST RIVERFRONT METROLINK STATION","wheelchair_boarding":1,"routes":[{"route_id":"19251B","agency_id":"70006","route_short_name":"MLB","route_long_name":"MetroLink Blue Line","route_type":2,"route_color":"#333399","route_text_color":"#f6f6fc"},{"route_id":"19251R","agency_id":"70006","route_short_name":"MLR","route_long_name":"MetroLink Red Line","route_type":2,"route_color":"#CC0033","route_text_color":"#f6f6fc"},{"route_id":"19651B","agency_id":"70006","route_short_name":"MLB","route_long_name":"MetroLink Blue Line","route_type":2,"route_color":"#333399","route_text_color":"#f6f6fc"},{"route_id":"19651R","agency_id":"70006","route_short_name":"MLR","route_long_name":"MetroLink Red Line","route_type":2,"route_color":"#CC0033","route_text_color":"#f6f6fc"}],"agency_name":"Metro St. Louis"},"geometry":{"type":"Point","coordinates":[-90.17475,38.62851]}},{"type":"Feature","properties":{"stop_id":"10618","stop_code":"10618","stop_name":"LACLEDE'S LANDING METROLINK STATION","wheelchair_boarding":1,"routes":[{"route_id":"19251B","agency_id":"70006","route_short_name":"MLB","route_long_name":"MetroLink Blue Line","route_type":2,"route_color":"#333399","route_text_color":"#f6f6fc"},{"route_id":"19251R","agency_id":"70006","route_short_name":"MLR","route_long_name":"MetroLink Red Line","route_type":2,"route_color":"#CC0033","route_text_color":"#f6f6fc"},{"route_id":"19651B","agency_id":"70006","route_short_name":"MLB","route_long_name":"MetroLink Blue Line","route_type":2,"route_color":"#333399","route_text_color":"#f6f6fc"},{"route_id":"19651R","agency_id":"70006","route_short_name":"MLR","route_long_name":"MetroLink Red Line","route_type":2,"route_color":"#CC0033","route_text_color":"#f6f6fc"}],"agency_name":"Metro St. Louis"},"geometry":{"type":"Point","coordinates":[-90.18364,38.62946]}},{"type":"Feature","properties":{"stop_id":"10619","stop_code":"10619","stop_name":"CONVENTION CENTER METROLINK STATION","wheelchair_boarding":1,"routes":[{"route_id":"19251B","agency_id":"70006","route_short_name":"MLB","route_long_name":"MetroLink Blue Line","route_type":2,"route_color":"#333399","route_text_color":"#f6f6fc"},{"route_id":"19251R","agency_id":"70006","route_short_name":"MLR","route_long_name":"MetroLink Red Line","route_type":2,"route_color":"#CC0033","route_text_color":"#f6f6fc"},{"route_id":"19651B","agency_id":"70006","route_short_name":"MLB","route_long_name":"MetroLink Blue Line","route_type":2,"route_color":"#333399","route_text_color":"#f6f6fc"},{"route_id":"19651R","agency_id":"70006","route_short_name":"MLR","route_long_name":"MetroLink Red Line","route_type":2,"route_color":"#CC0033","route_text_color":"#f6f6fc"}],"agency_name":"Metro St. Louis"},"geometry":{"type":"Point","coordinates":[-90.1894,38.63022]}},{"type":"Feature","properties":{"stop_id":"10620","stop_code":"10620","stop_name":"8TH & PINE METROLINK STATION","wheelchair_boarding":1,"routes":[{"route_id":"19251B","agency_id":"70006","route_short_name":"MLB","route_long_name":"MetroLink Blue Line","route_type":2,"route_color":"#333399","route_text_color":"#f6f6fc"},{"route_id":"19251R","agency_id":"70006","route_short_name":"MLR","route_long_name":"MetroLink Red Line","route_type":2,"route_color":"#CC0033","route_text_color":"#f6f6fc"},{"route_id":"19651B","agency_id":"70006","route_short_name":"MLB","route_long_name":"MetroLink Blue Line","route_type":2,"route_color":"#333399","route_text_color":"#f6f6fc"},{"route_id":"19651R","agency_id":"70006","route_short_name":"MLR","route_long_name":"MetroLink Red Line","route_type":2,"route_color":"#CC0033","route_text_color":"#f6f6fc"}],"agency_name":"Metro St. Louis"},"geometry":{"type":"Point","coordinates":[-90.1927,38.62791]}},{"type":"Feature","properties":{"stop_id":"10622","stop_code":"10622","stop_name":"CIVIC CENTER METROLINK STATION","wheelchair_boarding":1,"routes":[{"route_id":"19251B","agency_id":"70006","route_short_name":"MLB","route_long_name":"MetroLink Blue Line","route_type":2,"route_color":"#333399","route_text_color":"#f6f6fc"},{"route_id":"19251R","agency_id":"70006","route_short_name":"MLR","route_long_name":"MetroLink Red Line","route_type":2,"route_color":"#CC0033","route_text_color":"#f6f6fc"},{"route_id":"19651B","agency_id":"70006","route_short_name":"MLB","route_long_name":"MetroLink Blue Line","route_type":2,"route_color":"#333399","route_text_color":"#f6f6fc"},{"route_id":"19651R","agency_id":"70006","route_short_name":"MLR","route_long_name":"MetroLink Red Line","route_type":2,"route_color":"#CC0033","route_text_color":"#f6f6fc"}],"agency_name":"Metro St. Louis"},"geometry":{"type":"Point","coordinates":[-90.20307,38.62501]}},{"type":"Feature","properties":{"stop_id":"10623","stop_code":"10623","stop_name":"UNION STATION METROLINK STATION","wheelchair_boarding":1,"routes":[{"route_id":"19251B","agency_id":"70006","route_short_name":"MLB","route_long_name":"MetroLink Blue Line","route_type":2,"route_color":"#333399","route_text_color":"#f6f6fc"},{"route_id":"19251R","agency_id":"70006","route_short_name":"MLR","route_long_name":"MetroLink Red Line","route_type":2,"route_color":"#CC0033","route_text_color":"#f6f6fc"},{"route_id":"19651B","agency_id":"70006","route_short_name":"MLB","route_long_name":"MetroLink Blue Line","route_type":2,"route_color":"#333399","route_text_color":"#f6f6fc"},{"route_id":"19651R","agency_id":"70006","route_short_name":"MLR","route_long_name":"MetroLink Red Line","route_type":2,"route_color":"#CC0033","route_text_color":"#f6f6fc"}],"agency_name":"Metro St. Louis"},"geometry":{"type":"Point","coordinates":[-90.20655,38.62659]}},{"type":"Feature","properties":{"stop_id":"10624","stop_code":"10624","stop_name":"GRAND METROLINK STATION","wheelchair_boarding":1,"routes":[{"route_id":"19251B","agency_id":"70006","route_short_name":"MLB","route_long_name":"MetroLink Blue Line","route_type":2,"route_color":"#333399","route_text_color":"#f6f6fc"},{"route_id":"19251R","agency_id":"70006","route_short_name":"MLR","route_long_name":"MetroLink Red Line","route_type":2,"route_color":"#CC0033","route_text_color":"#f6f6fc"},{"route_id":"19651B","agency_id":"70006","route_short_name":"MLB","route_long_name":"MetroLink Blue Line","route_type":2,"route_color":"#333399","route_text_color":"#f6f6fc"},{"route_id":"19651R","agency_id":"70006","route_short_name":"MLR","route_long_name":"MetroLink Red Line","route_type":2,"route_color":"#CC0033","route_text_color":"#f6f6fc"}],"agency_name":"Metro St. Louis"},"geometry":{"type":"Point","coordinates":[-90.23546,38.62951]}},{"type":"Feature","properties":{"stop_id":"10625","stop_code":"10625","stop_name":"CENTRAL WEST END METROLINK STATION","wheelchair_boarding":1,"routes":[{"route_id":"19251B","agency_id":"70006","route_short_name":"MLB","route_long_name":"MetroLink Blue Line","route_type":2,"route_color":"#333399","route_text_color":"#f6f6fc"},{"route_id":"19251R","agency_id":"70006","route_short_name":"MLR","route_long_name":"MetroLink Red Line","route_type":2,"route_color":"#CC0033","route_text_color":"#f6f6fc"},{"route_id":"19651B","agency_id":"70006","route_short_name":"MLB","route_long_name":"MetroLink Blue Line","route_type":2,"route_color":"#333399","route_text_color":"#f6f6fc"},{"route_id":"19651R","agency_id":"70006","route_short_name":"MLR","route_long_name":"MetroLink Red Line","route_type":2,"route_color":"#CC0033","route_text_color":"#f6f6fc"}],"agency_name":"Metro St. Louis"},"geometry":{"type":"Point","coordinates":[-90.26194,38.63583]}},{"type":"Feature","properties":{"stop_id":"10626","stop_code":"10626","stop_name":"FOREST PARK DEBALIVIERE METROLINK STATION","wheelchair_boarding":1,"routes":[{"route_id":"19251B","agency_id":"70006","route_short_name":"MLB","route_long_name":"MetroLink Blue Line","route_type":2,"route_color":"#333399","route_text_color":"#f6f6fc"},{"route_id":"19251R","agency_id":"70006","route_short_name":"MLR","route_long_name":"MetroLink Red Line","route_type":2,"route_color":"#CC0033","route_text_color":"#f6f6fc"},{"route_id":"19651B","agency_id":"70006","route_short_name":"MLB","route_long_name":"MetroLink Blue Line","route_type":2,"route_color":"#333399","route_text_color":"#f6f6fc"},{"route_id":"19651R","agency_id":"70006","route_short_name":"MLR","route_long_name":"MetroLink Red Line","route_type":2,"route_color":"#CC0033","route_text_color":"#f6f6fc"}],"agency_name":"Metro St. Louis"},"geometry":{"type":"Point","coordinates":[-90.28465,38.64778]}},{"type":"Feature","properties":{"stop_id":"13662","stop_code":"13662","stop_name":"STADIUM METROLINK STATION","wheelchair_boarding":1,"routes":[{"route_id":"19251B","agency_id":"70006","route_short_name":"MLB","route_long_name":"MetroLink Blue Line","route_type":2,"route_color":"#333399","route_text_color":"#f6f6fc"},{"route_id":"19251R","agency_id":"70006","route_short_name":"MLR","route_long_name":"MetroLink Red Line","route_type":2,"route_color":"#CC0033","route_text_color":"#f6f6fc"},{"route_id":"19651B","agency_id":"70006","route_short_name":"MLB","route_long_name":"MetroLink Blue Line","route_type":2,"route_color":"#333399","route_text_color":"#f6f6fc"},{"route_id":"19651R","agency_id":"70006","route_short_name":"MLR","route_long_name":"MetroLink Red Line","route_type":2,"route_color":"#CC0033","route_text_color":"#f6f6fc"}],"agency_name":"Metro St. Louis"},"geometry":{"type":"Point","coordinates":[-90.19454,38.62341]}},{"type":"Feature","properties":{"stop_id":"14753","stop_code":"14753","stop_name":"SHREWSBURY-LANSDOWNE I-44 METROLINK STATION","wheelchair_boarding":1,"routes":[{"route_id":"19251B","agency_id":"70006","route_short_name":"MLB","route_long_name":"MetroLink Blue Line","route_type":2,"route_color":"#333399","route_text_color":"#f6f6fc"},{"route_id":"19651B","agency_id":"70006","route_short_name":"MLB","route_long_name":"MetroLink Blue Line","route_type":2,"route_color":"#333399","route_text_color":"#f6f6fc"}],"agency_name":"Metro St. Louis"},"geometry":{"type":"Point","coordinates":[-90.31944,38.59287]}},{"type":"Feature","properties":{"stop_id":"14754","stop_code":"14754","stop_name":"SUNNEN METROLINK STATION","wheelchair_boarding":1,"routes":[{"route_id":"19251B","agency_id":"70006","route_short_name":"MLB","route_long_name":"MetroLink Blue Line","route_type":2,"route_color":"#333399","route_text_color":"#f6f6fc"},{"route_id":"19651B","agency_id":"70006","route_short_name":"MLB","route_long_name":"MetroLink Blue Line","route_type":2,"route_color":"#333399","route_text_color":"#f6f6fc"}],"agency_name":"Metro St. Louis"},"geometry":{"type":"Point","coordinates":[-90.33029,38.60718]}},{"type":"Feature","properties":{"stop_id":"14755","stop_code":"14755","stop_name":"MAPLEWOOD-MANCHESTER METROLINK STATION","wheelchair_boarding":1,"routes":[{"route_id":"19251B","agency_id":"70006","route_short_name":"MLB","route_long_name":"MetroLink Blue Line","route_type":2,"route_color":"#333399","route_text_color":"#f6f6fc"},{"route_id":"19651B","agency_id":"70006","route_short_name":"MLB","route_long_name":"MetroLink Blue Line","route_type":2,"route_color":"#333399","route_text_color":"#f6f6fc"}],"agency_name":"Metro St. Louis"},"geometry":{"type":"Point","coordinates":[-90.33113,38.61367]}},{"type":"Feature","properties":{"stop_id":"14756","stop_code":"14756","stop_name":"BRENTWOOD I-64 METROLINK STATION","wheelchair_boarding":1,"routes":[{"route_id":"19251B","agency_id":"70006","route_short_name":"MLB","route_long_name":"MetroLink Blue Line","route_type":2,"route_color":"#333399","route_text_color":"#f6f6fc"},{"route_id":"19651B","agency_id":"70006","route_short_name":"MLB","route_long_name":"MetroLink Blue Line","route_type":2,"route_color":"#333399","route_text_color":"#f6f6fc"}],"agency_name":"Metro St. Louis"},"geometry":{"type":"Point","coordinates":[-90.33811,38.62834]}},{"type":"Feature","properties":{"stop_id":"14757","stop_code":"14757","stop_name":"RICHMOND HEIGHTS METROLINK STATION","wheelchair_boarding":1,"routes":[{"route_id":"19251B","agency_id":"70006","route_short_name":"MLB","route_long_name":"MetroLink Blue Line","route_type":2,"route_color":"#333399","route_text_color":"#f6f6fc"},{"route_id":"19651B","agency_id":"70006","route_short_name":"MLB","route_long_name":"MetroLink Blue Line","route_type":2,"route_color":"#333399","route_text_color":"#f6f6fc"}],"agency_name":"Metro St. Louis"},"geometry":{"type":"Point","coordinates":[-90.34234,38.63514]}},{"type":"Feature","properties":{"stop_id":"14758","stop_code":"14758","stop_name":"CLAYTON METROLINK STATION","wheelchair_boarding":1,"routes":[{"route_id":"19251B","agency_id":"70006","route_short_name":"MLB","route_long_name":"MetroLink Blue Line","route_type":2,"route_color":"#333399","route_text_color":"#f6f6fc"},{"route_id":"19651B","agency_id":"70006","route_short_name":"MLB","route_long_name":"MetroLink Blue Line","route_type":2,"route_color":"#333399","route_text_color":"#f6f6fc"}],"agency_name":"Metro St. Louis"},"geometry":{"type":"Point","coordinates":[-90.33926,38.64565]}},{"type":"Feature","properties":{"stop_id":"14759","stop_code":"14759","stop_name":"FORSYTH METROLINK STATION","wheelchair_boarding":1,"routes":[{"route_id":"19251B","agency_id":"70006","route_short_name":"MLB","route_long_name":"MetroLink Blue Line","route_type":2,"route_color":"#333399","route_text_color":"#f6f6fc"},{"route_id":"19651B","agency_id":"70006","route_short_name":"MLB","route_long_name":"MetroLink Blue Line","route_type":2,"route_color":"#333399","route_text_color":"#f6f6fc"}],"agency_name":"Metro St. Louis"},"geometry":{"type":"Point","coordinates":[-90.32814,38.64893]}},{"type":"Feature","properties":{"stop_id":"14760","stop_code":"14760","stop_name":"UNIVERSITY CITY-BIG BEND METROLINK STATION","wheelchair_boarding":1,"routes":[{"route_id":"19251B","agency_id":"70006","route_short_name":"MLB","route_long_name":"MetroLink Blue Line","route_type":2,"route_color":"#333399","route_text_color":"#f6f6fc"},{"route_id":"19651B","agency_id":"70006","route_short_name":"MLB","route_long_name":"MetroLink Blue Line","route_type":2,"route_color":"#333399","route_text_color":"#f6f6fc"}],"agency_name":"Metro St. Louis"},"geometry":{"type":"Point","coordinates":[-90.31495,38.65161]}},{"type":"Feature","properties":{"stop_id":"14761","stop_code":"14761","stop_name":"SKINKER METROLINK STATION","wheelchair_boarding":1,"routes":[{"route_id":"19251B","agency_id":"70006","route_short_name":"MLB","route_long_name":"MetroLink Blue Line","route_type":2,"route_color":"#333399","route_text_color":"#f6f6fc"},{"route_id":"19651B","agency_id":"70006","route_short_name":"MLB","route_long_name":"MetroLink Blue Line","route_type":2,"route_color":"#333399","route_text_color":"#f6f6fc"}],"agency_name":"Metro St. Louis"},"geometry":{"type":"Point","coordinates":[-90.30081,38.64936]}},{"type":"Feature","properties":{"stop_id":"16149","stop_code":"16149","stop_name":"CORTEX METROLINK STATION","wheelchair_boarding":1,"routes":[{"route_id":"19251B","agency_id":"70006","route_short_name":"MLB","route_long_name":"MetroLink Blue Line","route_type":2,"route_color":"#333399","route_text_color":"#f6f6fc"},{"route_id":"19251R","agency_id":"70006","route_short_name":"MLR","route_long_name":"MetroLink Red Line","route_type":2,"route_color":"#CC0033","route_text_color":"#f6f6fc"},{"route_id":"19651B","agency_id":"70006","route_short_name":"MLB","route_long_name":"MetroLink Blue Line","route_type":2,"route_color":"#333399","route_text_color":"#f6f6fc"},{"route_id":"19651R","agency_id":"70006","route_short_name":"MLR","route_long_name":"MetroLink Red Line","route_type":2,"route_color":"#CC0033","route_text_color":"#f6f6fc"}],"agency_name":"Metro St. Louis"},"geometry":{"type":"Point","coordinates":[-90.2512,38.63361]}}]}