{"type":"FeatureCollection","features":[{"type":"Feature","properties":{"agency_name":"Metro St. Louis","route_id":"19632","agency_id":"70006","route_short_name":"95","route_long_name":"Kingshighway","route_type":3,"route_color":"#FFFFFF","route_text_color":"#000000"},"geometry":{"type":"MultiLineString","coordinates":[[[-90.29385,38.56485],[-90.29388,38.56488],[-90.29364,38.56462],[-90.29259,38.56527],[-90.29076,38.56634],[-90.28654,38.56888],[-90.28624,38.56909],[-90.28585,38.56942],[-90.28379,38.57135],[-90.28452,38.57368],[-90.28455,38.57395],[-90.28449,38.57419],[-90.28441,38.57436],[-90.28237,38.57815],[-90.28214,38.57847],[-90.28194,38.57869],[-90.28161,38.57897],[-90.28121,38.57921],[-90.28105,38.57929],[-90.28043,38.57954],[-90.27992,38.57982],[-90.27962,38.58004],[-90.27936,38.58027],[-90.27913,38.58053],[-90.27884,38.58096],[-90.27706,38.58429],[-90.27697,38.58432],[-90.2769,38.58439],[-90.27661,38.58478],[-90.27661,38.58519],[-90.27653,38.58566],[-90.27629,38.58695],[-90.27622,38.58724],[-90.27617,38.58734],[-90.27603,38.58755],[-90.27582,38.58782],[-90.2722,38.59303],[-90.2718,38.59358],[-90.27141,38.59416],[-90.27131,38.59443],[-90.27121,38.59485],[-90.27047,38.59857],[-90.27021,38.59972],[-90.26995,38.6011],[-90.26943,38.60366],[-90.26917,38.60552],[-90.26826,38.60979],[-90.26795,38.61133],[-90.26755,38.61312],[-90.2674,38.614],[-90.26672,38.61734],[-90.26651,38.6185],[-90.26636,38.6191],[-90.2661,38.6204],[-90.26585,38.62155],[-90.26568,38.62247],[-90.26498,38.62588],[-90.26472,38.62746],[-90.26466,38.62795],[-90.26453,38.62878],[-90.2645,38.62896],[-90.26442,38.62924],[-90.2645,38.62955],[-90.26463,38.6298],[-90.26483,38.63012],[-90.26515,38.63055],[-90.26546,38.63102],[-90.26567,38.63143],[-90.26588,38.63177],[-90.26605,38.63217],[-90.26619,38.63275],[-90.26633,38.6336],[-90.26638,38.634],[-90.26641,38.63444],[-90.26639,38.6347],[-90.26589,38.63504],[-90.2632,38.63476],[-90.26332,38.63429],[-90.26356,38.63309],[-90.26026,38.63302],[-90.25955,38.63571],[-90.25954,38.63585],[-90.25955,38.63612],[-90.25977,38.63625],[-90.26009,38.6362],[-90.26049,38.63618],[-90.26058,38.6358],[-90.26054,38.63577],[-90.2599,38.63564],[-90.25986,38.63575],[-90.25986,38.6361]],[[-90.25961,38.63631],[-90.25977,38.63625],[-90.25961,38.63631],[-90.25966,38.63651],[-90.25973,38.63702],[-90.25971,38.6372],[-90.2593,38.63843],[-90.26201,38.639],[-90.26215,38.63902],[-90.26235,38.639],[-90.26554,38.63964],[-90.26507,38.64241],[-90.26486,38.64355],[-90.26484,38.64394],[-90.26457,38.64538],[-90.26314,38.65388],[-90.26292,38.65509],[-90.26219,38.65934],[-90.26186,38.66152],[-90.26172,38.66229],[-90.26155,38.66307],[-90.26142,38.66319],[-90.26112,38.66357],[-90.25882,38.66663],[-90.25837,38.66722],[-90.25814,38.66749],[-90.25773,38.66804],[-90.25575,38.67059],[-90.25516,38.67139],[-90.25459,38.67222],[-90.25401,38.67302],[-90.25352,38.67377],[-90.25231,38.67551],[-90.25207,38.67585],[-90.25107,38.67718],[-90.24995,38.67878],[-90.24864,38.6807],[-90.24826,38.68128],[-90.24811,38.68157],[-90.2481,38.6818],[-90.2479,38.68235],[-90.24723,38.68486],[-90.24715,38.68512],[-90.24708,38.68529],[-90.247,38.68542],[-90.24628,38.68584],[-90.24544,38.68629],[-90.24512,38.68649],[-90.24477,38.68667],[-90.24218,38.68812],[-90.24157,38.68844],[-90.24061,38.68899],[-90.23677,38.69112],[-90.23593,38.6911],[-90.23021,38.68458],[-90.23,38.68435],[-90.22983,38.68419],[-90.22944,38.68392],[-90.2281,38.68321],[-90.22652,38.68245],[-90.22533,38.68365],[-90.22481,38.6841],[-90.22457,38.68424],[-90.22077,38.68623],[-90.22013,38.68603],[-90.22033,38.6859],[-90.2204,38.68589],[-90.22046,38.68591]]]}},{"type":"Feature","properties":{"stop_id":"13487","stop_code":"13487","stop_name":"NORTH BROADWAY TRANSIT CENTER","wheelchair_boarding":1,"routes":[{"route_id":"19622","agency_id":"70006","route_short_name":"70","route_long_name":"Grand","route_type":3,"route_color":"#FFFFFF","route_text_color":"#000000"},{"route_id":"19632","agency_id":"70006","route_short_name":"95","route_long_name":"Kingshighway","route_type":3,"route_color":"#FFFFFF","route_text_color":"#000000"}],"agency_name":"Metro St. Louis"},"geometry":{"type":"Point","coordinates":[-90.22054,38.6861]}},{"type":"Feature","properties":{"stop_id":"13523","stop_code":"13523","stop_name":"KINGSHIGHWAY @ WEST FLORISSANT NB","stop_desc":"NEAR SIDE KINGSHIGHWAY @ WEST FLORISSANT NB","wheelchair_boarding":1,"routes":[{"route_id":"19632","agency_id":"70006","route_short_name":"95","route_long_name":"Kingshighway","route_type":3,"route_color":"#FFFFFF","route_text_color":"#000000"}],"agency_name":"Metro St. Louis"},"geometry":{"type":"Point","coordinates":[-90.23663,38.69113]}},{"type":"Feature","properties":{"stop_id":"14792","stop_code":"14792","stop_name":"CENTRAL WEST END TRANSIT CENTER","wheelchair_boarding":1,"routes":[{"route_id":"19592","agency_id":"70006","route_short_name":"1","route_long_name":"Gold","route_type":3,"route_color":"#FFFFFF","route_text_color":"#000000"},{"route_id":"19596","agency_id":"70006","route_short_name":"8","route_long_name":"Shaw-Cherokee","route_type":3,"route_color":"#FFFFFF","route_text_color":"#000000"},{"route_id":"19598","agency_id":"70006","route_short_name":"10","route_long_name":"Gravois-Lindell","route_type":3,"route_color":"#FFFFFF","route_text_color":"#000000"},{"route_id":"19600","agency_id":"70006","route_short_name":"13","route_long_name":"Union","route_type":3,"route_color":"#FFFFFF","route_text_color":"#000000"},{"route_id":"19618","agency_id":"70006","route_short_name":"59","route_long_name":"Oakland","route_type":3,"route_color":"#FFFFFF","route_text_color":"#000000"},{"route_id":"19632","agency_id":"70006","route_short_name":"95","route_long_name":"Kingshighway","route_type":3,"route_color":"#FFFFFF","route_text_color":"#000000"}],"agency_name":"Metro St. Louis"},"geometry":{"type":"Point","coordinates":[-90.25999,38.63568]}},{"type":"Feature","properties":{"stop_id":"15070","stop_code":"15070","stop_name":"CLAYTON @ EUCLID EB","stop_desc":"FAR SIDE CLAYTON @ EUCLID EB","wheelchair_boarding":1,"routes":[{"route_id":"19618","agency_id":"70006","route_short_name":"59","route_long_name":"Oakland","route_type":3,"route_color":"#FFFFFF","route_text_color":"#000000"},{"route_id":"19632","agency_id":"70006","route_short_name":"95","route_long_name":"Kingshighway","route_type":3,"route_color":"#FFFFFF","route_text_color":"#000000"}],"agency_name":"Metro St. Louis"},"geometry":{"type":"Point","coordinates":[-90.26242,38.63305]}},{"type":"Feature","properties":{"stop_id":"15229","stop_code":"15229","stop_name":"EUCLID @ MCKINLEY SB","stop_desc":"FAR SIDE EUCLID @ MCKINLEY SB","wheelchair_boarding":2,"routes":[{"route_id":"19618","agency_id":"70006","route_short_name":"59","route_long_name":"Oakland","route_type":3,"route_color":"#FFFFFF","route_text_color":"#000000"},{"route_id":"19632","agency_id":"70006","route_short_name":"95","route_long_name":"Kingshighway","route_type":3,"route_color":"#FFFFFF","route_text_color":"#000000"}],"agency_name":"Metro St. Louis"},"geometry":{"type":"Point","coordinates":[-90.26333,38.63442]}},{"type":"Feature","properties":{"stop_id":"16160","stop_code":"16160","stop_name":"TAYLOR @ I-70 OVERPASS NB","stop_desc":"FAR SIDE TAYLOR @ I-70 OVERPASS NB","wheelchair_boarding":2,"routes":[{"route_id":"19632","agency_id":"70006","route_short_name":"95","route_long_name":"Kingshighway","route_type":3,"route_color":"#FFFFFF","route_text_color":"#000000"}],"agency_name":"Metro St. Louis"},"geometry":{"type":"Point","coordinates":[-90.2247,38.68403]}},{"type":"Feature","properties":{"stop_id":"2269","stop_code":"2269","stop_name":"WEST FLORISSANT @ I-70 EXIT 245B SB","stop_desc":"NEAR SIDE WEST FLORISSANT @ I-70 EXIT 245B SB","wheelchair_boarding":1,"routes":[{"route_id":"19624","agency_id":"70006","route_short_name":"74","route_long_name":"Florissant","route_type":3,"route_color":"#FFFFFF","route_text_color":"#000000"},{"route_id":"19632","agency_id":"70006","route_short_name":"95","route_long_name":"Kingshighway","route_type":3,"route_color":"#FFFFFF","route_text_color":"#000000"}],"agency_name":"Metro St. Louis"},"geometry":{"type":"Point","coordinates":[-90.23069,38.68499]}},{"type":"Feature","properties":{"stop_id":"2270","stop_code":"2270","stop_name":"WEST FLORISSANT @ SHREVE SB","stop_desc":"FAR SIDE WEST FLORISSANT @ SHREVE SB","wheelchair_boarding":1,"routes":[{"route_id":"19624","agency_id":"70006","route_short_name":"74","route_long_name":"Florissant","route_type":3,"route_color":"#FFFFFF","route_text_color":"#000000"},{"route_id":"19632","agency_id":"70006","route_short_name":"95","route_long_name":"Kingshighway","route_type":3,"route_color":"#FFFFFF","route_text_color":"#000000"}],"agency_name":"Metro St. Louis"},"geometry":{"type":"Point","coordinates":[-90.23216,38.68667]}},{"type":"Feature","properties":{"stop_id":"2271","stop_code":"2271","stop_name":"WEST FLORISSANT @ EUCLID SB","stop_desc":"FAR SIDE WEST FLORISSANT @ EUCLID SB","wheelchair_boarding":1,"routes":[{"route_id":"19624","agency_id":"70006","route_short_name":"74","route_long_name":"Florissant","route_type":3,"route_color":"#FFFFFF","route_text_color":"#000000"},{"route_id":"19632","agency_id":"70006","route_short_name":"95","route_long_name":"Kingshighway","route_type":3,"route_color":"#FFFFFF","route_text_color":"#000000"}],"agency_name":"Metro St. Louis"},"geometry":{"type":"Point","coordinates":[-90.23423,38.68906]}},{"type":"Feature","properties":{"stop_id":"2332","stop_code":"2332","stop_name":"KINGSHIGHWAY @ MURDOCH NB","stop_desc":"NEAR SIDE KINGSHIGHWAY @ MURDOCH NB","wheelchair_boarding":2,"routes":[{"route_id":"19632","agency_id":"70006","route_short_name":"95","route_long_name":"Kingshighway","route_type":3,"route_color":"#FFFFFF","route_text_color":"#000000"}],"agency_name":"Metro St. Louis"},"geometry":{"type":"Point","coordinates":[-90.27641,38.58587]}},{"type":"Feature","properties":{"stop_id":"2333","stop_code":"2333","stop_name":"KINGSHIGHWAY @ DEVONSHIRE NB","stop_desc":"FAR SIDE KINGSHIGHWAY @ DEVONSHIRE NB","wheelchair_boarding":1,"routes":[{"route_id":"19632","agency_id":"70006","route_short_name":"95","route_long_name":"Kingshighway","route_type":3,"route_color":"#FFFFFF","route_text_color":"#000000"}],"agency_name":"Metro St. Louis"},"geometry":{"type":"Point","coordinates":[-90.27615,38.58713]}},{"type":"Feature","properties":{"stop_id":"2334","stop_code":"2334","stop_name":"KINGSHIGHWAY @ SUTHERLAND NB","stop_desc":"NEAR SIDE KINGSHIGHWAY @ SUTHERLAND NB","wheelchair_boarding":1,"routes":[{"route_id":"19632","agency_id":"70006","route_short_name":"95","route_long_name":"Kingshighway","route_type":3,"route_color":"#FFFFFF","route_text_color":"#000000"}],"agency_name":"Metro St. Louis"},"geometry":{"type":"Point","coordinates":[-90.27529,38.58846]}},{"type":"Feature","properties":{"stop_id":"2336","stop_code":"2336","stop_name":"KINGSHIGHWAY @ CHIPPEWA NB","stop_desc":"FAR SIDE KINGSHIGHWAY @ CHIPPEWA NB","wheelchair_boarding":1,"routes":[{"route_id":"19632","agency_id":"70006","route_short_name":"95","route_long_name":"Kingshighway","route_type":3,"route_color":"#FFFFFF","route_text_color":"#000000"}],"agency_name":"Metro St. Louis"},"geometry":{"type":"Point","coordinates":[-90.27281,38.59197]}},{"type":"Feature","properties":{"stop_id":"2340","stop_code":"2340","stop_name":"KINGSHIGHWAY @ VANDEVENTER NB","stop_desc":"NEAR SIDE KINGSHIGHWAY @ VANDEVENTER NB","wheelchair_boarding":2,"routes":[{"route_id":"19632","agency_id":"70006","route_short_name":"95","route_long_name":"Kingshighway","route_type":3,"route_color":"#FFFFFF","route_text_color":"#000000"}],"agency_name":"Metro St. Louis"},"geometry":{"type":"Point","coordinates":[-90.26763,38.61231]}},{"type":"Feature","properties":{"stop_id":"2342","stop_code":"2342","stop_name":"KINGSHIGHWAY @ SHAW NB","stop_desc":"FAR SIDE KINGSHIGHWAY @ SHAW NB","wheelchair_boarding":1,"routes":[{"route_id":"19632","agency_id":"70006","route_short_name":"95","route_long_name":"Kingshighway","route_type":3,"route_color":"#FFFFFF","route_text_color":"#000000"}],"agency_name":"Metro St. Louis"},"geometry":{"type":"Point","coordinates":[-90.26648,38.6179]}},{"type":"Feature","properties":{"stop_id":"2344","stop_code":"2344","stop_name":"KINGSHIGHWAY @ MCREE NB","stop_desc":"NEAR SIDE KINGSHIGHWAY @ MCREE NB","wheelchair_boarding":1,"routes":[{"route_id":"19632","agency_id":"70006","route_short_name":"95","route_long_name":"Kingshighway","route_type":3,"route_color":"#FFFFFF","route_text_color":"#000000"}],"agency_name":"Metro St. Louis"},"geometry":{"type":"Point","coordinates":[-90.26617,38.61945]}},{"type":"Feature","properties":{"stop_id":"2345","stop_code":"2345","stop_name":"KINGSHIGHWAY @ MANCHESTER NB","stop_desc":"FAR SIDE KINGSHIGHWAY @ MANCHESTER NB","wheelchair_boarding":1,"routes":[{"route_id":"19632","agency_id":"70006","route_short_name":"95","route_long_name":"Kingshighway","route_type":3,"route_color":"#FFFFFF","route_text_color":"#000000"}],"agency_name":"Metro St. Louis"},"geometry":{"type":"Point","coordinates":[-90.2648,38.62621]}},{"type":"Feature","properties":{"stop_id":"2347","stop_code":"2347","stop_name":"FOREST PARK @ EUCLID WB","stop_desc":"NEAR SIDE FOREST PARK @ EUCLID WB","wheelchair_boarding":1,"routes":[{"route_id":"19592","agency_id":"70006","route_short_name":"1","route_long_name":"Gold","route_type":3,"route_color":"#FFFFFF","route_text_color":"#000000"},{"route_id":"19598","agency_id":"70006","route_short_name":"10","route_long_name":"Gravois-Lindell","route_type":3,"route_color":"#FFFFFF","route_text_color":"#000000"},{"route_id":"19632","agency_id":"70006","route_short_name":"95","route_long_name":"Kingshighway","route_type":3,"route_color":"#FFFFFF","route_text_color":"#000000"}],"agency_name":"Metro St. Louis"},"geometry":{"type":"Point","coordinates":[-90.26194,38.63906]}},{"type":"Feature","properties":{"stop_id":"2348","stop_code":"2348","stop_name":"KINGSHIGHWAY @ LACLEDE NB","stop_desc":"NEAR SIDE KINGSHIGHWAY @ LACLEDE NB","wheelchair_boarding":1,"routes":[{"route_id":"19592","agency_id":"70006","route_short_name":"1","route_long_name":"Gold","route_type":3,"route_color":"#FFFFFF","route_text_color":"#000000"},{"route_id":"19598","agency_id":"70006","route_short_name":"10","route_long_name":"Gravois-Lindell","route_type":3,"route_color":"#FFFFFF","route_text_color":"#000000"},{"route_id":"19632","agency_id":"70006","route_short_name":"95","route_long_name":"Kingshighway","route_type":3,"route_color":"#FFFFFF","route_text_color":"#000000"}],"agency_name":"Metro St. Louis"},"geometry":{"type":"Point","coordinates":[-90.2653,38.64072]}},{"type":"Feature","properties":{"stop_id":"2349","stop_code":"2349","stop_name":"KINGSHIGHWAY @  LINDELL NB","stop_desc":"NEAR SIDE KINGSHIGHWAY @  LINDELL NB","wheelchair_boarding":1,"routes":[{"route_id":"19592","agency_id":"70006","route_short_name":"1","route_long_name":"Gold","route_type":3,"route_color":"#FFFFFF","route_text_color":"#000000"},{"route_id":"19598","agency_id":"70006","route_short_name":"10","route_long_name":"Gravois-Lindell","route_type":3,"route_color":"#FFFFFF","route_text_color":"#000000"},{"route_id":"19632","agency_id":"70006","route_short_name":"95","route_long_name":"Kingshighway","route_type":3,"route_color":"#FFFFFF","route_text_color":"#000000"}],"agency_name":"Metro St. Louis"},"geometry":{"type":"Point","coordinates":[-90.26481,38.64356]}},{"type":"Feature","properties":{"stop_id":"2350","stop_code":"2350","stop_name":"KINGSHIGHWAY @ MARYLAND NB","stop_desc":"FAR SIDE KINGSHIGHWAY @ MARYLAND NB","wheelchair_boarding":1,"routes":[{"route_id":"19592","agency_id":"70006","route_short_name":"1","route_long_name":"Gold","route_type":3,"route_color":"#FFFFFF","route_text_color":"#000000"},{"route_id":"19632","agency_id":"70006","route_short_name":"95","route_long_name":"Kingshighway","route_type":3,"route_color":"#FFFFFF","route_text_color":"#000000"}],"agency_name":"Metro St. Louis"},"geometry":{"type":"Point","coordinates":[-90.26436,38.646]}},{"type":"Feature","properties":{"stop_id":"2351","stop_code":"2351","stop_name":"KINGSHIGHWAY @ HORTENSE PLACE NB","stop_desc":"FAR SIDE KINGSHIGHWAY @ HORTENSE PLACE NB","wheelchair_boarding":2,"routes":[{"route_id":"19632","agency_id":"70006","route_short_name":"95","route_long_name":"Kingshighway","route_type":3,"route_color":"#FFFFFF","route_text_color":"#000000"}],"agency_name":"Metro St. Louis"},"geometry":{"type":"Point","coordinates":[-90.26407,38.64766]}},{"type":"Feature","properties":{"stop_id":"2352","stop_code":"2352","stop_name":"KINGSHIGHWAY @ MCPHERSON NB","stop_desc":"FAR SIDE KINGSHIGHWAY @ MCPHERSON NB","wheelchair_boarding":1,"routes":[{"route_id":"19632","agency_id":"70006","route_short_name":"95","route_long_name":"Kingshighway","route_type":3,"route_color":"#FFFFFF","route_text_color":"#000000"}],"agency_name":"Metro St. Louis"},"geometry":{"type":"Point","coordinates":[-90.26369,38.64999]}},{"type":"Feature","properties":{"stop_id":"2353","stop_code":"2353","stop_name":"KINGSHIGHWAY @ DELMAR NB","stop_desc":"NEAR SIDE KINGSHIGHWAY @ DELMAR NB","wheelchair_boarding":1,"routes":[{"route_id":"19632","agency_id":"70006","route_short_name":"95","route_long_name":"Kingshighway","route_type":3,"route_color":"#FFFFFF","route_text_color":"#000000"}],"agency_name":"Metro St. Louis"},"geometry":{"type":"Point","coordinates":[-90.26345,38.65124]}},{"type":"Feature","properties":{"stop_id":"2354","stop_code":"2354","stop_name":"KINGSHIGHWAY @ DELMAR NB","stop_desc":"FAR SIDE KINGSHIGHWAY @ DELMAR NB","wheelchair_boarding":2,"routes":[{"route_id":"19632","agency_id":"70006","route_short_name":"95","route_long_name":"Kingshighway","route_type":3,"route_color":"#FFFFFF","route_text_color":"#000000"}],"agency_name":"Metro St. Louis"},"geometry":{"type":"Point","coordinates":[-90.2633,38.65223]}},{"type":"Feature","properties":{"stop_id":"2355","stop_code":"2355","stop_name":"KINGSHIGHWAY @ KENSINGTON NB","stop_desc":"NEAR SIDE KINGSHIGHWAY @ KENSINGTON NB","wheelchair_boarding":1,"routes":[{"route_id":"19632","agency_id":"70006","route_short_name":"95","route_long_name":"Kingshighway","route_type":3,"route_color":"#FFFFFF","route_text_color":"#000000"}],"agency_name":"Metro St. Louis"},"geometry":{"type":"Point","coordinates":[-90.26308,38.6537]}},{"type":"Feature","properties":{"stop_id":"2356","stop_code":"2356","stop_name":"KINGSHIGHWAY @ FOUNTAIN NB","stop_desc":"NEAR SIDE KINGSHIGHWAY @ FOUNTAIN NB","wheelchair_boarding":1,"routes":[{"route_id":"19632","agency_id":"70006","route_short_name":"95","route_long_name":"Kingshighway","route_type":3,"route_color":"#FFFFFF","route_text_color":"#000000"}],"agency_name":"Metro St. Louis"},"geometry":{"type":"Point","coordinates":[-90.26282,38.65522]}},{"type":"Feature","properties":{"stop_id":"2357","stop_code":"2357","stop_name":"KINGSHIGHWAY @ VERNON NB","stop_desc":"NEAR SIDE KINGSHIGHWAY @ VERNON NB","wheelchair_boarding":1,"routes":[{"route_id":"19632","agency_id":"70006","route_short_name":"95","route_long_name":"Kingshighway","route_type":3,"route_color":"#FFFFFF","route_text_color":"#000000"}],"agency_name":"Metro St. Louis"},"geometry":{"type":"Point","coordinates":[-90.26244,38.65744]}},{"type":"Feature","properties":{"stop_id":"2358","stop_code":"2358","stop_name":"KINGSHIGHWAY @ PAGE NB","stop_desc":"FAR SIDE KINGSHIGHWAY @ PAGE NB","wheelchair_boarding":1,"routes":[{"route_id":"19632","agency_id":"70006","route_short_name":"95","route_long_name":"Kingshighway","route_type":3,"route_color":"#FFFFFF","route_text_color":"#000000"}],"agency_name":"Metro St. Louis"},"geometry":{"type":"Point","coordinates":[-90.26197,38.66012]}},{"type":"Feature","properties":{"stop_id":"2359","stop_code":"2359","stop_name":"KINGSHIGHWAY @ RIDGE NB","stop_desc":"NEAR SIDE KINGSHIGHWAY @ RIDGE NB","wheelchair_boarding":1,"routes":[{"route_id":"19632","agency_id":"70006","route_short_name":"95","route_long_name":"Kingshighway","route_type":3,"route_color":"#FFFFFF","route_text_color":"#000000"}],"agency_name":"Metro St. Louis"},"geometry":{"type":"Point","coordinates":[-90.26179,38.66136]}},{"type":"Feature","properties":{"stop_id":"2361","stop_code":"2361","stop_name":"KINGSHIGHWAY @ DR ML KING NB","stop_desc":"FAR SIDE KINGSHIGHWAY @ DR ML KING NB","wheelchair_boarding":1,"routes":[{"route_id":"19632","agency_id":"70006","route_short_name":"95","route_long_name":"Kingshighway","route_type":3,"route_color":"#FFFFFF","route_text_color":"#000000"}],"agency_name":"Metro St. Louis"},"geometry":{"type":"Point","coordinates":[-90.26105,38.66357]}},{"type":"Feature","properties":{"stop_id":"2363","stop_code":"2363","stop_name":"KINGSHIGHWAY @ LOTUS NB","stop_desc":"NEAR SIDE KINGSHIGHWAY @ LOTUS NB","wheelchair_boarding":2,"routes":[{"route_id":"19632","agency_id":"70006","route_short_name":"95","route_long_name":"Kingshighway","route_type":3,"route_color":"#FFFFFF","route_text_color":"#000000"}],"agency_name":"Metro St. Louis"},"geometry":{"type":"Point","coordinates":[-90.25915,38.66611]}},{"type":"Feature","properties":{"stop_id":"2365","stop_code":"2365","stop_name":"KINGSHIGHWAY @ HIGHLAND NB","stop_desc":"NEAR SIDE KINGSHIGHWAY @ HIGHLAND NB","wheelchair_boarding":1,"routes":[{"route_id":"19632","agency_id":"70006","route_short_name":"95","route_long_name":"Kingshighway","route_type":3,"route_color":"#FFFFFF","route_text_color":"#000000"}],"agency_name":"Metro St. Louis"},"geometry":{"type":"Point","coordinates":[-90.25756,38.66821]}},{"type":"Feature","properties":{"stop_id":"2367","stop_code":"2367","stop_name":"KINGSHIGHWAY @ MAFFITT NB","stop_desc":"NEAR SIDE KINGSHIGHWAY @ MAFFITT NB","wheelchair_boarding":1,"routes":[{"route_id":"19632","agency_id":"70006","route_short_name":"95","route_long_name":"Kingshighway","route_type":3,"route_color":"#FFFFFF","route_text_color":"#000000"}],"agency_name":"Metro St. Louis"},"geometry":{"type":"Point","coordinates":[-90.25663,38.66938]}},{"type":"Feature","properties":{"stop_id":"2368","stop_code":"2368","stop_name":"KINGSHIGHWAY @ ST. LOUIS NB","stop_desc":"NEAR SIDE KINGSHIGHWAY @ ST. LOUIS NB","wheelchair_boarding":1,"routes":[{"route_id":"19632","agency_id":"70006","route_short_name":"95","route_long_name":"Kingshighway","route_type":3,"route_color":"#FFFFFF","route_text_color":"#000000"}],"agency_name":"Metro St. Louis"},"geometry":{"type":"Point","coordinates":[-90.2552,38.67127]}},{"type":"Feature","properties":{"stop_id":"2370","stop_code":"2370","stop_name":"KINGSHIGHWAY @ LEXINGTON NB","stop_desc":"NEAR SIDE KINGSHIGHWAY @ LEXINGTON NB","wheelchair_boarding":1,"routes":[{"route_id":"19632","agency_id":"70006","route_short_name":"95","route_long_name":"Kingshighway","route_type":3,"route_color":"#FFFFFF","route_text_color":"#000000"}],"agency_name":"Metro St. Louis"},"geometry":{"type":"Point","coordinates":[-90.25288,38.67456]}},{"type":"Feature","properties":{"stop_id":"2371","stop_code":"2371","stop_name":"KINGSHIGHWAY @ NATURAL BRIDGE NB","stop_desc":"NEAR SIDE KINGSHIGHWAY @ NATURAL BRIDGE NB","wheelchair_boarding":1,"routes":[{"route_id":"19632","agency_id":"70006","route_short_name":"95","route_long_name":"Kingshighway","route_type":3,"route_color":"#FFFFFF","route_text_color":"#000000"}],"agency_name":"Metro St. Louis"},"geometry":{"type":"Point","coordinates":[-90.25187,38.67604]}},{"type":"Feature","properties":{"stop_id":"2373","stop_code":"2373","stop_name":"KINGSHIGHWAY @ SAN FRANCISCO NB","stop_desc":"NEAR SIDE KINGSHIGHWAY @ SAN FRANCISCO NB","wheelchair_boarding":2,"routes":[{"route_id":"19632","agency_id":"70006","route_short_name":"95","route_long_name":"Kingshighway","route_type":3,"route_color":"#FFFFFF","route_text_color":"#000000"}],"agency_name":"Metro St. Louis"},"geometry":{"type":"Point","coordinates":[-90.25109,38.67709]}},{"type":"Feature","properties":{"stop_id":"2374","stop_code":"2374","stop_name":"KINGSHIGHWAY @ MARGARETTA NB","stop_desc":"NEAR SIDE KINGSHIGHWAY @ MARGARETTA NB","wheelchair_boarding":2,"routes":[{"route_id":"19632","agency_id":"70006","route_short_name":"95","route_long_name":"Kingshighway","route_type":3,"route_color":"#FFFFFF","route_text_color":"#000000"}],"agency_name":"Metro St. Louis"},"geometry":{"type":"Point","coordinates":[-90.24996,38.67872]}},{"type":"Feature","properties":{"stop_id":"2376","stop_code":"2376","stop_name":"KINGSHIGHWAY @ LEE NB","stop_desc":"FAR SIDE KINGSHIGHWAY @ LEE NB","wheelchair_boarding":2,"routes":[{"route_id":"19632","agency_id":"70006","route_short_name":"95","route_long_name":"Kingshighway","route_type":3,"route_color":"#FFFFFF","route_text_color":"#000000"}],"agency_name":"Metro St. Louis"},"geometry":{"type":"Point","coordinates":[-90.24845,38.68087]}},{"type":"Feature","properties":{"stop_id":"2377","stop_code":"2377","stop_name":"KINGSHIGHWAY @ PENROSE NB","stop_desc":"FAR SIDE KINGSHIGHWAY @ PENROSE NB","wheelchair_boarding":1,"routes":[{"route_id":"19612","agency_id":"70006","route_short_name":"41","route_long_name":"Lee","route_type":3,"route_color":"#FFFFFF","route_text_color":"#000000"},{"route_id":"19632","agency_id":"70006","route_short_name":"95","route_long_name":"Kingshighway","route_type":3,"route_color":"#FFFFFF","route_text_color":"#000000"}],"agency_name":"Metro St. Louis"},"geometry":{"type":"Point","coordinates":[-90.24752,38.68334]}},{"type":"Feature","properties":{"stop_id":"2379","stop_code":"2379","stop_name":"KINGSHIGHWAY @ LILLIAN NB","stop_desc":"FAR SIDE KINGSHIGHWAY @ LILLIAN NB","wheelchair_boarding":1,"routes":[{"route_id":"19632","agency_id":"70006","route_short_name":"95","route_long_name":"Kingshighway","route_type":3,"route_color":"#FFFFFF","route_text_color":"#000000"}],"agency_name":"Metro St. Louis"},"geometry":{"type":"Point","coordinates":[-90.24467,38.68674]}},{"type":"Feature","properties":{"stop_id":"2381","stop_code":"2381","stop_name":"KINGSHIGHWAY @ THEKLA NB","stop_desc":"FAR SIDE KINGSHIGHWAY @ THEKLA NB","wheelchair_boarding":1,"routes":[{"route_id":"19632","agency_id":"70006","route_short_name":"95","route_long_name":"Kingshighway","route_type":3,"route_color":"#FFFFFF","route_text_color":"#000000"}],"agency_name":"Metro St. Louis"},"geometry":{"type":"Point","coordinates":[-90.24122,38.68862]}},{"type":"Feature","properties":{"stop_id":"2382","stop_code":"2382","stop_name":"KINGSHIGHWAY @ HARNEY NB","stop_desc":"NEAR SIDE KINGSHIGHWAY @ HARNEY NB","wheelchair_boarding":2,"routes":[{"route_id":"19632","agency_id":"70006","route_short_name":"95","route_long_name":"Kingshighway","route_type":3,"route_color":"#FFFFFF","route_text_color":"#000000"}],"agency_name":"Metro St. Louis"},"geometry":{"type":"Point","coordinates":[-90.2391,38.68977]}},{"type":"Feature","properties":{"stop_id":"3454","stop_code":"3454","stop_name":"KINGSHIGHWAY @ OLEATHA NB","stop_desc":"FAR SIDE KINGSHIGHWAY @ OLEATHA NB","wheelchair_boarding":1,"routes":[{"route_id":"19632","agency_id":"70006","route_short_name":"95","route_long_name":"Kingshighway","route_type":3,"route_color":"#FFFFFF","route_text_color":"#000000"}],"agency_name":"Metro St. Louis"},"geometry":{"type":"Point","coordinates":[-90.2709,38.59602]}},{"type":"Feature","properties":{"stop_id":"3456","stop_code":"3456","stop_name":"KINGSHIGHWAY @ PARKER NB","stop_desc":"FAR SIDE KINGSHIGHWAY @ PARKER NB","wheelchair_boarding":2,"routes":[{"route_id":"19632","agency_id":"70006","route_short_name":"95","route_long_name":"Kingshighway","route_type":3,"route_color":"#FFFFFF","route_text_color":"#000000"}],"agency_name":"Metro St. Louis"},"geometry":{"type":"Point","coordinates":[-90.27036,38.59866]}},{"type":"Feature","properties":{"stop_id":"3458","stop_code":"3458","stop_name":"KINGSHIGHWAY @ CONNECTICUT NB","stop_desc":"FAR SIDE KINGSHIGHWAY @ CONNECTICUT NB","wheelchair_boarding":1,"routes":[{"route_id":"19632","agency_id":"70006","route_short_name":"95","route_long_name":"Kingshighway","route_type":3,"route_color":"#FFFFFF","route_text_color":"#000000"}],"agency_name":"Metro St. Louis"},"geometry":{"type":"Point","coordinates":[-90.26954,38.60271]}},{"type":"Feature","properties":{"stop_id":"3459","stop_code":"3459","stop_name":"KINGSHIGHWAY @ ARSENAL NB","stop_desc":"FAR SIDE KINGSHIGHWAY @ ARSENAL NB","wheelchair_boarding":1,"routes":[{"route_id":"19632","agency_id":"70006","route_short_name":"95","route_long_name":"Kingshighway","route_type":3,"route_color":"#FFFFFF","route_text_color":"#000000"}],"agency_name":"Metro St. Louis"},"geometry":{"type":"Point","coordinates":[-90.26902,38.60556]}},{"type":"Feature","properties":{"stop_id":"3461","stop_code":"3461","stop_name":"KINGSHIGHWAY @ MAGNOLIA NB","stop_desc":"NEAR SIDE KINGSHIGHWAY @ MAGNOLIA NB","wheelchair_boarding":2,"routes":[{"route_id":"19632","agency_id":"70006","route_short_name":"95","route_long_name":"Kingshighway","route_type":3,"route_color":"#FFFFFF","route_text_color":"#000000"}],"agency_name":"Metro St. Louis"},"geometry":{"type":"Point","coordinates":[-90.26823,38.60959]}},{"type":"Feature","properties":{"stop_id":"5456","stop_code":"5456","stop_name":"KINGSHIGHWAY @ OAKLAND NB","stop_desc":"FAR SIDE KINGSHIGHWAY @ OAKLAND NB","wheelchair_boarding":1,"routes":[{"route_id":"19618","agency_id":"70006","route_short_name":"59","route_long_name":"Oakland","route_type":3,"route_color":"#FFFFFF","route_text_color":"#000000"},{"route_id":"19632","agency_id":"70006","route_short_name":"95","route_long_name":"Kingshighway","route_type":3,"route_color":"#FFFFFF","route_text_color":"#000000"}],"agency_name":"Metro St. Louis"},"geometry":{"type":"Point","coordinates":[-90.26437,38.62921]}},{"type":"Feature","properties":{"stop_id":"5459","stop_code":"5459","stop_name":"BARNES JEWISH HOSPITAL PLAZA EB","stop_desc":"MID-BLOCK BARNES JEWISH HOSPITAL PLAZA EB","wheelchair_boarding":1,"routes":[{"route_id":"19618","agency_id":"70006","route_short_name":"59","route_long_name":"Oakland","route_type":3,"route_color":"#FFFFFF","route_text_color":"#000000"},{"route_id":"19632","agency_id":"70006","route_short_name":"95","route_long_name":"Kingshighway","route_type":3,"route_color":"#FFFFFF","route_text_color":"#000000"}],"agency_name":"Metro St. Louis"},"geometry":{"type":"Point","coordinates":[-90.26458,38.63495]}},{"type":"Feature","properties":{"stop_id":"768","stop_code":"768","stop_name":"GRAVOIS-HAMPTON TRANSIT CENTER","wheelchair_boarding":1,"routes":[{"route_id":"19598","agency_id":"70006","route_short_name":"10","route_long_name":"Gravois-Lindell","route_type":3,"route_color":"#FFFFFF","route_text_color":"#000000"},{"route_id":"19629","agency_id":"70006","route_short_name":"90","route_long_name":"Hampton","route_type":3,"route_color":"#FFFFFF","route_text_color":"#000000"},{"route_id":"19632","agency_id":"70006","route_short_name":"95","route_long_name":"Kingshighway","route_type":3,"route_color":"#FFFFFF","route_text_color":"#000000"}],"agency_name":"Metro St. Louis"},"geometry":{"type":"Point","coordinates":[-90.29389,38.56476]}},{"type":"Feature","properties":{"stop_id":"7741","stop_code":"7741","stop_name":"7220 GRAVOIS EB","stop_desc":"MID-BLOCK 7220 GRAVOIS EB","wheelchair_boarding":1,"routes":[{"route_id":"19598","agency_id":"70006","route_short_name":"10","route_long_name":"Gravois-Lindell","route_type":3,"route_color":"#FFFFFF","route_text_color":"#000000"},{"route_id":"19632","agency_id":"70006","route_short_name":"95","route_long_name":"Kingshighway","route_type":3,"route_color":"#FFFFFF","route_text_color":"#000000"}],"agency_name":"Metro St. Louis"},"geometry":{"type":"Point","coordinates":[-90.29178,38.56566]}},{"type":"Feature","properties":{"stop_id":"7745","stop_code":"7745","stop_name":"GRAVOIS @ NAGEL EB","stop_desc":"FAR SIDE GRAVOIS @ NAGEL EB","wheelchair_boarding":1,"routes":[{"route_id":"19598","agency_id":"70006","route_short_name":"10","route_long_name":"Gravois-Lindell","route_type":3,"route_color":"#FFFFFF","route_text_color":"#000000"},{"route_id":"19632","agency_id":"70006","route_short_name":"95","route_long_name":"Kingshighway","route_type":3,"route_color":"#FFFFFF","route_text_color":"#000000"}],"agency_name":"Metro St. Louis"},"geometry":{"type":"Point","coordinates":[-90.28715,38.56845]}},{"type":"Feature","properties":{"stop_id":"7746","stop_code":"7746","stop_name":"GRAVOIS @ LOUGHBROUGH EB","stop_desc":"FAR SIDE GRAVOIS @ LOUGHBROUGH EB","wheelchair_boarding":1,"routes":[{"route_id":"19598","agency_id":"70006","route_short_name":"10","route_long_name":"Gravois-Lindell","route_type":3,"route_color":"#FFFFFF","route_text_color":"#000000"},{"route_id":"19632","agency_id":"70006","route_short_name":"95","route_long_name":"Kingshighway","route_type":3,"route_color":"#FFFFFF","route_text_color":"#000000"}],"agency_name":"Metro St. Louis"},"geometry":{"type":"Point","coordinates":[-90.28489,38.57022]}},{"type":"Feature","properties":{"stop_id":"8571","stop_code":"8571","stop_name":"TAYLOR @ CLAYTON NB","stop_desc":"FAR SIDE TAYLOR @ CLAYTON NB","wheelchair_boarding":2,"routes":[{"route_id":"19596","agency_id":"70006","route_short_name":"8","route_long_name":"Shaw-Cherokee","route_type":3,"route_color":"#FFFFFF","route_text_color":"#000000"},{"route_id":"19618","agency_id":"70006","route_short_name":"59","route_long_name":"Oakland","route_type":3,"route_color":"#FFFFFF","route_text_color":"#000000"},{"route_id":"19632","agency_id":"70006","route_short_name":"95","route_long_name":"Kingshighway","route_type":3,"route_color":"#FFFFFF","route_text_color":"#000000"}],"agency_name":"Metro St. Louis"},"geometry":{"type":"Point","coordinates":[-90.2601,38.63346]}},{"type":"Feature","properties":{"stop_id":"880","stop_code":"880","stop_name":"KINGSHIGHWAY @ EICHELBERGER NB","stop_desc":"FAR SIDE KINGSHIGHWAY @ EICHELBERGER NB","wheelchair_boarding":2,"routes":[{"route_id":"19632","agency_id":"70006","route_short_name":"95","route_long_name":"Kingshighway","route_type":3,"route_color":"#FFFFFF","route_text_color":"#000000"}],"agency_name":"Metro St. Louis"},"geometry":{"type":"Point","coordinates":[-90.27859,38.58123]}},{"type":"Feature","properties":{"stop_id":"8935","stop_code":"8935","stop_name":"KINGSHIGHWAY @ BONITA WB","stop_desc":"NEAR SIDE KINGSHIGHWAY @ BONITA WB","wheelchair_boarding":2,"routes":[{"route_id":"19632","agency_id":"70006","route_short_name":"95","route_long_name":"Kingshighway","route_type":3,"route_color":"#FFFFFF","route_text_color":"#000000"}],"agency_name":"Metro St. Louis"},"geometry":{"type":"Point","coordinates":[-90.28421,38.57303]}}]}