{"type":"FeatureCollection","features":[{"type":"Feature","properties":{"agency_name":"Metro St. Louis","route_id":"19636","agency_id":"70006","route_short_name":"1","route_long_name":"Main Street - State Street","route_type":3,"route_color":"#FFFFFF","route_text_color":"#000000"},"geometry":{"type":"MultiLineString","coordinates":[[[-90.1592,38.62494],[-90.15903,38.62499],[-90.1592,38.62494],[-90.15959,38.62472],[-90.15961,38.62462],[-90.15959,38.62452],[-90.1595,38.62443],[-90.15897,38.62401],[-90.15583,38.6263],[-90.15373,38.62718],[-90.15243,38.62609],[-90.15159,38.62536],[-90.15071,38.62465],[-90.15049,38.62443],[-90.14898,38.62398],[-90.14329,38.62194],[-90.1395,38.62061],[-90.13711,38.61972],[-90.13607,38.61936],[-90.13505,38.61898],[-90.13329,38.61837],[-90.13059,38.6174],[-90.13012,38.61725],[-90.12879,38.61676],[-90.12832,38.61657],[-90.12786,38.61641],[-90.12747,38.61625],[-90.1272,38.61607],[-90.12614,38.61551],[-90.12547,38.6152],[-90.12452,38.61471],[-90.11968,38.61213],[-90.11771,38.61103],[-90.11683,38.61051],[-90.11488,38.6094],[-90.11475,38.60934],[-90.1127,38.60908],[-90.11203,38.60901],[-90.11102,38.60886],[-90.11047,38.60876],[-90.10919,38.6085],[-90.10674,38.60796],[-90.10575,38.6077],[-90.1047,38.6075],[-90.10264,38.60703],[-90.10127,38.60675],[-90.10101,38.60667],[-90.0984,38.60602],[-90.09788,38.60586],[-90.09718,38.6056],[-90.09681,38.60539],[-90.09638,38.60512],[-90.09592,38.60492],[-90.09257,38.60421],[-90.09022,38.60374],[-90.08917,38.60345],[-90.0886,38.60331],[-90.08657,38.60289],[-90.08548,38.6025],[-90.0828,38.60147],[-90.08144,38.60097],[-90.08063,38.60071],[-90.08051,38.60069],[-90.07994,38.60049],[-90.07939,38.60024],[-90.0768,38.59881],[-90.07548,38.59805],[-90.0745,38.59752],[-90.07078,38.59511],[-90.06783,38.59324],[-90.06739,38.59298],[-90.06695,38.59267],[-90.06427,38.59103],[-90.06327,38.59043],[-90.06311,38.59035],[-90.06243,38.58991],[-90.06049,38.58876],[-90.05989,38.5891],[-90.05935,38.58949],[-90.05879,38.59],[-90.05685,38.59199],[-90.05647,38.59246],[-90.05617,38.59287],[-90.0556,38.59379],[-90.05524,38.59447],[-90.05448,38.59583],[-90.05403,38.59673],[-90.05381,38.59712],[-90.05358,38.59774],[-90.05307,38.59893],[-90.05268,38.59962],[-90.05258,38.59973],[-90.05246,38.59983],[-90.05233,38.59989],[-90.05216,38.5999],[-90.0519,38.59984],[-90.05179,38.59977],[-90.0517,38.59967],[-90.05166,38.59958],[-90.05165,38.59946],[-90.05166,38.59935],[-90.0521,38.59842],[-90.05207,38.59829],[-90.05176,38.59809],[-90.05123,38.59778],[-90.05105,38.59773],[-90.05005,38.59704],[-90.04945,38.5967],[-90.04886,38.59642],[-90.04841,38.59624],[-90.04878,38.59574],[-90.04886,38.5956],[-90.04887,38.59547]],[[-90.04791,38.59407],[-90.04879,38.59534],[-90.04791,38.59407],[-90.04771,38.5939],[-90.04753,38.59382],[-90.04584,38.59381],[-90.04581,38.59251],[-90.04573,38.59202],[-90.04569,38.59184],[-90.04554,38.59137],[-90.04529,38.59082],[-90.04501,38.59037],[-90.04495,38.59014],[-90.0444,38.58933],[-90.04389,38.58863],[-90.04269,38.5871],[-90.04183,38.58592],[-90.0414,38.58529],[-90.0411,38.58481],[-90.04114,38.5846],[-90.04124,38.5845],[-90.04133,38.58445],[-90.04278,38.58456],[-90.04332,38.58471],[-90.04379,38.58496],[-90.044,38.5851],[-90.0442,38.58527],[-90.04437,38.58545],[-90.0445,38.58562],[-90.04464,38.58584],[-90.04505,38.58671],[-90.04513,38.58685],[-90.04538,38.58717],[-90.04559,38.58737],[-90.04594,38.58767],[-90.04629,38.58787],[-90.04694,38.58814],[-90.04728,38.58823],[-90.04763,38.5883],[-90.04862,38.58834],[-90.04901,38.58831],[-90.05344,38.58751],[-90.05597,38.58712],[-90.05639,38.58709],[-90.05673,38.5871],[-90.05784,38.58719],[-90.05807,38.58711],[-90.05753,38.58641],[-90.05715,38.58587],[-90.05699,38.58549],[-90.05693,38.58518],[-90.05672,38.58349],[-90.05671,38.58331],[-90.05657,38.58242],[-90.05652,38.58219],[-90.05647,38.58149],[-90.05638,38.58057],[-90.05637,38.58018],[-90.05638,38.57949],[-90.0564,38.57919],[-90.05637,38.57837],[-90.0562,38.57714],[-90.05608,38.57684],[-90.05571,38.57607],[-90.05556,38.57571],[-90.05374,38.57187],[-90.05346,38.5712],[-90.0525,38.56916],[-90.05215,38.56859],[-90.05154,38.56788],[-90.05116,38.56749],[-90.04969,38.56605],[-90.0489,38.56501],[-90.04794,38.56339],[-90.04735,38.5623],[-90.04657,38.56097],[-90.04565,38.55931],[-90.04535,38.55892],[-90.04479,38.55839],[-90.04353,38.55725],[-90.04321,38.55691],[-90.04069,38.55464],[-90.03917,38.55322],[-90.03593,38.55026],[-90.03522,38.54959],[-90.03488,38.54923],[-90.03406,38.54829],[-90.03359,38.54779],[-90.03295,38.54703],[-90.03249,38.54659],[-90.02302,38.54028],[-90.02229,38.53977],[-90.02126,38.53882],[-90.01962,38.53719],[-90.01684,38.53433],[-90.01616,38.53366],[-90.01598,38.53346],[-90.01587,38.53337],[-90.01528,38.53274],[-90.01414,38.53158],[-90.01403,38.53146],[-90.01358,38.53083],[-90.01328,38.53035],[-90.01301,38.52989],[-90.01222,38.52833],[-90.01216,38.52819],[-90.01205,38.52783],[-90.01177,38.52649],[-90.01156,38.52559],[-90.01138,38.52507],[-90.01062,38.52407],[-90.01032,38.52376],[-90.00904,38.52254],[-90.0079,38.52151],[-90.00762,38.52122],[-90.00693,38.52057],[-90.00622,38.51994],[-90.00588,38.51969],[-90.00521,38.51926],[-90.00389,38.5185],[-90.00323,38.51814],[-90.00226,38.51767],[-90.00003,38.51666],[-89.99743,38.51545],[-89.99566,38.51462],[-89.99419,38.51391],[-89.99327,38.51362],[-89.99309,38.51353],[-89.99272,38.51324],[-89.99263,38.51312],[-89.99246,38.51295],[-89.99236,38.51287],[-89.99216,38.51275],[-89.99166,38.51266],[-89.98973,38.51264],[-89.98553,38.51264],[-89.98423,38.51261],[-89.98149,38.51261],[-89.98016,38.51263],[-89.97901,38.51263],[-89.97899,38.51362],[-89.97902,38.51555],[-89.97903,38.51771],[-89.97898,38.51801],[-89.97874,38.51847],[-89.97856,38.51862],[-89.97601,38.52046],[-89.97554,38.52081],[-89.97547,38.52084],[-89.97535,38.52083],[-89.97528,38.52079],[-89.97508,38.52061],[-89.97504,38.52059],[-89.97495,38.52057],[-89.97481,38.52059],[-89.97473,38.52063],[-89.97409,38.52114],[-89.97407,38.52118],[-89.97407,38.52123],[-89.97412,38.52129]]]}},{"type":"Feature","properties":{"stop_id":"11036","stop_code":"11036","stop_name":"CHARLES @ C STREET NB","stop_desc":"FAR SIDE CHARLES @ C STREET NB","wheelchair_boarding":2,"routes":[{"route_id":"19636","agency_id":"70006","route_short_name":"1","route_long_name":"Main Street - State Street","route_type":3,"route_color":"#FFFFFF","route_text_color":"#000000"},{"route_id":"19648","agency_id":"70006","route_short_name":"16","route_long_name":"St. Clair Square","route_type":3,"route_color":"#FFFFFF","route_text_color":"#000000"}],"agency_name":"Metro St. Louis"},"geometry":{"type":"Point","coordinates":[-89.97892,38.51665]}},{"type":"Feature","properties":{"stop_id":"11037","stop_code":"11037","stop_name":"CHARLES @ B STREET NB","stop_desc":"NEAR SIDE CHARLES @ B STREET NB","wheelchair_boarding":2,"routes":[{"route_id":"19636","agency_id":"70006","route_short_name":"1","route_long_name":"Main Street - State Street","route_type":3,"route_color":"#FFFFFF","route_text_color":"#000000"}],"agency_name":"Metro St. Louis"},"geometry":{"type":"Point","coordinates":[-89.97892,38.51537]}},{"type":"Feature","properties":{"stop_id":"11038","stop_code":"11038","stop_name":"CHARLES @ MAIN NB","stop_desc":"FAR SIDE CHARLES @ MAIN NB","wheelchair_boarding":2,"routes":[{"route_id":"19636","agency_id":"70006","route_short_name":"1","route_long_name":"Main Street - State Street","route_type":3,"route_color":"#FFFFFF","route_text_color":"#000000"}],"agency_name":"Metro St. Louis"},"geometry":{"type":"Point","coordinates":[-89.97889,38.51379]}},{"type":"Feature","properties":{"stop_id":"11102","stop_code":"11102","stop_name":"BELLEVILLE TRANSIT CENTER","wheelchair_boarding":1,"routes":[{"route_id":"19636","agency_id":"70006","route_short_name":"1","route_long_name":"Main Street - State Street","route_type":3,"route_color":"#FFFFFF","route_text_color":"#000000"},{"route_id":"19647","agency_id":"70006","route_short_name":"15","route_long_name":"Belleville-O'Fallon","route_type":3,"route_color":"#FFFFFF","route_text_color":"#000000"},{"route_id":"19648","agency_id":"70006","route_short_name":"16","route_long_name":"St. Clair Square","route_type":3,"route_color":"#FFFFFF","route_text_color":"#000000"},{"route_id":"19649","agency_id":"70006","route_short_name":"23","route_long_name":"Belleville-College","route_type":3,"route_color":"#FFFFFF","route_text_color":"#000000"}],"agency_name":"Metro St. Louis"},"geometry":{"type":"Point","coordinates":[-89.97461,38.5217]}},{"type":"Feature","properties":{"stop_id":"11326","stop_code":"11326","stop_name":"MAIN @ 17TH STREET SB","stop_desc":"NEAR SIDE MAIN @ 17TH STREET SB","wheelchair_boarding":2,"routes":[{"route_id":"19636","agency_id":"70006","route_short_name":"1","route_long_name":"Main Street - State Street","route_type":3,"route_color":"#FFFFFF","route_text_color":"#000000"}],"agency_name":"Metro St. Louis"},"geometry":{"type":"Point","coordinates":[-90.00328,38.51806]}},{"type":"Feature","properties":{"stop_id":"12079","stop_code":"12079","stop_name":"ST. CLAIR @ MAGDALENA EB","stop_desc":"NEAR SIDE ST. CLAIR @ MAGDALENA EB","wheelchair_boarding":2,"routes":[{"route_id":"19636","agency_id":"70006","route_short_name":"1","route_long_name":"Main Street - State Street","route_type":3,"route_color":"#FFFFFF","route_text_color":"#000000"},{"route_id":"19641","agency_id":"70006","route_short_name":"6","route_long_name":"Rosemont","route_type":3,"route_color":"#FFFFFF","route_text_color":"#000000"},{"route_id":"19645","agency_id":"70006","route_short_name":"13","route_long_name":"Caseyville","route_type":3,"route_color":"#FFFFFF","route_text_color":"#000000"}],"agency_name":"Metro St. Louis"},"geometry":{"type":"Point","coordinates":[-90.05117,38.5977]}},{"type":"Feature","properties":{"stop_id":"12080","stop_code":"12080","stop_name":"ILLINOIS ROUTE 157 @ CHURCH NB","stop_desc":"NEAR SIDE ILLINOIS ROUTE 157 @ CHURCH NB","wheelchair_boarding":2,"routes":[{"route_id":"19636","agency_id":"70006","route_short_name":"1","route_long_name":"Main Street - State Street","route_type":3,"route_color":"#FFFFFF","route_text_color":"#000000"},{"route_id":"19641","agency_id":"70006","route_short_name":"6","route_long_name":"Rosemont","route_type":3,"route_color":"#FFFFFF","route_text_color":"#000000"}],"agency_name":"Metro St. Louis"},"geometry":{"type":"Point","coordinates":[-90.05403,38.59666]}},{"type":"Feature","properties":{"stop_id":"12081","stop_code":"12081","stop_name":"ILLINOIS ROUTE 157 @ VIEUX CARRE NB","stop_desc":"FAR SIDE ILLINOIS ROUTE 157 @ VIEUX CARRE NB","wheelchair_boarding":2,"routes":[{"route_id":"19636","agency_id":"70006","route_short_name":"1","route_long_name":"Main Street - State Street","route_type":3,"route_color":"#FFFFFF","route_text_color":"#000000"},{"route_id":"19641","agency_id":"70006","route_short_name":"6","route_long_name":"Rosemont","route_type":3,"route_color":"#FFFFFF","route_text_color":"#000000"}],"agency_name":"Metro St. Louis"},"geometry":{"type":"Point","coordinates":[-90.05476,38.59528]}},{"type":"Feature","properties":{"stop_id":"12082","stop_code":"12082","stop_name":"ILLINOIS ROUTE 157 @ WASHINGTON NB","stop_desc":"FAR SIDE ILLINOIS ROUTE 157 @ WASHINGTON NB","wheelchair_boarding":1,"routes":[{"route_id":"19636","agency_id":"70006","route_short_name":"1","route_long_name":"Main Street - State Street","route_type":3,"route_color":"#FFFFFF","route_text_color":"#000000"}],"agency_name":"Metro St. Louis"},"geometry":{"type":"Point","coordinates":[-90.05874,38.59001]}},{"type":"Feature","properties":{"stop_id":"12084","stop_code":"12084","stop_name":"MAIN @ ARTHUR SB","stop_desc":"NEAR SIDE MAIN @ ARTHUR SB","wheelchair_boarding":2,"routes":[{"route_id":"19636","agency_id":"70006","route_short_name":"1","route_long_name":"Main Street - State Street","route_type":3,"route_color":"#FFFFFF","route_text_color":"#000000"}],"agency_name":"Metro St. Louis"},"geometry":{"type":"Point","coordinates":[-90.05696,38.58483]}},{"type":"Feature","properties":{"stop_id":"12085","stop_code":"12085","stop_name":"MAIN @ GRANVUE SB","stop_desc":"NEAR SIDE MAIN @ GRANVUE SB","wheelchair_boarding":2,"routes":[{"route_id":"19636","agency_id":"70006","route_short_name":"1","route_long_name":"Main Street - State Street","route_type":3,"route_color":"#FFFFFF","route_text_color":"#000000"}],"agency_name":"Metro St. Louis"},"geometry":{"type":"Point","coordinates":[-90.05686,38.58391]}},{"type":"Feature","properties":{"stop_id":"12086","stop_code":"12086","stop_name":"9840 WEST MAIN SB","stop_desc":"MID-BLOCK 9840 WEST MAIN SB","wheelchair_boarding":2,"routes":[{"route_id":"19636","agency_id":"70006","route_short_name":"1","route_long_name":"Main Street - State Street","route_type":3,"route_color":"#FFFFFF","route_text_color":"#000000"}],"agency_name":"Metro St. Louis"},"geometry":{"type":"Point","coordinates":[-90.05665,38.58217]}},{"type":"Feature","properties":{"stop_id":"12087","stop_code":"12087","stop_name":"MAIN @ 98TH STREET SB","stop_desc":"FAR SIDE MAIN @ 98TH STREET SB","wheelchair_boarding":2,"routes":[{"route_id":"19636","agency_id":"70006","route_short_name":"1","route_long_name":"Main Street - State Street","route_type":3,"route_color":"#FFFFFF","route_text_color":"#000000"}],"agency_name":"Metro St. Louis"},"geometry":{"type":"Point","coordinates":[-90.05646,38.58044]}},{"type":"Feature","properties":{"stop_id":"12088","stop_code":"12088","stop_name":"MAIN @ 97TH STREET SB","stop_desc":"FAR SIDE MAIN @ 97TH STREET SB","wheelchair_boarding":2,"routes":[{"route_id":"19636","agency_id":"70006","route_short_name":"1","route_long_name":"Main Street - State Street","route_type":3,"route_color":"#FFFFFF","route_text_color":"#000000"}],"agency_name":"Metro St. Louis"},"geometry":{"type":"Point","coordinates":[-90.05649,38.57921]}},{"type":"Feature","properties":{"stop_id":"12089","stop_code":"12089","stop_name":"MAIN @ GLENVIEW SB","stop_desc":"NEAR SIDE MAIN @ GLENVIEW SB","wheelchair_boarding":2,"routes":[{"route_id":"19636","agency_id":"70006","route_short_name":"1","route_long_name":"Main Street - State Street","route_type":3,"route_color":"#FFFFFF","route_text_color":"#000000"}],"agency_name":"Metro St. Louis"},"geometry":{"type":"Point","coordinates":[-90.05636,38.57759]}},{"type":"Feature","properties":{"stop_id":"12091","stop_code":"12091","stop_name":"9410 MAIN SB","stop_desc":"MID-BLOCK 9410 MAIN SB","wheelchair_boarding":2,"routes":[{"route_id":"19636","agency_id":"70006","route_short_name":"1","route_long_name":"Main Street - State Street","route_type":3,"route_color":"#FFFFFF","route_text_color":"#000000"}],"agency_name":"Metro St. Louis"},"geometry":{"type":"Point","coordinates":[-90.05535,38.57509]}},{"type":"Feature","properties":{"stop_id":"12092","stop_code":"12092","stop_name":"9260 MAIN SB","stop_desc":"MID-BLOCK 9260 MAIN SB","wheelchair_boarding":2,"routes":[{"route_id":"19636","agency_id":"70006","route_short_name":"1","route_long_name":"Main Street - State Street","route_type":3,"route_color":"#FFFFFF","route_text_color":"#000000"}],"agency_name":"Metro St. Louis"},"geometry":{"type":"Point","coordinates":[-90.05495,38.57425]}},{"type":"Feature","properties":{"stop_id":"12094","stop_code":"12094","stop_name":"MAIN @ 88TH STREET SB","stop_desc":"NEAR SIDE MAIN @ 88TH STREET SB","wheelchair_boarding":2,"routes":[{"route_id":"19636","agency_id":"70006","route_short_name":"1","route_long_name":"Main Street - State Street","route_type":3,"route_color":"#FFFFFF","route_text_color":"#000000"}],"agency_name":"Metro St. Louis"},"geometry":{"type":"Point","coordinates":[-90.05391,38.57195]}},{"type":"Feature","properties":{"stop_id":"12096","stop_code":"12096","stop_name":"MAIN @ 86TH STREET SB","stop_desc":"NEAR SIDE MAIN @ 86TH STREET SB","wheelchair_boarding":2,"routes":[{"route_id":"19636","agency_id":"70006","route_short_name":"1","route_long_name":"Main Street - State Street","route_type":3,"route_color":"#FFFFFF","route_text_color":"#000000"}],"agency_name":"Metro St. Louis"},"geometry":{"type":"Point","coordinates":[-90.05306,38.57014]}},{"type":"Feature","properties":{"stop_id":"12098","stop_code":"12098","stop_name":"MAIN @ JUANITA PLACE SB","stop_desc":"NEAR SIDE MAIN @ JUANITA PLACE SB","wheelchair_boarding":2,"routes":[{"route_id":"19636","agency_id":"70006","route_short_name":"1","route_long_name":"Main Street - State Street","route_type":3,"route_color":"#FFFFFF","route_text_color":"#000000"}],"agency_name":"Metro St. Louis"},"geometry":{"type":"Point","coordinates":[-90.05134,38.56759]}},{"type":"Feature","properties":{"stop_id":"12099","stop_code":"12099","stop_name":"MAIN @ 82ND STREET SB","stop_desc":"NEAR SIDE MAIN @ 82ND STREET SB","wheelchair_boarding":2,"routes":[{"route_id":"19636","agency_id":"70006","route_short_name":"1","route_long_name":"Main Street - State Street","route_type":3,"route_color":"#FFFFFF","route_text_color":"#000000"}],"agency_name":"Metro St. Louis"},"geometry":{"type":"Point","coordinates":[-90.05042,38.56664]}},{"type":"Feature","properties":{"stop_id":"12100","stop_code":"12100","stop_name":"MAIN @ 80TH STREET SB","stop_desc":"NEAR SIDE MAIN @ 80TH STREET SB","wheelchair_boarding":2,"routes":[{"route_id":"19636","agency_id":"70006","route_short_name":"1","route_long_name":"Main Street - State Street","route_type":3,"route_color":"#FFFFFF","route_text_color":"#000000"}],"agency_name":"Metro St. Louis"},"geometry":{"type":"Point","coordinates":[-90.04914,38.5652]}},{"type":"Feature","properties":{"stop_id":"12102","stop_code":"12102","stop_name":"MAIN @ 78TH STREET SB","stop_desc":"NEAR SIDE MAIN @ 78TH STREET SB","wheelchair_boarding":2,"routes":[{"route_id":"19636","agency_id":"70006","route_short_name":"1","route_long_name":"Main Street - State Street","route_type":3,"route_color":"#FFFFFF","route_text_color":"#000000"}],"agency_name":"Metro St. Louis"},"geometry":{"type":"Point","coordinates":[-90.04797,38.56328]}},{"type":"Feature","properties":{"stop_id":"12103","stop_code":"12103","stop_name":"MAIN @ 77TH STREET SB","stop_desc":"NEAR SIDE MAIN @ 77TH STREET SB","wheelchair_boarding":2,"routes":[{"route_id":"19636","agency_id":"70006","route_short_name":"1","route_long_name":"Main Street - State Street","route_type":3,"route_color":"#FFFFFF","route_text_color":"#000000"}],"agency_name":"Metro St. Louis"},"geometry":{"type":"Point","coordinates":[-90.04748,38.5624]}},{"type":"Feature","properties":{"stop_id":"12105","stop_code":"12105","stop_name":"MAIN @ 74TH STREET SB","stop_desc":"FAR SIDE MAIN @ 74TH STREET SB","wheelchair_boarding":2,"routes":[{"route_id":"19636","agency_id":"70006","route_short_name":"1","route_long_name":"Main Street - State Street","route_type":3,"route_color":"#FFFFFF","route_text_color":"#000000"}],"agency_name":"Metro St. Louis"},"geometry":{"type":"Point","coordinates":[-90.0458,38.55939]}},{"type":"Feature","properties":{"stop_id":"12106","stop_code":"12106","stop_name":"MAIN @ 73RD STREET SB","stop_desc":"FAR SIDE MAIN @ 73RD STREET SB","wheelchair_boarding":2,"routes":[{"route_id":"19636","agency_id":"70006","route_short_name":"1","route_long_name":"Main Street - State Street","route_type":3,"route_color":"#FFFFFF","route_text_color":"#000000"}],"agency_name":"Metro St. Louis"},"geometry":{"type":"Point","coordinates":[-90.0453,38.55877]}},{"type":"Feature","properties":{"stop_id":"12108","stop_code":"12108","stop_name":"MAIN @ 70TH STREET SB","stop_desc":"NEAR SIDE MAIN @ 70TH STREET SB","wheelchair_boarding":2,"routes":[{"route_id":"19636","agency_id":"70006","route_short_name":"1","route_long_name":"Main Street - State Street","route_type":3,"route_color":"#FFFFFF","route_text_color":"#000000"}],"agency_name":"Metro St. Louis"},"geometry":{"type":"Point","coordinates":[-90.04352,38.55712]}},{"type":"Feature","properties":{"stop_id":"12109","stop_code":"12109","stop_name":"6700 MAIN SB","stop_desc":"MID-BLOCK 6700 MAIN SB","wheelchair_boarding":2,"routes":[{"route_id":"19636","agency_id":"70006","route_short_name":"1","route_long_name":"Main Street - State Street","route_type":3,"route_color":"#FFFFFF","route_text_color":"#000000"}],"agency_name":"Metro St. Louis"},"geometry":{"type":"Point","coordinates":[-90.0418,38.55557]}},{"type":"Feature","properties":{"stop_id":"12110","stop_code":"12110","stop_name":"MAIN @ 66TH STREET SB","stop_desc":"NEAR SIDE MAIN @ 66TH STREET SB","wheelchair_boarding":2,"routes":[{"route_id":"19636","agency_id":"70006","route_short_name":"1","route_long_name":"Main Street - State Street","route_type":3,"route_color":"#FFFFFF","route_text_color":"#000000"}],"agency_name":"Metro St. Louis"},"geometry":{"type":"Point","coordinates":[-90.04089,38.55473]}},{"type":"Feature","properties":{"stop_id":"12111","stop_code":"12111","stop_name":"MAIN @ 65TH STREET SB","stop_desc":"FAR SIDE MAIN @ 65TH STREET SB","wheelchair_boarding":2,"routes":[{"route_id":"19636","agency_id":"70006","route_short_name":"1","route_long_name":"Main Street - State Street","route_type":3,"route_color":"#FFFFFF","route_text_color":"#000000"}],"agency_name":"Metro St. Louis"},"geometry":{"type":"Point","coordinates":[-90.03998,38.55391]}},{"type":"Feature","properties":{"stop_id":"12112","stop_code":"12112","stop_name":"6206 MAIN SB","stop_desc":"MID-BLOCK 6206 MAIN SB","wheelchair_boarding":2,"routes":[{"route_id":"19636","agency_id":"70006","route_short_name":"1","route_long_name":"Main Street - State Street","route_type":3,"route_color":"#FFFFFF","route_text_color":"#000000"}],"agency_name":"Metro St. Louis"},"geometry":{"type":"Point","coordinates":[-90.03869,38.55272]}},{"type":"Feature","properties":{"stop_id":"12114","stop_code":"12114","stop_name":"MAIN @ 60TH STREET SB","stop_desc":"NEAR SIDE MAIN @ 60TH STREET SB","wheelchair_boarding":2,"routes":[{"route_id":"19636","agency_id":"70006","route_short_name":"1","route_long_name":"Main Street - State Street","route_type":3,"route_color":"#FFFFFF","route_text_color":"#000000"}],"agency_name":"Metro St. Louis"},"geometry":{"type":"Point","coordinates":[-90.03669,38.55089]}},{"type":"Feature","properties":{"stop_id":"12116","stop_code":"12116","stop_name":"MAIN @ FRANK SCOTT PARKWAY SB","stop_desc":"NEAR SIDE MAIN @ FRANK SCOTT PARKWAY SB","wheelchair_boarding":2,"routes":[{"route_id":"19636","agency_id":"70006","route_short_name":"1","route_long_name":"Main Street - State Street","route_type":3,"route_color":"#FFFFFF","route_text_color":"#000000"}],"agency_name":"Metro St. Louis"},"geometry":{"type":"Point","coordinates":[-90.03434,38.54852]}},{"type":"Feature","properties":{"stop_id":"12118","stop_code":"12118","stop_name":"MAIN @ 53RD STREET SB","stop_desc":"NEAR SIDE MAIN @ 53RD STREET SB","wheelchair_boarding":2,"routes":[{"route_id":"19636","agency_id":"70006","route_short_name":"1","route_long_name":"Main Street - State Street","route_type":3,"route_color":"#FFFFFF","route_text_color":"#000000"}],"agency_name":"Metro St. Louis"},"geometry":{"type":"Point","coordinates":[-90.03165,38.54593]}},{"type":"Feature","properties":{"stop_id":"12121","stop_code":"12121","stop_name":"MAIN @ 49TH STREET SB","stop_desc":"NEAR SIDE MAIN @ 49TH STREET SB","wheelchair_boarding":1,"routes":[{"route_id":"19636","agency_id":"70006","route_short_name":"1","route_long_name":"Main Street - State Street","route_type":3,"route_color":"#FFFFFF","route_text_color":"#000000"}],"agency_name":"Metro St. Louis"},"geometry":{"type":"Point","coordinates":[-90.02796,38.54348]}},{"type":"Feature","properties":{"stop_id":"12122","stop_code":"12122","stop_name":"4716 MAIN SB","stop_desc":"MID-BLOCK 4716 MAIN SB","wheelchair_boarding":2,"routes":[{"route_id":"19636","agency_id":"70006","route_short_name":"1","route_long_name":"Main Street - State Street","route_type":3,"route_color":"#FFFFFF","route_text_color":"#000000"}],"agency_name":"Metro St. Louis"},"geometry":{"type":"Point","coordinates":[-90.02621,38.5423]}},{"type":"Feature","properties":{"stop_id":"12123","stop_code":"12123","stop_name":"MAIN @ 45TH STREET SB","stop_desc":"FAR SIDE MAIN @ 45TH STREET SB","wheelchair_boarding":1,"routes":[{"route_id":"19636","agency_id":"70006","route_short_name":"1","route_long_name":"Main Street - State Street","route_type":3,"route_color":"#FFFFFF","route_text_color":"#000000"}],"agency_name":"Metro St. Louis"},"geometry":{"type":"Point","coordinates":[-90.02354,38.54053]}},{"type":"Feature","properties":{"stop_id":"12124","stop_code":"12124","stop_name":"4418 MAIN STREET SB","stop_desc":"MID-BLOCK 4418 MAIN STREET SB","wheelchair_boarding":2,"routes":[{"route_id":"19636","agency_id":"70006","route_short_name":"1","route_long_name":"Main Street - State Street","route_type":3,"route_color":"#FFFFFF","route_text_color":"#000000"}],"agency_name":"Metro St. Louis"},"geometry":{"type":"Point","coordinates":[-90.02267,38.53994]}},{"type":"Feature","properties":{"stop_id":"12125","stop_code":"12125","stop_name":"MAIN @ 44TH STREET SB","stop_desc":"FAR SIDE MAIN @ 44TH STREET SB","wheelchair_boarding":2,"routes":[{"route_id":"19636","agency_id":"70006","route_short_name":"1","route_long_name":"Main Street - State Street","route_type":3,"route_color":"#FFFFFF","route_text_color":"#000000"}],"agency_name":"Metro St. Louis"},"geometry":{"type":"Point","coordinates":[-90.02178,38.53919]}},{"type":"Feature","properties":{"stop_id":"12126","stop_code":"12126","stop_name":"MAIN @ GLORY PLACE SB","stop_desc":"NEAR SIDE MAIN @ GLORY PLACE SB","wheelchair_boarding":2,"routes":[{"route_id":"19636","agency_id":"70006","route_short_name":"1","route_long_name":"Main Street - State Street","route_type":3,"route_color":"#FFFFFF","route_text_color":"#000000"}],"agency_name":"Metro St. Louis"},"geometry":{"type":"Point","coordinates":[-90.0205,38.53794]}},{"type":"Feature","properties":{"stop_id":"12127","stop_code":"12127","stop_name":"MAIN @ 41ST STREET SB","stop_desc":"FAR SIDE MAIN @ 41ST STREET SB","wheelchair_boarding":2,"routes":[{"route_id":"19636","agency_id":"70006","route_short_name":"1","route_long_name":"Main Street - State Street","route_type":3,"route_color":"#FFFFFF","route_text_color":"#000000"}],"agency_name":"Metro St. Louis"},"geometry":{"type":"Point","coordinates":[-90.01958,38.53703]}},{"type":"Feature","properties":{"stop_id":"12128","stop_code":"12128","stop_name":"MAIN @ 40TH STREET SB","stop_desc":"FAR SIDE MAIN @ 40TH STREET SB","wheelchair_boarding":2,"routes":[{"route_id":"19636","agency_id":"70006","route_short_name":"1","route_long_name":"Main Street - State Street","route_type":3,"route_color":"#FFFFFF","route_text_color":"#000000"}],"agency_name":"Metro St. Louis"},"geometry":{"type":"Point","coordinates":[-90.0188,38.53624]}},{"type":"Feature","properties":{"stop_id":"12129","stop_code":"12129","stop_name":"MAIN @ 38TH STREET SB","stop_desc":"NEAR SIDE MAIN @ 38TH STREET SB","wheelchair_boarding":2,"routes":[{"route_id":"19636","agency_id":"70006","route_short_name":"1","route_long_name":"Main Street - State Street","route_type":3,"route_color":"#FFFFFF","route_text_color":"#000000"}],"agency_name":"Metro St. Louis"},"geometry":{"type":"Point","coordinates":[-90.0178,38.5352]}},{"type":"Feature","properties":{"stop_id":"12130","stop_code":"12130","stop_name":"MAIN @ 36TH STREET SB","stop_desc":"NEAR SIDE MAIN @ 36TH STREET SB","wheelchair_boarding":2,"routes":[{"route_id":"19636","agency_id":"70006","route_short_name":"1","route_long_name":"Main Street - State Street","route_type":3,"route_color":"#FFFFFF","route_text_color":"#000000"}],"agency_name":"Metro St. Louis"},"geometry":{"type":"Point","coordinates":[-90.01622,38.53361]}},{"type":"Feature","properties":{"stop_id":"12131","stop_code":"12131","stop_name":"MAIN @ 35TH STREET SB","stop_desc":"FAR SIDE MAIN @ 35TH STREET SB","wheelchair_boarding":2,"routes":[{"route_id":"19636","agency_id":"70006","route_short_name":"1","route_long_name":"Main Street - State Street","route_type":3,"route_color":"#FFFFFF","route_text_color":"#000000"}],"agency_name":"Metro St. Louis"},"geometry":{"type":"Point","coordinates":[-90.01526,38.53261]}},{"type":"Feature","properties":{"stop_id":"12132","stop_code":"12132","stop_name":"MAIN @ LINCOLN CIRCLE SB","stop_desc":"NEAR SIDE MAIN @ LINCOLN CIRCLE SB","wheelchair_boarding":2,"routes":[{"route_id":"19636","agency_id":"70006","route_short_name":"1","route_long_name":"Main Street - State Street","route_type":3,"route_color":"#FFFFFF","route_text_color":"#000000"}],"agency_name":"Metro St. Louis"},"geometry":{"type":"Point","coordinates":[-90.01418,38.53149]}},{"type":"Feature","properties":{"stop_id":"12133","stop_code":"12133","stop_name":"MAIN @ 31ST STREET SB","stop_desc":"NEAR SIDE MAIN @ 31ST STREET SB","wheelchair_boarding":2,"routes":[{"route_id":"19636","agency_id":"70006","route_short_name":"1","route_long_name":"Main Street - State Street","route_type":3,"route_color":"#FFFFFF","route_text_color":"#000000"}],"agency_name":"Metro St. Louis"},"geometry":{"type":"Point","coordinates":[-90.01305,38.52974]}},{"type":"Feature","properties":{"stop_id":"12134","stop_code":"12134","stop_name":"MAIN @ 30TH STREET SB","stop_desc":"NEAR SIDE MAIN @ 30TH STREET SB","wheelchair_boarding":2,"routes":[{"route_id":"19636","agency_id":"70006","route_short_name":"1","route_long_name":"Main Street - State Street","route_type":3,"route_color":"#FFFFFF","route_text_color":"#000000"}],"agency_name":"Metro St. Louis"},"geometry":{"type":"Point","coordinates":[-90.01236,38.52839]}},{"type":"Feature","properties":{"stop_id":"12135","stop_code":"12135","stop_name":"MAIN @ 29TH STREET SB","stop_desc":"NEAR SIDE MAIN @ 29TH STREET SB","wheelchair_boarding":2,"routes":[{"route_id":"19636","agency_id":"70006","route_short_name":"1","route_long_name":"Main Street - State Street","route_type":3,"route_color":"#FFFFFF","route_text_color":"#000000"}],"agency_name":"Metro St. Louis"},"geometry":{"type":"Point","coordinates":[-90.01201,38.5271]}},{"type":"Feature","properties":{"stop_id":"12136","stop_code":"12136","stop_name":"MAIN @ 28TH STREET SB","stop_desc":"FAR SIDE MAIN @ 28TH STREET SB","wheelchair_boarding":2,"routes":[{"route_id":"19636","agency_id":"70006","route_short_name":"1","route_long_name":"Main Street - State Street","route_type":3,"route_color":"#FFFFFF","route_text_color":"#000000"}],"agency_name":"Metro St. Louis"},"geometry":{"type":"Point","coordinates":[-90.0118,38.5261]}},{"type":"Feature","properties":{"stop_id":"12137","stop_code":"12137","stop_name":"2300 MAIN SB","stop_desc":"MID-BLOCK 2300 MAIN SB","wheelchair_boarding":1,"routes":[{"route_id":"19636","agency_id":"70006","route_short_name":"1","route_long_name":"Main Street - State Street","route_type":3,"route_color":"#FFFFFF","route_text_color":"#000000"}],"agency_name":"Metro St. Louis"},"geometry":{"type":"Point","coordinates":[-90.00944,38.52282]}},{"type":"Feature","properties":{"stop_id":"12138","stop_code":"12138","stop_name":"MAIN @ 22ND STREET SB","stop_desc":"NEAR SIDE MAIN @ 22ND STREET SB","wheelchair_boarding":2,"routes":[{"route_id":"19636","agency_id":"70006","route_short_name":"1","route_long_name":"Main Street - State Street","route_type":3,"route_color":"#FFFFFF","route_text_color":"#000000"}],"agency_name":"Metro St. Louis"},"geometry":{"type":"Point","coordinates":[-90.00812,38.52157]}},{"type":"Feature","properties":{"stop_id":"12139","stop_code":"12139","stop_name":"MAIN @ 20TH STREET SB","stop_desc":"NEAR SIDE MAIN @ 20TH STREET SB","wheelchair_boarding":1,"routes":[{"route_id":"19636","agency_id":"70006","route_short_name":"1","route_long_name":"Main Street - State Street","route_type":3,"route_color":"#FFFFFF","route_text_color":"#000000"}],"agency_name":"Metro St. Louis"},"geometry":{"type":"Point","coordinates":[-90.00647,38.52007]}},{"type":"Feature","properties":{"stop_id":"12140","stop_code":"12140","stop_name":"MAIN @ 19TH STREET SB","stop_desc":"NEAR SIDE MAIN @ 19TH STREET SB","wheelchair_boarding":2,"routes":[{"route_id":"19636","agency_id":"70006","route_short_name":"1","route_long_name":"Main Street - State Street","route_type":3,"route_color":"#FFFFFF","route_text_color":"#000000"}],"agency_name":"Metro St. Louis"},"geometry":{"type":"Point","coordinates":[-90.00548,38.51936]}},{"type":"Feature","properties":{"stop_id":"12144","stop_code":"12144","stop_name":"MAIN @ 15TH STREET SB","stop_desc":"NEAR SIDE MAIN @ 15TH STREET SB","wheelchair_boarding":2,"routes":[{"route_id":"19636","agency_id":"70006","route_short_name":"1","route_long_name":"Main Street - State Street","route_type":3,"route_color":"#FFFFFF","route_text_color":"#000000"}],"agency_name":"Metro St. Louis"},"geometry":{"type":"Point","coordinates":[-90.00112,38.5171]}},{"type":"Feature","properties":{"stop_id":"12145","stop_code":"12145","stop_name":"MAIN @ 14TH STREET SB","stop_desc":"FAR SIDE MAIN @ 14TH STREET SB","wheelchair_boarding":2,"routes":[{"route_id":"19636","agency_id":"70006","route_short_name":"1","route_long_name":"Main Street - State Street","route_type":3,"route_color":"#FFFFFF","route_text_color":"#000000"}],"agency_name":"Metro St. Louis"},"geometry":{"type":"Point","coordinates":[-89.99996,38.51657]}},{"type":"Feature","properties":{"stop_id":"12146","stop_code":"12146","stop_name":"MAIN @ 13TH STREET SB","stop_desc":"FAR SIDE MAIN @ 13TH STREET SB","wheelchair_boarding":2,"routes":[{"route_id":"19636","agency_id":"70006","route_short_name":"1","route_long_name":"Main Street - State Street","route_type":3,"route_color":"#FFFFFF","route_text_color":"#000000"}],"agency_name":"Metro St. Louis"},"geometry":{"type":"Point","coordinates":[-89.99911,38.51617]}},{"type":"Feature","properties":{"stop_id":"12147","stop_code":"12147","stop_name":"MAIN @ 11TH STREET SB","stop_desc":"NEAR SIDE MAIN @ 11TH STREET SB","wheelchair_boarding":2,"routes":[{"route_id":"19636","agency_id":"70006","route_short_name":"1","route_long_name":"Main Street - State Street","route_type":3,"route_color":"#FFFFFF","route_text_color":"#000000"}],"agency_name":"Metro St. Louis"},"geometry":{"type":"Point","coordinates":[-89.99761,38.51547]}},{"type":"Feature","properties":{"stop_id":"12148","stop_code":"12148","stop_name":"MAIN @ 10TH STREET SB","stop_desc":"NEAR SIDE MAIN @ 10TH STREET SB","wheelchair_boarding":2,"routes":[{"route_id":"19636","agency_id":"70006","route_short_name":"1","route_long_name":"Main Street - State Street","route_type":3,"route_color":"#FFFFFF","route_text_color":"#000000"}],"agency_name":"Metro St. Louis"},"geometry":{"type":"Point","coordinates":[-89.99682,38.5151]}},{"type":"Feature","properties":{"stop_id":"12149","stop_code":"12149","stop_name":"MAIN @ 9TH STREET SB","stop_desc":"NEAR SIDE MAIN @ 9TH STREET SB","wheelchair_boarding":2,"routes":[{"route_id":"19636","agency_id":"70006","route_short_name":"1","route_long_name":"Main Street - State Street","route_type":3,"route_color":"#FFFFFF","route_text_color":"#000000"}],"agency_name":"Metro St. Louis"},"geometry":{"type":"Point","coordinates":[-89.99585,38.51466]}},{"type":"Feature","properties":{"stop_id":"12150","stop_code":"12150","stop_name":"MAIN @ 8TH STREET SB","stop_desc":"NEAR SIDE MAIN @ 8TH STREET SB","wheelchair_boarding":2,"routes":[{"route_id":"19636","agency_id":"70006","route_short_name":"1","route_long_name":"Main Street - State Street","route_type":3,"route_color":"#FFFFFF","route_text_color":"#000000"}],"agency_name":"Metro St. Louis"},"geometry":{"type":"Point","coordinates":[-89.99497,38.51421]}},{"type":"Feature","properties":{"stop_id":"12151","stop_code":"12151","stop_name":"MAIN @ 6TH STREET SB","stop_desc":"NEAR SIDE MAIN @ 6TH STREET SB","wheelchair_boarding":1,"routes":[{"route_id":"19636","agency_id":"70006","route_short_name":"1","route_long_name":"Main Street - State Street","route_type":3,"route_color":"#FFFFFF","route_text_color":"#000000"}],"agency_name":"Metro St. Louis"},"geometry":{"type":"Point","coordinates":[-89.99382,38.51375]}},{"type":"Feature","properties":{"stop_id":"12152","stop_code":"12152","stop_name":"WASHINGTON @ 6TH STREET SB","stop_desc":"NEAR SIDE WASHINGTON @ 6TH STREET SB","wheelchair_boarding":2,"routes":[{"route_id":"19636","agency_id":"70006","route_short_name":"1","route_long_name":"Main Street - State Street","route_type":3,"route_color":"#FFFFFF","route_text_color":"#000000"}],"agency_name":"Metro St. Louis"},"geometry":{"type":"Point","coordinates":[-89.99236,38.51282]}},{"type":"Feature","properties":{"stop_id":"13084","stop_code":"13084","stop_name":"MARTIN LUTHER KING @ 7TH STREET SB","stop_desc":"FAR SIDE MARTIN LUTHER KING @ 7TH STREET SB","wheelchair_boarding":2,"routes":[{"route_id":"19636","agency_id":"70006","route_short_name":"1","route_long_name":"Main Street - State Street","route_type":3,"route_color":"#FFFFFF","route_text_color":"#000000"}],"agency_name":"Metro St. Louis"},"geometry":{"type":"Point","coordinates":[-90.15318,38.62667]}},{"type":"Feature","properties":{"stop_id":"13085","stop_code":"13085","stop_name":"MARTIN LUTHER KING @ 8TH STREET SB","stop_desc":"FAR SIDE MARTIN LUTHER KING @ 8TH STREET SB","wheelchair_boarding":2,"routes":[{"route_id":"19636","agency_id":"70006","route_short_name":"1","route_long_name":"Main Street - State Street","route_type":3,"route_color":"#FFFFFF","route_text_color":"#000000"}],"agency_name":"Metro St. Louis"},"geometry":{"type":"Point","coordinates":[-90.15225,38.62588]}},{"type":"Feature","properties":{"stop_id":"13086","stop_code":"13086","stop_name":"MARTIN LUTHER KING @ 10TH STREET SB","stop_desc":"NEAR SIDE MARTIN LUTHER KING @ 10TH STREET SB","wheelchair_boarding":2,"routes":[{"route_id":"19636","agency_id":"70006","route_short_name":"1","route_long_name":"Main Street - State Street","route_type":3,"route_color":"#FFFFFF","route_text_color":"#000000"}],"agency_name":"Metro St. Louis"},"geometry":{"type":"Point","coordinates":[-90.15088,38.62472]}},{"type":"Feature","properties":{"stop_id":"13087","stop_code":"13087","stop_name":"STATE @ 11TH STREET EB","stop_desc":"NEAR SIDE STATE @ 11TH STREET EB","wheelchair_boarding":2,"routes":[{"route_id":"19636","agency_id":"70006","route_short_name":"1","route_long_name":"Main Street - State Street","route_type":3,"route_color":"#FFFFFF","route_text_color":"#000000"}],"agency_name":"Metro St. Louis"},"geometry":{"type":"Point","coordinates":[-90.14818,38.62363]}},{"type":"Feature","properties":{"stop_id":"13088","stop_code":"13088","stop_name":"STATE @ 13TH STREET EB","stop_desc":"NEAR SIDE STATE @ 13TH STREET EB","wheelchair_boarding":2,"routes":[{"route_id":"19636","agency_id":"70006","route_short_name":"1","route_long_name":"Main Street - State Street","route_type":3,"route_color":"#FFFFFF","route_text_color":"#000000"}],"agency_name":"Metro St. Louis"},"geometry":{"type":"Point","coordinates":[-90.14618,38.62292]}},{"type":"Feature","properties":{"stop_id":"13090","stop_code":"13090","stop_name":"STATE @ 14TH STREET EB","stop_desc":"FAR SIDE STATE @ 14TH STREET EB","wheelchair_boarding":2,"routes":[{"route_id":"19636","agency_id":"70006","route_short_name":"1","route_long_name":"Main Street - State Street","route_type":3,"route_color":"#FFFFFF","route_text_color":"#000000"}],"agency_name":"Metro St. Louis"},"geometry":{"type":"Point","coordinates":[-90.14414,38.62219]}},{"type":"Feature","properties":{"stop_id":"13091","stop_code":"13091","stop_name":"STATE @ 15TH STREET EB","stop_desc":"NEAR SIDE STATE @ 15TH STREET EB","wheelchair_boarding":2,"routes":[{"route_id":"19636","agency_id":"70006","route_short_name":"1","route_long_name":"Main Street - State Street","route_type":3,"route_color":"#FFFFFF","route_text_color":"#000000"}],"agency_name":"Metro St. Louis"},"geometry":{"type":"Point","coordinates":[-90.14216,38.62147]}},{"type":"Feature","properties":{"stop_id":"13092","stop_code":"13092","stop_name":"STATE @ 17TH STREET EB","stop_desc":"NEAR SIDE STATE @ 17TH STREET EB","wheelchair_boarding":2,"routes":[{"route_id":"19636","agency_id":"70006","route_short_name":"1","route_long_name":"Main Street - State Street","route_type":3,"route_color":"#FFFFFF","route_text_color":"#000000"}],"agency_name":"Metro St. Louis"},"geometry":{"type":"Point","coordinates":[-90.13956,38.62056]}},{"type":"Feature","properties":{"stop_id":"13093","stop_code":"13093","stop_name":"STATE @ ALEXANDER PLACE EB","stop_desc":"NEAR SIDE STATE @ ALEXANDER PLACE EB","wheelchair_boarding":2,"routes":[{"route_id":"19636","agency_id":"70006","route_short_name":"1","route_long_name":"Main Street - State Street","route_type":3,"route_color":"#FFFFFF","route_text_color":"#000000"}],"agency_name":"Metro St. Louis"},"geometry":{"type":"Point","coordinates":[-90.13834,38.62012]}},{"type":"Feature","properties":{"stop_id":"13094","stop_code":"13094","stop_name":"STATE @ 18TH STREET EB","stop_desc":"FAR SIDE STATE @ 18TH STREET EB","wheelchair_boarding":2,"routes":[{"route_id":"19636","agency_id":"70006","route_short_name":"1","route_long_name":"Main Street - State Street","route_type":3,"route_color":"#FFFFFF","route_text_color":"#000000"}],"agency_name":"Metro St. Louis"},"geometry":{"type":"Point","coordinates":[-90.13701,38.61961]}},{"type":"Feature","properties":{"stop_id":"13096","stop_code":"13096","stop_name":"STATE @ WIMMER PLACE EB","stop_desc":"NEAR SIDE STATE @ WIMMER PLACE EB","wheelchair_boarding":2,"routes":[{"route_id":"19636","agency_id":"70006","route_short_name":"1","route_long_name":"Main Street - State Street","route_type":3,"route_color":"#FFFFFF","route_text_color":"#000000"}],"agency_name":"Metro St. Louis"},"geometry":{"type":"Point","coordinates":[-90.13527,38.619]}},{"type":"Feature","properties":{"stop_id":"13097","stop_code":"13097","stop_name":"STATE @ 20TH STREET EB","stop_desc":"FAR SIDE STATE @ 20TH STREET EB","wheelchair_boarding":2,"routes":[{"route_id":"19636","agency_id":"70006","route_short_name":"1","route_long_name":"Main Street - State Street","route_type":3,"route_color":"#FFFFFF","route_text_color":"#000000"}],"agency_name":"Metro St. Louis"},"geometry":{"type":"Point","coordinates":[-90.13288,38.61816]}},{"type":"Feature","properties":{"stop_id":"13098","stop_code":"13098","stop_name":"STATE @ 22ND STREET EB","stop_desc":"NEAR SIDE STATE @ 22ND STREET EB","wheelchair_boarding":2,"routes":[{"route_id":"19636","agency_id":"70006","route_short_name":"1","route_long_name":"Main Street - State Street","route_type":3,"route_color":"#FFFFFF","route_text_color":"#000000"}],"agency_name":"Metro St. Louis"},"geometry":{"type":"Point","coordinates":[-90.13077,38.61739]}},{"type":"Feature","properties":{"stop_id":"13100","stop_code":"13100","stop_name":"STATE @ 24TH STREET EB","stop_desc":"FAR SIDE STATE @ 24TH STREET EB","wheelchair_boarding":2,"routes":[{"route_id":"19636","agency_id":"70006","route_short_name":"1","route_long_name":"Main Street - State Street","route_type":3,"route_color":"#FFFFFF","route_text_color":"#000000"}],"agency_name":"Metro St. Louis"},"geometry":{"type":"Point","coordinates":[-90.12815,38.61645]}},{"type":"Feature","properties":{"stop_id":"13101","stop_code":"13101","stop_name":"STATE @ 25TH STREET EB","stop_desc":"FAR SIDE STATE @ 25TH STREET EB","wheelchair_boarding":1,"routes":[{"route_id":"19636","agency_id":"70006","route_short_name":"1","route_long_name":"Main Street - State Street","route_type":3,"route_color":"#FFFFFF","route_text_color":"#000000"}],"agency_name":"Metro St. Louis"},"geometry":{"type":"Point","coordinates":[-90.12693,38.61589]}},{"type":"Feature","properties":{"stop_id":"13102","stop_code":"13102","stop_name":"STATE @ 27TH STREET EB","stop_desc":"NEAR SIDE STATE @ 27TH STREET EB","wheelchair_boarding":2,"routes":[{"route_id":"19636","agency_id":"70006","route_short_name":"1","route_long_name":"Main Street - State Street","route_type":3,"route_color":"#FFFFFF","route_text_color":"#000000"}],"agency_name":"Metro St. Louis"},"geometry":{"type":"Point","coordinates":[-90.12529,38.61503]}},{"type":"Feature","properties":{"stop_id":"13103","stop_code":"13103","stop_name":"STATE @ 29TH STREET EB","stop_desc":"FAR SIDE STATE @ 29TH STREET EB","wheelchair_boarding":2,"routes":[{"route_id":"19636","agency_id":"70006","route_short_name":"1","route_long_name":"Main Street - State Street","route_type":3,"route_color":"#FFFFFF","route_text_color":"#000000"}],"agency_name":"Metro St. Louis"},"geometry":{"type":"Point","coordinates":[-90.12392,38.61431]}},{"type":"Feature","properties":{"stop_id":"13105","stop_code":"13105","stop_name":"STATE @ 31ST STREET EB","stop_desc":"FAR SIDE STATE @ 31ST STREET EB","wheelchair_boarding":2,"routes":[{"route_id":"19636","agency_id":"70006","route_short_name":"1","route_long_name":"Main Street - State Street","route_type":3,"route_color":"#FFFFFF","route_text_color":"#000000"}],"agency_name":"Metro St. Louis"},"geometry":{"type":"Point","coordinates":[-90.12192,38.61324]}},{"type":"Feature","properties":{"stop_id":"13106","stop_code":"13106","stop_name":"STATE @ 32ND STREET EB","stop_desc":"FAR SIDE STATE @ 32ND STREET EB","wheelchair_boarding":2,"routes":[{"route_id":"19636","agency_id":"70006","route_short_name":"1","route_long_name":"Main Street - State Street","route_type":3,"route_color":"#FFFFFF","route_text_color":"#000000"}],"agency_name":"Metro St. Louis"},"geometry":{"type":"Point","coordinates":[-90.12096,38.61273]}},{"type":"Feature","properties":{"stop_id":"13107","stop_code":"13107","stop_name":"STATE @ 33RD STREET EB","stop_desc":"FAR SIDE STATE @ 33RD STREET EB","wheelchair_boarding":2,"routes":[{"route_id":"19636","agency_id":"70006","route_short_name":"1","route_long_name":"Main Street - State Street","route_type":3,"route_color":"#FFFFFF","route_text_color":"#000000"}],"agency_name":"Metro St. Louis"},"geometry":{"type":"Point","coordinates":[-90.11936,38.61186]}},{"type":"Feature","properties":{"stop_id":"13108","stop_code":"13108","stop_name":"STATE @ 35TH STREET EB","stop_desc":"FAR SIDE STATE @ 35TH STREET EB","wheelchair_boarding":1,"routes":[{"route_id":"19636","agency_id":"70006","route_short_name":"1","route_long_name":"Main Street - State Street","route_type":3,"route_color":"#FFFFFF","route_text_color":"#000000"}],"agency_name":"Metro St. Louis"},"geometry":{"type":"Point","coordinates":[-90.1174,38.61078]}},{"type":"Feature","properties":{"stop_id":"13109","stop_code":"13109","stop_name":"STATE @ 37TH STREET EB","stop_desc":"FAR SIDE STATE @ 37TH STREET EB","wheelchair_boarding":1,"routes":[{"route_id":"19636","agency_id":"70006","route_short_name":"1","route_long_name":"Main Street - State Street","route_type":3,"route_color":"#FFFFFF","route_text_color":"#000000"}],"agency_name":"Metro St. Louis"},"geometry":{"type":"Point","coordinates":[-90.11555,38.60971]}},{"type":"Feature","properties":{"stop_id":"13111","stop_code":"13111","stop_name":"STATE @ 40TH STREET EB","stop_desc":"NEAR SIDE STATE @ 40TH STREET EB","wheelchair_boarding":2,"routes":[{"route_id":"19636","agency_id":"70006","route_short_name":"1","route_long_name":"Main Street - State Street","route_type":3,"route_color":"#FFFFFF","route_text_color":"#000000"}],"agency_name":"Metro St. Louis"},"geometry":{"type":"Point","coordinates":[-90.11323,38.6091]}},{"type":"Feature","properties":{"stop_id":"13113","stop_code":"13113","stop_name":"STATE @ 47TH STREET EB","stop_desc":"FAR SIDE STATE @ 47TH STREET EB","wheelchair_boarding":2,"routes":[{"route_id":"19636","agency_id":"70006","route_short_name":"1","route_long_name":"Main Street - State Street","route_type":3,"route_color":"#FFFFFF","route_text_color":"#000000"}],"agency_name":"Metro St. Louis"},"geometry":{"type":"Point","coordinates":[-90.10544,38.6076]}},{"type":"Feature","properties":{"stop_id":"13115","stop_code":"13115","stop_name":"STATE @ 49TH STREET EB","stop_desc":"NEAR SIDE STATE @ 49TH STREET EB","wheelchair_boarding":2,"routes":[{"route_id":"19636","agency_id":"70006","route_short_name":"1","route_long_name":"Main Street - State Street","route_type":3,"route_color":"#FFFFFF","route_text_color":"#000000"}],"agency_name":"Metro St. Louis"},"geometry":{"type":"Point","coordinates":[-90.10388,38.60725]}},{"type":"Feature","properties":{"stop_id":"13117","stop_code":"13117","stop_name":"STATE @ 51ST STREET EB","stop_desc":"NEAR SIDE STATE @ 51ST STREET EB","wheelchair_boarding":2,"routes":[{"route_id":"19636","agency_id":"70006","route_short_name":"1","route_long_name":"Main Street - State Street","route_type":3,"route_color":"#FFFFFF","route_text_color":"#000000"}],"agency_name":"Metro St. Louis"},"geometry":{"type":"Point","coordinates":[-90.10152,38.60673]}},{"type":"Feature","properties":{"stop_id":"13118","stop_code":"13118","stop_name":"STATE @ 52ND STREET EB","stop_desc":"FAR SIDE STATE @ 52ND STREET EB","wheelchair_boarding":2,"routes":[{"route_id":"19636","agency_id":"70006","route_short_name":"1","route_long_name":"Main Street - State Street","route_type":3,"route_color":"#FFFFFF","route_text_color":"#000000"}],"agency_name":"Metro St. Louis"},"geometry":{"type":"Point","coordinates":[-90.10008,38.60637]}},{"type":"Feature","properties":{"stop_id":"13119","stop_code":"13119","stop_name":"STATE @ 53RD STREET EB","stop_desc":"FAR SIDE STATE @ 53RD STREET EB","wheelchair_boarding":2,"routes":[{"route_id":"19636","agency_id":"70006","route_short_name":"1","route_long_name":"Main Street - State Street","route_type":3,"route_color":"#FFFFFF","route_text_color":"#000000"}],"agency_name":"Metro St. Louis"},"geometry":{"type":"Point","coordinates":[-90.09895,38.60608]}},{"type":"Feature","properties":{"stop_id":"13120","stop_code":"13120","stop_name":"STATE @ 55TH STREET EB","stop_desc":"NEAR SIDE STATE @ 55TH STREET EB","wheelchair_boarding":2,"routes":[{"route_id":"19636","agency_id":"70006","route_short_name":"1","route_long_name":"Main Street - State Street","route_type":3,"route_color":"#FFFFFF","route_text_color":"#000000"}],"agency_name":"Metro St. Louis"},"geometry":{"type":"Point","coordinates":[-90.09764,38.6057]}},{"type":"Feature","properties":{"stop_id":"13122","stop_code":"13122","stop_name":"STATE @ 57TH STREET EB","stop_desc":"NEAR SIDE STATE @ 57TH STREET EB","wheelchair_boarding":2,"routes":[{"route_id":"19636","agency_id":"70006","route_short_name":"1","route_long_name":"Main Street - State Street","route_type":3,"route_color":"#FFFFFF","route_text_color":"#000000"}],"agency_name":"Metro St. Louis"},"geometry":{"type":"Point","coordinates":[-90.09447,38.60456]}},{"type":"Feature","properties":{"stop_id":"13125","stop_code":"13125","stop_name":"STATE @ 61ST STREET EB","stop_desc":"FAR SIDE STATE @ 61ST STREET EB","wheelchair_boarding":2,"routes":[{"route_id":"19636","agency_id":"70006","route_short_name":"1","route_long_name":"Main Street - State Street","route_type":3,"route_color":"#FFFFFF","route_text_color":"#000000"}],"agency_name":"Metro St. Louis"},"geometry":{"type":"Point","coordinates":[-90.09004,38.60363]}},{"type":"Feature","properties":{"stop_id":"13126","stop_code":"13126","stop_name":"STATE @ 62ND STREET EB","stop_desc":"FAR SIDE STATE @ 62ND STREET EB","wheelchair_boarding":2,"routes":[{"route_id":"19636","agency_id":"70006","route_short_name":"1","route_long_name":"Main Street - State Street","route_type":3,"route_color":"#FFFFFF","route_text_color":"#000000"}],"agency_name":"Metro St. Louis"},"geometry":{"type":"Point","coordinates":[-90.08886,38.60336]}},{"type":"Feature","properties":{"stop_id":"13127","stop_code":"13127","stop_name":"STATE @ 68TH STREET EB","stop_desc":"FAR SIDE STATE @ 68TH STREET EB","wheelchair_boarding":2,"routes":[{"route_id":"19636","agency_id":"70006","route_short_name":"1","route_long_name":"Main Street - State Street","route_type":3,"route_color":"#FFFFFF","route_text_color":"#000000"}],"agency_name":"Metro St. Louis"},"geometry":{"type":"Point","coordinates":[-90.08232,38.60128]}},{"type":"Feature","properties":{"stop_id":"13128","stop_code":"13128","stop_name":"STATE @ TERRACE EB","stop_desc":"NEAR SIDE STATE @ TERRACE EB","wheelchair_boarding":2,"routes":[{"route_id":"19636","agency_id":"70006","route_short_name":"1","route_long_name":"Main Street - State Street","route_type":3,"route_color":"#FFFFFF","route_text_color":"#000000"}],"agency_name":"Metro St. Louis"},"geometry":{"type":"Point","coordinates":[-90.08078,38.60074]}},{"type":"Feature","properties":{"stop_id":"13129","stop_code":"13129","stop_name":"STATE @ 69TH STREET EB","stop_desc":"NEAR SIDE STATE @ 69TH STREET EB","wheelchair_boarding":2,"routes":[{"route_id":"19636","agency_id":"70006","route_short_name":"1","route_long_name":"Main Street - State Street","route_type":3,"route_color":"#FFFFFF","route_text_color":"#000000"}],"agency_name":"Metro St. Louis"},"geometry":{"type":"Point","coordinates":[-90.0796,38.60029]}},{"type":"Feature","properties":{"stop_id":"13130","stop_code":"13130","stop_name":"STATE @ 70TH STREET EB","stop_desc":"NEAR SIDE STATE @ 70TH STREET EB","wheelchair_boarding":2,"routes":[{"route_id":"19636","agency_id":"70006","route_short_name":"1","route_long_name":"Main Street - State Street","route_type":3,"route_color":"#FFFFFF","route_text_color":"#000000"}],"agency_name":"Metro St. Louis"},"geometry":{"type":"Point","coordinates":[-90.07873,38.59981]}},{"type":"Feature","properties":{"stop_id":"13132","stop_code":"13132","stop_name":"STATE @ 72ND STREET EB","stop_desc":"NEAR SIDE STATE @ 72ND STREET EB","wheelchair_boarding":2,"routes":[{"route_id":"19636","agency_id":"70006","route_short_name":"1","route_long_name":"Main Street - State Street","route_type":3,"route_color":"#FFFFFF","route_text_color":"#000000"}],"agency_name":"Metro St. Louis"},"geometry":{"type":"Point","coordinates":[-90.07686,38.59878]}},{"type":"Feature","properties":{"stop_id":"13133","stop_code":"13133","stop_name":"STATE @ 73RD STREET EB","stop_desc":"FAR SIDE STATE @ 73RD STREET EB","wheelchair_boarding":2,"routes":[{"route_id":"19636","agency_id":"70006","route_short_name":"1","route_long_name":"Main Street - State Street","route_type":3,"route_color":"#FFFFFF","route_text_color":"#000000"}],"agency_name":"Metro St. Louis"},"geometry":{"type":"Point","coordinates":[-90.07528,38.59789]}},{"type":"Feature","properties":{"stop_id":"13135","stop_code":"13135","stop_name":"STATE @ 76TH STREET EB","stop_desc":"FAR SIDE STATE @ 76TH STREET EB","wheelchair_boarding":1,"routes":[{"route_id":"19636","agency_id":"70006","route_short_name":"1","route_long_name":"Main Street - State Street","route_type":3,"route_color":"#FFFFFF","route_text_color":"#000000"}],"agency_name":"Metro St. Louis"},"geometry":{"type":"Point","coordinates":[-90.07335,38.59671]}},{"type":"Feature","properties":{"stop_id":"13137","stop_code":"13137","stop_name":"STATE @ 78TH STREET EB","stop_desc":"NEAR SIDE STATE @ 78TH STREET EB","wheelchair_boarding":2,"routes":[{"route_id":"19636","agency_id":"70006","route_short_name":"1","route_long_name":"Main Street - State Street","route_type":3,"route_color":"#FFFFFF","route_text_color":"#000000"}],"agency_name":"Metro St. Louis"},"geometry":{"type":"Point","coordinates":[-90.07108,38.59526]}},{"type":"Feature","properties":{"stop_id":"13139","stop_code":"13139","stop_name":"STATE @ 80TH STREET EB","stop_desc":"NEAR SIDE STATE @ 80TH STREET EB","wheelchair_boarding":2,"routes":[{"route_id":"19636","agency_id":"70006","route_short_name":"1","route_long_name":"Main Street - State Street","route_type":3,"route_color":"#FFFFFF","route_text_color":"#000000"}],"agency_name":"Metro St. Louis"},"geometry":{"type":"Point","coordinates":[-90.06938,38.59417]}},{"type":"Feature","properties":{"stop_id":"13140","stop_code":"13140","stop_name":"STATE @ 81ST STREET EB","stop_desc":"NEAR SIDE STATE @ 81ST STREET EB","wheelchair_boarding":2,"routes":[{"route_id":"19636","agency_id":"70006","route_short_name":"1","route_long_name":"Main Street - State Street","route_type":3,"route_color":"#FFFFFF","route_text_color":"#000000"}],"agency_name":"Metro St. Louis"},"geometry":{"type":"Point","coordinates":[-90.06796,38.59329]}},{"type":"Feature","properties":{"stop_id":"13142","stop_code":"13142","stop_name":"STATE @ 83RD STREET EB","stop_desc":"NEAR SIDE STATE @ 83RD STREET EB","wheelchair_boarding":1,"routes":[{"route_id":"19636","agency_id":"70006","route_short_name":"1","route_long_name":"Main Street - State Street","route_type":3,"route_color":"#FFFFFF","route_text_color":"#000000"}],"agency_name":"Metro St. Louis"},"geometry":{"type":"Point","coordinates":[-90.06638,38.59228]}},{"type":"Feature","properties":{"stop_id":"13144","stop_code":"13144","stop_name":"STATE @ 85TH STREET EB","stop_desc":"NEAR SIDE STATE @ 85TH STREET EB","wheelchair_boarding":2,"routes":[{"route_id":"19636","agency_id":"70006","route_short_name":"1","route_long_name":"Main Street - State Street","route_type":3,"route_color":"#FFFFFF","route_text_color":"#000000"}],"agency_name":"Metro St. Louis"},"geometry":{"type":"Point","coordinates":[-90.06443,38.59107]}},{"type":"Feature","properties":{"stop_id":"13146","stop_code":"13146","stop_name":"8610 STATE EB","stop_desc":"MID-BLOCK 8610 STATE EB","wheelchair_boarding":2,"routes":[{"route_id":"19636","agency_id":"70006","route_short_name":"1","route_long_name":"Main Street - State Street","route_type":3,"route_color":"#FFFFFF","route_text_color":"#000000"}],"agency_name":"Metro St. Louis"},"geometry":{"type":"Point","coordinates":[-90.06301,38.59022]}},{"type":"Feature","properties":{"stop_id":"13147","stop_code":"13147","stop_name":"STATE @ 87TH STREET EB","stop_desc":"FAR SIDE STATE @ 87TH STREET EB","wheelchair_boarding":2,"routes":[{"route_id":"19636","agency_id":"70006","route_short_name":"1","route_long_name":"Main Street - State Street","route_type":3,"route_color":"#FFFFFF","route_text_color":"#000000"}],"agency_name":"Metro St. Louis"},"geometry":{"type":"Point","coordinates":[-90.06197,38.58959]}},{"type":"Feature","properties":{"stop_id":"13149","stop_code":"13149","stop_name":"LEBANON @ DREW WB","stop_desc":"NEAR SIDE LEBANON @ DREW WB","wheelchair_boarding":2,"routes":[{"route_id":"19636","agency_id":"70006","route_short_name":"1","route_long_name":"Main Street - State Street","route_type":3,"route_color":"#FFFFFF","route_text_color":"#000000"}],"agency_name":"Metro St. Louis"},"geometry":{"type":"Point","coordinates":[-90.05755,38.58726]}},{"type":"Feature","properties":{"stop_id":"13150","stop_code":"13150","stop_name":"LEBANON @ HILLTOP PLACE WB","stop_desc":"FAR SIDE LEBANON @ HILLTOP PLACE WB","wheelchair_boarding":2,"routes":[{"route_id":"19636","agency_id":"70006","route_short_name":"1","route_long_name":"Main Street - State Street","route_type":3,"route_color":"#FFFFFF","route_text_color":"#000000"}],"agency_name":"Metro St. Louis"},"geometry":{"type":"Point","coordinates":[-90.05359,38.58749]}},{"type":"Feature","properties":{"stop_id":"13152","stop_code":"13152","stop_name":"LEBANON @ WOODCREST WB","stop_desc":"FAR SIDE LEBANON @ WOODCREST WB","wheelchair_boarding":2,"routes":[{"route_id":"19636","agency_id":"70006","route_short_name":"1","route_long_name":"Main Street - State Street","route_type":3,"route_color":"#FFFFFF","route_text_color":"#000000"}],"agency_name":"Metro St. Louis"},"geometry":{"type":"Point","coordinates":[-90.04912,38.58832]}},{"type":"Feature","properties":{"stop_id":"13153","stop_code":"13153","stop_name":"LEBANON @ WEOST BOUL WB","stop_desc":"NEAR SIDE LEBANON @ WEOST BOUL WB","wheelchair_boarding":2,"routes":[{"route_id":"19636","agency_id":"70006","route_short_name":"1","route_long_name":"Main Street - State Street","route_type":3,"route_color":"#FFFFFF","route_text_color":"#000000"}],"agency_name":"Metro St. Louis"},"geometry":{"type":"Point","coordinates":[-90.04581,38.58767]}},{"type":"Feature","properties":{"stop_id":"13154","stop_code":"13154","stop_name":"LEBANON @ CARPENTER UNION WB","stop_desc":"NEAR SIDE LEBANON @ CARPENTER UNION WB","wheelchair_boarding":2,"routes":[{"route_id":"19636","agency_id":"70006","route_short_name":"1","route_long_name":"Main Street - State Street","route_type":3,"route_color":"#FFFFFF","route_text_color":"#000000"}],"agency_name":"Metro St. Louis"},"geometry":{"type":"Point","coordinates":[-90.04482,38.58647]}},{"type":"Feature","properties":{"stop_id":"13156","stop_code":"13156","stop_name":"ILLINOIS ROUTE 161 @ LEBANON SB","stop_desc":"NEAR SIDE ILLINOIS ROUTE 161 @ LEBANON SB","wheelchair_boarding":2,"routes":[{"route_id":"19636","agency_id":"70006","route_short_name":"1","route_long_name":"Main Street - State Street","route_type":3,"route_color":"#FFFFFF","route_text_color":"#000000"}],"agency_name":"Metro St. Louis"},"geometry":{"type":"Point","coordinates":[-90.04121,38.58495]}},{"type":"Feature","properties":{"stop_id":"13157","stop_code":"13157","stop_name":"ILLINOIS ROUTE 161 @ CARTER WATERS COMPANY SB","stop_desc":"NEAR SIDE ILLINOIS ROUTE 161 @ CARTER WATERS COMPANY SB","wheelchair_boarding":2,"routes":[{"route_id":"19636","agency_id":"70006","route_short_name":"1","route_long_name":"Main Street - State Street","route_type":3,"route_color":"#FFFFFF","route_text_color":"#000000"}],"agency_name":"Metro St. Louis"},"geometry":{"type":"Point","coordinates":[-90.04438,38.58928]}},{"type":"Feature","properties":{"stop_id":"13158","stop_code":"13158","stop_name":"ILLINOIS ROUTE 161 @ FRENCH VILLAGE INDUSTRIAL PARK SB","stop_desc":"NEAR SIDE ILLINOIS ROUTE 161 @ FRENCH VILLAGE INDUSTRIAL PARK SB","wheelchair_boarding":2,"routes":[{"route_id":"19636","agency_id":"70006","route_short_name":"1","route_long_name":"Main Street - State Street","route_type":3,"route_color":"#FFFFFF","route_text_color":"#000000"}],"agency_name":"Metro St. Louis"},"geometry":{"type":"Point","coordinates":[-90.04553,38.59119]}},{"type":"Feature","properties":{"stop_id":"13167","stop_code":"13167","stop_name":"MAIN @ LEBANON EB","stop_desc":"FAR SIDE MAIN @ LEBANON EB","wheelchair_boarding":2,"routes":[{"route_id":"19636","agency_id":"70006","route_short_name":"1","route_long_name":"Main Street - State Street","route_type":3,"route_color":"#FFFFFF","route_text_color":"#000000"}],"agency_name":"Metro St. Louis"},"geometry":{"type":"Point","coordinates":[-90.05773,38.58662]}},{"type":"Feature","properties":{"stop_id":"13373","stop_code":"13373","stop_name":"ILLINOIS ROUTE 157 @ STATE NB","stop_desc":"FAR SIDE ILLINOIS ROUTE 157 @ STATE NB","wheelchair_boarding":2,"routes":[{"route_id":"19636","agency_id":"70006","route_short_name":"1","route_long_name":"Main Street - State Street","route_type":3,"route_color":"#FFFFFF","route_text_color":"#000000"}],"agency_name":"Metro St. Louis"},"geometry":{"type":"Point","coordinates":[-90.05987,38.5891]}},{"type":"Feature","properties":{"stop_id":"14124","stop_code":"14124","stop_name":"FAIRVIEW HEIGHTS TRANSIT CENTER","wheelchair_boarding":1,"routes":[{"route_id":"19636","agency_id":"70006","route_short_name":"1","route_long_name":"Main Street - State Street","route_type":3,"route_color":"#FFFFFF","route_text_color":"#000000"},{"route_id":"19641","agency_id":"70006","route_short_name":"6","route_long_name":"Rosemont","route_type":3,"route_color":"#FFFFFF","route_text_color":"#000000"},{"route_id":"19644","agency_id":"70006","route_short_name":"12","route_long_name":"OFallon-Fairview Heights","route_type":3,"route_color":"#FFFFFF","route_text_color":"#000000"},{"route_id":"19645","agency_id":"70006","route_short_name":"13","route_long_name":"Caseyville","route_type":3,"route_color":"#FFFFFF","route_text_color":"#000000"}],"agency_name":"Metro St. Louis"},"geometry":{"type":"Point","coordinates":[-90.04828,38.5947]}},{"type":"Feature","properties":{"stop_id":"14150","stop_code":"14150","stop_name":"STATE @ 16TH STREET EB","stop_desc":"NEAR SIDE STATE @ 16TH STREET EB","wheelchair_boarding":2,"routes":[{"route_id":"19636","agency_id":"70006","route_short_name":"1","route_long_name":"Main Street - State Street","route_type":3,"route_color":"#FFFFFF","route_text_color":"#000000"}],"agency_name":"Metro St. Louis"},"geometry":{"type":"Point","coordinates":[-90.14115,38.62111]}},{"type":"Feature","properties":{"stop_id":"14152","stop_code":"14152","stop_name":"STATE @ 59TH STREET EB","stop_desc":"NEAR SIDE STATE @ 59TH STREET EB","wheelchair_boarding":2,"routes":[{"route_id":"19636","agency_id":"70006","route_short_name":"1","route_long_name":"Main Street - State Street","route_type":3,"route_color":"#FFFFFF","route_text_color":"#000000"}],"agency_name":"Metro St. Louis"},"geometry":{"type":"Point","coordinates":[-90.0929,38.60422]}},{"type":"Feature","properties":{"stop_id":"14212","stop_code":"14212","stop_name":"MAIN @ 56TH STREET SB","stop_desc":"FAR SIDE MAIN @ 56TH STREET SB","wheelchair_boarding":2,"routes":[{"route_id":"19636","agency_id":"70006","route_short_name":"1","route_long_name":"Main Street - State Street","route_type":3,"route_color":"#FFFFFF","route_text_color":"#000000"}],"agency_name":"Metro St. Louis"},"geometry":{"type":"Point","coordinates":[-90.0336,38.54769]}},{"type":"Feature","properties":{"stop_id":"14213","stop_code":"14213","stop_name":"MAIN @ 51ST STREET SB","stop_desc":"FAR SIDE MAIN @ 51ST STREET SB","wheelchair_boarding":2,"routes":[{"route_id":"19636","agency_id":"70006","route_short_name":"1","route_long_name":"Main Street - State Street","route_type":3,"route_color":"#FFFFFF","route_text_color":"#000000"}],"agency_name":"Metro St. Louis"},"geometry":{"type":"Point","coordinates":[-90.02966,38.5446]}},{"type":"Feature","properties":{"stop_id":"14216","stop_code":"14216","stop_name":"MAIN @ 12TH STREET SB","stop_desc":"NEAR SIDE MAIN @ 12TH STREET SB","wheelchair_boarding":2,"routes":[{"route_id":"19636","agency_id":"70006","route_short_name":"1","route_long_name":"Main Street - State Street","route_type":3,"route_color":"#FFFFFF","route_text_color":"#000000"}],"agency_name":"Metro St. Louis"},"geometry":{"type":"Point","coordinates":[-89.99847,38.51587]}},{"type":"Feature","properties":{"stop_id":"14221","stop_code":"14221","stop_name":"SCHEEL @ SYCAMORE NB","stop_desc":"FAR SIDE SCHEEL @ SYCAMORE NB","wheelchair_boarding":2,"routes":[{"route_id":"19636","agency_id":"70006","route_short_name":"1","route_long_name":"Main Street - State Street","route_type":3,"route_color":"#FFFFFF","route_text_color":"#000000"},{"route_id":"19648","agency_id":"70006","route_short_name":"16","route_long_name":"St. Clair Square","route_type":3,"route_color":"#FFFFFF","route_text_color":"#000000"}],"agency_name":"Metro St. Louis"},"geometry":{"type":"Point","coordinates":[-89.9785,38.51854]}},{"type":"Feature","properties":{"stop_id":"14222","stop_code":"14222","stop_name":"SCHEEL @ DOUGLAS EB","stop_desc":"FAR SIDE SCHEEL @ DOUGLAS EB","wheelchair_boarding":2,"routes":[{"route_id":"19636","agency_id":"70006","route_short_name":"1","route_long_name":"Main Street - State Street","route_type":3,"route_color":"#FFFFFF","route_text_color":"#000000"},{"route_id":"19647","agency_id":"70006","route_short_name":"15","route_long_name":"Belleville-O'Fallon","route_type":3,"route_color":"#FFFFFF","route_text_color":"#000000"},{"route_id":"19648","agency_id":"70006","route_short_name":"16","route_long_name":"St. Clair Square","route_type":3,"route_color":"#FFFFFF","route_text_color":"#000000"},{"route_id":"19649","agency_id":"70006","route_short_name":"23","route_long_name":"Belleville-College","route_type":3,"route_color":"#FFFFFF","route_text_color":"#000000"}],"agency_name":"Metro St. Louis"},"geometry":{"type":"Point","coordinates":[-89.97712,38.51965]}},{"type":"Feature","properties":{"stop_id":"14223","stop_code":"14223","stop_name":"SCHEEL @ BENTON EB","stop_desc":"NEAR SIDE SCHEEL @ BENTON EB","wheelchair_boarding":2,"routes":[{"route_id":"19636","agency_id":"70006","route_short_name":"1","route_long_name":"Main Street - State Street","route_type":3,"route_color":"#FFFFFF","route_text_color":"#000000"},{"route_id":"19647","agency_id":"70006","route_short_name":"15","route_long_name":"Belleville-O'Fallon","route_type":3,"route_color":"#FFFFFF","route_text_color":"#000000"},{"route_id":"19648","agency_id":"70006","route_short_name":"16","route_long_name":"St. Clair Square","route_type":3,"route_color":"#FFFFFF","route_text_color":"#000000"},{"route_id":"19649","agency_id":"70006","route_short_name":"23","route_long_name":"Belleville-College","route_type":3,"route_color":"#FFFFFF","route_text_color":"#000000"}],"agency_name":"Metro St. Louis"},"geometry":{"type":"Point","coordinates":[-89.9761,38.52037]}},{"type":"Feature","properties":{"stop_id":"14322","stop_code":"14322","stop_name":"MAIN @ 95TH STREET SB","stop_desc":"FAR SIDE MAIN @ 95TH STREET SB","wheelchair_boarding":2,"routes":[{"route_id":"19636","agency_id":"70006","route_short_name":"1","route_long_name":"Main Street - State Street","route_type":3,"route_color":"#FFFFFF","route_text_color":"#000000"}],"agency_name":"Metro St. Louis"},"geometry":{"type":"Point","coordinates":[-90.05592,38.57637]}},{"type":"Feature","properties":{"stop_id":"14330","stop_code":"14330","stop_name":"5TH & MISSOURI TRANSIT CENTER","wheelchair_boarding":1,"routes":[{"route_id":"19636","agency_id":"70006","route_short_name":"1","route_long_name":"Main Street - State Street","route_type":3,"route_color":"#FFFFFF","route_text_color":"#000000"},{"route_id":"19637","agency_id":"70006","route_short_name":"2","route_long_name":"Cahokia Heights","route_type":3,"route_color":"#FFFFFF","route_text_color":"#000000"},{"route_id":"19638","agency_id":"70006","route_short_name":"3","route_long_name":"Sauget - Water Street","route_type":3,"route_color":"#FFFFFF","route_text_color":"#000000"},{"route_id":"19639","agency_id":"70006","route_short_name":"4","route_long_name":"19th & Central","route_type":3,"route_color":"#FFFFFF","route_text_color":"#000000"},{"route_id":"19640","agency_id":"70006","route_short_name":"5","route_long_name":"Missouri Ave - ML King","route_type":3,"route_color":"#FFFFFF","route_text_color":"#000000"}],"agency_name":"Metro St. Louis"},"geometry":{"type":"Point","coordinates":[-90.15906,38.62501]}},{"type":"Feature","properties":{"stop_id":"14876","stop_code":"14876","stop_name":"LEBANON @ WOODCREST WB","stop_desc":"FAR SIDE LEBANON @ WOODCREST WB","wheelchair_boarding":2,"routes":[{"route_id":"19636","agency_id":"70006","route_short_name":"1","route_long_name":"Main Street - State Street","route_type":3,"route_color":"#FFFFFF","route_text_color":"#000000"}],"agency_name":"Metro St. Louis"},"geometry":{"type":"Point","coordinates":[-90.05219,38.58774]}},{"type":"Feature","properties":{"stop_id":"14877","stop_code":"14877","stop_name":"MAIN @ 75TH STREET SB","stop_desc":"FAR SIDE MAIN @ 75TH STREET SB","wheelchair_boarding":2,"routes":[{"route_id":"19636","agency_id":"70006","route_short_name":"1","route_long_name":"Main Street - State Street","route_type":3,"route_color":"#FFFFFF","route_text_color":"#000000"}],"agency_name":"Metro St. Louis"},"geometry":{"type":"Point","coordinates":[-90.0463,38.5603]}},{"type":"Feature","properties":{"stop_id":"14901","stop_code":"14901","stop_name":"STATE @ 46TH STREET EB","stop_desc":"NEAR SIDE STATE @ 46TH STREET EB","wheelchair_boarding":1,"routes":[{"route_id":"19636","agency_id":"70006","route_short_name":"1","route_long_name":"Main Street - State Street","route_type":3,"route_color":"#FFFFFF","route_text_color":"#000000"}],"agency_name":"Metro St. Louis"},"geometry":{"type":"Point","coordinates":[-90.10708,38.60796]}},{"type":"Feature","properties":{"stop_id":"15738","stop_code":"15738","stop_name":"WASHINGTON  @ 2ND STREET EB","stop_desc":"NEAR SIDE WASHINGTON  @ 2ND STREET EB","wheelchair_boarding":2,"routes":[{"route_id":"19636","agency_id":"70006","route_short_name":"1","route_long_name":"Main Street - State Street","route_type":3,"route_color":"#FFFFFF","route_text_color":"#000000"}],"agency_name":"Metro St. Louis"},"geometry":{"type":"Point","coordinates":[-89.9872,38.51262]}},{"type":"Feature","properties":{"stop_id":"15742","stop_code":"15742","stop_name":"WASHINGTON @ CHURCH EB","stop_desc":"FAR SIDE WASHINGTON @ CHURCH EB","wheelchair_boarding":2,"routes":[{"route_id":"19636","agency_id":"70006","route_short_name":"1","route_long_name":"Main Street - State Street","route_type":3,"route_color":"#FFFFFF","route_text_color":"#000000"}],"agency_name":"Metro St. Louis"},"geometry":{"type":"Point","coordinates":[-89.97997,38.51263]}},{"type":"Feature","properties":{"stop_id":"15902","stop_code":"15902","stop_name":"MAIN @ JUANITA PLACE SB","stop_desc":"NEAR SIDE MAIN @ JUANITA PLACE SB","wheelchair_boarding":2,"routes":[{"route_id":"19636","agency_id":"70006","route_short_name":"1","route_long_name":"Main Street - State Street","route_type":3,"route_color":"#FFFFFF","route_text_color":"#000000"}],"agency_name":"Metro St. Louis"},"geometry":{"type":"Point","coordinates":[-90.04987,38.56609]}},{"type":"Feature","properties":{"stop_id":"16451","stop_code":"16451","stop_name":"6TH STREET @ ST. LOUIS NB","stop_desc":"FAR SIDE 6TH STREET @ ST. LOUIS NB","wheelchair_boarding":2,"routes":[{"route_id":"19636","agency_id":"70006","route_short_name":"1","route_long_name":"Main Street - State Street","route_type":3,"route_color":"#FFFFFF","route_text_color":"#000000"}],"agency_name":"Metro St. Louis"},"geometry":{"type":"Point","coordinates":[-90.15558,38.62648]}}]}