{"type":"FeatureCollection","features":[{"type":"Feature","properties":{"agency_name":"Metro St. Louis","route_id":"19599","agency_id":"70006","route_short_name":"11","route_long_name":"Chippewa","route_type":3,"route_color":"#FFFFFF","route_text_color":"#000000"},"geometry":{"type":"MultiLineString","coordinates":[[[-90.20282,38.62414],[-90.20278,38.6243],[-90.20284,38.62405],[-90.20283,38.62399],[-90.20284,38.62393],[-90.20279,38.62373],[-90.20306,38.62309],[-90.2033,38.62246],[-90.20337,38.62232],[-90.20371,38.62141],[-90.2042,38.6203],[-90.20455,38.61933],[-90.2054,38.61949],[-90.21224,38.6209],[-90.21721,38.62196],[-90.21865,38.62196],[-90.21937,38.62032],[-90.21955,38.61985],[-90.21992,38.61897],[-90.22018,38.61829],[-90.22029,38.61819],[-90.22038,38.61802],[-90.22059,38.61722],[-90.2207,38.61663],[-90.22109,38.6148],[-90.22138,38.61362],[-90.22147,38.61316],[-90.22144,38.6129],[-90.22157,38.61209],[-90.22277,38.60627],[-90.22289,38.60553],[-90.22303,38.60493],[-90.22385,38.60103],[-90.2242,38.59934],[-90.22426,38.59894],[-90.22435,38.5985],[-90.22582,38.59149],[-90.22603,38.59057],[-90.22619,38.5897],[-90.22648,38.5884],[-90.22656,38.58792],[-90.22602,38.58784],[-90.22588,38.58779],[-90.22536,38.5873],[-90.22572,38.58706],[-90.22596,38.58684],[-90.22624,38.58653],[-90.22645,38.5862],[-90.22656,38.58607],[-90.22699,38.58614],[-90.23491,38.58712],[-90.23835,38.58757],[-90.24414,38.58828],[-90.24464,38.5884],[-90.24681,38.58864],[-90.24963,38.58893],[-90.25169,38.58916],[-90.25566,38.58955],[-90.25923,38.58992],[-90.25974,38.58996],[-90.26018,38.59002],[-90.26178,38.59018],[-90.26404,38.59045],[-90.26684,38.59074],[-90.26978,38.59108],[-90.27279,38.5914],[-90.27405,38.59156],[-90.27417,38.59156],[-90.27482,38.59148],[-90.2753,38.59145],[-90.27568,38.59146],[-90.2793,38.59183],[-90.28331,38.59228],[-90.28476,38.59242],[-90.29006,38.59299],[-90.29198,38.59321],[-90.29314,38.5933],[-90.29428,38.59341],[-90.29782,38.59378],[-90.29813,38.5938],[-90.29872,38.5938],[-90.29898,38.59376],[-90.29925,38.59369],[-90.29962,38.59353],[-90.30514,38.59089],[-90.31475,38.59187],[-90.31641,38.59207],[-90.31844,38.59222],[-90.31843,38.59257],[-90.31856,38.59279],[-90.3186,38.59282]]]}},{"type":"Feature","properties":{"stop_id":"14769","stop_code":"14769","stop_name":"SHREWSBURY-LANSDOWNE I-44 TRANSIT CENTER","wheelchair_boarding":1,"routes":[{"route_id":"19599","agency_id":"70006","route_short_name":"11","route_long_name":"Chippewa","route_type":3,"route_color":"#FFFFFF","route_text_color":"#000000"},{"route_id":"19601","agency_id":"70006","route_short_name":"16","route_long_name":"City Limits","route_type":3,"route_color":"#FFFFFF","route_text_color":"#000000"},{"route_id":"19604","agency_id":"70006","route_short_name":"21","route_long_name":"Watson Rd","route_type":3,"route_color":"#FFFFFF","route_text_color":"#000000"},{"route_id":"19605","agency_id":"70006","route_short_name":"30","route_long_name":"Arsenal","route_type":3,"route_color":"#FFFFFF","route_text_color":"#000000"}],"agency_name":"Metro St. Louis"},"geometry":{"type":"Point","coordinates":[-90.31925,38.59277]}},{"type":"Feature","properties":{"stop_id":"15111","stop_code":"15111","stop_name":"14TH STREET @ CHOUTEAU SB","stop_desc":"FAR SIDE 14TH STREET @ CHOUTEAU SB","wheelchair_boarding":1,"routes":[{"route_id":"19599","agency_id":"70006","route_short_name":"11","route_long_name":"Chippewa","route_type":3,"route_color":"#FFFFFF","route_text_color":"#000000"},{"route_id":"19606","agency_id":"70006","route_short_name":"31","route_long_name":"Chouteau","route_type":3,"route_color":"#FFFFFF","route_text_color":"#000000"}],"agency_name":"Metro St. Louis"},"geometry":{"type":"Point","coordinates":[-90.20438,38.61994]}},{"type":"Feature","properties":{"stop_id":"2794","stop_code":"2794","stop_name":"LANSDOWNE @ PRATHER WB","stop_desc":"NEAR SIDE LANSDOWNE @ PRATHER WB","wheelchair_boarding":2,"routes":[{"route_id":"19599","agency_id":"70006","route_short_name":"11","route_long_name":"Chippewa","route_type":3,"route_color":"#FFFFFF","route_text_color":"#000000"}],"agency_name":"Metro St. Louis"},"geometry":{"type":"Point","coordinates":[-90.30713,38.59116]}},{"type":"Feature","properties":{"stop_id":"2795","stop_code":"2795","stop_name":"LANSDOWNE @ JAMIESON WB","stop_desc":"FAR SIDE LANSDOWNE @ JAMIESON WB","wheelchair_boarding":1,"routes":[{"route_id":"19599","agency_id":"70006","route_short_name":"11","route_long_name":"Chippewa","route_type":3,"route_color":"#FFFFFF","route_text_color":"#000000"}],"agency_name":"Metro St. Louis"},"geometry":{"type":"Point","coordinates":[-90.31014,38.59147]}},{"type":"Feature","properties":{"stop_id":"2796","stop_code":"2796","stop_name":"LANSDOWNE @ MCCAUSLAND WB","stop_desc":"FAR SIDE LANSDOWNE @ MCCAUSLAND WB","wheelchair_boarding":1,"routes":[{"route_id":"19599","agency_id":"70006","route_short_name":"11","route_long_name":"Chippewa","route_type":3,"route_color":"#FFFFFF","route_text_color":"#000000"},{"route_id":"19601","agency_id":"70006","route_short_name":"16","route_long_name":"City Limits","route_type":3,"route_color":"#FFFFFF","route_text_color":"#000000"}],"agency_name":"Metro St. Louis"},"geometry":{"type":"Point","coordinates":[-90.31312,38.59177]}},{"type":"Feature","properties":{"stop_id":"2797","stop_code":"2797","stop_name":"LANSDOWNE @ WABASH WB","stop_desc":"NEAR SIDE LANSDOWNE @ WABASH WB","wheelchair_boarding":2,"routes":[{"route_id":"19599","agency_id":"70006","route_short_name":"11","route_long_name":"Chippewa","route_type":3,"route_color":"#FFFFFF","route_text_color":"#000000"},{"route_id":"19601","agency_id":"70006","route_short_name":"16","route_long_name":"City Limits","route_type":3,"route_color":"#FFFFFF","route_text_color":"#000000"}],"agency_name":"Metro St. Louis"},"geometry":{"type":"Point","coordinates":[-90.31597,38.59207]}},{"type":"Feature","properties":{"stop_id":"4920","stop_code":"4920","stop_name":"CHOUTEAU @ 14TH STREET WB","stop_desc":"FAR SIDE CHOUTEAU @ 14TH STREET WB","wheelchair_boarding":1,"routes":[{"route_id":"19599","agency_id":"70006","route_short_name":"11","route_long_name":"Chippewa","route_type":3,"route_color":"#FFFFFF","route_text_color":"#000000"},{"route_id":"19606","agency_id":"70006","route_short_name":"31","route_long_name":"Chouteau","route_type":3,"route_color":"#FFFFFF","route_text_color":"#000000"}],"agency_name":"Metro St. Louis"},"geometry":{"type":"Point","coordinates":[-90.20585,38.61966]}},{"type":"Feature","properties":{"stop_id":"4922","stop_code":"4922","stop_name":"CHOUTEAU @ 18TH STREET WB","stop_desc":"FAR SIDE CHOUTEAU @ 18TH STREET WB","wheelchair_boarding":1,"routes":[{"route_id":"19599","agency_id":"70006","route_short_name":"11","route_long_name":"Chippewa","route_type":3,"route_color":"#FFFFFF","route_text_color":"#000000"},{"route_id":"19606","agency_id":"70006","route_short_name":"31","route_long_name":"Chouteau","route_type":3,"route_color":"#FFFFFF","route_text_color":"#000000"}],"agency_name":"Metro St. Louis"},"geometry":{"type":"Point","coordinates":[-90.21001,38.62053]}},{"type":"Feature","properties":{"stop_id":"4923","stop_code":"4923","stop_name":"CHOUTEAU @ MISSISSIPPI WB","stop_desc":"FAR SIDE CHOUTEAU @ MISSISSIPPI WB","wheelchair_boarding":1,"routes":[{"route_id":"19599","agency_id":"70006","route_short_name":"11","route_long_name":"Chippewa","route_type":3,"route_color":"#FFFFFF","route_text_color":"#000000"},{"route_id":"19606","agency_id":"70006","route_short_name":"31","route_long_name":"Chouteau","route_type":3,"route_color":"#FFFFFF","route_text_color":"#000000"}],"agency_name":"Metro St. Louis"},"geometry":{"type":"Point","coordinates":[-90.21224,38.621]}},{"type":"Feature","properties":{"stop_id":"4924","stop_code":"4924","stop_name":"CHOUTEAU @ 22ND STREET WB","stop_desc":"FAR SIDE CHOUTEAU @ 22ND STREET WB","wheelchair_boarding":2,"routes":[{"route_id":"19599","agency_id":"70006","route_short_name":"11","route_long_name":"Chippewa","route_type":3,"route_color":"#FFFFFF","route_text_color":"#000000"},{"route_id":"19606","agency_id":"70006","route_short_name":"31","route_long_name":"Chouteau","route_type":3,"route_color":"#FFFFFF","route_text_color":"#000000"}],"agency_name":"Metro St. Louis"},"geometry":{"type":"Point","coordinates":[-90.21491,38.62155]}},{"type":"Feature","properties":{"stop_id":"7653","stop_code":"7653","stop_name":"CIVIC CENTER TRANSIT CENTER","wheelchair_boarding":1,"routes":[{"route_id":"19594","agency_id":"70006","route_short_name":"4","route_long_name":"Natural Bridge","route_type":3,"route_color":"#FFFFFF","route_text_color":"#000000"},{"route_id":"19598","agency_id":"70006","route_short_name":"10","route_long_name":"Gravois-Lindell","route_type":3,"route_color":"#FFFFFF","route_text_color":"#000000"},{"route_id":"19599","agency_id":"70006","route_short_name":"11","route_long_name":"Chippewa","route_type":3,"route_color":"#FFFFFF","route_text_color":"#000000"},{"route_id":"19603","agency_id":"70006","route_short_name":"19","route_long_name":"St Louis Ave","route_type":3,"route_color":"#FFFFFF","route_text_color":"#000000"}],"agency_name":"Metro St. Louis"},"geometry":{"type":"Point","coordinates":[-90.20281,38.62428]}},{"type":"Feature","properties":{"stop_id":"8647","stop_code":"8647","stop_name":"JEFFERSON @ CHOUTEAU SB","stop_desc":"FAR SIDE JEFFERSON @ CHOUTEAU SB","wheelchair_boarding":1,"routes":[{"route_id":"19599","agency_id":"70006","route_short_name":"11","route_long_name":"Chippewa","route_type":3,"route_color":"#FFFFFF","route_text_color":"#000000"}],"agency_name":"Metro St. Louis"},"geometry":{"type":"Point","coordinates":[-90.21883,38.62191]}},{"type":"Feature","properties":{"stop_id":"8649","stop_code":"8649","stop_name":"JEFFERSON @ PARK SB","stop_desc":"FAR SIDE JEFFERSON @ PARK SB","wheelchair_boarding":1,"routes":[{"route_id":"19599","agency_id":"70006","route_short_name":"11","route_long_name":"Chippewa","route_type":3,"route_color":"#FFFFFF","route_text_color":"#000000"}],"agency_name":"Metro St. Louis"},"geometry":{"type":"Point","coordinates":[-90.22045,38.61796]}},{"type":"Feature","properties":{"stop_id":"8650","stop_code":"8650","stop_name":"JEFFERSON @ 1605 JEFFERSON SB","stop_desc":"MID-BLOCK JEFFERSON @ 1605 JEFFERSON SB","wheelchair_boarding":1,"routes":[{"route_id":"19599","agency_id":"70006","route_short_name":"11","route_long_name":"Chippewa","route_type":3,"route_color":"#FFFFFF","route_text_color":"#000000"}],"agency_name":"Metro St. Louis"},"geometry":{"type":"Point","coordinates":[-90.2208,38.61642]}},{"type":"Feature","properties":{"stop_id":"8651","stop_code":"8651","stop_name":"JEFFERSON @ LAYFAYETTE SB","stop_desc":"NEAR SIDE JEFFERSON @ LAYFAYETTE SB","wheelchair_boarding":1,"routes":[{"route_id":"19599","agency_id":"70006","route_short_name":"11","route_long_name":"Chippewa","route_type":3,"route_color":"#FFFFFF","route_text_color":"#000000"}],"agency_name":"Metro St. Louis"},"geometry":{"type":"Point","coordinates":[-90.22104,38.61526]}},{"type":"Feature","properties":{"stop_id":"8654","stop_code":"8654","stop_name":"JEFFERSON @ RUSSELL SB","stop_desc":"FAR SIDE JEFFERSON @ RUSSELL SB","wheelchair_boarding":1,"routes":[{"route_id":"19599","agency_id":"70006","route_short_name":"11","route_long_name":"Chippewa","route_type":3,"route_color":"#FFFFFF","route_text_color":"#000000"}],"agency_name":"Metro St. Louis"},"geometry":{"type":"Point","coordinates":[-90.22193,38.61092]}},{"type":"Feature","properties":{"stop_id":"8656","stop_code":"8656","stop_name":"JEFFERSON @ SHENANDOAH SB","stop_desc":"NEAR SIDE JEFFERSON @ SHENANDOAH SB","wheelchair_boarding":2,"routes":[{"route_id":"19599","agency_id":"70006","route_short_name":"11","route_long_name":"Chippewa","route_type":3,"route_color":"#FFFFFF","route_text_color":"#000000"}],"agency_name":"Metro St. Louis"},"geometry":{"type":"Point","coordinates":[-90.22254,38.6077]}},{"type":"Feature","properties":{"stop_id":"8658","stop_code":"8658","stop_name":"JEFFERSON @ GRAVOIS SB","stop_desc":"FAR SIDE JEFFERSON @ GRAVOIS SB","wheelchair_boarding":2,"routes":[{"route_id":"19599","agency_id":"70006","route_short_name":"11","route_long_name":"Chippewa","route_type":3,"route_color":"#FFFFFF","route_text_color":"#000000"}],"agency_name":"Metro St. Louis"},"geometry":{"type":"Point","coordinates":[-90.22324,38.60451]}},{"type":"Feature","properties":{"stop_id":"8660","stop_code":"8660","stop_name":"JEFFERSON @ PESTALOZZI SB","stop_desc":"NEAR SIDE JEFFERSON @ PESTALOZZI SB","wheelchair_boarding":2,"routes":[{"route_id":"19599","agency_id":"70006","route_short_name":"11","route_long_name":"Chippewa","route_type":3,"route_color":"#FFFFFF","route_text_color":"#000000"}],"agency_name":"Metro St. Louis"},"geometry":{"type":"Point","coordinates":[-90.22395,38.6012]}},{"type":"Feature","properties":{"stop_id":"8661","stop_code":"8661","stop_name":"JEFFERSON @ ARSENAL SB","stop_desc":"FAR SIDE JEFFERSON @ ARSENAL SB","wheelchair_boarding":2,"routes":[{"route_id":"19599","agency_id":"70006","route_short_name":"11","route_long_name":"Chippewa","route_type":3,"route_color":"#FFFFFF","route_text_color":"#000000"}],"agency_name":"Metro St. Louis"},"geometry":{"type":"Point","coordinates":[-90.22435,38.59924]}},{"type":"Feature","properties":{"stop_id":"8663","stop_code":"8663","stop_name":"JEFFERSON @ UTAH SB","stop_desc":"NEAR SIDE JEFFERSON @ UTAH SB","wheelchair_boarding":1,"routes":[{"route_id":"19599","agency_id":"70006","route_short_name":"11","route_long_name":"Chippewa","route_type":3,"route_color":"#FFFFFF","route_text_color":"#000000"}],"agency_name":"Metro St. Louis"},"geometry":{"type":"Point","coordinates":[-90.22518,38.59522]}},{"type":"Feature","properties":{"stop_id":"8664","stop_code":"8664","stop_name":"JEFFERSON @ CHEROKEE SB","stop_desc":"FAR SIDE JEFFERSON @ CHEROKEE SB","wheelchair_boarding":1,"routes":[{"route_id":"19596","agency_id":"70006","route_short_name":"8","route_long_name":"Shaw-Cherokee","route_type":3,"route_color":"#FFFFFF","route_text_color":"#000000"},{"route_id":"19599","agency_id":"70006","route_short_name":"11","route_long_name":"Chippewa","route_type":3,"route_color":"#FFFFFF","route_text_color":"#000000"}],"agency_name":"Metro St. Louis"},"geometry":{"type":"Point","coordinates":[-90.2257,38.59275]}},{"type":"Feature","properties":{"stop_id":"8666","stop_code":"8666","stop_name":"JEFFERSON @ MIAMI SB","stop_desc":"FAR SIDE JEFFERSON @ MIAMI SB","wheelchair_boarding":1,"routes":[{"route_id":"19596","agency_id":"70006","route_short_name":"8","route_long_name":"Shaw-Cherokee","route_type":3,"route_color":"#FFFFFF","route_text_color":"#000000"},{"route_id":"19599","agency_id":"70006","route_short_name":"11","route_long_name":"Chippewa","route_type":3,"route_color":"#FFFFFF","route_text_color":"#000000"}],"agency_name":"Metro St. Louis"},"geometry":{"type":"Point","coordinates":[-90.22637,38.58949]}},{"type":"Feature","properties":{"stop_id":"8668","stop_code":"8668","stop_name":"BROADWAY @ CHIPPEWA SB","stop_desc":"NEAR SIDE BROADWAY @ CHIPPEWA SB","wheelchair_boarding":1,"routes":[{"route_id":"19599","agency_id":"70006","route_short_name":"11","route_long_name":"Chippewa","route_type":3,"route_color":"#FFFFFF","route_text_color":"#000000"},{"route_id":"19623","agency_id":"70006","route_short_name":"73","route_long_name":"Carondelet","route_type":3,"route_color":"#FFFFFF","route_text_color":"#000000"}],"agency_name":"Metro St. Louis"},"geometry":{"type":"Point","coordinates":[-90.22642,38.58643]}},{"type":"Feature","properties":{"stop_id":"8670","stop_code":"8670","stop_name":"CHIPPEWA @ TEXAS WB","stop_desc":"NEAR SIDE CHIPPEWA @ TEXAS WB","wheelchair_boarding":1,"routes":[{"route_id":"19599","agency_id":"70006","route_short_name":"11","route_long_name":"Chippewa","route_type":3,"route_color":"#FFFFFF","route_text_color":"#000000"}],"agency_name":"Metro St. Louis"},"geometry":{"type":"Point","coordinates":[-90.22782,38.58627]}},{"type":"Feature","properties":{"stop_id":"8671","stop_code":"8671","stop_name":"CHIPPEWA @ CALIFORNIA WB","stop_desc":"FAR SIDE CHIPPEWA @ CALIFORNIA WB","wheelchair_boarding":1,"routes":[{"route_id":"19599","agency_id":"70006","route_short_name":"11","route_long_name":"Chippewa","route_type":3,"route_color":"#FFFFFF","route_text_color":"#000000"}],"agency_name":"Metro St. Louis"},"geometry":{"type":"Point","coordinates":[-90.23182,38.58678]}},{"type":"Feature","properties":{"stop_id":"8673","stop_code":"8673","stop_name":"CHIPPEWA @ PENNSYLVANIA WB","stop_desc":"NEAR SIDE CHIPPEWA @ PENNSYLVANIA WB","wheelchair_boarding":1,"routes":[{"route_id":"19599","agency_id":"70006","route_short_name":"11","route_long_name":"Chippewa","route_type":3,"route_color":"#FFFFFF","route_text_color":"#000000"}],"agency_name":"Metro St. Louis"},"geometry":{"type":"Point","coordinates":[-90.23475,38.58716]}},{"type":"Feature","properties":{"stop_id":"8676","stop_code":"8676","stop_name":"CHIPPEWA @ COMPTON WB","stop_desc":"FAR SIDE CHIPPEWA @ COMPTON WB","wheelchair_boarding":1,"routes":[{"route_id":"19599","agency_id":"70006","route_short_name":"11","route_long_name":"Chippewa","route_type":3,"route_color":"#FFFFFF","route_text_color":"#000000"}],"agency_name":"Metro St. Louis"},"geometry":{"type":"Point","coordinates":[-90.23871,38.58766]}},{"type":"Feature","properties":{"stop_id":"8679","stop_code":"8679","stop_name":"CHIPPEWA @ GRAND WB","stop_desc":"NEAR SIDE CHIPPEWA @ GRAND WB","wheelchair_boarding":1,"routes":[{"route_id":"19599","agency_id":"70006","route_short_name":"11","route_long_name":"Chippewa","route_type":3,"route_color":"#FFFFFF","route_text_color":"#000000"}],"agency_name":"Metro St. Louis"},"geometry":{"type":"Point","coordinates":[-90.24373,38.58824]}},{"type":"Feature","properties":{"stop_id":"8680","stop_code":"8680","stop_name":"CHIPPEWA @ GRAND WB","stop_desc":"FAR SIDE CHIPPEWA @ GRAND WB","wheelchair_boarding":1,"routes":[{"route_id":"19599","agency_id":"70006","route_short_name":"11","route_long_name":"Chippewa","route_type":3,"route_color":"#FFFFFF","route_text_color":"#000000"}],"agency_name":"Metro St. Louis"},"geometry":{"type":"Point","coordinates":[-90.2449,38.58851]}},{"type":"Feature","properties":{"stop_id":"8682","stop_code":"8682","stop_name":"CHIPPEWA @ SPRING WB","stop_desc":"NEAR SIDE CHIPPEWA @ SPRING WB","wheelchair_boarding":1,"routes":[{"route_id":"19599","agency_id":"70006","route_short_name":"11","route_long_name":"Chippewa","route_type":3,"route_color":"#FFFFFF","route_text_color":"#000000"}],"agency_name":"Metro St. Louis"},"geometry":{"type":"Point","coordinates":[-90.24825,38.58888]}},{"type":"Feature","properties":{"stop_id":"8684","stop_code":"8684","stop_name":"CHIPPEWA @ GUSTINE WB","stop_desc":"NEAR SIDE CHIPPEWA @ GUSTINE WB","wheelchair_boarding":1,"routes":[{"route_id":"19599","agency_id":"70006","route_short_name":"11","route_long_name":"Chippewa","route_type":3,"route_color":"#FFFFFF","route_text_color":"#000000"}],"agency_name":"Metro St. Louis"},"geometry":{"type":"Point","coordinates":[-90.2515,38.5892]}},{"type":"Feature","properties":{"stop_id":"8685","stop_code":"8685","stop_name":"CHIPPEWA @ GRAVOIS WB","stop_desc":"NEAR SIDE CHIPPEWA @ GRAVOIS WB","wheelchair_boarding":1,"routes":[{"route_id":"19599","agency_id":"70006","route_short_name":"11","route_long_name":"Chippewa","route_type":3,"route_color":"#FFFFFF","route_text_color":"#000000"}],"agency_name":"Metro St. Louis"},"geometry":{"type":"Point","coordinates":[-90.25468,38.58953]}},{"type":"Feature","properties":{"stop_id":"8686","stop_code":"8686","stop_name":"CHIPPEWA @ GRAVOIS WB","stop_desc":"FAR SIDE CHIPPEWA @ GRAVOIS WB","wheelchair_boarding":2,"routes":[{"route_id":"19599","agency_id":"70006","route_short_name":"11","route_long_name":"Chippewa","route_type":3,"route_color":"#FFFFFF","route_text_color":"#000000"}],"agency_name":"Metro St. Louis"},"geometry":{"type":"Point","coordinates":[-90.25592,38.5897]}},{"type":"Feature","properties":{"stop_id":"8688","stop_code":"8688","stop_name":"CHIPPEWA @ MERAMEC WB","stop_desc":"FAR SIDE CHIPPEWA @ MERAMEC WB","wheelchair_boarding":1,"routes":[{"route_id":"19599","agency_id":"70006","route_short_name":"11","route_long_name":"Chippewa","route_type":3,"route_color":"#FFFFFF","route_text_color":"#000000"}],"agency_name":"Metro St. Louis"},"geometry":{"type":"Point","coordinates":[-90.26217,38.59033]}},{"type":"Feature","properties":{"stop_id":"8689","stop_code":"8689","stop_name":"CHIPPEWA @ MORGANFORD WB","stop_desc":"FAR SIDE CHIPPEWA @ MORGANFORD WB","wheelchair_boarding":1,"routes":[{"route_id":"19599","agency_id":"70006","route_short_name":"11","route_long_name":"Chippewa","route_type":3,"route_color":"#FFFFFF","route_text_color":"#000000"}],"agency_name":"Metro St. Louis"},"geometry":{"type":"Point","coordinates":[-90.26444,38.59058]}},{"type":"Feature","properties":{"stop_id":"8690","stop_code":"8690","stop_name":"4365 CHIPPEWA WB","stop_desc":"MID-BLOCK 4365 CHIPPEWA WB","wheelchair_boarding":1,"routes":[{"route_id":"19599","agency_id":"70006","route_short_name":"11","route_long_name":"Chippewa","route_type":3,"route_color":"#FFFFFF","route_text_color":"#000000"}],"agency_name":"Metro St. Louis"},"geometry":{"type":"Point","coordinates":[-90.26605,38.59074]}},{"type":"Feature","properties":{"stop_id":"8692","stop_code":"8692","stop_name":"CHIPPEWA @ RIDGEWOOD WB","stop_desc":"FAR SIDE CHIPPEWA @ RIDGEWOOD WB","wheelchair_boarding":1,"routes":[{"route_id":"19599","agency_id":"70006","route_short_name":"11","route_long_name":"Chippewa","route_type":3,"route_color":"#FFFFFF","route_text_color":"#000000"}],"agency_name":"Metro St. Louis"},"geometry":{"type":"Point","coordinates":[-90.27039,38.59124]}},{"type":"Feature","properties":{"stop_id":"8693","stop_code":"8693","stop_name":"CHIPPEWA @ KINGSHIGHWAY WB","stop_desc":"NEAR SIDE CHIPPEWA @ KINGSHIGHWAY WB","wheelchair_boarding":2,"routes":[{"route_id":"19599","agency_id":"70006","route_short_name":"11","route_long_name":"Chippewa","route_type":3,"route_color":"#FFFFFF","route_text_color":"#000000"}],"agency_name":"Metro St. Louis"},"geometry":{"type":"Point","coordinates":[-90.27221,38.59148]}},{"type":"Feature","properties":{"stop_id":"8694","stop_code":"8694","stop_name":"CHIPPEWA @ LAWN WB","stop_desc":"NEAR SIDE CHIPPEWA @ LAWN WB","wheelchair_boarding":1,"routes":[{"route_id":"19599","agency_id":"70006","route_short_name":"11","route_long_name":"Chippewa","route_type":3,"route_color":"#FFFFFF","route_text_color":"#000000"}],"agency_name":"Metro St. Louis"},"geometry":{"type":"Point","coordinates":[-90.27409,38.59164]}},{"type":"Feature","properties":{"stop_id":"8696","stop_code":"8696","stop_name":"CHIPPEWA @ BRANNON WB","stop_desc":"NEAR SIDE CHIPPEWA @ BRANNON WB","wheelchair_boarding":1,"routes":[{"route_id":"19599","agency_id":"70006","route_short_name":"11","route_long_name":"Chippewa","route_type":3,"route_color":"#FFFFFF","route_text_color":"#000000"}],"agency_name":"Metro St. Louis"},"geometry":{"type":"Point","coordinates":[-90.27913,38.59192]}},{"type":"Feature","properties":{"stop_id":"8697","stop_code":"8697","stop_name":"CHIPPEWA @ MACKLIND WB","stop_desc":"NEAR SIDE CHIPPEWA @ MACKLIND WB","wheelchair_boarding":1,"routes":[{"route_id":"19599","agency_id":"70006","route_short_name":"11","route_long_name":"Chippewa","route_type":3,"route_color":"#FFFFFF","route_text_color":"#000000"}],"agency_name":"Metro St. Louis"},"geometry":{"type":"Point","coordinates":[-90.28408,38.59246]}},{"type":"Feature","properties":{"stop_id":"8698","stop_code":"8698","stop_name":"CHIPPEWA @ REGAL PLACE WB","stop_desc":"NEAR SIDE CHIPPEWA @ REGAL PLACE WB","wheelchair_boarding":1,"routes":[{"route_id":"19599","agency_id":"70006","route_short_name":"11","route_long_name":"Chippewa","route_type":3,"route_color":"#FFFFFF","route_text_color":"#000000"}],"agency_name":"Metro St. Louis"},"geometry":{"type":"Point","coordinates":[-90.28561,38.5926]}},{"type":"Feature","properties":{"stop_id":"8700","stop_code":"8700","stop_name":"5639 CHIPPEWA WB","stop_desc":"NEAR SIDE 5639 CHIPPEWA WB","wheelchair_boarding":1,"routes":[{"route_id":"19599","agency_id":"70006","route_short_name":"11","route_long_name":"Chippewa","route_type":3,"route_color":"#FFFFFF","route_text_color":"#000000"}],"agency_name":"Metro St. Louis"},"geometry":{"type":"Point","coordinates":[-90.28902,38.59298]}},{"type":"Feature","properties":{"stop_id":"8701","stop_code":"8701","stop_name":"CHIPPEWA @ SULPHUR WB","stop_desc":"NEAR SIDE CHIPPEWA @ SULPHUR WB","wheelchair_boarding":1,"routes":[{"route_id":"19599","agency_id":"70006","route_short_name":"11","route_long_name":"Chippewa","route_type":3,"route_color":"#FFFFFF","route_text_color":"#000000"}],"agency_name":"Metro St. Louis"},"geometry":{"type":"Point","coordinates":[-90.2913,38.59316]}},{"type":"Feature","properties":{"stop_id":"8956","stop_code":"8956","stop_name":"CHIPPEWA @ HAMPTON WB","stop_desc":"NEAR SIDE CHIPPEWA @ HAMPTON WB","wheelchair_boarding":1,"routes":[{"route_id":"19599","agency_id":"70006","route_short_name":"11","route_long_name":"Chippewa","route_type":3,"route_color":"#FFFFFF","route_text_color":"#000000"}],"agency_name":"Metro St. Louis"},"geometry":{"type":"Point","coordinates":[-90.2936,38.59344]}},{"type":"Feature","properties":{"stop_id":"8957","stop_code":"8957","stop_name":"CHIPPEWA @ CLIFTON WB","stop_desc":"FAR SIDE CHIPPEWA @ CLIFTON WB","wheelchair_boarding":1,"routes":[{"route_id":"19599","agency_id":"70006","route_short_name":"11","route_long_name":"Chippewa","route_type":3,"route_color":"#FFFFFF","route_text_color":"#000000"}],"agency_name":"Metro St. Louis"},"geometry":{"type":"Point","coordinates":[-90.29621,38.59371]}},{"type":"Feature","properties":{"stop_id":"8960","stop_code":"8960","stop_name":"CHIPPEWA @ WATSON WB","stop_desc":"NEAR SIDE CHIPPEWA @ WATSON WB","wheelchair_boarding":1,"routes":[{"route_id":"19599","agency_id":"70006","route_short_name":"11","route_long_name":"Chippewa","route_type":3,"route_color":"#FFFFFF","route_text_color":"#000000"}],"agency_name":"Metro St. Louis"},"geometry":{"type":"Point","coordinates":[-90.30136,38.59281]}},{"type":"Feature","properties":{"stop_id":"8961","stop_code":"8961","stop_name":"CHIPPEWA @ DONOVAN WB","stop_desc":"FAR SIDE CHIPPEWA @ DONOVAN WB","wheelchair_boarding":1,"routes":[{"route_id":"19599","agency_id":"70006","route_short_name":"11","route_long_name":"Chippewa","route_type":3,"route_color":"#FFFFFF","route_text_color":"#000000"},{"route_id":"19605","agency_id":"70006","route_short_name":"30","route_long_name":"Arsenal","route_type":3,"route_color":"#FFFFFF","route_text_color":"#000000"}],"agency_name":"Metro St. Louis"},"geometry":{"type":"Point","coordinates":[-90.3036,38.5917]}}]}