{"type":"FeatureCollection","features":[{"type":"Feature","properties":{"agency_name":"Metro St. Louis","route_id":"19617","agency_id":"70006","route_short_name":"58","route_long_name":"Chesterfield Valley","route_type":3,"route_color":"#FFFFFF","route_text_color":"#000000"},"geometry":{"type":"MultiLineString","coordinates":[[[-90.34024,38.64605],[-90.34024,38.64602],[-90.34003,38.64751],[-90.33862,38.64765],[-90.33876,38.64651],[-90.33884,38.64643],[-90.33893,38.64592],[-90.33897,38.64585],[-90.34066,38.64575],[-90.34156,38.64565],[-90.3421,38.6457],[-90.34344,38.64587],[-90.34507,38.64614],[-90.34567,38.64611],[-90.34788,38.64639],[-90.34869,38.64651],[-90.34961,38.64661],[-90.34983,38.64667],[-90.35007,38.6468],[-90.35018,38.6469],[-90.35024,38.647],[-90.35026,38.64711],[-90.35024,38.64721],[-90.3501,38.64734],[-90.34977,38.64744],[-90.34968,38.64743],[-90.34959,38.6474],[-90.34949,38.64733],[-90.3494,38.64723],[-90.34914,38.64685],[-90.34888,38.64653],[-90.34688,38.64306],[-90.34584,38.64134],[-90.34419,38.63849],[-90.34394,38.63797],[-90.34374,38.63739],[-90.34364,38.63683],[-90.34361,38.63637],[-90.34361,38.63597],[-90.34364,38.63572],[-90.34369,38.63543],[-90.34395,38.63465],[-90.34397,38.63451],[-90.34427,38.63358],[-90.34435,38.63327],[-90.34443,38.63286],[-90.34445,38.63265],[-90.34463,38.63174],[-90.34473,38.63152],[-90.34498,38.63114],[-90.34515,38.63095],[-90.34541,38.63075],[-90.34569,38.63057],[-90.34623,38.63031],[-90.34674,38.6302],[-90.34715,38.63017],[-90.34758,38.63018],[-90.34829,38.63027],[-90.3511,38.6312],[-90.35194,38.63142],[-90.35231,38.6315],[-90.3531,38.63164],[-90.35359,38.63169],[-90.35445,38.63172],[-90.35467,38.63171],[-90.3554,38.63166],[-90.35614,38.63156],[-90.35691,38.6314],[-90.35774,38.63116],[-90.35873,38.63084],[-90.35977,38.63056],[-90.36116,38.6303],[-90.36279,38.63012],[-90.36327,38.63009],[-90.36471,38.63011],[-90.36556,38.63017],[-90.36607,38.63023],[-90.3663,38.63028],[-90.36761,38.63048],[-90.37055,38.6311],[-90.37114,38.63117],[-90.37407,38.63135],[-90.38424,38.63187],[-90.38512,38.63201],[-90.38585,38.63218],[-90.38628,38.63233],[-90.38674,38.63252],[-90.38713,38.63271],[-90.38763,38.63299],[-90.38807,38.6333],[-90.38849,38.63364],[-90.38997,38.63478],[-90.39005,38.63497],[-90.39022,38.63513],[-90.39044,38.6353],[-90.39082,38.63555],[-90.39114,38.63573],[-90.39172,38.636],[-90.39263,38.63636],[-90.39304,38.63647],[-90.39326,38.63655],[-90.39343,38.63667],[-90.39406,38.63663],[-90.39486,38.63629],[-90.3959,38.63589],[-90.39874,38.63485],[-90.39916,38.63467],[-90.40035,38.63396],[-90.40173,38.63317],[-90.40214,38.63306],[-90.40248,38.63301],[-90.40712,38.63299],[-90.41332,38.63306],[-90.41549,38.63305],[-90.41636,38.63308],[-90.41973,38.63311],[-90.4221,38.63316],[-90.42471,38.63319],[-90.43307,38.63333],[-90.43416,38.63333],[-90.43672,38.63311],[-90.43886,38.63289],[-90.43989,38.6328],[-90.44018,38.63275],[-90.44079,38.63258],[-90.44114,38.63245],[-90.44359,38.63148],[-90.44357,38.63236],[-90.44359,38.63472],[-90.44416,38.63593],[-90.44443,38.63583],[-90.44457,38.63572],[-90.4447,38.63553],[-90.44479,38.63546],[-90.44486,38.63538],[-90.44497,38.63525],[-90.44502,38.63513],[-90.44505,38.63488],[-90.44505,38.63479],[-90.44495,38.63473],[-90.44488,38.63466],[-90.44484,38.63452],[-90.44477,38.63441],[-90.44459,38.63421],[-90.4442,38.63426]],[[-90.44358,38.63598],[-90.44359,38.63472],[-90.44358,38.63598],[-90.44355,38.637],[-90.44356,38.63777],[-90.44351,38.63912],[-90.44332,38.63948],[-90.44325,38.63955],[-90.44294,38.63974],[-90.44275,38.63989],[-90.4418,38.64031],[-90.44166,38.64036],[-90.44154,38.64038],[-90.44138,38.64035],[-90.44122,38.64027],[-90.44116,38.6402],[-90.44112,38.64012],[-90.4411,38.63994],[-90.44113,38.63983],[-90.4416,38.63902],[-90.44164,38.63899],[-90.44172,38.63896],[-90.44271,38.63896],[-90.4428,38.63898],[-90.44285,38.63902],[-90.44289,38.6391],[-90.44287,38.63916],[-90.4428,38.63922],[-90.44274,38.63924],[-90.44267,38.63924],[-90.44113,38.63983],[-90.44103,38.64001],[-90.44085,38.64023],[-90.44078,38.64028],[-90.4406,38.64033],[-90.44039,38.64033],[-90.44019,38.64026],[-90.4389,38.63972],[-90.43849,38.63952],[-90.43833,38.63925],[-90.43831,38.63912],[-90.43834,38.63897],[-90.4384,38.63885],[-90.43852,38.63874],[-90.43869,38.63866],[-90.43935,38.63849],[-90.44055,38.63857],[-90.44156,38.63861],[-90.44382,38.63863],[-90.44528,38.63862],[-90.4466,38.63873],[-90.44845,38.63897],[-90.44896,38.63901],[-90.44976,38.63903],[-90.45081,38.63903],[-90.45175,38.63898],[-90.45448,38.63873],[-90.45533,38.63867],[-90.45603,38.63865],[-90.48869,38.63866],[-90.49093,38.63871],[-90.49232,38.63878],[-90.49446,38.63898],[-90.49547,38.6391],[-90.49711,38.63935],[-90.4978,38.63947],[-90.49953,38.63982],[-90.51015,38.64232],[-90.51552,38.64356],[-90.51703,38.64394],[-90.52349,38.64544],[-90.52445,38.64564],[-90.53367,38.64742],[-90.54097,38.6488],[-90.54564,38.64972],[-90.54729,38.65002],[-90.54821,38.65021],[-90.54908,38.65042],[-90.5585,38.65309],[-90.559,38.65325],[-90.55945,38.65342],[-90.56091,38.65407],[-90.56184,38.65456],[-90.56264,38.65504],[-90.56339,38.65556],[-90.56409,38.65612],[-90.56491,38.65684],[-90.56615,38.65821],[-90.56769,38.66001],[-90.56808,38.66044],[-90.56927,38.66166],[-90.57059,38.66286],[-90.57282,38.66484],[-90.57477,38.6665],[-90.57516,38.66686],[-90.57538,38.66703],[-90.57598,38.66743],[-90.57672,38.66786],[-90.5771,38.66805],[-90.57802,38.66845],[-90.57847,38.6686],[-90.57896,38.66876],[-90.57996,38.66899],[-90.58054,38.66909],[-90.58151,38.6692],[-90.58246,38.66928],[-90.59321,38.67013],[-90.59965,38.67065],[-90.60085,38.67076],[-90.60241,38.67087],[-90.62299,38.67252],[-90.62718,38.67289],[-90.64245,38.67432],[-90.64882,38.67493],[-90.64909,38.67504],[-90.65025,38.67524],[-90.6506,38.67531],[-90.65072,38.67535],[-90.65092,38.67547],[-90.65097,38.67553],[-90.651,38.67566],[-90.65093,38.67572],[-90.65047,38.67581],[-90.65023,38.67572],[-90.64997,38.67551],[-90.64973,38.67535],[-90.64957,38.67529],[-90.64929,38.67523],[-90.64893,38.6752],[-90.64657,38.67513],[-90.64603,38.67513],[-90.64548,38.67508],[-90.64557,38.67462],[-90.64568,38.67374],[-90.64616,38.67044],[-90.64802,38.67063],[-90.64874,38.67072],[-90.64942,38.67084],[-90.65014,38.67099],[-90.65088,38.67117],[-90.65188,38.6715],[-90.6531,38.67201],[-90.65421,38.67255],[-90.65472,38.67232],[-90.6549,38.67218],[-90.65537,38.67193],[-90.65562,38.67182],[-90.65604,38.67171],[-90.65665,38.67165],[-90.65709,38.67164],[-90.6572,38.67216],[-90.65811,38.67295],[-90.65869,38.67339],[-90.65922,38.67387],[-90.66093,38.67451],[-90.66066,38.67498],[-90.6607,38.67562],[-90.66094,38.67566],[-90.66151,38.67589],[-90.66169,38.67602],[-90.66184,38.67617],[-90.66204,38.67651]]]}},{"type":"Feature","properties":{"stop_id":"13967","stop_code":"13967","stop_name":"BALLAS TRANSIT CENTER","wheelchair_boarding":1,"routes":[{"route_id":"19617","agency_id":"70006","route_short_name":"58","route_long_name":"Chesterfield Valley","route_type":3,"route_color":"#FFFFFF","route_text_color":"#000000"},{"route_id":"19634","agency_id":"70006","route_short_name":"98","route_long_name":"Ballas-North Hanley","route_type":3,"route_color":"#FFFFFF","route_text_color":"#000000"}],"agency_name":"Metro St. Louis"},"geometry":{"type":"Point","coordinates":[-90.44237,38.63899]}},{"type":"Feature","properties":{"stop_id":"14425","stop_code":"14425","stop_name":"CLAYTON TRANSIT CENTER","wheelchair_boarding":1,"routes":[{"route_id":"19608","agency_id":"70006","route_short_name":"33","route_long_name":"Midland","route_type":3,"route_color":"#FFFFFF","route_text_color":"#000000"},{"route_id":"19617","agency_id":"70006","route_short_name":"58","route_long_name":"Chesterfield Valley","route_type":3,"route_color":"#FFFFFF","route_text_color":"#000000"}],"agency_name":"Metro St. Louis"},"geometry":{"type":"Point","coordinates":[-90.34009,38.64597]}},{"type":"Feature","properties":{"stop_id":"16162","stop_code":"16162","stop_name":"CENTRAL @ SHAW PARK SB","stop_desc":"NEAR SIDE CENTRAL @ SHAW PARK SB","wheelchair_boarding":1,"routes":[{"route_id":"19617","agency_id":"70006","route_short_name":"58","route_long_name":"Chesterfield Valley","route_type":3,"route_color":"#FFFFFF","route_text_color":"#000000"}],"agency_name":"Metro St. Louis"},"geometry":{"type":"Point","coordinates":[-90.33862,38.64626]}},{"type":"Feature","properties":{"stop_id":"16231","stop_code":"16231","stop_name":"ST LOUIS PREMIUM OUTLETS","stop_desc":"MID-BLOCK ST LOUIS PREMIUM OUTLETS","wheelchair_boarding":1,"routes":[{"route_id":"19617","agency_id":"70006","route_short_name":"58","route_long_name":"Chesterfield Valley","route_type":3,"route_color":"#FFFFFF","route_text_color":"#000000"}],"agency_name":"Metro St. Louis"},"geometry":{"type":"Point","coordinates":[-90.66209,38.67675]}},{"type":"Feature","properties":{"stop_id":"4786","stop_code":"4786","stop_name":"CLAYTON @ PLAZA FRONTENAC WB","stop_desc":"NEAR SIDE CLAYTON @ PLAZA FRONTENAC WB","wheelchair_boarding":2,"routes":[{"route_id":"19617","agency_id":"70006","route_short_name":"58","route_long_name":"Chesterfield Valley","route_type":3,"route_color":"#FFFFFF","route_text_color":"#000000"}],"agency_name":"Metro St. Louis"},"geometry":{"type":"Point","coordinates":[-90.40783,38.63308]}},{"type":"Feature","properties":{"stop_id":"4804","stop_code":"4804","stop_name":"CLAYTON @ WARSON WB","stop_desc":"FAR SIDE CLAYTON @ WARSON WB","wheelchair_boarding":2,"routes":[{"route_id":"19617","agency_id":"70006","route_short_name":"58","route_long_name":"Chesterfield Valley","route_type":3,"route_color":"#FFFFFF","route_text_color":"#000000"}],"agency_name":"Metro St. Louis"},"geometry":{"type":"Point","coordinates":[-90.39632,38.63576]}},{"type":"Feature","properties":{"stop_id":"4806","stop_code":"4806","stop_name":"CLAYTON @ SCHNUCKS LADUE WB","stop_desc":"NEAR SIDE CLAYTON @ SCHNUCKS LADUE WB","wheelchair_boarding":2,"routes":[{"route_id":"19617","agency_id":"70006","route_short_name":"58","route_long_name":"Chesterfield Valley","route_type":3,"route_color":"#FFFFFF","route_text_color":"#000000"}],"agency_name":"Metro St. Louis"},"geometry":{"type":"Point","coordinates":[-90.40447,38.63309]}},{"type":"Feature","properties":{"stop_id":"4810","stop_code":"4810","stop_name":"CLAYTON @ SPOEDE WB","stop_desc":"FAR SIDE CLAYTON @ SPOEDE WB","wheelchair_boarding":2,"routes":[{"route_id":"19617","agency_id":"70006","route_short_name":"58","route_long_name":"Chesterfield Valley","route_type":3,"route_color":"#FFFFFF","route_text_color":"#000000"}],"agency_name":"Metro St. Louis"},"geometry":{"type":"Point","coordinates":[-90.41615,38.63311]}},{"type":"Feature","properties":{"stop_id":"4811","stop_code":"4811","stop_name":"CLAYTON @ GEYER WB","stop_desc":"NEAR SIDE CLAYTON @ GEYER WB","wheelchair_boarding":2,"routes":[{"route_id":"19617","agency_id":"70006","route_short_name":"58","route_long_name":"Chesterfield Valley","route_type":3,"route_color":"#FFFFFF","route_text_color":"#000000"}],"agency_name":"Metro St. Louis"},"geometry":{"type":"Point","coordinates":[-90.41985,38.63316]}},{"type":"Feature","properties":{"stop_id":"4814","stop_code":"4814","stop_name":"CLAYTON @ DEVONDALE PLACE WB","stop_desc":"FAR SIDE CLAYTON @ DEVONDALE PLACE WB","wheelchair_boarding":2,"routes":[{"route_id":"19617","agency_id":"70006","route_short_name":"58","route_long_name":"Chesterfield Valley","route_type":3,"route_color":"#FFFFFF","route_text_color":"#000000"}],"agency_name":"Metro St. Louis"},"geometry":{"type":"Point","coordinates":[-90.43013,38.63333]}},{"type":"Feature","properties":{"stop_id":"4818","stop_code":"4818","stop_name":"CLAYTON @ BALLAS WB","stop_desc":"MID-BLOCK CLAYTON @ BALLAS WB","wheelchair_boarding":2,"routes":[{"route_id":"19617","agency_id":"70006","route_short_name":"58","route_long_name":"Chesterfield Valley","route_type":3,"route_color":"#FFFFFF","route_text_color":"#000000"}],"agency_name":"Metro St. Louis"},"geometry":{"type":"Point","coordinates":[-90.44249,38.63197]}},{"type":"Feature","properties":{"stop_id":"4822","stop_code":"4822","stop_name":"MISSOURI BAPTIST HOSPITAL LOOP","stop_desc":"MID-BLOCK MISSOURI BAPTIST HOSPITAL LOOP","wheelchair_boarding":1,"routes":[{"route_id":"19617","agency_id":"70006","route_short_name":"58","route_long_name":"Chesterfield Valley","route_type":3,"route_color":"#FFFFFF","route_text_color":"#000000"},{"route_id":"19634","agency_id":"70006","route_short_name":"98","route_long_name":"Ballas-North Hanley","route_type":3,"route_color":"#FFFFFF","route_text_color":"#000000"}],"agency_name":"Metro St. Louis"},"geometry":{"type":"Point","coordinates":[-90.44482,38.63453]}}]}