{"type":"FeatureCollection","features":[{"type":"Feature","properties":{"agency_name":"Metro St. Louis","route_id":"19644","agency_id":"70006","route_short_name":"12","route_long_name":"OFallon-Fairview Heights","route_type":3,"route_color":"#FFFFFF","route_text_color":"#000000"},"geometry":{"type":"MultiLineString","coordinates":[[[-89.87992,38.53992],[-89.87943,38.53902],[-89.88005,38.54019],[-89.88014,38.54028],[-89.88022,38.54032],[-89.88035,38.54033],[-89.88091,38.54029],[-89.88344,38.54028],[-89.88345,38.54942],[-89.8834,38.55034],[-89.88334,38.55087],[-89.88316,38.55185],[-89.88298,38.55256],[-89.88281,38.55314],[-89.87949,38.56265],[-89.87645,38.57129],[-89.87604,38.57249],[-89.8759,38.57279],[-89.8756,38.57377],[-89.87422,38.57771],[-89.87414,38.57799],[-89.87403,38.57856],[-89.87398,38.57909],[-89.87396,38.57959],[-89.87397,38.57989],[-89.87403,38.58063],[-89.87408,38.58287],[-89.87457,38.58303],[-89.87638,38.58217],[-89.87735,38.58168],[-89.87782,38.58147],[-89.87818,38.58133],[-89.87869,38.58117],[-89.87919,38.58105],[-89.87978,38.58095],[-89.88018,38.58092],[-89.88091,38.5809],[-89.88213,38.58093],[-89.88901,38.58095],[-89.89111,38.58095],[-89.89182,38.58092],[-89.89273,38.58097],[-89.89323,38.58103],[-89.89381,38.58112],[-89.89434,38.58123],[-89.89478,38.58134],[-89.89553,38.58157],[-89.89601,38.58176],[-89.89707,38.58222],[-89.89862,38.58293],[-89.89936,38.58325],[-89.90015,38.58356],[-89.90119,38.58391],[-89.90214,38.58418],[-89.90264,38.5843],[-89.90386,38.58454],[-89.90505,38.5847],[-89.90616,38.58479],[-89.90966,38.5849],[-89.91005,38.58494],[-89.91033,38.58499],[-89.91086,38.58512],[-89.91104,38.58518],[-89.91108,38.58594],[-89.91109,38.5865],[-89.91109,38.58704],[-89.91107,38.5875],[-89.91108,38.58824],[-89.91098,38.58913],[-89.9108,38.59147],[-89.91086,38.59173],[-89.91096,38.59206],[-89.91097,38.59215],[-89.91232,38.5923],[-89.91347,38.5923],[-89.91942,38.59258],[-89.91981,38.59255],[-89.92077,38.5923],[-89.92093,38.59228],[-89.92127,38.59227],[-89.92592,38.5924],[-89.92764,38.59237],[-89.92802,38.59235],[-89.92839,38.59231],[-89.92862,38.59235],[-89.92865,38.59238],[-89.92877,38.59243],[-89.92886,38.59241],[-89.92891,38.59229],[-89.9289,38.59225],[-89.92885,38.59221],[-89.92877,38.59205],[-89.92874,38.59187],[-89.92877,38.59174],[-89.92894,38.59138],[-89.92895,38.59091],[-89.92892,38.58893],[-89.92913,38.58901],[-89.92971,38.58932],[-89.92996,38.5895],[-89.93028,38.58977],[-89.93134,38.59094],[-89.93155,38.59118],[-89.93172,38.59141],[-89.93208,38.59172],[-89.93226,38.59185],[-89.93281,38.59216],[-89.93335,38.59237],[-89.93382,38.59249],[-89.93461,38.59259],[-89.93523,38.59258],[-89.93767,38.59246],[-89.93791,38.59243],[-89.93823,38.59243],[-89.93826,38.59181],[-89.93833,38.59167],[-89.93845,38.59156],[-89.93871,38.59143],[-89.93948,38.59116],[-89.93957,38.59111],[-89.93967,38.59102],[-89.93975,38.59089],[-89.93999,38.59024],[-89.94003,38.58807],[-89.93999,38.58781],[-89.93988,38.58761],[-89.93796,38.58509],[-89.93753,38.5845],[-89.93731,38.58436],[-89.93706,38.58428],[-89.93679,38.58423],[-89.93604,38.58421],[-89.93562,38.58406],[-89.93549,38.58398],[-89.93499,38.58337],[-89.93481,38.58309],[-89.93468,38.58281],[-89.93457,38.5824],[-89.93445,38.58203],[-89.93395,38.58217],[-89.93333,38.58248],[-89.93319,38.58252],[-89.93359,38.58314],[-89.93392,38.58361],[-89.93464,38.58376]],[[-89.93434,38.5816],[-89.93445,38.58203],[-89.93427,38.58137],[-89.9339,38.58098],[-89.93291,38.58],[-89.93268,38.57979],[-89.93239,38.57965],[-89.93218,38.57959],[-89.9317,38.57956],[-89.9305,38.57957],[-89.92899,38.57955],[-89.92901,38.57845],[-89.92909,38.57824],[-89.9291,38.576],[-89.92912,38.57575],[-89.92915,38.57457],[-89.92914,38.57415],[-89.92915,38.57383],[-89.92906,38.57346],[-89.92906,38.57268],[-89.92971,38.57265],[-89.93014,38.57268],[-89.9304,38.57273],[-89.93061,38.57282],[-89.93081,38.57295],[-89.93098,38.5731],[-89.93203,38.57433],[-89.93261,38.57496],[-89.93295,38.57526],[-89.93421,38.57631],[-89.9347,38.57677],[-89.93526,38.57748],[-89.93646,38.57916],[-89.93971,38.5835],[-89.93986,38.58379],[-89.93999,38.58413],[-89.94005,38.58454],[-89.94004,38.58551],[-89.94008,38.58571],[-89.94012,38.58581],[-89.94026,38.58599],[-89.94049,38.58616],[-89.94074,38.58628],[-89.94089,38.58632],[-89.94145,38.58638],[-89.94157,38.58641],[-89.9418,38.58651],[-89.94203,38.58667],[-89.94214,38.58677],[-89.94264,38.58748],[-89.94375,38.58898],[-89.9439,38.58913],[-89.9441,38.58925],[-89.94509,38.58952],[-89.94533,38.58955],[-89.94753,38.58955],[-89.94752,38.59013],[-89.94753,38.59124],[-89.94757,38.59148],[-89.94762,38.59158],[-89.94771,38.59168],[-89.94814,38.59205],[-89.94833,38.59234],[-89.94839,38.59249],[-89.94928,38.59264],[-89.94967,38.59264],[-89.95027,38.59258],[-89.95071,38.59258],[-89.95701,38.59264],[-89.96351,38.59267],[-89.97079,38.59266],[-89.97424,38.59268],[-89.97616,38.59271],[-89.98133,38.59271],[-89.98258,38.59274],[-89.98484,38.59276],[-89.98482,38.59298],[-89.98482,38.59328],[-89.98485,38.59501],[-89.98486,38.59745],[-89.98489,38.59963],[-89.98492,38.6001],[-89.98493,38.60137],[-89.9851,38.60195],[-89.98611,38.60199],[-89.98636,38.60198],[-89.98681,38.60187],[-89.98694,38.60179],[-89.98794,38.60101],[-89.98808,38.60094],[-89.98852,38.60081],[-89.99131,38.60097],[-89.99533,38.60055],[-89.99534,38.60019],[-89.99533,38.59977],[-89.99535,38.59905],[-89.99488,38.59914],[-89.99436,38.59939],[-89.99403,38.59946],[-89.99196,38.5993],[-89.99031,38.5991],[-89.99035,38.59818],[-89.99039,38.59644],[-89.99045,38.5953],[-89.99045,38.59341],[-89.99037,38.59313],[-89.99035,38.59286],[-89.99263,38.59287],[-89.99422,38.59292],[-90.00182,38.59294],[-90.00344,38.59297],[-90.0069,38.59298],[-90.00815,38.59307],[-90.00879,38.59313],[-90.00987,38.59331],[-90.01139,38.59359],[-90.01293,38.59382],[-90.01375,38.59391],[-90.01676,38.59405],[-90.02262,38.59437],[-90.04062,38.59541],[-90.04198,38.5955],[-90.04253,38.59552],[-90.04578,38.59576],[-90.04632,38.59578],[-90.04671,38.59582],[-90.04712,38.59588],[-90.04791,38.59608],[-90.04878,38.59574],[-90.04886,38.5956],[-90.04887,38.59547]],[[-89.97681,38.59271],[-89.97681,38.59463],[-89.97719,38.59503],[-89.97793,38.59503],[-89.97818,38.59495],[-89.97832,38.59486],[-89.97844,38.59473],[-89.9785,38.59459],[-89.97859,38.5943],[-89.97866,38.59415],[-89.97878,38.59398],[-89.97894,38.59388],[-89.97909,38.59384],[-89.98058,38.59348],[-89.98219,38.5935],[-89.98229,38.59354],[-89.98253,38.59369],[-89.98253,38.59381],[-89.98106,38.59415],[-89.98104,38.5942],[-89.98112,38.59449],[-89.98119,38.59462],[-89.98142,38.59474],[-89.98158,38.59486],[-89.98169,38.595],[-89.98174,38.59514],[-89.98171,38.59532],[-89.98162,38.59549],[-89.98161,38.59565],[-89.98167,38.5958],[-89.98195,38.59608],[-89.98222,38.59681],[-89.98234,38.59709],[-89.98255,38.59768],[-89.98317,38.59755],[-89.98368,38.59722],[-89.98378,38.59708],[-89.98385,38.5969],[-89.98387,38.59675],[-89.98385,38.59658],[-89.98381,38.59642],[-89.98364,38.596],[-89.98424,38.59586],[-89.98485,38.59581]],[[-89.9398,38.59159],[-89.93979,38.59145],[-89.9398,38.59159],[-89.93977,38.5923],[-89.93853,38.59232]]]}},{"type":"Feature","properties":{"stop_id":"10889","stop_code":"10889","stop_name":"AIR MOBILITY @ WHERRY NB","stop_desc":"FAR SIDE AIR MOBILITY @ WHERRY NB","wheelchair_boarding":2,"routes":[{"route_id":"19644","agency_id":"70006","route_short_name":"12","route_long_name":"OFallon-Fairview Heights","route_type":3,"route_color":"#FFFFFF","route_text_color":"#000000"}],"agency_name":"Metro St. Louis"},"geometry":{"type":"Point","coordinates":[-89.87963,38.56204]}},{"type":"Feature","properties":{"stop_id":"10974","stop_code":"10974","stop_name":"EAST US-50 @ EASTGATE WB","stop_desc":"NEAR SIDE EAST US-50 @ EASTGATE WB","wheelchair_boarding":2,"routes":[{"route_id":"19644","agency_id":"70006","route_short_name":"12","route_long_name":"OFallon-Fairview Heights","route_type":3,"route_color":"#FFFFFF","route_text_color":"#000000"}],"agency_name":"Metro St. Louis"},"geometry":{"type":"Point","coordinates":[-89.87711,38.58184]}},{"type":"Feature","properties":{"stop_id":"10975","stop_code":"10975","stop_name":"EAST US-50 @ LAKE POINTE CENTRE WB","stop_desc":"NEAR SIDE EAST US-50 @ LAKE POINTE CENTRE WB","wheelchair_boarding":2,"routes":[{"route_id":"19644","agency_id":"70006","route_short_name":"12","route_long_name":"OFallon-Fairview Heights","route_type":3,"route_color":"#FFFFFF","route_text_color":"#000000"}],"agency_name":"Metro St. Louis"},"geometry":{"type":"Point","coordinates":[-89.88248,38.58096]}},{"type":"Feature","properties":{"stop_id":"10976","stop_code":"10976","stop_name":"EAST US-50 @ COUNTRY OAKS WB","stop_desc":"NEAR SIDE EAST US-50 @ COUNTRY OAKS WB","wheelchair_boarding":2,"routes":[{"route_id":"19644","agency_id":"70006","route_short_name":"12","route_long_name":"OFallon-Fairview Heights","route_type":3,"route_color":"#FFFFFF","route_text_color":"#000000"}],"agency_name":"Metro St. Louis"},"geometry":{"type":"Point","coordinates":[-89.88629,38.58096]}},{"type":"Feature","properties":{"stop_id":"10977","stop_code":"10977","stop_name":"EAST US-50 @ SEVEN HILLS WB","stop_desc":"FAR SIDE EAST US-50 @ SEVEN HILLS WB","wheelchair_boarding":2,"routes":[{"route_id":"19644","agency_id":"70006","route_short_name":"12","route_long_name":"OFallon-Fairview Heights","route_type":3,"route_color":"#FFFFFF","route_text_color":"#000000"}],"agency_name":"Metro St. Louis"},"geometry":{"type":"Point","coordinates":[-89.89355,38.58115]}},{"type":"Feature","properties":{"stop_id":"10978","stop_code":"10978","stop_name":"905 EAST US-50 WB","stop_desc":"MID-BLOCK 905 EAST US-50 WB","wheelchair_boarding":2,"routes":[{"route_id":"19644","agency_id":"70006","route_short_name":"12","route_long_name":"OFallon-Fairview Heights","route_type":3,"route_color":"#FFFFFF","route_text_color":"#000000"}],"agency_name":"Metro St. Louis"},"geometry":{"type":"Point","coordinates":[-89.89631,38.58194]}},{"type":"Feature","properties":{"stop_id":"10981","stop_code":"10981","stop_name":"LINCOLN @ 3RD STREET NB","stop_desc":"NEAR SIDE LINCOLN @ 3RD STREET NB","wheelchair_boarding":2,"routes":[{"route_id":"19644","agency_id":"70006","route_short_name":"12","route_long_name":"OFallon-Fairview Heights","route_type":3,"route_color":"#FFFFFF","route_text_color":"#000000"},{"route_id":"19647","agency_id":"70006","route_short_name":"15","route_long_name":"Belleville-O'Fallon","route_type":3,"route_color":"#FFFFFF","route_text_color":"#000000"}],"agency_name":"Metro St. Louis"},"geometry":{"type":"Point","coordinates":[-89.91087,38.59002]}},{"type":"Feature","properties":{"stop_id":"10982","stop_code":"10982","stop_name":"LINCOLN @ 5TH STREET NB","stop_desc":"NEAR SIDE LINCOLN @ 5TH STREET NB","wheelchair_boarding":2,"routes":[{"route_id":"19644","agency_id":"70006","route_short_name":"12","route_long_name":"OFallon-Fairview Heights","route_type":3,"route_color":"#FFFFFF","route_text_color":"#000000"},{"route_id":"19647","agency_id":"70006","route_short_name":"15","route_long_name":"Belleville-O'Fallon","route_type":3,"route_color":"#FFFFFF","route_text_color":"#000000"}],"agency_name":"Metro St. Louis"},"geometry":{"type":"Point","coordinates":[-89.91098,38.58861]}},{"type":"Feature","properties":{"stop_id":"10984","stop_code":"10984","stop_name":"LINCOLN @ 7TH STREET NB","stop_desc":"NEAR SIDE LINCOLN @ 7TH STREET NB","wheelchair_boarding":2,"routes":[{"route_id":"19644","agency_id":"70006","route_short_name":"12","route_long_name":"OFallon-Fairview Heights","route_type":3,"route_color":"#FFFFFF","route_text_color":"#000000"},{"route_id":"19647","agency_id":"70006","route_short_name":"15","route_long_name":"Belleville-O'Fallon","route_type":3,"route_color":"#FFFFFF","route_text_color":"#000000"}],"agency_name":"Metro St. Louis"},"geometry":{"type":"Point","coordinates":[-89.91104,38.58655]}},{"type":"Feature","properties":{"stop_id":"11650","stop_code":"11650","stop_name":"6530 ILLINOIS NB","stop_desc":"MID-BLOCK 6530 ILLINOIS NB","wheelchair_boarding":1,"routes":[{"route_id":"19644","agency_id":"70006","route_short_name":"12","route_long_name":"OFallon-Fairview Heights","route_type":3,"route_color":"#FFFFFF","route_text_color":"#000000"},{"route_id":"19648","agency_id":"70006","route_short_name":"16","route_long_name":"St. Clair Square","route_type":3,"route_color":"#FFFFFF","route_text_color":"#000000"}],"agency_name":"Metro St. Louis"},"geometry":{"type":"Point","coordinates":[-89.98478,38.59398]}},{"type":"Feature","properties":{"stop_id":"11651","stop_code":"11651","stop_name":"LUDWIG @ HOULIHANS WB","stop_desc":"NEAR SIDE LUDWIG @ HOULIHANS WB","wheelchair_boarding":2,"routes":[{"route_id":"19644","agency_id":"70006","route_short_name":"12","route_long_name":"OFallon-Fairview Heights","route_type":3,"route_color":"#FFFFFF","route_text_color":"#000000"}],"agency_name":"Metro St. Louis"},"geometry":{"type":"Point","coordinates":[-89.98625,38.60203]}},{"type":"Feature","properties":{"stop_id":"11799","stop_code":"11799","stop_name":"LINCOLN TRAIL @ POTOMAC WB","stop_desc":"NEAR SIDE LINCOLN TRAIL @ POTOMAC WB","wheelchair_boarding":2,"routes":[{"route_id":"19644","agency_id":"70006","route_short_name":"12","route_long_name":"OFallon-Fairview Heights","route_type":3,"route_color":"#FFFFFF","route_text_color":"#000000"}],"agency_name":"Metro St. Louis"},"geometry":{"type":"Point","coordinates":[-90.00677,38.5931]}},{"type":"Feature","properties":{"stop_id":"11800","stop_code":"11800","stop_name":"LINCOLN TRAIL @ PLEASANT WB","stop_desc":"NEAR SIDE LINCOLN TRAIL @ PLEASANT WB","wheelchair_boarding":2,"routes":[{"route_id":"19644","agency_id":"70006","route_short_name":"12","route_long_name":"OFallon-Fairview Heights","route_type":3,"route_color":"#FFFFFF","route_text_color":"#000000"}],"agency_name":"Metro St. Louis"},"geometry":{"type":"Point","coordinates":[-90.00895,38.59323]}},{"type":"Feature","properties":{"stop_id":"11801","stop_code":"11801","stop_name":"LINCOLN TRAIL @ SHERYL WB","stop_desc":"FAR SIDE LINCOLN TRAIL @ SHERYL WB","wheelchair_boarding":2,"routes":[{"route_id":"19644","agency_id":"70006","route_short_name":"12","route_long_name":"OFallon-Fairview Heights","route_type":3,"route_color":"#FFFFFF","route_text_color":"#000000"}],"agency_name":"Metro St. Louis"},"geometry":{"type":"Point","coordinates":[-90.01047,38.5935]}},{"type":"Feature","properties":{"stop_id":"11846","stop_code":"11846","stop_name":"ST. CLAIR SQUARE MACYS ENTRANCE","stop_desc":"MID-BLOCK ST. CLAIR SQUARE MACYS ENTRANCE","wheelchair_boarding":2,"routes":[{"route_id":"19644","agency_id":"70006","route_short_name":"12","route_long_name":"OFallon-Fairview Heights","route_type":3,"route_color":"#FFFFFF","route_text_color":"#000000"},{"route_id":"19648","agency_id":"70006","route_short_name":"16","route_long_name":"St. Clair Square","route_type":3,"route_color":"#FFFFFF","route_text_color":"#000000"}],"agency_name":"Metro St. Louis"},"geometry":{"type":"Point","coordinates":[-89.98176,38.59597]}},{"type":"Feature","properties":{"stop_id":"11868","stop_code":"11868","stop_name":"210 HARTMAN NB","stop_desc":"MID-BLOCK 210 HARTMAN NB","wheelchair_boarding":2,"routes":[{"route_id":"19644","agency_id":"70006","route_short_name":"12","route_long_name":"OFallon-Fairview Heights","route_type":3,"route_color":"#FFFFFF","route_text_color":"#000000"}],"agency_name":"Metro St. Louis"},"geometry":{"type":"Point","coordinates":[-89.94752,38.59065]}},{"type":"Feature","properties":{"stop_id":"11898","stop_code":"11898","stop_name":"EAST US-50 @ PARK ENTRANCE PLACE WB","stop_desc":"FAR SIDE EAST US-50 @ PARK ENTRANCE PLACE WB","wheelchair_boarding":2,"routes":[{"route_id":"19644","agency_id":"70006","route_short_name":"12","route_long_name":"OFallon-Fairview Heights","route_type":3,"route_color":"#FFFFFF","route_text_color":"#000000"}],"agency_name":"Metro St. Louis"},"geometry":{"type":"Point","coordinates":[-89.90659,38.58483]}},{"type":"Feature","properties":{"stop_id":"11958","stop_code":"11958","stop_name":"LUDWIG @ JOES CRAB SHACK WB","stop_desc":"FAR SIDE LUDWIG @ JOES CRAB SHACK WB","wheelchair_boarding":2,"routes":[{"route_id":"19644","agency_id":"70006","route_short_name":"12","route_long_name":"OFallon-Fairview Heights","route_type":3,"route_color":"#FFFFFF","route_text_color":"#000000"}],"agency_name":"Metro St. Louis"},"geometry":{"type":"Point","coordinates":[-89.99017,38.60094]}},{"type":"Feature","properties":{"stop_id":"11959","stop_code":"11959","stop_name":"LUDWIG @ FAIRVIEW HEIGHTS PLAZA WB","stop_desc":"FAR SIDE LUDWIG @ FAIRVIEW HEIGHTS PLAZA WB","wheelchair_boarding":2,"routes":[{"route_id":"19644","agency_id":"70006","route_short_name":"12","route_long_name":"OFallon-Fairview Heights","route_type":3,"route_color":"#FFFFFF","route_text_color":"#000000"}],"agency_name":"Metro St. Louis"},"geometry":{"type":"Point","coordinates":[-89.99151,38.60102]}},{"type":"Feature","properties":{"stop_id":"11960","stop_code":"11960","stop_name":"133 LUDWIG WB","stop_desc":"MID-BLOCK 133 LUDWIG WB","wheelchair_boarding":2,"routes":[{"route_id":"19644","agency_id":"70006","route_short_name":"12","route_long_name":"OFallon-Fairview Heights","route_type":3,"route_color":"#FFFFFF","route_text_color":"#000000"}],"agency_name":"Metro St. Louis"},"geometry":{"type":"Point","coordinates":[-89.99277,38.60108]}},{"type":"Feature","properties":{"stop_id":"11961","stop_code":"11961","stop_name":"PLAZA @ BEST BUY EB","stop_desc":"NEAR SIDE PLAZA @ BEST BUY EB","wheelchair_boarding":2,"routes":[{"route_id":"19644","agency_id":"70006","route_short_name":"12","route_long_name":"OFallon-Fairview Heights","route_type":3,"route_color":"#FFFFFF","route_text_color":"#000000"}],"agency_name":"Metro St. Louis"},"geometry":{"type":"Point","coordinates":[-89.99396,38.59945]}},{"type":"Feature","properties":{"stop_id":"11962","stop_code":"11962","stop_name":"COMMERCE @ BURLINGTON COAT SB","stop_desc":"FAR SIDE COMMERCE @ BURLINGTON COAT SB","wheelchair_boarding":2,"routes":[{"route_id":"19644","agency_id":"70006","route_short_name":"12","route_long_name":"OFallon-Fairview Heights","route_type":3,"route_color":"#FFFFFF","route_text_color":"#000000"}],"agency_name":"Metro St. Louis"},"geometry":{"type":"Point","coordinates":[-89.99037,38.59769]}},{"type":"Feature","properties":{"stop_id":"11963","stop_code":"11963","stop_name":"59 COMMERCE SB","stop_desc":"FAR SIDE 59 COMMERCE SB","wheelchair_boarding":2,"routes":[{"route_id":"19644","agency_id":"70006","route_short_name":"12","route_long_name":"OFallon-Fairview Heights","route_type":3,"route_color":"#FFFFFF","route_text_color":"#000000"}],"agency_name":"Metro St. Louis"},"geometry":{"type":"Point","coordinates":[-89.99041,38.59653]}},{"type":"Feature","properties":{"stop_id":"11964","stop_code":"11964","stop_name":"COMMERCE @ MARKET PLACE SB","stop_desc":"FAR SIDE COMMERCE @ MARKET PLACE SB","wheelchair_boarding":2,"routes":[{"route_id":"19644","agency_id":"70006","route_short_name":"12","route_long_name":"OFallon-Fairview Heights","route_type":3,"route_color":"#FFFFFF","route_text_color":"#000000"}],"agency_name":"Metro St. Louis"},"geometry":{"type":"Point","coordinates":[-89.99045,38.59511]}},{"type":"Feature","properties":{"stop_id":"11965","stop_code":"11965","stop_name":"LINCOLN TRAIL @ JEROME WB","stop_desc":"NEAR SIDE LINCOLN TRAIL @ JEROME WB","wheelchair_boarding":1,"routes":[{"route_id":"19644","agency_id":"70006","route_short_name":"12","route_long_name":"OFallon-Fairview Heights","route_type":3,"route_color":"#FFFFFF","route_text_color":"#000000"}],"agency_name":"Metro St. Louis"},"geometry":{"type":"Point","coordinates":[-89.99207,38.59293]}},{"type":"Feature","properties":{"stop_id":"11966","stop_code":"11966","stop_name":"LINCOLN TRAIL @ RUBY WB","stop_desc":"FAR SIDE LINCOLN TRAIL @ RUBY WB","wheelchair_boarding":2,"routes":[{"route_id":"19644","agency_id":"70006","route_short_name":"12","route_long_name":"OFallon-Fairview Heights","route_type":3,"route_color":"#FFFFFF","route_text_color":"#000000"}],"agency_name":"Metro St. Louis"},"geometry":{"type":"Point","coordinates":[-89.99472,38.593]}},{"type":"Feature","properties":{"stop_id":"11967","stop_code":"11967","stop_name":"LINCOLN TRAIL @ BLUFF COURT WB","stop_desc":"FAR SIDE LINCOLN TRAIL @ BLUFF COURT WB","wheelchair_boarding":2,"routes":[{"route_id":"19644","agency_id":"70006","route_short_name":"12","route_long_name":"OFallon-Fairview Heights","route_type":3,"route_color":"#FFFFFF","route_text_color":"#000000"}],"agency_name":"Metro St. Louis"},"geometry":{"type":"Point","coordinates":[-89.99637,38.59301]}},{"type":"Feature","properties":{"stop_id":"11968","stop_code":"11968","stop_name":"LINCOLN TRAIL @ PASADENA WB","stop_desc":"FAR SIDE LINCOLN TRAIL @ PASADENA WB","wheelchair_boarding":2,"routes":[{"route_id":"19644","agency_id":"70006","route_short_name":"12","route_long_name":"OFallon-Fairview Heights","route_type":3,"route_color":"#FFFFFF","route_text_color":"#000000"}],"agency_name":"Metro St. Louis"},"geometry":{"type":"Point","coordinates":[-89.99936,38.59304]}},{"type":"Feature","properties":{"stop_id":"11969","stop_code":"11969","stop_name":"LINCOLN TRAIL @ ROSELAWN WB","stop_desc":"NEAR SIDE LINCOLN TRAIL @ ROSELAWN WB","wheelchair_boarding":2,"routes":[{"route_id":"19644","agency_id":"70006","route_short_name":"12","route_long_name":"OFallon-Fairview Heights","route_type":3,"route_color":"#FFFFFF","route_text_color":"#000000"}],"agency_name":"Metro St. Louis"},"geometry":{"type":"Point","coordinates":[-90.00168,38.59303]}},{"type":"Feature","properties":{"stop_id":"11970","stop_code":"11970","stop_name":"LINCOLN TRAIL @ MARK WB","stop_desc":"FAR SIDE LINCOLN TRAIL @ MARK WB","wheelchair_boarding":2,"routes":[{"route_id":"19644","agency_id":"70006","route_short_name":"12","route_long_name":"OFallon-Fairview Heights","route_type":3,"route_color":"#FFFFFF","route_text_color":"#000000"}],"agency_name":"Metro St. Louis"},"geometry":{"type":"Point","coordinates":[-90.00371,38.59305]}},{"type":"Feature","properties":{"stop_id":"11971","stop_code":"11971","stop_name":"10251 LINCOLN TRAIL WB","stop_desc":"MID-BLOCK 10251 LINCOLN TRAIL WB","wheelchair_boarding":2,"routes":[{"route_id":"19644","agency_id":"70006","route_short_name":"12","route_long_name":"OFallon-Fairview Heights","route_type":3,"route_color":"#FFFFFF","route_text_color":"#000000"}],"agency_name":"Metro St. Louis"},"geometry":{"type":"Point","coordinates":[-90.0051,38.59305]}},{"type":"Feature","properties":{"stop_id":"11974","stop_code":"11974","stop_name":"ST. CLAIR @ BUNKUM WB","stop_desc":"FAR SIDE ST. CLAIR @ BUNKUM WB","wheelchair_boarding":1,"routes":[{"route_id":"19644","agency_id":"70006","route_short_name":"12","route_long_name":"OFallon-Fairview Heights","route_type":3,"route_color":"#FFFFFF","route_text_color":"#000000"}],"agency_name":"Metro St. Louis"},"geometry":{"type":"Point","coordinates":[-90.01344,38.59395]}},{"type":"Feature","properties":{"stop_id":"11975","stop_code":"11975","stop_name":"ST. CLAIR @ ST. CLAIR WB","stop_desc":"NEAR SIDE ST. CLAIR @ ST. CLAIR WB","wheelchair_boarding":2,"routes":[{"route_id":"19644","agency_id":"70006","route_short_name":"12","route_long_name":"OFallon-Fairview Heights","route_type":3,"route_color":"#FFFFFF","route_text_color":"#000000"}],"agency_name":"Metro St. Louis"},"geometry":{"type":"Point","coordinates":[-90.01581,38.59408]}},{"type":"Feature","properties":{"stop_id":"11976","stop_code":"11976","stop_name":"ST. CLAIR @ WEINEL WB","stop_desc":"NEAR SIDE ST. CLAIR @ WEINEL WB","wheelchair_boarding":2,"routes":[{"route_id":"19644","agency_id":"70006","route_short_name":"12","route_long_name":"OFallon-Fairview Heights","route_type":3,"route_color":"#FFFFFF","route_text_color":"#000000"}],"agency_name":"Metro St. Louis"},"geometry":{"type":"Point","coordinates":[-90.0178,38.5942]}},{"type":"Feature","properties":{"stop_id":"11977","stop_code":"11977","stop_name":"ST. CLAIR @ FAIRVIEW WB","stop_desc":"NEAR SIDE ST. CLAIR @ FAIRVIEW WB","wheelchair_boarding":2,"routes":[{"route_id":"19644","agency_id":"70006","route_short_name":"12","route_long_name":"OFallon-Fairview Heights","route_type":3,"route_color":"#FFFFFF","route_text_color":"#000000"}],"agency_name":"Metro St. Louis"},"geometry":{"type":"Point","coordinates":[-90.02058,38.59437]}},{"type":"Feature","properties":{"stop_id":"11978","stop_code":"11978","stop_name":"ST. CLAIR @ ESTATES VIEW WB","stop_desc":"FAR SIDE ST. CLAIR @ ESTATES VIEW WB","wheelchair_boarding":2,"routes":[{"route_id":"19644","agency_id":"70006","route_short_name":"12","route_long_name":"OFallon-Fairview Heights","route_type":3,"route_color":"#FFFFFF","route_text_color":"#000000"}],"agency_name":"Metro St. Louis"},"geometry":{"type":"Point","coordinates":[-90.02699,38.59473]}},{"type":"Feature","properties":{"stop_id":"11979","stop_code":"11979","stop_name":"ST. CLAIR @ WILSHIRE WB","stop_desc":"FAR SIDE ST. CLAIR @ WILSHIRE WB","wheelchair_boarding":2,"routes":[{"route_id":"19644","agency_id":"70006","route_short_name":"12","route_long_name":"OFallon-Fairview Heights","route_type":3,"route_color":"#FFFFFF","route_text_color":"#000000"}],"agency_name":"Metro St. Louis"},"geometry":{"type":"Point","coordinates":[-90.03233,38.59503]}},{"type":"Feature","properties":{"stop_id":"11980","stop_code":"11980","stop_name":"ST. CLAIR @ HOLY CROSS WB","stop_desc":"FAR SIDE ST. CLAIR @ HOLY CROSS WB","wheelchair_boarding":2,"routes":[{"route_id":"19644","agency_id":"70006","route_short_name":"12","route_long_name":"OFallon-Fairview Heights","route_type":3,"route_color":"#FFFFFF","route_text_color":"#000000"}],"agency_name":"Metro St. Louis"},"geometry":{"type":"Point","coordinates":[-90.04248,38.5956]}},{"type":"Feature","properties":{"stop_id":"12054","stop_code":"12054","stop_name":"STATE @ CHERRY WB","stop_desc":"FAR SIDE STATE @ CHERRY WB","wheelchair_boarding":2,"routes":[{"route_id":"19644","agency_id":"70006","route_short_name":"12","route_long_name":"OFallon-Fairview Heights","route_type":3,"route_color":"#FFFFFF","route_text_color":"#000000"}],"agency_name":"Metro St. Louis"},"geometry":{"type":"Point","coordinates":[-89.91261,38.59234]}},{"type":"Feature","properties":{"stop_id":"12056","stop_code":"12056","stop_name":"STATE @ CHARLES WB","stop_desc":"FAR SIDE STATE @ CHARLES WB","wheelchair_boarding":2,"routes":[{"route_id":"19644","agency_id":"70006","route_short_name":"12","route_long_name":"OFallon-Fairview Heights","route_type":3,"route_color":"#FFFFFF","route_text_color":"#000000"}],"agency_name":"Metro St. Louis"},"geometry":{"type":"Point","coordinates":[-89.91676,38.59251]}},{"type":"Feature","properties":{"stop_id":"12057","stop_code":"12057","stop_name":"STATE @ SPRUCE WB","stop_desc":"NEAR SIDE STATE @ SPRUCE WB","wheelchair_boarding":2,"routes":[{"route_id":"19644","agency_id":"70006","route_short_name":"12","route_long_name":"OFallon-Fairview Heights","route_type":3,"route_color":"#FFFFFF","route_text_color":"#000000"}],"agency_name":"Metro St. Louis"},"geometry":{"type":"Point","coordinates":[-89.91838,38.59259]}},{"type":"Feature","properties":{"stop_id":"12058","stop_code":"12058","stop_name":"STATE @ WILLOW WB","stop_desc":"NEAR SIDE STATE @ WILLOW WB","wheelchair_boarding":2,"routes":[{"route_id":"19644","agency_id":"70006","route_short_name":"12","route_long_name":"OFallon-Fairview Heights","route_type":3,"route_color":"#FFFFFF","route_text_color":"#000000"}],"agency_name":"Metro St. Louis"},"geometry":{"type":"Point","coordinates":[-89.91996,38.59258]}},{"type":"Feature","properties":{"stop_id":"12059","stop_code":"12059","stop_name":"STATE @ LAWN WB","stop_desc":"FAR SIDE STATE @ LAWN WB","wheelchair_boarding":2,"routes":[{"route_id":"19644","agency_id":"70006","route_short_name":"12","route_long_name":"OFallon-Fairview Heights","route_type":3,"route_color":"#FFFFFF","route_text_color":"#000000"}],"agency_name":"Metro St. Louis"},"geometry":{"type":"Point","coordinates":[-89.92219,38.59233]}},{"type":"Feature","properties":{"stop_id":"12060","stop_code":"12060","stop_name":"STATE @ COUNTRYSIDE WB","stop_desc":"NEAR SIDE STATE @ COUNTRYSIDE WB","wheelchair_boarding":2,"routes":[{"route_id":"19644","agency_id":"70006","route_short_name":"12","route_long_name":"OFallon-Fairview Heights","route_type":3,"route_color":"#FFFFFF","route_text_color":"#000000"}],"agency_name":"Metro St. Louis"},"geometry":{"type":"Point","coordinates":[-89.92565,38.59244]}},{"type":"Feature","properties":{"stop_id":"12061","stop_code":"12061","stop_name":"STATE @ OBERNUEFEMANN WB","stop_desc":"NEAR SIDE STATE @ OBERNUEFEMANN WB","wheelchair_boarding":2,"routes":[{"route_id":"19644","agency_id":"70006","route_short_name":"12","route_long_name":"OFallon-Fairview Heights","route_type":3,"route_color":"#FFFFFF","route_text_color":"#000000"}],"agency_name":"Metro St. Louis"},"geometry":{"type":"Point","coordinates":[-89.92859,38.59234]}},{"type":"Feature","properties":{"stop_id":"12065","stop_code":"12065","stop_name":"WEST US-50 @ LONG WB","stop_desc":"FAR SIDE WEST US-50 @ LONG WB","wheelchair_boarding":2,"routes":[{"route_id":"19644","agency_id":"70006","route_short_name":"12","route_long_name":"OFallon-Fairview Heights","route_type":3,"route_color":"#FFFFFF","route_text_color":"#000000"}],"agency_name":"Metro St. Louis"},"geometry":{"type":"Point","coordinates":[-89.95122,38.59267]}},{"type":"Feature","properties":{"stop_id":"12066","stop_code":"12066","stop_name":"WEST US-50 @ DEAN WB","stop_desc":"FAR SIDE WEST US-50 @ DEAN WB","wheelchair_boarding":1,"routes":[{"route_id":"19644","agency_id":"70006","route_short_name":"12","route_long_name":"OFallon-Fairview Heights","route_type":3,"route_color":"#FFFFFF","route_text_color":"#000000"}],"agency_name":"Metro St. Louis"},"geometry":{"type":"Point","coordinates":[-89.95478,38.5927]}},{"type":"Feature","properties":{"stop_id":"12067","stop_code":"12067","stop_name":"WEST US-50 @ ST. ELLEN WB","stop_desc":"FAR SIDE WEST US-50 @ ST. ELLEN WB","wheelchair_boarding":2,"routes":[{"route_id":"19644","agency_id":"70006","route_short_name":"12","route_long_name":"OFallon-Fairview Heights","route_type":3,"route_color":"#FFFFFF","route_text_color":"#000000"}],"agency_name":"Metro St. Louis"},"geometry":{"type":"Point","coordinates":[-89.9562,38.59271]}},{"type":"Feature","properties":{"stop_id":"12068","stop_code":"12068","stop_name":"WEST US-50 @ AUTO COURT WB","stop_desc":"NEAR SIDE WEST US-50 @ AUTO COURT WB","wheelchair_boarding":2,"routes":[{"route_id":"19644","agency_id":"70006","route_short_name":"12","route_long_name":"OFallon-Fairview Heights","route_type":3,"route_color":"#FFFFFF","route_text_color":"#000000"}],"agency_name":"Metro St. Louis"},"geometry":{"type":"Point","coordinates":[-89.95853,38.59271]}},{"type":"Feature","properties":{"stop_id":"12069","stop_code":"12069","stop_name":"WEST US-50 @ MARI WB","stop_desc":"NEAR SIDE WEST US-50 @ MARI WB","wheelchair_boarding":2,"routes":[{"route_id":"19644","agency_id":"70006","route_short_name":"12","route_long_name":"OFallon-Fairview Heights","route_type":3,"route_color":"#FFFFFF","route_text_color":"#000000"}],"agency_name":"Metro St. Louis"},"geometry":{"type":"Point","coordinates":[-89.96098,38.59274]}},{"type":"Feature","properties":{"stop_id":"12070","stop_code":"12070","stop_name":"WEST US-50 @ BROOKSIDE WB","stop_desc":"NEAR SIDE WEST US-50 @ BROOKSIDE WB","wheelchair_boarding":2,"routes":[{"route_id":"19644","agency_id":"70006","route_short_name":"12","route_long_name":"OFallon-Fairview Heights","route_type":3,"route_color":"#FFFFFF","route_text_color":"#000000"}],"agency_name":"Metro St. Louis"},"geometry":{"type":"Point","coordinates":[-89.96279,38.59274]}},{"type":"Feature","properties":{"stop_id":"12071","stop_code":"12071","stop_name":"WEST US-50 @ HOMESTEAD WB","stop_desc":"NEAR SIDE WEST US-50 @ HOMESTEAD WB","wheelchair_boarding":2,"routes":[{"route_id":"19644","agency_id":"70006","route_short_name":"12","route_long_name":"OFallon-Fairview Heights","route_type":3,"route_color":"#FFFFFF","route_text_color":"#000000"}],"agency_name":"Metro St. Louis"},"geometry":{"type":"Point","coordinates":[-89.96438,38.59276]}},{"type":"Feature","properties":{"stop_id":"12072","stop_code":"12072","stop_name":"WEST US-50 @ OLD COLLINSVILLE WB","stop_desc":"NEAR SIDE WEST US-50 @ OLD COLLINSVILLE WB","wheelchair_boarding":2,"routes":[{"route_id":"19644","agency_id":"70006","route_short_name":"12","route_long_name":"OFallon-Fairview Heights","route_type":3,"route_color":"#FFFFFF","route_text_color":"#000000"}],"agency_name":"Metro St. Louis"},"geometry":{"type":"Point","coordinates":[-89.96586,38.59278]}},{"type":"Feature","properties":{"stop_id":"12074","stop_code":"12074","stop_name":"LINCOLN HIGHWAY @ CROSSROAD WB","stop_desc":"NEAR SIDE LINCOLN HIGHWAY @ CROSSROAD WB","wheelchair_boarding":2,"routes":[{"route_id":"19644","agency_id":"70006","route_short_name":"12","route_long_name":"OFallon-Fairview Heights","route_type":3,"route_color":"#FFFFFF","route_text_color":"#000000"}],"agency_name":"Metro St. Louis"},"geometry":{"type":"Point","coordinates":[-89.96867,38.59275]}},{"type":"Feature","properties":{"stop_id":"12075","stop_code":"12075","stop_name":"LINCOLN HIGHWAY @ HAMPTON WB","stop_desc":"NEAR SIDE LINCOLN HIGHWAY @ HAMPTON WB","wheelchair_boarding":2,"routes":[{"route_id":"19644","agency_id":"70006","route_short_name":"12","route_long_name":"OFallon-Fairview Heights","route_type":3,"route_color":"#FFFFFF","route_text_color":"#000000"}],"agency_name":"Metro St. Louis"},"geometry":{"type":"Point","coordinates":[-89.96976,38.59275]}},{"type":"Feature","properties":{"stop_id":"12076","stop_code":"12076","stop_name":"LINCOLN HIGHWAY @ 819 WEST US-50 WB","stop_desc":"MID-BLOCK LINCOLN HIGHWAY @ 819 WEST US-50 WB","wheelchair_boarding":2,"routes":[{"route_id":"19644","agency_id":"70006","route_short_name":"12","route_long_name":"OFallon-Fairview Heights","route_type":3,"route_color":"#FFFFFF","route_text_color":"#000000"}],"agency_name":"Metro St. Louis"},"geometry":{"type":"Point","coordinates":[-89.97226,38.59275]}},{"type":"Feature","properties":{"stop_id":"12077","stop_code":"12077","stop_name":"LINCOLN HIGHWAY @ LEXINGTON WB","stop_desc":"NEAR SIDE LINCOLN HIGHWAY @ LEXINGTON WB","wheelchair_boarding":2,"routes":[{"route_id":"19644","agency_id":"70006","route_short_name":"12","route_long_name":"OFallon-Fairview Heights","route_type":3,"route_color":"#FFFFFF","route_text_color":"#000000"}],"agency_name":"Metro St. Louis"},"geometry":{"type":"Point","coordinates":[-89.97386,38.59275]}},{"type":"Feature","properties":{"stop_id":"12078","stop_code":"12078","stop_name":"LINCOLN HIGHWAY @ MOUNT VERNON WB","stop_desc":"NEAR SIDE LINCOLN HIGHWAY @ MOUNT VERNON WB","wheelchair_boarding":2,"routes":[{"route_id":"19644","agency_id":"70006","route_short_name":"12","route_long_name":"OFallon-Fairview Heights","route_type":3,"route_color":"#FFFFFF","route_text_color":"#000000"}],"agency_name":"Metro St. Louis"},"geometry":{"type":"Point","coordinates":[-89.97519,38.59275]}},{"type":"Feature","properties":{"stop_id":"14124","stop_code":"14124","stop_name":"FAIRVIEW HEIGHTS TRANSIT CENTER","wheelchair_boarding":1,"routes":[{"route_id":"19636","agency_id":"70006","route_short_name":"1","route_long_name":"Main Street - State Street","route_type":3,"route_color":"#FFFFFF","route_text_color":"#000000"},{"route_id":"19641","agency_id":"70006","route_short_name":"6","route_long_name":"Rosemont","route_type":3,"route_color":"#FFFFFF","route_text_color":"#000000"},{"route_id":"19644","agency_id":"70006","route_short_name":"12","route_long_name":"OFallon-Fairview Heights","route_type":3,"route_color":"#FFFFFF","route_text_color":"#000000"},{"route_id":"19645","agency_id":"70006","route_short_name":"13","route_long_name":"Caseyville","route_type":3,"route_color":"#FFFFFF","route_text_color":"#000000"}],"agency_name":"Metro St. Louis"},"geometry":{"type":"Point","coordinates":[-90.04828,38.5947]}},{"type":"Feature","properties":{"stop_id":"14224","stop_code":"14224","stop_name":"STATE @ OAK WB","stop_desc":"FAR SIDE STATE @ OAK WB","wheelchair_boarding":2,"routes":[{"route_id":"19644","agency_id":"70006","route_short_name":"12","route_long_name":"OFallon-Fairview Heights","route_type":3,"route_color":"#FFFFFF","route_text_color":"#000000"}],"agency_name":"Metro St. Louis"},"geometry":{"type":"Point","coordinates":[-89.9144,38.5924]}},{"type":"Feature","properties":{"stop_id":"14235","stop_code":"14235","stop_name":"EAST US-50 @ HILGARD WB","stop_desc":"NEAR SIDE EAST US-50 @ HILGARD WB","wheelchair_boarding":2,"routes":[{"route_id":"19644","agency_id":"70006","route_short_name":"12","route_long_name":"OFallon-Fairview Heights","route_type":3,"route_color":"#FFFFFF","route_text_color":"#000000"}],"agency_name":"Metro St. Louis"},"geometry":{"type":"Point","coordinates":[-89.90433,38.58465]}},{"type":"Feature","properties":{"stop_id":"14236","stop_code":"14236","stop_name":"EAST US-50 @ PARKVIEW WB","stop_desc":"NEAR SIDE EAST US-50 @ PARKVIEW WB","wheelchair_boarding":2,"routes":[{"route_id":"19644","agency_id":"70006","route_short_name":"12","route_long_name":"OFallon-Fairview Heights","route_type":3,"route_color":"#FFFFFF","route_text_color":"#000000"}],"agency_name":"Metro St. Louis"},"geometry":{"type":"Point","coordinates":[-89.90855,38.5849]}},{"type":"Feature","properties":{"stop_id":"14237","stop_code":"14237","stop_name":"LINCOLN @ EAST US-50 NB","stop_desc":"FAR SIDE LINCOLN @ EAST US-50 NB","wheelchair_boarding":2,"routes":[{"route_id":"19644","agency_id":"70006","route_short_name":"12","route_long_name":"OFallon-Fairview Heights","route_type":3,"route_color":"#FFFFFF","route_text_color":"#000000"},{"route_id":"19647","agency_id":"70006","route_short_name":"15","route_long_name":"Belleville-O'Fallon","route_type":3,"route_color":"#FFFFFF","route_text_color":"#000000"}],"agency_name":"Metro St. Louis"},"geometry":{"type":"Point","coordinates":[-89.91104,38.58581]}},{"type":"Feature","properties":{"stop_id":"14241","stop_code":"14241","stop_name":"WEST US-50 @ EAGLE CENTER WB","stop_desc":"NEAR SIDE WEST US-50 @ EAGLE CENTER WB","wheelchair_boarding":2,"routes":[{"route_id":"19644","agency_id":"70006","route_short_name":"12","route_long_name":"OFallon-Fairview Heights","route_type":3,"route_color":"#FFFFFF","route_text_color":"#000000"}],"agency_name":"Metro St. Louis"},"geometry":{"type":"Point","coordinates":[-89.93061,38.59026]}},{"type":"Feature","properties":{"stop_id":"14243","stop_code":"14243","stop_name":"CENTRAL PARK @ OFALLON 15 CINE WB","stop_desc":"MID-BLOCK CENTRAL PARK @ OFALLON 15 CINE WB","wheelchair_boarding":2,"routes":[{"route_id":"19644","agency_id":"70006","route_short_name":"12","route_long_name":"OFallon-Fairview Heights","route_type":3,"route_color":"#FFFFFF","route_text_color":"#000000"}],"agency_name":"Metro St. Louis"},"geometry":{"type":"Point","coordinates":[-89.94615,38.5896]}},{"type":"Feature","properties":{"stop_id":"14244","stop_code":"14244","stop_name":"CENTRAL PARK @ LONE STAR STEAK HOUSE NB","stop_desc":"MID-BLOCK CENTRAL PARK @ LONE STAR STEAK HOUSE NB","wheelchair_boarding":2,"routes":[{"route_id":"19644","agency_id":"70006","route_short_name":"12","route_long_name":"OFallon-Fairview Heights","route_type":3,"route_color":"#FFFFFF","route_text_color":"#000000"}],"agency_name":"Metro St. Louis"},"geometry":{"type":"Point","coordinates":[-89.94357,38.58876]}},{"type":"Feature","properties":{"stop_id":"14247","stop_code":"14247","stop_name":"LUDWIG @ OLIVE GARDEN ENTRANCE WB","stop_desc":"NEAR SIDE LUDWIG @ OLIVE GARDEN ENTRANCE WB","wheelchair_boarding":2,"routes":[{"route_id":"19644","agency_id":"70006","route_short_name":"12","route_long_name":"OFallon-Fairview Heights","route_type":3,"route_color":"#FFFFFF","route_text_color":"#000000"}],"agency_name":"Metro St. Louis"},"geometry":{"type":"Point","coordinates":[-89.98759,38.60132]}},{"type":"Feature","properties":{"stop_id":"14248","stop_code":"14248","stop_name":"143 LUDWIG WB","stop_desc":"MID-BLOCK 143 LUDWIG WB","wheelchair_boarding":2,"routes":[{"route_id":"19644","agency_id":"70006","route_short_name":"12","route_long_name":"OFallon-Fairview Heights","route_type":3,"route_color":"#FFFFFF","route_text_color":"#000000"}],"agency_name":"Metro St. Louis"},"geometry":{"type":"Point","coordinates":[-89.99408,38.60117]}},{"type":"Feature","properties":{"stop_id":"14250","stop_code":"14250","stop_name":"ST. CLAIR @ CLIFFORD TERRACE WB","stop_desc":"NEAR SIDE ST. CLAIR @ CLIFFORD TERRACE WB","wheelchair_boarding":2,"routes":[{"route_id":"19644","agency_id":"70006","route_short_name":"12","route_long_name":"OFallon-Fairview Heights","route_type":3,"route_color":"#FFFFFF","route_text_color":"#000000"}],"agency_name":"Metro St. Louis"},"geometry":{"type":"Point","coordinates":[-90.03384,38.5951]}},{"type":"Feature","properties":{"stop_id":"14263","stop_code":"14263","stop_name":"LINCOLN @ 2ND STREET NB","stop_desc":"NEAR SIDE LINCOLN @ 2ND STREET NB","wheelchair_boarding":2,"routes":[{"route_id":"19644","agency_id":"70006","route_short_name":"12","route_long_name":"OFallon-Fairview Heights","route_type":3,"route_color":"#FFFFFF","route_text_color":"#000000"},{"route_id":"19647","agency_id":"70006","route_short_name":"15","route_long_name":"Belleville-O'Fallon","route_type":3,"route_color":"#FFFFFF","route_text_color":"#000000"}],"agency_name":"Metro St. Louis"},"geometry":{"type":"Point","coordinates":[-89.91076,38.59096]}},{"type":"Feature","properties":{"stop_id":"14272","stop_code":"14272","stop_name":"SHILOH-SCOTT TRANSIT CENTER","wheelchair_boarding":1,"routes":[{"route_id":"19644","agency_id":"70006","route_short_name":"12","route_long_name":"OFallon-Fairview Heights","route_type":3,"route_color":"#FFFFFF","route_text_color":"#000000"}],"agency_name":"Metro St. Louis"},"geometry":{"type":"Point","coordinates":[-89.87964,38.53947]}},{"type":"Feature","properties":{"stop_id":"14283","stop_code":"14283","stop_name":"GREEN MOUNT @ CENTRAL PARK SB","stop_desc":"NEAR SIDE GREEN MOUNT @ CENTRAL PARK SB","wheelchair_boarding":2,"routes":[{"route_id":"19644","agency_id":"70006","route_short_name":"12","route_long_name":"OFallon-Fairview Heights","route_type":3,"route_color":"#FFFFFF","route_text_color":"#000000"}],"agency_name":"Metro St. Louis"},"geometry":{"type":"Point","coordinates":[-89.9292,38.57321]}},{"type":"Feature","properties":{"stop_id":"14327","stop_code":"14327","stop_name":"REGENCY PARK @ SCHANTZ WB","stop_desc":"NEAR SIDE REGENCY PARK @ SCHANTZ WB","wheelchair_boarding":2,"routes":[{"route_id":"19644","agency_id":"70006","route_short_name":"12","route_long_name":"OFallon-Fairview Heights","route_type":3,"route_color":"#FFFFFF","route_text_color":"#000000"}],"agency_name":"Metro St. Louis"},"geometry":{"type":"Point","coordinates":[-89.93937,38.59126]}},{"type":"Feature","properties":{"stop_id":"14605","stop_code":"14605","stop_name":"ST. CLAIR SQUARE @ SCHNUCKS - PLAZA ST. CLAIR NB","stop_desc":"NEAR SIDE ST. CLAIR SQUARE @ SCHNUCKS - PLAZA ST. CLAIR NB","wheelchair_boarding":2,"routes":[{"route_id":"19644","agency_id":"70006","route_short_name":"12","route_long_name":"OFallon-Fairview Heights","route_type":3,"route_color":"#FFFFFF","route_text_color":"#000000"}],"agency_name":"Metro St. Louis"},"geometry":{"type":"Point","coordinates":[-89.9767,38.59367]}},{"type":"Feature","properties":{"stop_id":"15286","stop_code":"15286","stop_name":"METRO PLAZA @ SECTION LINE WB","stop_desc":"FAR SIDE METRO PLAZA @ SECTION LINE WB","wheelchair_boarding":2,"routes":[{"route_id":"19644","agency_id":"70006","route_short_name":"12","route_long_name":"OFallon-Fairview Heights","route_type":3,"route_color":"#FFFFFF","route_text_color":"#000000"}],"agency_name":"Metro St. Louis"},"geometry":{"type":"Point","coordinates":[-89.88256,38.54035]}},{"type":"Feature","properties":{"stop_id":"15287","stop_code":"15287","stop_name":"AIR MOBILITY @ SEIBERT NB","stop_desc":"NEAR SIDE AIR MOBILITY @ SEIBERT NB","wheelchair_boarding":2,"routes":[{"route_id":"19644","agency_id":"70006","route_short_name":"12","route_long_name":"OFallon-Fairview Heights","route_type":3,"route_color":"#FFFFFF","route_text_color":"#000000"}],"agency_name":"Metro St. Louis"},"geometry":{"type":"Point","coordinates":[-89.8834,38.54924]}},{"type":"Feature","properties":{"stop_id":"15288","stop_code":"15288","stop_name":"EAST US-50 @ AIR MOBILITY WB","stop_desc":"FAR SIDE EAST US-50 @ AIR MOBILITY WB","wheelchair_boarding":2,"routes":[{"route_id":"19644","agency_id":"70006","route_short_name":"12","route_long_name":"OFallon-Fairview Heights","route_type":3,"route_color":"#FFFFFF","route_text_color":"#000000"}],"agency_name":"Metro St. Louis"},"geometry":{"type":"Point","coordinates":[-89.8752,38.58281]}},{"type":"Feature","properties":{"stop_id":"15289","stop_code":"15289","stop_name":"EAST US-50 @ SCHWARTZ  WB","stop_desc":"NEAR SIDE EAST US-50 @ SCHWARTZ  WB","wheelchair_boarding":2,"routes":[{"route_id":"19644","agency_id":"70006","route_short_name":"12","route_long_name":"OFallon-Fairview Heights","route_type":3,"route_color":"#FFFFFF","route_text_color":"#000000"}],"agency_name":"Metro St. Louis"},"geometry":{"type":"Point","coordinates":[-89.87917,38.58111]}},{"type":"Feature","properties":{"stop_id":"15293","stop_code":"15293","stop_name":"STATE @ DOUGLAS WB","stop_desc":"NEAR SIDE STATE @ DOUGLAS WB","wheelchair_boarding":2,"routes":[{"route_id":"19644","agency_id":"70006","route_short_name":"12","route_long_name":"OFallon-Fairview Heights","route_type":3,"route_color":"#FFFFFF","route_text_color":"#000000"}],"agency_name":"Metro St. Louis"},"geometry":{"type":"Point","coordinates":[-89.92125,38.59231]}},{"type":"Feature","properties":{"stop_id":"15297","stop_code":"15297","stop_name":"CENTRAL PARK @ MENARDS NB","stop_desc":"MID-BLOCK CENTRAL PARK @ MENARDS NB","wheelchair_boarding":2,"routes":[{"route_id":"19644","agency_id":"70006","route_short_name":"12","route_long_name":"OFallon-Fairview Heights","route_type":3,"route_color":"#FFFFFF","route_text_color":"#000000"}],"agency_name":"Metro St. Louis"},"geometry":{"type":"Point","coordinates":[-89.93353,38.57585]}},{"type":"Feature","properties":{"stop_id":"15298","stop_code":"15298","stop_name":"1246 CENTRAL PARK NB","stop_desc":"MID-BLOCK 1246 CENTRAL PARK NB","wheelchair_boarding":2,"routes":[{"route_id":"19644","agency_id":"70006","route_short_name":"12","route_long_name":"OFallon-Fairview Heights","route_type":3,"route_color":"#FFFFFF","route_text_color":"#000000"}],"agency_name":"Metro St. Louis"},"geometry":{"type":"Point","coordinates":[-89.93702,38.5799]}},{"type":"Feature","properties":{"stop_id":"15299","stop_code":"15299","stop_name":"CENTRAL PARK @ NEWBOLD TOYOTA NB","stop_desc":"MID-BLOCK CENTRAL PARK @ NEWBOLD TOYOTA NB","wheelchair_boarding":2,"routes":[{"route_id":"19644","agency_id":"70006","route_short_name":"12","route_long_name":"OFallon-Fairview Heights","route_type":3,"route_color":"#FFFFFF","route_text_color":"#000000"}],"agency_name":"Metro St. Louis"},"geometry":{"type":"Point","coordinates":[-89.94006,38.58495]}},{"type":"Feature","properties":{"stop_id":"15300","stop_code":"15300","stop_name":"CENTRAL PARK @ GARDEN RIDGE NB","stop_desc":"MID-BLOCK CENTRAL PARK @ GARDEN RIDGE NB","wheelchair_boarding":2,"routes":[{"route_id":"19644","agency_id":"70006","route_short_name":"12","route_long_name":"OFallon-Fairview Heights","route_type":3,"route_color":"#FFFFFF","route_text_color":"#000000"}],"agency_name":"Metro St. Louis"},"geometry":{"type":"Point","coordinates":[-89.94117,38.58641]}},{"type":"Feature","properties":{"stop_id":"15301","stop_code":"15301","stop_name":"CENTRAL PARK @ PARK PLAZA NB","stop_desc":"FAR SIDE CENTRAL PARK @ PARK PLAZA NB","wheelchair_boarding":2,"routes":[{"route_id":"19644","agency_id":"70006","route_short_name":"12","route_long_name":"OFallon-Fairview Heights","route_type":3,"route_color":"#FFFFFF","route_text_color":"#000000"}],"agency_name":"Metro St. Louis"},"geometry":{"type":"Point","coordinates":[-89.94276,38.58766]}},{"type":"Feature","properties":{"stop_id":"15302","stop_code":"15302","stop_name":"CENTRAL PARK @ HARTMAN WB","stop_desc":"NEAR SIDE CENTRAL PARK @ HARTMAN WB","wheelchair_boarding":2,"routes":[{"route_id":"19644","agency_id":"70006","route_short_name":"12","route_long_name":"OFallon-Fairview Heights","route_type":3,"route_color":"#FFFFFF","route_text_color":"#000000"}],"agency_name":"Metro St. Louis"},"geometry":{"type":"Point","coordinates":[-89.94722,38.58963]}},{"type":"Feature","properties":{"stop_id":"15816","stop_code":"15816","stop_name":"SCHWAEGEL @ CENTER GROVE SB","stop_desc":"NEAR SIDE SCHWAEGEL @ CENTER GROVE SB","wheelchair_boarding":2,"routes":[{"route_id":"19644","agency_id":"70006","route_short_name":"12","route_long_name":"OFallon-Fairview Heights","route_type":3,"route_color":"#FFFFFF","route_text_color":"#000000"}],"agency_name":"Metro St. Louis"},"geometry":{"type":"Point","coordinates":[-89.92905,38.59113]}},{"type":"Feature","properties":{"stop_id":"15817","stop_code":"15817","stop_name":"REGENCY @ BAYMONT SB","stop_desc":"NEAR SIDE REGENCY @ BAYMONT SB","wheelchair_boarding":2,"routes":[{"route_id":"19644","agency_id":"70006","route_short_name":"12","route_long_name":"OFallon-Fairview Heights","route_type":3,"route_color":"#FFFFFF","route_text_color":"#000000"}],"agency_name":"Metro St. Louis"},"geometry":{"type":"Point","coordinates":[-89.94009,38.58881]}},{"type":"Feature","properties":{"stop_id":"15818","stop_code":"15818","stop_name":"REGENCY @ EXTENDED STAY AMERICA SB","stop_desc":"NEAR SIDE REGENCY @ EXTENDED STAY AMERICA SB","wheelchair_boarding":2,"routes":[{"route_id":"19644","agency_id":"70006","route_short_name":"12","route_long_name":"OFallon-Fairview Heights","route_type":3,"route_color":"#FFFFFF","route_text_color":"#000000"}],"agency_name":"Metro St. Louis"},"geometry":{"type":"Point","coordinates":[-89.93967,38.58725]}},{"type":"Feature","properties":{"stop_id":"15819","stop_code":"15819","stop_name":"REGENCY @ HILTON GARDEN INN SB","stop_desc":"NEAR SIDE REGENCY @ HILTON GARDEN INN SB","wheelchair_boarding":2,"routes":[{"route_id":"19644","agency_id":"70006","route_short_name":"12","route_long_name":"OFallon-Fairview Heights","route_type":3,"route_color":"#FFFFFF","route_text_color":"#000000"}],"agency_name":"Metro St. Louis"},"geometry":{"type":"Point","coordinates":[-89.9335,38.58051]}},{"type":"Feature","properties":{"stop_id":"15820","stop_code":"15820","stop_name":"REGENCY @ REGENCY CONFERENCE CENTER SB","stop_desc":"NEAR SIDE REGENCY @ REGENCY CONFERENCE CENTER SB","wheelchair_boarding":2,"routes":[{"route_id":"19644","agency_id":"70006","route_short_name":"12","route_long_name":"OFallon-Fairview Heights","route_type":3,"route_color":"#FFFFFF","route_text_color":"#000000"}],"agency_name":"Metro St. Louis"},"geometry":{"type":"Point","coordinates":[-89.9318,38.57952]}},{"type":"Feature","properties":{"stop_id":"15821","stop_code":"15821","stop_name":"REGENCY @ GREEN MOUNT EB","stop_desc":"NEAR SIDE REGENCY @ GREEN MOUNT EB","wheelchair_boarding":2,"routes":[{"route_id":"19644","agency_id":"70006","route_short_name":"12","route_long_name":"OFallon-Fairview Heights","route_type":3,"route_color":"#FFFFFF","route_text_color":"#000000"}],"agency_name":"Metro St. Louis"},"geometry":{"type":"Point","coordinates":[-89.92984,38.57949]}},{"type":"Feature","properties":{"stop_id":"15906","stop_code":"15906","stop_name":"CENTRAL PARK @ DRURY INN WB","stop_desc":"FAR SIDE CENTRAL PARK @ DRURY INN WB","wheelchair_boarding":2,"routes":[{"route_id":"19644","agency_id":"70006","route_short_name":"12","route_long_name":"OFallon-Fairview Heights","route_type":3,"route_color":"#FFFFFF","route_text_color":"#000000"}],"agency_name":"Metro St. Louis"},"geometry":{"type":"Point","coordinates":[-89.93078,38.57299]}},{"type":"Feature","properties":{"stop_id":"15907","stop_code":"15907","stop_name":"COMMERCE @ LINCOLN TRAIL SB","stop_desc":"NEAR SIDE COMMERCE @ LINCOLN TRAIL SB","wheelchair_boarding":2,"routes":[{"route_id":"19644","agency_id":"70006","route_short_name":"12","route_long_name":"OFallon-Fairview Heights","route_type":3,"route_color":"#FFFFFF","route_text_color":"#000000"}],"agency_name":"Metro St. Louis"},"geometry":{"type":"Point","coordinates":[-89.9905,38.59354]}},{"type":"Feature","properties":{"stop_id":"16389","stop_code":"16389","stop_name":"ST. ELIZABETH HOSPITAL LOOP","stop_desc":"MID-BLOCK ST. ELIZABETH HOSPITAL LOOP","wheelchair_boarding":1,"routes":[{"route_id":"19644","agency_id":"70006","route_short_name":"12","route_long_name":"OFallon-Fairview Heights","route_type":3,"route_color":"#FFFFFF","route_text_color":"#000000"}],"agency_name":"Metro St. Louis"},"geometry":{"type":"Point","coordinates":[-89.93345,38.583]}},{"type":"Feature","properties":{"stop_id":"16444","stop_code":"16444","stop_name":"1234 CENTRAL PARK NB","stop_desc":"NEAR SIDE 1234 CENTRAL PARK NB","wheelchair_boarding":2,"routes":[{"route_id":"19644","agency_id":"70006","route_short_name":"12","route_long_name":"OFallon-Fairview Heights","route_type":3,"route_color":"#FFFFFF","route_text_color":"#000000"}],"agency_name":"Metro St. Louis"},"geometry":{"type":"Point","coordinates":[-89.93568,38.57816]}},{"type":"Feature","properties":{"stop_id":"16492","stop_code":"16492","stop_name":"GREEN MOUNT @ W US-50 SB","stop_desc":"NEAR SIDE GREEN MOUNT @ W US-50 SB","wheelchair_boarding":1,"routes":[{"route_id":"19644","agency_id":"70006","route_short_name":"12","route_long_name":"OFallon-Fairview Heights","route_type":3,"route_color":"#FFFFFF","route_text_color":"#000000"}],"agency_name":"Metro St. Louis"},"geometry":{"type":"Point","coordinates":[-89.92903,38.5893]}},{"type":"Feature","properties":{"stop_id":"16494","stop_code":"16494","stop_name":"EAST US-50 @ JAMESTOWN WB","stop_desc":"FAR SIDE EAST US-50 @ JAMESTOWN WB","wheelchair_boarding":1,"routes":[{"route_id":"19644","agency_id":"70006","route_short_name":"12","route_long_name":"OFallon-Fairview Heights","route_type":3,"route_color":"#FFFFFF","route_text_color":"#000000"}],"agency_name":"Metro St. Louis"},"geometry":{"type":"Point","coordinates":[-89.90037,38.58372]}},{"type":"Feature","properties":{"stop_id":"16509","stop_code":"16509","stop_name":"EAST US-50 @ WEBER WB","stop_desc":"NEAR SIDE EAST US-50 @ WEBER WB","wheelchair_boarding":2,"routes":[{"route_id":"19644","agency_id":"70006","route_short_name":"12","route_long_name":"OFallon-Fairview Heights","route_type":3,"route_color":"#FFFFFF","route_text_color":"#000000"}],"agency_name":"Metro St. Louis"},"geometry":{"type":"Point","coordinates":[-89.89826,38.58285]}}]}