{"type":"FeatureCollection","features":[{"type":"Feature","properties":{"agency_name":"Metro St. Louis","route_id":"19639","agency_id":"70006","route_short_name":"4","route_long_name":"19th & Central","route_type":3,"route_color":"#FFFFFF","route_text_color":"#000000"},"geometry":{"type":"MultiLineString","coordinates":[[[-90.1592,38.62494],[-90.15903,38.62499],[-90.1592,38.62494],[-90.15959,38.62472],[-90.15961,38.62462],[-90.15959,38.62452],[-90.1595,38.62443],[-90.15897,38.62401],[-90.15982,38.62339],[-90.15966,38.62323],[-90.15724,38.6212],[-90.15641,38.62048],[-90.15889,38.61864],[-90.16114,38.617],[-90.15996,38.61606],[-90.15748,38.6139],[-90.15617,38.61273],[-90.15521,38.61199],[-90.15479,38.6116],[-90.15404,38.61101],[-90.15202,38.60931],[-90.15368,38.60809],[-90.15447,38.60755],[-90.15607,38.60638],[-90.15763,38.6052],[-90.15967,38.60647],[-90.16116,38.60537],[-90.16188,38.60486],[-90.16266,38.60427],[-90.1616,38.60339],[-90.16086,38.60284],[-90.1602,38.60225],[-90.15804,38.60047],[-90.15709,38.60119],[-90.1567,38.60145],[-90.15639,38.60169],[-90.15559,38.60225],[-90.15287,38.60428],[-90.15163,38.60517],[-90.14924,38.60693],[-90.14969,38.60736],[-90.15152,38.60888]],[[-90.15804,38.62469],[-90.15897,38.62401],[-90.15804,38.62469],[-90.15827,38.62486],[-90.15851,38.62496]]]}},{"type":"Feature","properties":{"stop_id":"12560","stop_code":"12560","stop_name":"EAST BROADWAY @ 6TH STREET EB","stop_desc":"FAR SIDE EAST BROADWAY @ 6TH STREET EB","wheelchair_boarding":2,"routes":[{"route_id":"19637","agency_id":"70006","route_short_name":"2","route_long_name":"Cahokia Heights","route_type":3,"route_color":"#FFFFFF","route_text_color":"#000000"},{"route_id":"19638","agency_id":"70006","route_short_name":"3","route_long_name":"Sauget - Water Street","route_type":3,"route_color":"#FFFFFF","route_text_color":"#000000"},{"route_id":"19639","agency_id":"70006","route_short_name":"4","route_long_name":"19th & Central","route_type":3,"route_color":"#FFFFFF","route_text_color":"#000000"}],"agency_name":"Metro St. Louis"},"geometry":{"type":"Point","coordinates":[-90.15961,38.6231]}},{"type":"Feature","properties":{"stop_id":"12561","stop_code":"12561","stop_name":"EAST BROADWAY @ 8TH STREET EB","stop_desc":"NEAR SIDE EAST BROADWAY @ 8TH STREET EB","wheelchair_boarding":2,"routes":[{"route_id":"19637","agency_id":"70006","route_short_name":"2","route_long_name":"Cahokia Heights","route_type":3,"route_color":"#FFFFFF","route_text_color":"#000000"},{"route_id":"19638","agency_id":"70006","route_short_name":"3","route_long_name":"Sauget - Water Street","route_type":3,"route_color":"#FFFFFF","route_text_color":"#000000"},{"route_id":"19639","agency_id":"70006","route_short_name":"4","route_long_name":"19th & Central","route_type":3,"route_color":"#FFFFFF","route_text_color":"#000000"}],"agency_name":"Metro St. Louis"},"geometry":{"type":"Point","coordinates":[-90.1584,38.62209]}},{"type":"Feature","properties":{"stop_id":"12567","stop_code":"12567","stop_name":"BOND @ 10TH STREET EB","stop_desc":"FAR SIDE BOND @ 10TH STREET EB","wheelchair_boarding":2,"routes":[{"route_id":"19639","agency_id":"70006","route_short_name":"4","route_long_name":"19th & Central","route_type":3,"route_color":"#FFFFFF","route_text_color":"#000000"}],"agency_name":"Metro St. Louis"},"geometry":{"type":"Point","coordinates":[-90.16099,38.61681]}},{"type":"Feature","properties":{"stop_id":"12569","stop_code":"12569","stop_name":"BOND @ 12TH STREET EB","stop_desc":"NEAR SIDE BOND @ 12TH STREET EB","wheelchair_boarding":2,"routes":[{"route_id":"19639","agency_id":"70006","route_short_name":"4","route_long_name":"19th & Central","route_type":3,"route_color":"#FFFFFF","route_text_color":"#000000"}],"agency_name":"Metro St. Louis"},"geometry":{"type":"Point","coordinates":[-90.15884,38.61501]}},{"type":"Feature","properties":{"stop_id":"12570","stop_code":"12570","stop_name":"BOND @ 13TH STREET EB","stop_desc":"NEAR SIDE BOND @ 13TH STREET EB","wheelchair_boarding":2,"routes":[{"route_id":"19639","agency_id":"70006","route_short_name":"4","route_long_name":"19th & Central","route_type":3,"route_color":"#FFFFFF","route_text_color":"#000000"}],"agency_name":"Metro St. Louis"},"geometry":{"type":"Point","coordinates":[-90.15766,38.61401]}},{"type":"Feature","properties":{"stop_id":"12571","stop_code":"12571","stop_name":"BOND @ 14TH STREET EB","stop_desc":"NEAR SIDE BOND @ 14TH STREET EB","wheelchair_boarding":2,"routes":[{"route_id":"19639","agency_id":"70006","route_short_name":"4","route_long_name":"19th & Central","route_type":3,"route_color":"#FFFFFF","route_text_color":"#000000"}],"agency_name":"Metro St. Louis"},"geometry":{"type":"Point","coordinates":[-90.15633,38.61273]}},{"type":"Feature","properties":{"stop_id":"12572","stop_code":"12572","stop_name":"BOND @ 15TH STREET EB","stop_desc":"NEAR SIDE BOND @ 15TH STREET EB","wheelchair_boarding":2,"routes":[{"route_id":"19639","agency_id":"70006","route_short_name":"4","route_long_name":"19th & Central","route_type":3,"route_color":"#FFFFFF","route_text_color":"#000000"}],"agency_name":"Metro St. Louis"},"geometry":{"type":"Point","coordinates":[-90.15494,38.6117]}},{"type":"Feature","properties":{"stop_id":"12573","stop_code":"12573","stop_name":"BOND @ 16TH STREET EB","stop_desc":"NEAR SIDE BOND @ 16TH STREET EB","wheelchair_boarding":2,"routes":[{"route_id":"19639","agency_id":"70006","route_short_name":"4","route_long_name":"19th & Central","route_type":3,"route_color":"#FFFFFF","route_text_color":"#000000"}],"agency_name":"Metro St. Louis"},"geometry":{"type":"Point","coordinates":[-90.15359,38.61057]}},{"type":"Feature","properties":{"stop_id":"12574","stop_code":"12574","stop_name":"BOND @ 17TH STREET EB","stop_desc":"NEAR SIDE BOND @ 17TH STREET EB","wheelchair_boarding":2,"routes":[{"route_id":"19639","agency_id":"70006","route_short_name":"4","route_long_name":"19th & Central","route_type":3,"route_color":"#FFFFFF","route_text_color":"#000000"}],"agency_name":"Metro St. Louis"},"geometry":{"type":"Point","coordinates":[-90.15216,38.60938]}},{"type":"Feature","properties":{"stop_id":"12684","stop_code":"12684","stop_name":"19TH STREET @ BOND NB","stop_desc":"NEAR SIDE 19TH STREET @ BOND NB","wheelchair_boarding":2,"routes":[{"route_id":"19639","agency_id":"70006","route_short_name":"4","route_long_name":"19th & Central","route_type":3,"route_color":"#FFFFFF","route_text_color":"#000000"}],"agency_name":"Metro St. Louis"},"geometry":{"type":"Point","coordinates":[-90.14932,38.60683]}},{"type":"Feature","properties":{"stop_id":"12685","stop_code":"12685","stop_name":"BOND @ 18TH STREET WB","stop_desc":"NEAR SIDE BOND @ 18TH STREET WB","wheelchair_boarding":2,"routes":[{"route_id":"19639","agency_id":"70006","route_short_name":"4","route_long_name":"19th & Central","route_type":3,"route_color":"#FFFFFF","route_text_color":"#000000"}],"agency_name":"Metro St. Louis"},"geometry":{"type":"Point","coordinates":[-90.1505,38.60809]}},{"type":"Feature","properties":{"stop_id":"12686","stop_code":"12686","stop_name":"BOND @ 17TH STREET WB","stop_desc":"NEAR SIDE BOND @ 17TH STREET WB","wheelchair_boarding":2,"routes":[{"route_id":"19639","agency_id":"70006","route_short_name":"4","route_long_name":"19th & Central","route_type":3,"route_color":"#FFFFFF","route_text_color":"#000000"}],"agency_name":"Metro St. Louis"},"geometry":{"type":"Point","coordinates":[-90.15188,38.60925]}},{"type":"Feature","properties":{"stop_id":"12687","stop_code":"12687","stop_name":"BOND @ 16TH STREET WB","stop_desc":"NEAR SIDE BOND @ 16TH STREET WB","wheelchair_boarding":2,"routes":[{"route_id":"19639","agency_id":"70006","route_short_name":"4","route_long_name":"19th & Central","route_type":3,"route_color":"#FFFFFF","route_text_color":"#000000"}],"agency_name":"Metro St. Louis"},"geometry":{"type":"Point","coordinates":[-90.15332,38.61046]}},{"type":"Feature","properties":{"stop_id":"12688","stop_code":"12688","stop_name":"BOND @ 15TH STREET WB","stop_desc":"NEAR SIDE BOND @ 15TH STREET WB","wheelchair_boarding":2,"routes":[{"route_id":"19639","agency_id":"70006","route_short_name":"4","route_long_name":"19th & Central","route_type":3,"route_color":"#FFFFFF","route_text_color":"#000000"}],"agency_name":"Metro St. Louis"},"geometry":{"type":"Point","coordinates":[-90.15462,38.61156]}},{"type":"Feature","properties":{"stop_id":"12689","stop_code":"12689","stop_name":"BOND @ 14TH STREET WB","stop_desc":"NEAR SIDE BOND @ 14TH STREET WB","wheelchair_boarding":2,"routes":[{"route_id":"19639","agency_id":"70006","route_short_name":"4","route_long_name":"19th & Central","route_type":3,"route_color":"#FFFFFF","route_text_color":"#000000"}],"agency_name":"Metro St. Louis"},"geometry":{"type":"Point","coordinates":[-90.15596,38.61266]}},{"type":"Feature","properties":{"stop_id":"12690","stop_code":"12690","stop_name":"BOND @ 13TH STREET WB","stop_desc":"NEAR SIDE BOND @ 13TH STREET WB","wheelchair_boarding":2,"routes":[{"route_id":"19639","agency_id":"70006","route_short_name":"4","route_long_name":"19th & Central","route_type":3,"route_color":"#FFFFFF","route_text_color":"#000000"}],"agency_name":"Metro St. Louis"},"geometry":{"type":"Point","coordinates":[-90.15729,38.61378]}},{"type":"Feature","properties":{"stop_id":"12691","stop_code":"12691","stop_name":"BOND @ 12TH STREET WB","stop_desc":"NEAR SIDE BOND @ 12TH STREET WB","wheelchair_boarding":2,"routes":[{"route_id":"19639","agency_id":"70006","route_short_name":"4","route_long_name":"19th & Central","route_type":3,"route_color":"#FFFFFF","route_text_color":"#000000"}],"agency_name":"Metro St. Louis"},"geometry":{"type":"Point","coordinates":[-90.15862,38.61491]}},{"type":"Feature","properties":{"stop_id":"12692","stop_code":"12692","stop_name":"BOND @ 11TH STREET WB","stop_desc":"NEAR SIDE BOND @ 11TH STREET WB","wheelchair_boarding":2,"routes":[{"route_id":"19639","agency_id":"70006","route_short_name":"4","route_long_name":"19th & Central","route_type":3,"route_color":"#FFFFFF","route_text_color":"#000000"}],"agency_name":"Metro St. Louis"},"geometry":{"type":"Point","coordinates":[-90.1598,38.61604]}},{"type":"Feature","properties":{"stop_id":"12693","stop_code":"12693","stop_name":"BOND @ 10TH STREET WB","stop_desc":"NEAR SIDE BOND @ 10TH STREET WB","wheelchair_boarding":2,"routes":[{"route_id":"19639","agency_id":"70006","route_short_name":"4","route_long_name":"19th & Central","route_type":3,"route_color":"#FFFFFF","route_text_color":"#000000"}],"agency_name":"Metro St. Louis"},"geometry":{"type":"Point","coordinates":[-90.16095,38.61686]}},{"type":"Feature","properties":{"stop_id":"12700","stop_code":"12700","stop_name":"BROADWAY @ 8TH STREET WB","stop_desc":"FAR SIDE BROADWAY @ 8TH STREET WB","wheelchair_boarding":2,"routes":[{"route_id":"19637","agency_id":"70006","route_short_name":"2","route_long_name":"Cahokia Heights","route_type":3,"route_color":"#FFFFFF","route_text_color":"#000000"},{"route_id":"19638","agency_id":"70006","route_short_name":"3","route_long_name":"Sauget - Water Street","route_type":3,"route_color":"#FFFFFF","route_text_color":"#000000"},{"route_id":"19639","agency_id":"70006","route_short_name":"4","route_long_name":"19th & Central","route_type":3,"route_color":"#FFFFFF","route_text_color":"#000000"}],"agency_name":"Metro St. Louis"},"geometry":{"type":"Point","coordinates":[-90.1584,38.62224]}},{"type":"Feature","properties":{"stop_id":"12701","stop_code":"12701","stop_name":"BROADWAY @ 6TH STREET WB","stop_desc":"NEAR SIDE BROADWAY @ 6TH STREET WB","wheelchair_boarding":2,"routes":[{"route_id":"19637","agency_id":"70006","route_short_name":"2","route_long_name":"Cahokia Heights","route_type":3,"route_color":"#FFFFFF","route_text_color":"#000000"},{"route_id":"19638","agency_id":"70006","route_short_name":"3","route_long_name":"Sauget - Water Street","route_type":3,"route_color":"#FFFFFF","route_text_color":"#000000"},{"route_id":"19639","agency_id":"70006","route_short_name":"4","route_long_name":"19th & Central","route_type":3,"route_color":"#FFFFFF","route_text_color":"#000000"}],"agency_name":"Metro St. Louis"},"geometry":{"type":"Point","coordinates":[-90.15962,38.62327]}},{"type":"Feature","properties":{"stop_id":"12873","stop_code":"12873","stop_name":"RUSSELL @ DR MR LEMONS WB","stop_desc":"FAR SIDE RUSSELL @ DR MR LEMONS WB","wheelchair_boarding":2,"routes":[{"route_id":"19639","agency_id":"70006","route_short_name":"4","route_long_name":"19th & Central","route_type":3,"route_color":"#FFFFFF","route_text_color":"#000000"}],"agency_name":"Metro St. Louis"},"geometry":{"type":"Point","coordinates":[-90.15778,38.6054]}},{"type":"Feature","properties":{"stop_id":"12874","stop_code":"12874","stop_name":"RUSSELL @ 16TH STREET WB","stop_desc":"NEAR SIDE RUSSELL @ 16TH STREET WB","wheelchair_boarding":2,"routes":[{"route_id":"19639","agency_id":"70006","route_short_name":"4","route_long_name":"19th & Central","route_type":3,"route_color":"#FFFFFF","route_text_color":"#000000"}],"agency_name":"Metro St. Louis"},"geometry":{"type":"Point","coordinates":[-90.15925,38.60662]}},{"type":"Feature","properties":{"stop_id":"14330","stop_code":"14330","stop_name":"5TH & MISSOURI TRANSIT CENTER","wheelchair_boarding":1,"routes":[{"route_id":"19636","agency_id":"70006","route_short_name":"1","route_long_name":"Main Street - State Street","route_type":3,"route_color":"#FFFFFF","route_text_color":"#000000"},{"route_id":"19637","agency_id":"70006","route_short_name":"2","route_long_name":"Cahokia Heights","route_type":3,"route_color":"#FFFFFF","route_text_color":"#000000"},{"route_id":"19638","agency_id":"70006","route_short_name":"3","route_long_name":"Sauget - Water Street","route_type":3,"route_color":"#FFFFFF","route_text_color":"#000000"},{"route_id":"19639","agency_id":"70006","route_short_name":"4","route_long_name":"19th & Central","route_type":3,"route_color":"#FFFFFF","route_text_color":"#000000"},{"route_id":"19640","agency_id":"70006","route_short_name":"5","route_long_name":"Missouri Ave - ML King","route_type":3,"route_color":"#FFFFFF","route_text_color":"#000000"}],"agency_name":"Metro St. Louis"},"geometry":{"type":"Point","coordinates":[-90.15906,38.62501]}},{"type":"Feature","properties":{"stop_id":"14884","stop_code":"14884","stop_name":"BROADWAY @ 10TH STREET EB","stop_desc":"NEAR SIDE BROADWAY @ 10TH STREET EB","wheelchair_boarding":2,"routes":[{"route_id":"19639","agency_id":"70006","route_short_name":"4","route_long_name":"19th & Central","route_type":3,"route_color":"#FFFFFF","route_text_color":"#000000"}],"agency_name":"Metro St. Louis"},"geometry":{"type":"Point","coordinates":[-90.15683,38.6208]}},{"type":"Feature","properties":{"stop_id":"14885","stop_code":"14885","stop_name":"10TH STREET @ CONVERSE SB","stop_desc":"NEAR SIDE 10TH STREET @ CONVERSE SB","wheelchair_boarding":2,"routes":[{"route_id":"19639","agency_id":"70006","route_short_name":"4","route_long_name":"19th & Central","route_type":3,"route_color":"#FFFFFF","route_text_color":"#000000"}],"agency_name":"Metro St. Louis"},"geometry":{"type":"Point","coordinates":[-90.15971,38.61812]}},{"type":"Feature","properties":{"stop_id":"14889","stop_code":"14889","stop_name":"19TH STREET @ MARKET NB","stop_desc":"NEAR SIDE 19TH STREET @ MARKET NB","wheelchair_boarding":2,"routes":[{"route_id":"19639","agency_id":"70006","route_short_name":"4","route_long_name":"19th & Central","route_type":3,"route_color":"#FFFFFF","route_text_color":"#000000"}],"agency_name":"Metro St. Louis"},"geometry":{"type":"Point","coordinates":[-90.15011,38.60626]}},{"type":"Feature","properties":{"stop_id":"14890","stop_code":"14890","stop_name":"10TH STREET @ CONVERSE NB","stop_desc":"NEAR SIDE 10TH STREET @ CONVERSE NB","wheelchair_boarding":2,"routes":[{"route_id":"19639","agency_id":"70006","route_short_name":"4","route_long_name":"19th & Central","route_type":3,"route_color":"#FFFFFF","route_text_color":"#000000"}],"agency_name":"Metro St. Louis"},"geometry":{"type":"Point","coordinates":[-90.15953,38.61813]}},{"type":"Feature","properties":{"stop_id":"14891","stop_code":"14891","stop_name":"10TH STREET @ WALNUT NB","stop_desc":"NEAR SIDE 10TH STREET @ WALNUT NB","wheelchair_boarding":2,"routes":[{"route_id":"19639","agency_id":"70006","route_short_name":"4","route_long_name":"19th & Central","route_type":3,"route_color":"#FFFFFF","route_text_color":"#000000"}],"agency_name":"Metro St. Louis"},"geometry":{"type":"Point","coordinates":[-90.1573,38.61977]}},{"type":"Feature","properties":{"stop_id":"14892","stop_code":"14892","stop_name":"10TH STREET @ BROADWAY NB","stop_desc":"NEAR SIDE 10TH STREET @ BROADWAY NB","wheelchair_boarding":2,"routes":[{"route_id":"19639","agency_id":"70006","route_short_name":"4","route_long_name":"19th & Central","route_type":3,"route_color":"#FFFFFF","route_text_color":"#000000"}],"agency_name":"Metro St. Louis"},"geometry":{"type":"Point","coordinates":[-90.1565,38.62036]}},{"type":"Feature","properties":{"stop_id":"14906","stop_code":"14906","stop_name":"10TH STREET @ WALNUT SB","stop_desc":"NEAR SIDE 10TH STREET @ WALNUT SB","wheelchair_boarding":2,"routes":[{"route_id":"19639","agency_id":"70006","route_short_name":"4","route_long_name":"19th & Central","route_type":3,"route_color":"#FFFFFF","route_text_color":"#000000"}],"agency_name":"Metro St. Louis"},"geometry":{"type":"Point","coordinates":[-90.15711,38.62]}},{"type":"Feature","properties":{"stop_id":"15235","stop_code":"15235","stop_name":"19TH STREET @ PIGGOTT NB","stop_desc":"NEAR SIDE 19TH STREET @ PIGGOTT NB","wheelchair_boarding":2,"routes":[{"route_id":"19639","agency_id":"70006","route_short_name":"4","route_long_name":"19th & Central","route_type":3,"route_color":"#FFFFFF","route_text_color":"#000000"}],"agency_name":"Metro St. Louis"},"geometry":{"type":"Point","coordinates":[-90.15171,38.60508]}},{"type":"Feature","properties":{"stop_id":"16452","stop_code":"16452","stop_name":"17TH STREET @ PIGGOTT SB","stop_desc":"FAR SIDE 17TH STREET @ PIGGOTT SB","wheelchair_boarding":2,"routes":[{"route_id":"19639","agency_id":"70006","route_short_name":"4","route_long_name":"19th & Central","route_type":3,"route_color":"#FFFFFF","route_text_color":"#000000"}],"agency_name":"Metro St. Louis"},"geometry":{"type":"Point","coordinates":[-90.15467,38.60742]}},{"type":"Feature","properties":{"stop_id":"16454","stop_code":"16454","stop_name":"17TH STREET @ BOISMENUE SB","stop_desc":"NEAR SIDE 17TH STREET @ BOISMENUE SB","wheelchair_boarding":2,"routes":[{"route_id":"19639","agency_id":"70006","route_short_name":"4","route_long_name":"19th & Central","route_type":3,"route_color":"#FFFFFF","route_text_color":"#000000"}],"agency_name":"Metro St. Louis"},"geometry":{"type":"Point","coordinates":[-90.15674,38.6059]}},{"type":"Feature","properties":{"stop_id":"16455","stop_code":"16455","stop_name":"16TH STREET @ CENTRAL SB","stop_desc":"NEAR SIDE 16TH STREET @ CENTRAL SB","wheelchair_boarding":2,"routes":[{"route_id":"19639","agency_id":"70006","route_short_name":"4","route_long_name":"19th & Central","route_type":3,"route_color":"#FFFFFF","route_text_color":"#000000"}],"agency_name":"Metro St. Louis"},"geometry":{"type":"Point","coordinates":[-90.16108,38.60553]}},{"type":"Feature","properties":{"stop_id":"16456","stop_code":"16456","stop_name":"WILFORD @ 17TH STREET EB","stop_desc":"NEAR SIDE WILFORD @ 17TH STREET EB","wheelchair_boarding":2,"routes":[{"route_id":"19639","agency_id":"70006","route_short_name":"4","route_long_name":"19th & Central","route_type":3,"route_color":"#FFFFFF","route_text_color":"#000000"}],"agency_name":"Metro St. Louis"},"geometry":{"type":"Point","coordinates":[-90.16097,38.60289]}},{"type":"Feature","properties":{"stop_id":"16457","stop_code":"16457","stop_name":"WILFORD @ TOUCHETTE ELDERLY APARTMENTS EB","stop_desc":"FAR SIDE WILFORD @ TOUCHETTE ELDERLY APARTMENTS EB","wheelchair_boarding":2,"routes":[{"route_id":"19639","agency_id":"70006","route_short_name":"4","route_long_name":"19th & Central","route_type":3,"route_color":"#FFFFFF","route_text_color":"#000000"}],"agency_name":"Metro St. Louis"},"geometry":{"type":"Point","coordinates":[-90.15996,38.60205]}},{"type":"Feature","properties":{"stop_id":"16458","stop_code":"16458","stop_name":"WILFORD @ 19TH STREET EB","stop_desc":"NEAR SIDE WILFORD @ 19TH STREET EB","wheelchair_boarding":2,"routes":[{"route_id":"19639","agency_id":"70006","route_short_name":"4","route_long_name":"19th & Central","route_type":3,"route_color":"#FFFFFF","route_text_color":"#000000"}],"agency_name":"Metro St. Louis"},"geometry":{"type":"Point","coordinates":[-90.15824,38.6006]}},{"type":"Feature","properties":{"stop_id":"16459","stop_code":"16459","stop_name":"19TH STREET @ CENTRAL NB","stop_desc":"FAR SIDE 19TH STREET @ CENTRAL NB","wheelchair_boarding":2,"routes":[{"route_id":"19639","agency_id":"70006","route_short_name":"4","route_long_name":"19th & Central","route_type":3,"route_color":"#FFFFFF","route_text_color":"#000000"}],"agency_name":"Metro St. Louis"},"geometry":{"type":"Point","coordinates":[-90.15649,38.60164]}},{"type":"Feature","properties":{"stop_id":"16460","stop_code":"16460","stop_name":"19TH STREET @ BAKER NB","stop_desc":"FAR SIDE 19TH STREET @ BAKER NB","wheelchair_boarding":2,"routes":[{"route_id":"19639","agency_id":"70006","route_short_name":"4","route_long_name":"19th & Central","route_type":3,"route_color":"#FFFFFF","route_text_color":"#000000"}],"agency_name":"Metro St. Louis"},"geometry":{"type":"Point","coordinates":[-90.15304,38.60413]}},{"type":"Feature","properties":{"stop_id":"16470","stop_code":"16470","stop_name":"19TH STREET @ RUSSELL NB","stop_desc":"FAR SIDE 19TH STREET @ RUSSELL NB","wheelchair_boarding":1,"routes":[{"route_id":"19639","agency_id":"70006","route_short_name":"4","route_long_name":"19th & Central","route_type":3,"route_color":"#FFFFFF","route_text_color":"#000000"}],"agency_name":"Metro St. Louis"},"geometry":{"type":"Point","coordinates":[-90.15463,38.60284]}},{"type":"Feature","properties":{"stop_id":"16471","stop_code":"16471","stop_name":"WILFORD @ 16TH STREET EB","stop_desc":"FAR SIDE WILFORD @ 16TH STREET EB","wheelchair_boarding":2,"routes":[{"route_id":"19639","agency_id":"70006","route_short_name":"4","route_long_name":"19th & Central","route_type":3,"route_color":"#FFFFFF","route_text_color":"#000000"}],"agency_name":"Metro St. Louis"},"geometry":{"type":"Point","coordinates":[-90.16231,38.60385]}}]}