{"type":"FeatureCollection","features":[{"type":"Feature","properties":{"agency_name":"Metro St. Louis","route_id":"19648","agency_id":"70006","route_short_name":"16","route_long_name":"St. Clair Square","route_type":3,"route_color":"#FFFFFF","route_text_color":"#000000"},"geometry":{"type":"MultiLineString","coordinates":[[[-89.98195,38.59608],[-89.98182,38.59594],[-89.98195,38.59608],[-89.98222,38.59681],[-89.98234,38.59709],[-89.98255,38.59768],[-89.98317,38.59755],[-89.98368,38.59722],[-89.98378,38.59708],[-89.98385,38.5969],[-89.98387,38.59675],[-89.98385,38.59658],[-89.98381,38.59642],[-89.98364,38.596],[-89.98424,38.59586],[-89.98485,38.59581],[-89.98502,38.59553],[-89.98497,38.59483],[-89.98498,38.59429],[-89.98495,38.59237],[-89.98494,38.59192],[-89.98491,38.59167],[-89.98491,38.59014],[-89.98488,38.58732],[-89.98485,38.58022],[-89.98483,38.57871],[-89.98482,38.57468],[-89.98483,38.57026],[-89.98481,38.56379],[-89.98482,38.56227],[-89.9848,38.5606],[-89.98476,38.55923],[-89.98459,38.55584],[-89.98438,38.55225],[-89.98409,38.54667],[-89.98405,38.5462],[-89.98383,38.54233],[-89.98378,38.54122],[-89.98364,38.53896],[-89.98357,38.53742],[-89.98587,38.53743],[-89.98759,38.5371],[-89.98758,38.53685],[-89.98752,38.53662],[-89.98734,38.53645],[-89.98717,38.53625],[-89.98675,38.536],[-89.98641,38.53585],[-89.98625,38.53585],[-89.98609,38.53591],[-89.98589,38.53722],[-89.98357,38.53742],[-89.98354,38.53613],[-89.98355,38.53454],[-89.98355,38.53389],[-89.98353,38.53372],[-89.98354,38.5329],[-89.9836,38.53211],[-89.98372,38.53147],[-89.98391,38.53066],[-89.98405,38.53018],[-89.98418,38.5294],[-89.9842,38.52903],[-89.98421,38.52393],[-89.98418,38.52354],[-89.9842,38.52309],[-89.9842,38.5218],[-89.98423,38.51992],[-89.98421,38.51878],[-89.98422,38.51554],[-89.98149,38.51552],[-89.97902,38.51555],[-89.97903,38.51771],[-89.97898,38.51801],[-89.97874,38.51847],[-89.97856,38.51862],[-89.97601,38.52046],[-89.97554,38.52081],[-89.97547,38.52084],[-89.97535,38.52083],[-89.97528,38.52079],[-89.97508,38.52061],[-89.97504,38.52059],[-89.97495,38.52057],[-89.97481,38.52059],[-89.97473,38.52063],[-89.97409,38.52114],[-89.97407,38.52118],[-89.97407,38.52123],[-89.97412,38.52129]],[[-89.98743,38.67059],[-89.98743,38.67062],[-89.98744,38.67054],[-89.98751,38.67045],[-89.98777,38.67039],[-89.98738,38.66963],[-89.98515,38.67036],[-89.98466,38.67019],[-89.98446,38.66973],[-89.98338,38.66771],[-89.98304,38.66705],[-89.98297,38.66687],[-89.98291,38.66664],[-89.98271,38.66564],[-89.98255,38.66495],[-89.98239,38.66413],[-89.98235,38.66385],[-89.98237,38.66331],[-89.98244,38.66294],[-89.98251,38.66275],[-89.98269,38.66241],[-89.98292,38.66209],[-89.98642,38.65751],[-89.98714,38.65647],[-89.98786,38.65552],[-89.98797,38.65535],[-89.98812,38.65506],[-89.98824,38.65474],[-89.98831,38.65444],[-89.98833,38.65403],[-89.98829,38.6537],[-89.98823,38.65344],[-89.9881,38.65308],[-89.98792,38.65275],[-89.98711,38.65142],[-89.9868,38.65079],[-89.98664,38.65041],[-89.98573,38.64803],[-89.98563,38.64768],[-89.98548,38.64683],[-89.98544,38.64582],[-89.98545,38.64532],[-89.98549,38.64471],[-89.98551,38.64371],[-89.98549,38.64178],[-89.98547,38.6412],[-89.98543,38.63801],[-89.98533,38.63241],[-89.98533,38.63172],[-89.98501,38.61271],[-89.98502,38.61156],[-89.98509,38.60914],[-89.9851,38.60789],[-89.98508,38.60591],[-89.98515,38.6054],[-89.98515,38.60437],[-89.98511,38.60272],[-89.9851,38.60071],[-89.98507,38.59902],[-89.98504,38.59861],[-89.98503,38.59746],[-89.98499,38.59711],[-89.98503,38.59655],[-89.98502,38.59582]],[[-89.98347,38.5957],[-89.98397,38.59592],[-89.98347,38.5957],[-89.98335,38.59551],[-89.98317,38.59539],[-89.98299,38.59531],[-89.98284,38.5952],[-89.98262,38.59479],[-89.98253,38.59448],[-89.98253,38.59381],[-89.98106,38.59415],[-89.98104,38.5942],[-89.98107,38.59434],[-89.98112,38.59449],[-89.98119,38.59462],[-89.98142,38.59474],[-89.98158,38.59486],[-89.98169,38.595],[-89.98174,38.59514],[-89.98171,38.59532],[-89.98162,38.59549],[-89.98161,38.59565],[-89.98167,38.5958]]]}},{"type":"Feature","properties":{"stop_id":"11036","stop_code":"11036","stop_name":"CHARLES @ C STREET NB","stop_desc":"FAR SIDE CHARLES @ C STREET NB","wheelchair_boarding":2,"routes":[{"route_id":"19636","agency_id":"70006","route_short_name":"1","route_long_name":"Main Street - State Street","route_type":3,"route_color":"#FFFFFF","route_text_color":"#000000"},{"route_id":"19648","agency_id":"70006","route_short_name":"16","route_long_name":"St. Clair Square","route_type":3,"route_color":"#FFFFFF","route_text_color":"#000000"}],"agency_name":"Metro St. Louis"},"geometry":{"type":"Point","coordinates":[-89.97892,38.51665]}},{"type":"Feature","properties":{"stop_id":"11102","stop_code":"11102","stop_name":"BELLEVILLE TRANSIT CENTER","wheelchair_boarding":1,"routes":[{"route_id":"19636","agency_id":"70006","route_short_name":"1","route_long_name":"Main Street - State Street","route_type":3,"route_color":"#FFFFFF","route_text_color":"#000000"},{"route_id":"19647","agency_id":"70006","route_short_name":"15","route_long_name":"Belleville-O'Fallon","route_type":3,"route_color":"#FFFFFF","route_text_color":"#000000"},{"route_id":"19648","agency_id":"70006","route_short_name":"16","route_long_name":"St. Clair Square","route_type":3,"route_color":"#FFFFFF","route_text_color":"#000000"},{"route_id":"19649","agency_id":"70006","route_short_name":"23","route_long_name":"Belleville-College","route_type":3,"route_color":"#FFFFFF","route_text_color":"#000000"}],"agency_name":"Metro St. Louis"},"geometry":{"type":"Point","coordinates":[-89.97461,38.5217]}},{"type":"Feature","properties":{"stop_id":"11253","stop_code":"11253","stop_name":"ILLINOIS @ PAWNEE SB","stop_desc":"FAR SIDE ILLINOIS @ PAWNEE SB","wheelchair_boarding":2,"routes":[{"route_id":"19648","agency_id":"70006","route_short_name":"16","route_long_name":"St. Clair Square","route_type":3,"route_color":"#FFFFFF","route_text_color":"#000000"}],"agency_name":"Metro St. Louis"},"geometry":{"type":"Point","coordinates":[-89.98428,38.52723]}},{"type":"Feature","properties":{"stop_id":"11254","stop_code":"11254","stop_name":"ILLINOIS @ BRACKETT SB","stop_desc":"FAR SIDE ILLINOIS @ BRACKETT SB","wheelchair_boarding":2,"routes":[{"route_id":"19648","agency_id":"70006","route_short_name":"16","route_long_name":"St. Clair Square","route_type":3,"route_color":"#FFFFFF","route_text_color":"#000000"}],"agency_name":"Metro St. Louis"},"geometry":{"type":"Point","coordinates":[-89.98432,38.52533]}},{"type":"Feature","properties":{"stop_id":"11256","stop_code":"11256","stop_name":"ILLINOIS @ G STREET SB","stop_desc":"NEAR SIDE ILLINOIS @ G STREET SB","wheelchair_boarding":2,"routes":[{"route_id":"19648","agency_id":"70006","route_short_name":"16","route_long_name":"St. Clair Square","route_type":3,"route_color":"#FFFFFF","route_text_color":"#000000"}],"agency_name":"Metro St. Louis"},"geometry":{"type":"Point","coordinates":[-89.98427,38.52116]}},{"type":"Feature","properties":{"stop_id":"11258","stop_code":"11258","stop_name":"ILLINOIS @ E STREET SB","stop_desc":"NEAR SIDE ILLINOIS @ E STREET SB","wheelchair_boarding":2,"routes":[{"route_id":"19648","agency_id":"70006","route_short_name":"16","route_long_name":"St. Clair Square","route_type":3,"route_color":"#FFFFFF","route_text_color":"#000000"}],"agency_name":"Metro St. Louis"},"geometry":{"type":"Point","coordinates":[-89.98429,38.51899]}},{"type":"Feature","properties":{"stop_id":"11261","stop_code":"11261","stop_name":"ILLINOIS @ C STREET SB","stop_desc":"NEAR SIDE ILLINOIS @ C STREET SB","wheelchair_boarding":2,"routes":[{"route_id":"19648","agency_id":"70006","route_short_name":"16","route_long_name":"St. Clair Square","route_type":3,"route_color":"#FFFFFF","route_text_color":"#000000"}],"agency_name":"Metro St. Louis"},"geometry":{"type":"Point","coordinates":[-89.98426,38.51677]}},{"type":"Feature","properties":{"stop_id":"11303","stop_code":"11303","stop_name":"ILLINOIS @ FULLERTON SB","stop_desc":"NEAR SIDE ILLINOIS @ FULLERTON SB","wheelchair_boarding":2,"routes":[{"route_id":"19648","agency_id":"70006","route_short_name":"16","route_long_name":"St. Clair Square","route_type":3,"route_color":"#FFFFFF","route_text_color":"#000000"}],"agency_name":"Metro St. Louis"},"geometry":{"type":"Point","coordinates":[-89.98388,38.54159]}},{"type":"Feature","properties":{"stop_id":"11304","stop_code":"11304","stop_name":"ILLINOIS @ OLD FULLERTON SB","stop_desc":"NEAR SIDE ILLINOIS @ OLD FULLERTON SB","wheelchair_boarding":2,"routes":[{"route_id":"19648","agency_id":"70006","route_short_name":"16","route_long_name":"St. Clair Square","route_type":3,"route_color":"#FFFFFF","route_text_color":"#000000"}],"agency_name":"Metro St. Louis"},"geometry":{"type":"Point","coordinates":[-89.98378,38.53916]}},{"type":"Feature","properties":{"stop_id":"11307","stop_code":"11307","stop_name":"ILLINOIS @ GARDEN SB","stop_desc":"FAR SIDE ILLINOIS @ GARDEN SB","wheelchair_boarding":2,"routes":[{"route_id":"19648","agency_id":"70006","route_short_name":"16","route_long_name":"St. Clair Square","route_type":3,"route_color":"#FFFFFF","route_text_color":"#000000"}],"agency_name":"Metro St. Louis"},"geometry":{"type":"Point","coordinates":[-89.98363,38.53526]}},{"type":"Feature","properties":{"stop_id":"11426","stop_code":"11426","stop_name":"ILLINOIS @ METROWAY SB","stop_desc":"NEAR SIDE ILLINOIS @ METROWAY SB","wheelchair_boarding":2,"routes":[{"route_id":"19648","agency_id":"70006","route_short_name":"16","route_long_name":"St. Clair Square","route_type":3,"route_color":"#FFFFFF","route_text_color":"#000000"}],"agency_name":"Metro St. Louis"},"geometry":{"type":"Point","coordinates":[-89.98372,38.53778]}},{"type":"Feature","properties":{"stop_id":"11589","stop_code":"11589","stop_name":"MAIN @ CENTER EB","stop_desc":"NEAR SIDE MAIN @ CENTER EB","wheelchair_boarding":2,"routes":[{"route_id":"19645","agency_id":"70006","route_short_name":"13","route_long_name":"Caseyville","route_type":3,"route_color":"#FFFFFF","route_text_color":"#000000"},{"route_id":"19648","agency_id":"70006","route_short_name":"16","route_long_name":"St. Clair Square","route_type":3,"route_color":"#FFFFFF","route_text_color":"#000000"}],"agency_name":"Metro St. Louis"},"geometry":{"type":"Point","coordinates":[-89.98622,38.66996]}},{"type":"Feature","properties":{"stop_id":"11591","stop_code":"11591","stop_name":"MORRISON @ CHURCH SB","stop_desc":"FAR SIDE MORRISON @ CHURCH SB","wheelchair_boarding":2,"routes":[{"route_id":"19645","agency_id":"70006","route_short_name":"13","route_long_name":"Caseyville","route_type":3,"route_color":"#FFFFFF","route_text_color":"#000000"},{"route_id":"19648","agency_id":"70006","route_short_name":"16","route_long_name":"St. Clair Square","route_type":3,"route_color":"#FFFFFF","route_text_color":"#000000"}],"agency_name":"Metro St. Louis"},"geometry":{"type":"Point","coordinates":[-89.98417,38.66904]}},{"type":"Feature","properties":{"stop_id":"11592","stop_code":"11592","stop_name":"MORRISON @ HILL SB","stop_desc":"NEAR SIDE MORRISON @ HILL SB","wheelchair_boarding":2,"routes":[{"route_id":"19645","agency_id":"70006","route_short_name":"13","route_long_name":"Caseyville","route_type":3,"route_color":"#FFFFFF","route_text_color":"#000000"},{"route_id":"19648","agency_id":"70006","route_short_name":"16","route_long_name":"St. Clair Square","route_type":3,"route_color":"#FFFFFF","route_text_color":"#000000"}],"agency_name":"Metro St. Louis"},"geometry":{"type":"Point","coordinates":[-89.98349,38.66779]}},{"type":"Feature","properties":{"stop_id":"11594","stop_code":"11594","stop_name":"MORRISON @ CLINTON SB","stop_desc":"FAR SIDE MORRISON @ CLINTON SB","wheelchair_boarding":2,"routes":[{"route_id":"19645","agency_id":"70006","route_short_name":"13","route_long_name":"Caseyville","route_type":3,"route_color":"#FFFFFF","route_text_color":"#000000"},{"route_id":"19648","agency_id":"70006","route_short_name":"16","route_long_name":"St. Clair Square","route_type":3,"route_color":"#FFFFFF","route_text_color":"#000000"}],"agency_name":"Metro St. Louis"},"geometry":{"type":"Point","coordinates":[-89.9833,38.66174]}},{"type":"Feature","properties":{"stop_id":"11595","stop_code":"11595","stop_name":"MORRISON @ IDLEWOOD SB","stop_desc":"NEAR SIDE MORRISON @ IDLEWOOD SB","wheelchair_boarding":2,"routes":[{"route_id":"19645","agency_id":"70006","route_short_name":"13","route_long_name":"Caseyville","route_type":3,"route_color":"#FFFFFF","route_text_color":"#000000"},{"route_id":"19648","agency_id":"70006","route_short_name":"16","route_long_name":"St. Clair Square","route_type":3,"route_color":"#FFFFFF","route_text_color":"#000000"}],"agency_name":"Metro St. Louis"},"geometry":{"type":"Point","coordinates":[-89.98487,38.65969]}},{"type":"Feature","properties":{"stop_id":"11596","stop_code":"11596","stop_name":"MORRISON @ CHEROKEE SB","stop_desc":"NEAR SIDE MORRISON @ CHEROKEE SB","wheelchair_boarding":2,"routes":[{"route_id":"19645","agency_id":"70006","route_short_name":"13","route_long_name":"Caseyville","route_type":3,"route_color":"#FFFFFF","route_text_color":"#000000"},{"route_id":"19648","agency_id":"70006","route_short_name":"16","route_long_name":"St. Clair Square","route_type":3,"route_color":"#FFFFFF","route_text_color":"#000000"}],"agency_name":"Metro St. Louis"},"geometry":{"type":"Point","coordinates":[-89.98614,38.65806]}},{"type":"Feature","properties":{"stop_id":"11597","stop_code":"11597","stop_name":"ILLINOIS @ MORRISON SB","stop_desc":"FAR SIDE ILLINOIS @ MORRISON SB","wheelchair_boarding":2,"routes":[{"route_id":"19648","agency_id":"70006","route_short_name":"16","route_long_name":"St. Clair Square","route_type":3,"route_color":"#FFFFFF","route_text_color":"#000000"}],"agency_name":"Metro St. Louis"},"geometry":{"type":"Point","coordinates":[-89.98779,38.65585]}},{"type":"Feature","properties":{"stop_id":"11600","stop_code":"11600","stop_name":"ILLINOIS @ PIN OAK SB","stop_desc":"FAR SIDE ILLINOIS @ PIN OAK SB","wheelchair_boarding":2,"routes":[{"route_id":"19648","agency_id":"70006","route_short_name":"16","route_long_name":"St. Clair Square","route_type":3,"route_color":"#FFFFFF","route_text_color":"#000000"}],"agency_name":"Metro St. Louis"},"geometry":{"type":"Point","coordinates":[-89.98531,38.62409]}},{"type":"Feature","properties":{"stop_id":"11601","stop_code":"11601","stop_name":"ILLINOIS @ OFALLON SB","stop_desc":"FAR SIDE ILLINOIS @ OFALLON SB","wheelchair_boarding":2,"routes":[{"route_id":"19648","agency_id":"70006","route_short_name":"16","route_long_name":"St. Clair Square","route_type":3,"route_color":"#FFFFFF","route_text_color":"#000000"}],"agency_name":"Metro St. Louis"},"geometry":{"type":"Point","coordinates":[-89.98516,38.6104]}},{"type":"Feature","properties":{"stop_id":"11602","stop_code":"11602","stop_name":"ILLINOIS @ FOUNTAINS PARKWAY SB","stop_desc":"FAR SIDE ILLINOIS @ FOUNTAINS PARKWAY SB","wheelchair_boarding":2,"routes":[{"route_id":"19648","agency_id":"70006","route_short_name":"16","route_long_name":"St. Clair Square","route_type":3,"route_color":"#FFFFFF","route_text_color":"#000000"}],"agency_name":"Metro St. Louis"},"geometry":{"type":"Point","coordinates":[-89.98519,38.60365]}},{"type":"Feature","properties":{"stop_id":"11604","stop_code":"11604","stop_name":"6551 ILLINOIS SB","stop_desc":"MID-BLOCK 6551 ILLINOIS SB","wheelchair_boarding":1,"routes":[{"route_id":"19648","agency_id":"70006","route_short_name":"16","route_long_name":"St. Clair Square","route_type":3,"route_color":"#FFFFFF","route_text_color":"#000000"}],"agency_name":"Metro St. Louis"},"geometry":{"type":"Point","coordinates":[-89.98513,38.59461]}},{"type":"Feature","properties":{"stop_id":"11606","stop_code":"11606","stop_name":"MALINDA SB","stop_desc":"NEAR SIDE MALINDA SB","wheelchair_boarding":2,"routes":[{"route_id":"19648","agency_id":"70006","route_short_name":"16","route_long_name":"St. Clair Square","route_type":3,"route_color":"#FFFFFF","route_text_color":"#000000"}],"agency_name":"Metro St. Louis"},"geometry":{"type":"Point","coordinates":[-89.98503,38.59185]}},{"type":"Feature","properties":{"stop_id":"11608","stop_code":"11608","stop_name":"ILLINOIS @ LINCOLN PLACE SB","stop_desc":"NEAR SIDE ILLINOIS @ LINCOLN PLACE SB","wheelchair_boarding":2,"routes":[{"route_id":"19648","agency_id":"70006","route_short_name":"16","route_long_name":"St. Clair Square","route_type":3,"route_color":"#FFFFFF","route_text_color":"#000000"}],"agency_name":"Metro St. Louis"},"geometry":{"type":"Point","coordinates":[-89.98499,38.5873]}},{"type":"Feature","properties":{"stop_id":"11609","stop_code":"11609","stop_name":"ILLINOIS @ LONGACRE SB","stop_desc":"FAR SIDE ILLINOIS @ LONGACRE SB","wheelchair_boarding":2,"routes":[{"route_id":"19648","agency_id":"70006","route_short_name":"16","route_long_name":"St. Clair Square","route_type":3,"route_color":"#FFFFFF","route_text_color":"#000000"}],"agency_name":"Metro St. Louis"},"geometry":{"type":"Point","coordinates":[-89.98498,38.58505]}},{"type":"Feature","properties":{"stop_id":"11611","stop_code":"11611","stop_name":"ILLINOIS @ KASSING SB","stop_desc":"FAR SIDE ILLINOIS @ KASSING SB","wheelchair_boarding":2,"routes":[{"route_id":"19648","agency_id":"70006","route_short_name":"16","route_long_name":"St. Clair Square","route_type":3,"route_color":"#FFFFFF","route_text_color":"#000000"}],"agency_name":"Metro St. Louis"},"geometry":{"type":"Point","coordinates":[-89.98495,38.58124]}},{"type":"Feature","properties":{"stop_id":"11612","stop_code":"11612","stop_name":"ILLINOIS @ CHATEAU SB","stop_desc":"FAR SIDE ILLINOIS @ CHATEAU SB","wheelchair_boarding":2,"routes":[{"route_id":"19648","agency_id":"70006","route_short_name":"16","route_long_name":"St. Clair Square","route_type":3,"route_color":"#FFFFFF","route_text_color":"#000000"}],"agency_name":"Metro St. Louis"},"geometry":{"type":"Point","coordinates":[-89.98491,38.57834]}},{"type":"Feature","properties":{"stop_id":"11613","stop_code":"11613","stop_name":"ILLINOIS @ LAKELAND HILLS SB","stop_desc":"NEAR SIDE ILLINOIS @ LAKELAND HILLS SB","wheelchair_boarding":2,"routes":[{"route_id":"19648","agency_id":"70006","route_short_name":"16","route_long_name":"St. Clair Square","route_type":3,"route_color":"#FFFFFF","route_text_color":"#000000"}],"agency_name":"Metro St. Louis"},"geometry":{"type":"Point","coordinates":[-89.98493,38.5749]}},{"type":"Feature","properties":{"stop_id":"11614","stop_code":"11614","stop_name":"ILLINOIS @ WINCHESTER PLACE SB","stop_desc":"FAR SIDE ILLINOIS @ WINCHESTER PLACE SB","wheelchair_boarding":2,"routes":[{"route_id":"19648","agency_id":"70006","route_short_name":"16","route_long_name":"St. Clair Square","route_type":3,"route_color":"#FFFFFF","route_text_color":"#000000"}],"agency_name":"Metro St. Louis"},"geometry":{"type":"Point","coordinates":[-89.98492,38.57304]}},{"type":"Feature","properties":{"stop_id":"11615","stop_code":"11615","stop_name":"4509 ILLINOIS SB","stop_desc":"MID-BLOCK 4509 ILLINOIS SB","wheelchair_boarding":2,"routes":[{"route_id":"19648","agency_id":"70006","route_short_name":"16","route_long_name":"St. Clair Square","route_type":3,"route_color":"#FFFFFF","route_text_color":"#000000"}],"agency_name":"Metro St. Louis"},"geometry":{"type":"Point","coordinates":[-89.98492,38.57007]}},{"type":"Feature","properties":{"stop_id":"11616","stop_code":"11616","stop_name":"ILLINOIS @ LAKELAND SB","stop_desc":"FAR SIDE ILLINOIS @ LAKELAND SB","wheelchair_boarding":2,"routes":[{"route_id":"19648","agency_id":"70006","route_short_name":"16","route_long_name":"St. Clair Square","route_type":3,"route_color":"#FFFFFF","route_text_color":"#000000"}],"agency_name":"Metro St. Louis"},"geometry":{"type":"Point","coordinates":[-89.98492,38.56742]}},{"type":"Feature","properties":{"stop_id":"11617","stop_code":"11617","stop_name":"ILLINOIS @ POINTE SB","stop_desc":"NEAR SIDE ILLINOIS @ POINTE SB","wheelchair_boarding":2,"routes":[{"route_id":"19648","agency_id":"70006","route_short_name":"16","route_long_name":"St. Clair Square","route_type":3,"route_color":"#FFFFFF","route_text_color":"#000000"}],"agency_name":"Metro St. Louis"},"geometry":{"type":"Point","coordinates":[-89.98491,38.56581]}},{"type":"Feature","properties":{"stop_id":"11619","stop_code":"11619","stop_name":"ILLINOIS @ EDNICK SB","stop_desc":"NEAR SIDE ILLINOIS @ EDNICK SB","wheelchair_boarding":2,"routes":[{"route_id":"19648","agency_id":"70006","route_short_name":"16","route_long_name":"St. Clair Square","route_type":3,"route_color":"#FFFFFF","route_text_color":"#000000"}],"agency_name":"Metro St. Louis"},"geometry":{"type":"Point","coordinates":[-89.98478,38.5576]}},{"type":"Feature","properties":{"stop_id":"11626","stop_code":"11626","stop_name":"SWANSEA TRANSIT CENTER","stop_desc":"NEAR SIDE SWANSEA TRANSIT CENTER","wheelchair_boarding":1,"routes":[{"route_id":"19648","agency_id":"70006","route_short_name":"16","route_long_name":"St. Clair Square","route_type":3,"route_color":"#FFFFFF","route_text_color":"#000000"}],"agency_name":"Metro St. Louis"},"geometry":{"type":"Point","coordinates":[-89.98737,38.53645]}},{"type":"Feature","properties":{"stop_id":"11628","stop_code":"11628","stop_name":"ILLINOIS @ ROSEWOOD VILLAGE SB","stop_desc":"NEAR SIDE ILLINOIS @ ROSEWOOD VILLAGE SB","wheelchair_boarding":2,"routes":[{"route_id":"19648","agency_id":"70006","route_short_name":"16","route_long_name":"St. Clair Square","route_type":3,"route_color":"#FFFFFF","route_text_color":"#000000"}],"agency_name":"Metro St. Louis"},"geometry":{"type":"Point","coordinates":[-89.98405,38.54452]}},{"type":"Feature","properties":{"stop_id":"11629","stop_code":"11629","stop_name":"ILLINOIS @ EMERALD TERRACE SB","stop_desc":"NEAR SIDE ILLINOIS @ EMERALD TERRACE SB","wheelchair_boarding":2,"routes":[{"route_id":"19648","agency_id":"70006","route_short_name":"16","route_long_name":"St. Clair Square","route_type":3,"route_color":"#FFFFFF","route_text_color":"#000000"}],"agency_name":"Metro St. Louis"},"geometry":{"type":"Point","coordinates":[-89.98421,38.54744]}},{"type":"Feature","properties":{"stop_id":"11630","stop_code":"11630","stop_name":"ILLINOIS @ WOLF CREEK SB","stop_desc":"FAR SIDE ILLINOIS @ WOLF CREEK SB","wheelchair_boarding":2,"routes":[{"route_id":"19648","agency_id":"70006","route_short_name":"16","route_long_name":"St. Clair Square","route_type":3,"route_color":"#FFFFFF","route_text_color":"#000000"}],"agency_name":"Metro St. Louis"},"geometry":{"type":"Point","coordinates":[-89.98439,38.55064]}},{"type":"Feature","properties":{"stop_id":"11631","stop_code":"11631","stop_name":"ILLINOIS @ TWILIGHT SB","stop_desc":"NEAR SIDE ILLINOIS @ TWILIGHT SB","wheelchair_boarding":2,"routes":[{"route_id":"19648","agency_id":"70006","route_short_name":"16","route_long_name":"St. Clair Square","route_type":3,"route_color":"#FFFFFF","route_text_color":"#000000"}],"agency_name":"Metro St. Louis"},"geometry":{"type":"Point","coordinates":[-89.98452,38.55298]}},{"type":"Feature","properties":{"stop_id":"11632","stop_code":"11632","stop_name":"ILLINOIS @ HUNTWOOD SB","stop_desc":"FAR SIDE ILLINOIS @ HUNTWOOD SB","wheelchair_boarding":2,"routes":[{"route_id":"19648","agency_id":"70006","route_short_name":"16","route_long_name":"St. Clair Square","route_type":3,"route_color":"#FFFFFF","route_text_color":"#000000"}],"agency_name":"Metro St. Louis"},"geometry":{"type":"Point","coordinates":[-89.98467,38.55569]}},{"type":"Feature","properties":{"stop_id":"11648","stop_code":"11648","stop_name":"ILLINOIS @ LOWES PLAZA SB","stop_desc":"MID-BLOCK ILLINOIS @ LOWES PLAZA SB","wheelchair_boarding":2,"routes":[{"route_id":"19648","agency_id":"70006","route_short_name":"16","route_long_name":"St. Clair Square","route_type":3,"route_color":"#FFFFFF","route_text_color":"#000000"}],"agency_name":"Metro St. Louis"},"geometry":{"type":"Point","coordinates":[-89.98503,38.59036]}},{"type":"Feature","properties":{"stop_id":"11662","stop_code":"11662","stop_name":"MORRISON @ LOOP SB","stop_desc":"NEAR SIDE MORRISON @ LOOP SB","wheelchair_boarding":2,"routes":[{"route_id":"19645","agency_id":"70006","route_short_name":"13","route_long_name":"Caseyville","route_type":3,"route_color":"#FFFFFF","route_text_color":"#000000"},{"route_id":"19648","agency_id":"70006","route_short_name":"16","route_long_name":"St. Clair Square","route_type":3,"route_color":"#FFFFFF","route_text_color":"#000000"}],"agency_name":"Metro St. Louis"},"geometry":{"type":"Point","coordinates":[-89.98256,38.66446]}},{"type":"Feature","properties":{"stop_id":"11667","stop_code":"11667","stop_name":"MAIN @ MORRISON EB","stop_desc":"NEAR SIDE MAIN @ MORRISON EB","wheelchair_boarding":2,"routes":[{"route_id":"19645","agency_id":"70006","route_short_name":"13","route_long_name":"Caseyville","route_type":3,"route_color":"#FFFFFF","route_text_color":"#000000"},{"route_id":"19648","agency_id":"70006","route_short_name":"16","route_long_name":"St. Clair Square","route_type":3,"route_color":"#FFFFFF","route_text_color":"#000000"}],"agency_name":"Metro St. Louis"},"geometry":{"type":"Point","coordinates":[-89.98498,38.67039]}},{"type":"Feature","properties":{"stop_id":"11846","stop_code":"11846","stop_name":"ST. CLAIR SQUARE MACYS ENTRANCE","stop_desc":"MID-BLOCK ST. CLAIR SQUARE MACYS ENTRANCE","wheelchair_boarding":2,"routes":[{"route_id":"19644","agency_id":"70006","route_short_name":"12","route_long_name":"OFallon-Fairview Heights","route_type":3,"route_color":"#FFFFFF","route_text_color":"#000000"},{"route_id":"19648","agency_id":"70006","route_short_name":"16","route_long_name":"St. Clair Square","route_type":3,"route_color":"#FFFFFF","route_text_color":"#000000"}],"agency_name":"Metro St. Louis"},"geometry":{"type":"Point","coordinates":[-89.98176,38.59597]}},{"type":"Feature","properties":{"stop_id":"13932","stop_code":"13932","stop_name":"MADISON COUNTY TRANSIT CTR","wheelchair_boarding":1,"routes":[{"route_id":"19645","agency_id":"70006","route_short_name":"13","route_long_name":"Caseyville","route_type":3,"route_color":"#FFFFFF","route_text_color":"#000000"},{"route_id":"19648","agency_id":"70006","route_short_name":"16","route_long_name":"St. Clair Square","route_type":3,"route_color":"#FFFFFF","route_text_color":"#000000"}],"agency_name":"Metro St. Louis"},"geometry":{"type":"Point","coordinates":[-89.98739,38.67064]}},{"type":"Feature","properties":{"stop_id":"14221","stop_code":"14221","stop_name":"SCHEEL @ SYCAMORE NB","stop_desc":"FAR SIDE SCHEEL @ SYCAMORE NB","wheelchair_boarding":2,"routes":[{"route_id":"19636","agency_id":"70006","route_short_name":"1","route_long_name":"Main Street - State Street","route_type":3,"route_color":"#FFFFFF","route_text_color":"#000000"},{"route_id":"19648","agency_id":"70006","route_short_name":"16","route_long_name":"St. Clair Square","route_type":3,"route_color":"#FFFFFF","route_text_color":"#000000"}],"agency_name":"Metro St. Louis"},"geometry":{"type":"Point","coordinates":[-89.9785,38.51854]}},{"type":"Feature","properties":{"stop_id":"14222","stop_code":"14222","stop_name":"SCHEEL @ DOUGLAS EB","stop_desc":"FAR SIDE SCHEEL @ DOUGLAS EB","wheelchair_boarding":2,"routes":[{"route_id":"19636","agency_id":"70006","route_short_name":"1","route_long_name":"Main Street - State Street","route_type":3,"route_color":"#FFFFFF","route_text_color":"#000000"},{"route_id":"19647","agency_id":"70006","route_short_name":"15","route_long_name":"Belleville-O'Fallon","route_type":3,"route_color":"#FFFFFF","route_text_color":"#000000"},{"route_id":"19648","agency_id":"70006","route_short_name":"16","route_long_name":"St. Clair Square","route_type":3,"route_color":"#FFFFFF","route_text_color":"#000000"},{"route_id":"19649","agency_id":"70006","route_short_name":"23","route_long_name":"Belleville-College","route_type":3,"route_color":"#FFFFFF","route_text_color":"#000000"}],"agency_name":"Metro St. Louis"},"geometry":{"type":"Point","coordinates":[-89.97712,38.51965]}},{"type":"Feature","properties":{"stop_id":"14223","stop_code":"14223","stop_name":"SCHEEL @ BENTON EB","stop_desc":"NEAR SIDE SCHEEL @ BENTON EB","wheelchair_boarding":2,"routes":[{"route_id":"19636","agency_id":"70006","route_short_name":"1","route_long_name":"Main Street - State Street","route_type":3,"route_color":"#FFFFFF","route_text_color":"#000000"},{"route_id":"19647","agency_id":"70006","route_short_name":"15","route_long_name":"Belleville-O'Fallon","route_type":3,"route_color":"#FFFFFF","route_text_color":"#000000"},{"route_id":"19648","agency_id":"70006","route_short_name":"16","route_long_name":"St. Clair Square","route_type":3,"route_color":"#FFFFFF","route_text_color":"#000000"},{"route_id":"19649","agency_id":"70006","route_short_name":"23","route_long_name":"Belleville-College","route_type":3,"route_color":"#FFFFFF","route_text_color":"#000000"}],"agency_name":"Metro St. Louis"},"geometry":{"type":"Point","coordinates":[-89.9761,38.52037]}},{"type":"Feature","properties":{"stop_id":"15385","stop_code":"15385","stop_name":"ILLINOIS @ ELVIRA SB","stop_desc":"NEAR SIDE ILLINOIS @ ELVIRA SB","wheelchair_boarding":2,"routes":[{"route_id":"19648","agency_id":"70006","route_short_name":"16","route_long_name":"St. Clair Square","route_type":3,"route_color":"#FFFFFF","route_text_color":"#000000"}],"agency_name":"Metro St. Louis"},"geometry":{"type":"Point","coordinates":[-89.98496,38.58323]}},{"type":"Feature","properties":{"stop_id":"15387","stop_code":"15387","stop_name":"ILLINOIS @ CAROLINE SB","stop_desc":"NEAR SIDE ILLINOIS @ CAROLINE SB","wheelchair_boarding":2,"routes":[{"route_id":"19648","agency_id":"70006","route_short_name":"16","route_long_name":"St. Clair Square","route_type":3,"route_color":"#FFFFFF","route_text_color":"#000000"}],"agency_name":"Metro St. Louis"},"geometry":{"type":"Point","coordinates":[-89.98364,38.53292]}},{"type":"Feature","properties":{"stop_id":"15388","stop_code":"15388","stop_name":"ILLINOIS @ ANNA SB","stop_desc":"FAR SIDE ILLINOIS @ ANNA SB","wheelchair_boarding":2,"routes":[{"route_id":"19648","agency_id":"70006","route_short_name":"16","route_long_name":"St. Clair Square","route_type":3,"route_color":"#FFFFFF","route_text_color":"#000000"}],"agency_name":"Metro St. Louis"},"geometry":{"type":"Point","coordinates":[-89.9838,38.53143]}},{"type":"Feature","properties":{"stop_id":"15389","stop_code":"15389","stop_name":"ILLINOIS @ BOUL SB","stop_desc":"FAR SIDE ILLINOIS @ BOUL SB","wheelchair_boarding":2,"routes":[{"route_id":"19648","agency_id":"70006","route_short_name":"16","route_long_name":"St. Clair Square","route_type":3,"route_color":"#FFFFFF","route_text_color":"#000000"}],"agency_name":"Metro St. Louis"},"geometry":{"type":"Point","coordinates":[-89.9843,38.5289]}},{"type":"Feature","properties":{"stop_id":"15608","stop_code":"15608","stop_name":"ILLINOIS @ BROOKHAVEN SB","stop_desc":"FAR SIDE ILLINOIS @ BROOKHAVEN SB","wheelchair_boarding":2,"routes":[{"route_id":"19648","agency_id":"70006","route_short_name":"16","route_long_name":"St. Clair Square","route_type":3,"route_color":"#FFFFFF","route_text_color":"#000000"}],"agency_name":"Metro St. Louis"},"geometry":{"type":"Point","coordinates":[-89.98735,38.65157]}},{"type":"Feature","properties":{"stop_id":"15609","stop_code":"15609","stop_name":"ILLINOIS @ BELLEVILLE SB","stop_desc":"FAR SIDE ILLINOIS @ BELLEVILLE SB","wheelchair_boarding":2,"routes":[{"route_id":"19648","agency_id":"70006","route_short_name":"16","route_long_name":"St. Clair Square","route_type":3,"route_color":"#FFFFFF","route_text_color":"#000000"}],"agency_name":"Metro St. Louis"},"geometry":{"type":"Point","coordinates":[-89.98555,38.64553]}},{"type":"Feature","properties":{"stop_id":"15610","stop_code":"15610","stop_name":"ILLINOIS @ PERRY PLACE SB","stop_desc":"NEAR SIDE ILLINOIS @ PERRY PLACE SB","wheelchair_boarding":2,"routes":[{"route_id":"19648","agency_id":"70006","route_short_name":"16","route_long_name":"St. Clair Square","route_type":3,"route_color":"#FFFFFF","route_text_color":"#000000"}],"agency_name":"Metro St. Louis"},"geometry":{"type":"Point","coordinates":[-89.9856,38.64235]}},{"type":"Feature","properties":{"stop_id":"15611","stop_code":"15611","stop_name":"ILLINOIS @ HOLLYWOOD HEIGHTS SB","stop_desc":"FAR SIDE ILLINOIS @ HOLLYWOOD HEIGHTS SB","wheelchair_boarding":2,"routes":[{"route_id":"19648","agency_id":"70006","route_short_name":"16","route_long_name":"St. Clair Square","route_type":3,"route_color":"#FFFFFF","route_text_color":"#000000"}],"agency_name":"Metro St. Louis"},"geometry":{"type":"Point","coordinates":[-89.98551,38.63704]}},{"type":"Feature","properties":{"stop_id":"15612","stop_code":"15612","stop_name":"ILLINOIS @ DONALD BAILEY SB","stop_desc":"FAR SIDE ILLINOIS @ DONALD BAILEY SB","wheelchair_boarding":2,"routes":[{"route_id":"19648","agency_id":"70006","route_short_name":"16","route_long_name":"St. Clair Square","route_type":3,"route_color":"#FFFFFF","route_text_color":"#000000"}],"agency_name":"Metro St. Louis"},"geometry":{"type":"Point","coordinates":[-89.98529,38.62243]}},{"type":"Feature","properties":{"stop_id":"15613","stop_code":"15613","stop_name":"ILLINOIS @ STONEWOLF TRAIL SB","stop_desc":"FAR SIDE ILLINOIS @ STONEWOLF TRAIL SB","wheelchair_boarding":2,"routes":[{"route_id":"19648","agency_id":"70006","route_short_name":"16","route_long_name":"St. Clair Square","route_type":3,"route_color":"#FFFFFF","route_text_color":"#000000"}],"agency_name":"Metro St. Louis"},"geometry":{"type":"Point","coordinates":[-89.98516,38.6148]}},{"type":"Feature","properties":{"stop_id":"15718","stop_code":"15718","stop_name":"B STREET @ HIGH EB","stop_desc":"NEAR SIDE B STREET @ HIGH EB","wheelchair_boarding":2,"routes":[{"route_id":"19648","agency_id":"70006","route_short_name":"16","route_long_name":"St. Clair Square","route_type":3,"route_color":"#FFFFFF","route_text_color":"#000000"}],"agency_name":"Metro St. Louis"},"geometry":{"type":"Point","coordinates":[-89.98301,38.51553]}},{"type":"Feature","properties":{"stop_id":"15719","stop_code":"15719","stop_name":"B STREET @ JACKSON EB","stop_desc":"FAR SIDE B STREET @ JACKSON EB","wheelchair_boarding":2,"routes":[{"route_id":"19648","agency_id":"70006","route_short_name":"16","route_long_name":"St. Clair Square","route_type":3,"route_color":"#FFFFFF","route_text_color":"#000000"}],"agency_name":"Metro St. Louis"},"geometry":{"type":"Point","coordinates":[-89.98122,38.51554]}},{"type":"Feature","properties":{"stop_id":"15720","stop_code":"15720","stop_name":"B STREET @ CHURCH EB","stop_desc":"FAR SIDE B STREET @ CHURCH EB","wheelchair_boarding":2,"routes":[{"route_id":"19648","agency_id":"70006","route_short_name":"16","route_long_name":"St. Clair Square","route_type":3,"route_color":"#FFFFFF","route_text_color":"#000000"}],"agency_name":"Metro St. Louis"},"geometry":{"type":"Point","coordinates":[-89.98001,38.51554]}}]}