{"type":"FeatureCollection","features":[{"type":"Feature","properties":{"agency_name":"Metro St. Louis","route_id":"19594","agency_id":"70006","route_short_name":"4","route_long_name":"Natural Bridge","route_type":3,"route_color":"#FFFFFF","route_text_color":"#000000"},"geometry":{"type":"MultiLineString","coordinates":[[[-90.20278,38.6243],[-90.20271,38.62449],[-90.20278,38.6243],[-90.20282,38.62414],[-90.20284,38.62405],[-90.20283,38.62399],[-90.20284,38.62393],[-90.203,38.62398],[-90.20304,38.62401],[-90.20306,38.62405],[-90.20307,38.62411],[-90.20293,38.62434],[-90.20271,38.62491],[-90.20271,38.62522],[-90.20267,38.62563],[-90.20262,38.62567],[-90.20255,38.62568],[-90.20249,38.62565],[-90.20246,38.62562],[-90.20257,38.62505],[-90.20256,38.62501],[-90.20253,38.62498],[-90.20231,38.62495],[-90.20188,38.62591],[-90.20104,38.62808],[-90.20239,38.62842],[-90.20459,38.62887],[-90.20694,38.62945],[-90.21045,38.63013],[-90.21136,38.63032],[-90.21229,38.63049],[-90.21406,38.63086],[-90.21479,38.631],[-90.21548,38.63109],[-90.21462,38.6325],[-90.21423,38.6332],[-90.21374,38.63413],[-90.213,38.63541],[-90.21289,38.63573],[-90.21282,38.63602],[-90.2128,38.63619],[-90.2128,38.63647],[-90.21282,38.63787],[-90.21283,38.64043],[-90.21279,38.6413],[-90.21272,38.64215],[-90.21272,38.64239],[-90.21274,38.64385],[-90.21278,38.64455],[-90.2129,38.64551],[-90.21293,38.64611],[-90.21291,38.64662],[-90.21293,38.64832],[-90.21291,38.64852],[-90.21287,38.64866],[-90.21271,38.649],[-90.21257,38.6492],[-90.21239,38.64941],[-90.21217,38.64977],[-90.21201,38.65016],[-90.21103,38.65297],[-90.21069,38.65401],[-90.21041,38.65475],[-90.2098,38.65652],[-90.20942,38.65782],[-90.21088,38.65848],[-90.21134,38.65866],[-90.21197,38.65894],[-90.21319,38.65959],[-90.21675,38.66114],[-90.21873,38.66202],[-90.22034,38.6627],[-90.22303,38.66387],[-90.22502,38.66476],[-90.22887,38.66643],[-90.23648,38.66979],[-90.23736,38.67016],[-90.24082,38.6717],[-90.24166,38.67205],[-90.24427,38.67308],[-90.2485,38.6749],[-90.24913,38.67519],[-90.25172,38.67631],[-90.25244,38.67661],[-90.25616,38.67824],[-90.25827,38.67924],[-90.2612,38.68054],[-90.26522,38.68228],[-90.26576,38.68254],[-90.26639,38.68289],[-90.2683,38.68408],[-90.26994,38.68521],[-90.27125,38.686],[-90.27213,38.68656],[-90.27256,38.68691],[-90.27506,38.68912],[-90.27562,38.68956],[-90.27642,38.69024],[-90.27906,38.6926],[-90.27931,38.69281],[-90.27986,38.69323],[-90.28033,38.69346],[-90.28127,38.69382],[-90.2835,38.69472],[-90.28449,38.69509],[-90.28509,38.69536],[-90.28547,38.69557],[-90.28581,38.6958],[-90.28618,38.69611],[-90.28735,38.69729],[-90.28809,38.69807],[-90.28833,38.6983],[-90.28968,38.69947],[-90.29179,38.70092],[-90.29203,38.70107],[-90.29605,38.70384],[-90.29645,38.70403],[-90.29655,38.70405],[-90.29666,38.70403],[-90.29677,38.70405],[-90.29696,38.70422],[-90.29705,38.70427],[-90.29724,38.70432],[-90.30436,38.7067],[-90.30478,38.70682],[-90.3054,38.70697],[-90.30587,38.70664],[-90.30611,38.70602],[-90.30617,38.70581],[-90.30617,38.70564],[-90.30614,38.70542],[-90.30608,38.70523],[-90.30598,38.70505],[-90.30542,38.70446],[-90.30527,38.70449],[-90.30523,38.70453],[-90.30522,38.70459],[-90.30546,38.70573],[-90.3055,38.70578],[-90.30559,38.70581],[-90.30617,38.70581]],[[-90.30573,38.70705],[-90.30587,38.70664],[-90.30573,38.70705],[-90.30686,38.70727],[-90.30741,38.70734],[-90.30814,38.70738],[-90.30883,38.70736],[-90.31283,38.70684],[-90.31327,38.70684],[-90.3137,38.70688],[-90.31424,38.70699],[-90.31456,38.7071],[-90.31541,38.70748],[-90.31593,38.70778],[-90.31656,38.70827],[-90.31868,38.71001],[-90.3195,38.71071],[-90.31939,38.71115],[-90.31938,38.71134],[-90.31938,38.71298],[-90.31935,38.7138],[-90.31936,38.71432],[-90.31935,38.71535],[-90.31933,38.71558],[-90.31929,38.71579],[-90.31921,38.71601],[-90.31911,38.71621],[-90.31892,38.71648],[-90.31845,38.71701],[-90.31825,38.71727],[-90.31809,38.71757],[-90.31624,38.71782],[-90.31581,38.71782],[-90.31494,38.71791],[-90.31441,38.71785],[-90.31392,38.71763],[-90.31372,38.71823],[-90.31376,38.7184],[-90.31429,38.71978],[-90.3144,38.71981]]]}},{"type":"Feature","properties":{"stop_id":"13330","stop_code":"13330","stop_name":"NORTH HANLEY TRANSIT CENTER","wheelchair_boarding":1,"routes":[{"route_id":"19594","agency_id":"70006","route_short_name":"4","route_long_name":"Natural Bridge","route_type":3,"route_color":"#FFFFFF","route_text_color":"#000000"},{"route_id":"19609","agency_id":"70006","route_short_name":"34","route_long_name":"Earth City","route_type":3,"route_color":"#FFFFFF","route_text_color":"#000000"},{"route_id":"19614","agency_id":"70006","route_short_name":"49","route_long_name":"Lindbergh","route_type":3,"route_color":"#FFFFFF","route_text_color":"#000000"},{"route_id":"19620","agency_id":"70006","route_short_name":"61","route_long_name":"Chambers Rd","route_type":3,"route_color":"#FFFFFF","route_text_color":"#000000"},{"route_id":"19625","agency_id":"70006","route_short_name":"76","route_long_name":"N Hanley Shuttle","route_type":3,"route_color":"#FFFFFF","route_text_color":"#000000"},{"route_id":"19626","agency_id":"70006","route_short_name":"77","route_long_name":"Village Square","route_type":3,"route_color":"#FFFFFF","route_text_color":"#000000"},{"route_id":"19628","agency_id":"70006","route_short_name":"79","route_long_name":"Ferguson-Clayton","route_type":3,"route_color":"#FFFFFF","route_text_color":"#000000"}],"agency_name":"Metro St. Louis"},"geometry":{"type":"Point","coordinates":[-90.31495,38.71976]}},{"type":"Feature","properties":{"stop_id":"1587","stop_code":"1587","stop_name":"MARKET @ 16TH STREET WB","stop_desc":"FAR SIDE MARKET @ 16TH STREET WB","wheelchair_boarding":1,"routes":[{"route_id":"19594","agency_id":"70006","route_short_name":"4","route_long_name":"Natural Bridge","route_type":3,"route_color":"#FFFFFF","route_text_color":"#000000"},{"route_id":"19631","agency_id":"70006","route_short_name":"94","route_long_name":"Page","route_type":3,"route_color":"#FFFFFF","route_text_color":"#000000"}],"agency_name":"Metro St. Louis"},"geometry":{"type":"Point","coordinates":[-90.20408,38.62883]}},{"type":"Feature","properties":{"stop_id":"15970","stop_code":"15970","stop_name":"NATURAL BRIDGE @ KINGSHIGHWAY WB","stop_desc":"FAR SIDE NATURAL BRIDGE @ KINGSHIGHWAY WB","wheelchair_boarding":1,"routes":[{"route_id":"19594","agency_id":"70006","route_short_name":"4","route_long_name":"Natural Bridge","route_type":3,"route_color":"#FFFFFF","route_text_color":"#000000"}],"agency_name":"Metro St. Louis"},"geometry":{"type":"Point","coordinates":[-90.25262,38.67677]}},{"type":"Feature","properties":{"stop_id":"16051","stop_code":"16051","stop_name":"NATURAL BRIDGE @ SPRING WB","stop_desc":"FAR SIDE NATURAL BRIDGE @ SPRING WB","wheelchair_boarding":1,"routes":[{"route_id":"19594","agency_id":"70006","route_short_name":"4","route_long_name":"Natural Bridge","route_type":3,"route_color":"#FFFFFF","route_text_color":"#000000"}],"agency_name":"Metro St. Louis"},"geometry":{"type":"Point","coordinates":[-90.21829,38.66195]}},{"type":"Feature","properties":{"stop_id":"16052","stop_code":"16052","stop_name":"NATURAL BRIDGE @ CLAY WB","stop_desc":"FAR SIDE NATURAL BRIDGE @ CLAY WB","wheelchair_boarding":1,"routes":[{"route_id":"19594","agency_id":"70006","route_short_name":"4","route_long_name":"Natural Bridge","route_type":3,"route_color":"#FFFFFF","route_text_color":"#000000"}],"agency_name":"Metro St. Louis"},"geometry":{"type":"Point","coordinates":[-90.22658,38.66558]}},{"type":"Feature","properties":{"stop_id":"5972","stop_code":"5972","stop_name":"NORTH HANLEY @ KATHERINE NB","stop_desc":"FAR SIDE NORTH HANLEY @ KATHERINE NB","wheelchair_boarding":2,"routes":[{"route_id":"19594","agency_id":"70006","route_short_name":"4","route_long_name":"Natural Bridge","route_type":3,"route_color":"#FFFFFF","route_text_color":"#000000"},{"route_id":"19614","agency_id":"70006","route_short_name":"49","route_long_name":"Lindbergh","route_type":3,"route_color":"#FFFFFF","route_text_color":"#000000"},{"route_id":"19628","agency_id":"70006","route_short_name":"79","route_long_name":"Ferguson-Clayton","route_type":3,"route_color":"#FFFFFF","route_text_color":"#000000"}],"agency_name":"Metro St. Louis"},"geometry":{"type":"Point","coordinates":[-90.31925,38.71322]}},{"type":"Feature","properties":{"stop_id":"6061","stop_code":"6061","stop_name":"NORTH HANLEY @ UNIVERSITY PLACE NB","stop_desc":"NEAR SIDE NORTH HANLEY @ UNIVERSITY PLACE NB","wheelchair_boarding":2,"routes":[{"route_id":"19594","agency_id":"70006","route_short_name":"4","route_long_name":"Natural Bridge","route_type":3,"route_color":"#FFFFFF","route_text_color":"#000000"},{"route_id":"19614","agency_id":"70006","route_short_name":"49","route_long_name":"Lindbergh","route_type":3,"route_color":"#FFFFFF","route_text_color":"#000000"},{"route_id":"19628","agency_id":"70006","route_short_name":"79","route_long_name":"Ferguson-Clayton","route_type":3,"route_color":"#FFFFFF","route_text_color":"#000000"}],"agency_name":"Metro St. Louis"},"geometry":{"type":"Point","coordinates":[-90.31795,38.71761]}},{"type":"Feature","properties":{"stop_id":"7653","stop_code":"7653","stop_name":"CIVIC CENTER TRANSIT CENTER","wheelchair_boarding":1,"routes":[{"route_id":"19594","agency_id":"70006","route_short_name":"4","route_long_name":"Natural Bridge","route_type":3,"route_color":"#FFFFFF","route_text_color":"#000000"},{"route_id":"19598","agency_id":"70006","route_short_name":"10","route_long_name":"Gravois-Lindell","route_type":3,"route_color":"#FFFFFF","route_text_color":"#000000"},{"route_id":"19599","agency_id":"70006","route_short_name":"11","route_long_name":"Chippewa","route_type":3,"route_color":"#FFFFFF","route_text_color":"#000000"},{"route_id":"19603","agency_id":"70006","route_short_name":"19","route_long_name":"St Louis Ave","route_type":3,"route_color":"#FFFFFF","route_text_color":"#000000"}],"agency_name":"Metro St. Louis"},"geometry":{"type":"Point","coordinates":[-90.20281,38.62428]}},{"type":"Feature","properties":{"stop_id":"8638","stop_code":"8638","stop_name":"MARKET @ 14TH STREET WB","stop_desc":"FAR SIDE MARKET @ 14TH STREET WB","wheelchair_boarding":1,"routes":[{"route_id":"19594","agency_id":"70006","route_short_name":"4","route_long_name":"Natural Bridge","route_type":3,"route_color":"#FFFFFF","route_text_color":"#000000"},{"route_id":"19631","agency_id":"70006","route_short_name":"94","route_long_name":"Page","route_type":3,"route_color":"#FFFFFF","route_text_color":"#000000"}],"agency_name":"Metro St. Louis"},"geometry":{"type":"Point","coordinates":[-90.20175,38.62835]}},{"type":"Feature","properties":{"stop_id":"8640","stop_code":"8640","stop_name":"MARKET @ 17TH STREET WB","stop_desc":"FAR SIDE MARKET @ 17TH STREET WB","wheelchair_boarding":1,"routes":[{"route_id":"19594","agency_id":"70006","route_short_name":"4","route_long_name":"Natural Bridge","route_type":3,"route_color":"#FFFFFF","route_text_color":"#000000"},{"route_id":"19631","agency_id":"70006","route_short_name":"94","route_long_name":"Page","route_type":3,"route_color":"#FFFFFF","route_text_color":"#000000"}],"agency_name":"Metro St. Louis"},"geometry":{"type":"Point","coordinates":[-90.20519,38.62909]}},{"type":"Feature","properties":{"stop_id":"8641","stop_code":"8641","stop_name":"MARKET @ 20TH STREET WB","stop_desc":"FAR SIDE MARKET @ 20TH STREET WB","wheelchair_boarding":1,"routes":[{"route_id":"19594","agency_id":"70006","route_short_name":"4","route_long_name":"Natural Bridge","route_type":3,"route_color":"#FFFFFF","route_text_color":"#000000"},{"route_id":"19631","agency_id":"70006","route_short_name":"94","route_long_name":"Page","route_type":3,"route_color":"#FFFFFF","route_text_color":"#000000"}],"agency_name":"Metro St. Louis"},"geometry":{"type":"Point","coordinates":[-90.20944,38.63005]}},{"type":"Feature","properties":{"stop_id":"8643","stop_code":"8643","stop_name":"MARKET @ 23RD STREET WB","stop_desc":"NEAR SIDE MARKET @ 23RD STREET WB","wheelchair_boarding":1,"routes":[{"route_id":"19594","agency_id":"70006","route_short_name":"4","route_long_name":"Natural Bridge","route_type":3,"route_color":"#FFFFFF","route_text_color":"#000000"},{"route_id":"19631","agency_id":"70006","route_short_name":"94","route_long_name":"Page","route_type":3,"route_color":"#FFFFFF","route_text_color":"#000000"}],"agency_name":"Metro St. Louis"},"geometry":{"type":"Point","coordinates":[-90.21285,38.63071]}},{"type":"Feature","properties":{"stop_id":"9086","stop_code":"9086","stop_name":"JEFFERSON @ OLIVE NB","stop_desc":"FAR SIDE JEFFERSON @ OLIVE NB","wheelchair_boarding":1,"routes":[{"route_id":"19594","agency_id":"70006","route_short_name":"4","route_long_name":"Natural Bridge","route_type":3,"route_color":"#FFFFFF","route_text_color":"#000000"}],"agency_name":"Metro St. Louis"},"geometry":{"type":"Point","coordinates":[-90.21396,38.63345]}},{"type":"Feature","properties":{"stop_id":"9088","stop_code":"9088","stop_name":"JEFFERSON @ WASHINGTON NB","stop_desc":"FAR SIDE JEFFERSON @ WASHINGTON NB","wheelchair_boarding":1,"routes":[{"route_id":"19594","agency_id":"70006","route_short_name":"4","route_long_name":"Natural Bridge","route_type":3,"route_color":"#FFFFFF","route_text_color":"#000000"}],"agency_name":"Metro St. Louis"},"geometry":{"type":"Point","coordinates":[-90.21288,38.63543]}},{"type":"Feature","properties":{"stop_id":"9090","stop_code":"9090","stop_name":"JEFFERSON @ DR ML KING NB","stop_desc":"FAR SIDE JEFFERSON @ DR ML KING NB","wheelchair_boarding":2,"routes":[{"route_id":"19594","agency_id":"70006","route_short_name":"4","route_long_name":"Natural Bridge","route_type":3,"route_color":"#FFFFFF","route_text_color":"#000000"}],"agency_name":"Metro St. Louis"},"geometry":{"type":"Point","coordinates":[-90.2127,38.63824]}},{"type":"Feature","properties":{"stop_id":"9091","stop_code":"9091","stop_name":"JEFFERSON @ CARR NB","stop_desc":"NEAR SIDE JEFFERSON @ CARR NB","wheelchair_boarding":2,"routes":[{"route_id":"19594","agency_id":"70006","route_short_name":"4","route_long_name":"Natural Bridge","route_type":3,"route_color":"#FFFFFF","route_text_color":"#000000"}],"agency_name":"Metro St. Louis"},"geometry":{"type":"Point","coordinates":[-90.21272,38.63964]}},{"type":"Feature","properties":{"stop_id":"9093","stop_code":"9093","stop_name":"JEFFERSON @ DAYTON NB","stop_desc":"NEAR SIDE JEFFERSON @ DAYTON NB","wheelchair_boarding":2,"routes":[{"route_id":"19594","agency_id":"70006","route_short_name":"4","route_long_name":"Natural Bridge","route_type":3,"route_color":"#FFFFFF","route_text_color":"#000000"}],"agency_name":"Metro St. Louis"},"geometry":{"type":"Point","coordinates":[-90.21262,38.64213]}},{"type":"Feature","properties":{"stop_id":"9095","stop_code":"9095","stop_name":"JEFFERSON @ CASS NB","stop_desc":"FAR SIDE JEFFERSON @ CASS NB","wheelchair_boarding":2,"routes":[{"route_id":"19594","agency_id":"70006","route_short_name":"4","route_long_name":"Natural Bridge","route_type":3,"route_color":"#FFFFFF","route_text_color":"#000000"}],"agency_name":"Metro St. Louis"},"geometry":{"type":"Point","coordinates":[-90.21277,38.64552]}},{"type":"Feature","properties":{"stop_id":"9098","stop_code":"9098","stop_name":"PARNELL @ NORTH MARKET NB","stop_desc":"NEAR SIDE PARNELL @ NORTH MARKET NB","wheelchair_boarding":2,"routes":[{"route_id":"19594","agency_id":"70006","route_short_name":"4","route_long_name":"Natural Bridge","route_type":3,"route_color":"#FFFFFF","route_text_color":"#000000"}],"agency_name":"Metro St. Louis"},"geometry":{"type":"Point","coordinates":[-90.2125,38.64911]}},{"type":"Feature","properties":{"stop_id":"9099","stop_code":"9099","stop_name":"PARNELL @ WARREN NB","stop_desc":"FAR SIDE PARNELL @ WARREN NB","wheelchair_boarding":2,"routes":[{"route_id":"19594","agency_id":"70006","route_short_name":"4","route_long_name":"Natural Bridge","route_type":3,"route_color":"#FFFFFF","route_text_color":"#000000"}],"agency_name":"Metro St. Louis"},"geometry":{"type":"Point","coordinates":[-90.21152,38.6512]}},{"type":"Feature","properties":{"stop_id":"9100","stop_code":"9100","stop_name":"PARNELL @ ST. LOUIS NB","stop_desc":"NEAR SIDE PARNELL @ ST. LOUIS NB","wheelchair_boarding":2,"routes":[{"route_id":"19594","agency_id":"70006","route_short_name":"4","route_long_name":"Natural Bridge","route_type":3,"route_color":"#FFFFFF","route_text_color":"#000000"}],"agency_name":"Metro St. Louis"},"geometry":{"type":"Point","coordinates":[-90.211,38.65269]}},{"type":"Feature","properties":{"stop_id":"9103","stop_code":"9103","stop_name":"PARNELL @ SULLIVAN NB","stop_desc":"FAR SIDE PARNELL @ SULLIVAN NB","wheelchair_boarding":1,"routes":[{"route_id":"19594","agency_id":"70006","route_short_name":"4","route_long_name":"Natural Bridge","route_type":3,"route_color":"#FFFFFF","route_text_color":"#000000"}],"agency_name":"Metro St. Louis"},"geometry":{"type":"Point","coordinates":[-90.20996,38.65569]}},{"type":"Feature","properties":{"stop_id":"9105","stop_code":"9105","stop_name":"NATURAL BRIDGE @ SALISBURY  WB","stop_desc":"FAR SIDE NATURAL BRIDGE @ SALISBURY  WB","wheelchair_boarding":1,"routes":[{"route_id":"19594","agency_id":"70006","route_short_name":"4","route_long_name":"Natural Bridge","route_type":3,"route_color":"#FFFFFF","route_text_color":"#000000"}],"agency_name":"Metro St. Louis"},"geometry":{"type":"Point","coordinates":[-90.21013,38.65824]}},{"type":"Feature","properties":{"stop_id":"9106","stop_code":"9106","stop_name":"NATURAL BRIDGE @ FARRAR WB","stop_desc":"FAR SIDE NATURAL BRIDGE @ FARRAR WB","wheelchair_boarding":1,"routes":[{"route_id":"19594","agency_id":"70006","route_short_name":"4","route_long_name":"Natural Bridge","route_type":3,"route_color":"#FFFFFF","route_text_color":"#000000"}],"agency_name":"Metro St. Louis"},"geometry":{"type":"Point","coordinates":[-90.21188,38.65901]}},{"type":"Feature","properties":{"stop_id":"9107","stop_code":"9107","stop_name":"NATURAL BRIDGE @ GLASGOW WB","stop_desc":"FAR SIDE NATURAL BRIDGE @ GLASGOW WB","wheelchair_boarding":2,"routes":[{"route_id":"19594","agency_id":"70006","route_short_name":"4","route_long_name":"Natural Bridge","route_type":3,"route_color":"#FFFFFF","route_text_color":"#000000"}],"agency_name":"Metro St. Louis"},"geometry":{"type":"Point","coordinates":[-90.21344,38.65979]}},{"type":"Feature","properties":{"stop_id":"9109","stop_code":"9109","stop_name":"NATURAL BRIDGE @ GRAND WB","stop_desc":"FAR SIDE NATURAL BRIDGE @ GRAND WB","wheelchair_boarding":1,"routes":[{"route_id":"19594","agency_id":"70006","route_short_name":"4","route_long_name":"Natural Bridge","route_type":3,"route_color":"#FFFFFF","route_text_color":"#000000"}],"agency_name":"Metro St. Louis"},"geometry":{"type":"Point","coordinates":[-90.21727,38.6615]}},{"type":"Feature","properties":{"stop_id":"9111","stop_code":"9111","stop_name":"NATURAL BRIDGE @ PRAIRIE WB","stop_desc":"NEAR SIDE NATURAL BRIDGE @ PRAIRIE WB","wheelchair_boarding":1,"routes":[{"route_id":"19594","agency_id":"70006","route_short_name":"4","route_long_name":"Natural Bridge","route_type":3,"route_color":"#FFFFFF","route_text_color":"#000000"}],"agency_name":"Metro St. Louis"},"geometry":{"type":"Point","coordinates":[-90.21989,38.66266]}},{"type":"Feature","properties":{"stop_id":"9112","stop_code":"9112","stop_name":"NATURAL BRIDGE @ VANDEVENTER WB","stop_desc":"NEAR SIDE NATURAL BRIDGE @ VANDEVENTER WB","wheelchair_boarding":1,"routes":[{"route_id":"19594","agency_id":"70006","route_short_name":"4","route_long_name":"Natural Bridge","route_type":3,"route_color":"#FFFFFF","route_text_color":"#000000"}],"agency_name":"Metro St. Louis"},"geometry":{"type":"Point","coordinates":[-90.22234,38.66372]}},{"type":"Feature","properties":{"stop_id":"9113","stop_code":"9113","stop_name":"NATURAL BRIDGE @ WARNE WB","stop_desc":"NEAR SIDE NATURAL BRIDGE @ WARNE WB","wheelchair_boarding":1,"routes":[{"route_id":"19594","agency_id":"70006","route_short_name":"4","route_long_name":"Natural Bridge","route_type":3,"route_color":"#FFFFFF","route_text_color":"#000000"}],"agency_name":"Metro St. Louis"},"geometry":{"type":"Point","coordinates":[-90.22479,38.66478]}},{"type":"Feature","properties":{"stop_id":"9115","stop_code":"9115","stop_name":"NATURAL BRIDGE @ FAIR WB","stop_desc":"NEAR SIDE NATURAL BRIDGE @ FAIR WB","wheelchair_boarding":1,"routes":[{"route_id":"19594","agency_id":"70006","route_short_name":"4","route_long_name":"Natural Bridge","route_type":3,"route_color":"#FFFFFF","route_text_color":"#000000"}],"agency_name":"Metro St. Louis"},"geometry":{"type":"Point","coordinates":[-90.2283,38.66633]}},{"type":"Feature","properties":{"stop_id":"9117","stop_code":"9117","stop_name":"NATURAL BRIDGE @ RED BUD WB","stop_desc":"FAR SIDE NATURAL BRIDGE @ RED BUD WB","wheelchair_boarding":2,"routes":[{"route_id":"19594","agency_id":"70006","route_short_name":"4","route_long_name":"Natural Bridge","route_type":3,"route_color":"#FFFFFF","route_text_color":"#000000"}],"agency_name":"Metro St. Louis"},"geometry":{"type":"Point","coordinates":[-90.23207,38.66797]}},{"type":"Feature","properties":{"stop_id":"9119","stop_code":"9119","stop_name":"NATURAL BRIDGE @ CLARENCE WB","stop_desc":"NEAR SIDE NATURAL BRIDGE @ CLARENCE WB","wheelchair_boarding":1,"routes":[{"route_id":"19594","agency_id":"70006","route_short_name":"4","route_long_name":"Natural Bridge","route_type":3,"route_color":"#FFFFFF","route_text_color":"#000000"}],"agency_name":"Metro St. Louis"},"geometry":{"type":"Point","coordinates":[-90.23457,38.66903]}},{"type":"Feature","properties":{"stop_id":"9120","stop_code":"9120","stop_name":"NATURAL BRIDGE @ NEWSTEAD WB","stop_desc":"NEAR SIDE NATURAL BRIDGE @ NEWSTEAD WB","wheelchair_boarding":1,"routes":[{"route_id":"19594","agency_id":"70006","route_short_name":"4","route_long_name":"Natural Bridge","route_type":3,"route_color":"#FFFFFF","route_text_color":"#000000"}],"agency_name":"Metro St. Louis"},"geometry":{"type":"Point","coordinates":[-90.23601,38.66969]}},{"type":"Feature","properties":{"stop_id":"9122","stop_code":"9122","stop_name":"NATURAL BRIDGE @ TAYLOR WB","stop_desc":"NEAR SIDE NATURAL BRIDGE @ TAYLOR WB","wheelchair_boarding":1,"routes":[{"route_id":"19594","agency_id":"70006","route_short_name":"4","route_long_name":"Natural Bridge","route_type":3,"route_color":"#FFFFFF","route_text_color":"#000000"}],"agency_name":"Metro St. Louis"},"geometry":{"type":"Point","coordinates":[-90.23902,38.67102]}},{"type":"Feature","properties":{"stop_id":"9124","stop_code":"9124","stop_name":"NATURAL BRIDGE @ MARCUS WB","stop_desc":"FAR SIDE NATURAL BRIDGE @ MARCUS WB","wheelchair_boarding":2,"routes":[{"route_id":"19594","agency_id":"70006","route_short_name":"4","route_long_name":"Natural Bridge","route_type":3,"route_color":"#FFFFFF","route_text_color":"#000000"}],"agency_name":"Metro St. Louis"},"geometry":{"type":"Point","coordinates":[-90.24342,38.67284]}},{"type":"Feature","properties":{"stop_id":"9125","stop_code":"9125","stop_name":"NATURAL BRIDGE @ SHREVE WB","stop_desc":"FAR SIDE NATURAL BRIDGE @ SHREVE WB","wheelchair_boarding":2,"routes":[{"route_id":"19594","agency_id":"70006","route_short_name":"4","route_long_name":"Natural Bridge","route_type":3,"route_color":"#FFFFFF","route_text_color":"#000000"}],"agency_name":"Metro St. Louis"},"geometry":{"type":"Point","coordinates":[-90.24622,38.67403]}},{"type":"Feature","properties":{"stop_id":"9126","stop_code":"9126","stop_name":"NATURAL BRIDGE @ EUCLID WB","stop_desc":"NEAR SIDE NATURAL BRIDGE @ EUCLID WB","wheelchair_boarding":2,"routes":[{"route_id":"19594","agency_id":"70006","route_short_name":"4","route_long_name":"Natural Bridge","route_type":3,"route_color":"#FFFFFF","route_text_color":"#000000"}],"agency_name":"Metro St. Louis"},"geometry":{"type":"Point","coordinates":[-90.24904,38.67525]}},{"type":"Feature","properties":{"stop_id":"9127","stop_code":"9127","stop_name":"NATURAL BRIDGE @ KINGSHIGHWAY WB","stop_desc":"NEAR SIDE NATURAL BRIDGE @ KINGSHIGHWAY WB","wheelchair_boarding":1,"routes":[{"route_id":"19594","agency_id":"70006","route_short_name":"4","route_long_name":"Natural Bridge","route_type":3,"route_color":"#FFFFFF","route_text_color":"#000000"}],"agency_name":"Metro St. Louis"},"geometry":{"type":"Point","coordinates":[-90.25124,38.67622]}},{"type":"Feature","properties":{"stop_id":"9130","stop_code":"9130","stop_name":"NATURAL BRIDGE @ UNION WB","stop_desc":"FAR SIDE NATURAL BRIDGE @ UNION WB","wheelchair_boarding":1,"routes":[{"route_id":"19594","agency_id":"70006","route_short_name":"4","route_long_name":"Natural Bridge","route_type":3,"route_color":"#FFFFFF","route_text_color":"#000000"}],"agency_name":"Metro St. Louis"},"geometry":{"type":"Point","coordinates":[-90.25852,38.67947]}},{"type":"Feature","properties":{"stop_id":"9131","stop_code":"9131","stop_name":"NATURAL BRIDGE @ ABNER PLACE WB","stop_desc":"NEAR SIDE NATURAL BRIDGE @ ABNER PLACE WB","wheelchair_boarding":1,"routes":[{"route_id":"19594","agency_id":"70006","route_short_name":"4","route_long_name":"Natural Bridge","route_type":3,"route_color":"#FFFFFF","route_text_color":"#000000"}],"agency_name":"Metro St. Louis"},"geometry":{"type":"Point","coordinates":[-90.25987,38.68007]}},{"type":"Feature","properties":{"stop_id":"9133","stop_code":"9133","stop_name":"NATURAL BRIDGE @ BELT WB","stop_desc":"NEAR SIDE NATURAL BRIDGE @ BELT WB","wheelchair_boarding":1,"routes":[{"route_id":"19594","agency_id":"70006","route_short_name":"4","route_long_name":"Natural Bridge","route_type":3,"route_color":"#FFFFFF","route_text_color":"#000000"}],"agency_name":"Metro St. Louis"},"geometry":{"type":"Point","coordinates":[-90.26312,38.6815]}},{"type":"Feature","properties":{"stop_id":"9134","stop_code":"9134","stop_name":"NATURAL BRIDGE @ CLARA WB","stop_desc":"NEAR SIDE NATURAL BRIDGE @ CLARA WB","wheelchair_boarding":1,"routes":[{"route_id":"19594","agency_id":"70006","route_short_name":"4","route_long_name":"Natural Bridge","route_type":3,"route_color":"#FFFFFF","route_text_color":"#000000"}],"agency_name":"Metro St. Louis"},"geometry":{"type":"Point","coordinates":[-90.26621,38.68286]}},{"type":"Feature","properties":{"stop_id":"9135","stop_code":"9135","stop_name":"NATURAL BRIDGE @ GOODFELLOW WB","stop_desc":"FAR SIDE NATURAL BRIDGE @ GOODFELLOW WB","wheelchair_boarding":1,"routes":[{"route_id":"19594","agency_id":"70006","route_short_name":"4","route_long_name":"Natural Bridge","route_type":3,"route_color":"#FFFFFF","route_text_color":"#000000"}],"agency_name":"Metro St. Louis"},"geometry":{"type":"Point","coordinates":[-90.27182,38.68643]}},{"type":"Feature","properties":{"stop_id":"9137","stop_code":"9137","stop_name":"NATURAL BRIDGE @ DARBY WB","stop_desc":"NEAR SIDE NATURAL BRIDGE @ DARBY WB","wheelchair_boarding":1,"routes":[{"route_id":"19594","agency_id":"70006","route_short_name":"4","route_long_name":"Natural Bridge","route_type":3,"route_color":"#FFFFFF","route_text_color":"#000000"}],"agency_name":"Metro St. Louis"},"geometry":{"type":"Point","coordinates":[-90.27455,38.68876]}},{"type":"Feature","properties":{"stop_id":"9139","stop_code":"9139","stop_name":"NATURAL BRIDGE @ FRANCIS WB","stop_desc":"NEAR SIDE NATURAL BRIDGE @ FRANCIS WB","wheelchair_boarding":2,"routes":[{"route_id":"19594","agency_id":"70006","route_short_name":"4","route_long_name":"Natural Bridge","route_type":3,"route_color":"#FFFFFF","route_text_color":"#000000"}],"agency_name":"Metro St. Louis"},"geometry":{"type":"Point","coordinates":[-90.27794,38.69171]}},{"type":"Feature","properties":{"stop_id":"9141","stop_code":"9141","stop_name":"NATURAL BRIDGE @ PINE GROVE WB","stop_desc":"FAR SIDE NATURAL BRIDGE @ PINE GROVE WB","wheelchair_boarding":1,"routes":[{"route_id":"19594","agency_id":"70006","route_short_name":"4","route_long_name":"Natural Bridge","route_type":3,"route_color":"#FFFFFF","route_text_color":"#000000"}],"agency_name":"Metro St. Louis"},"geometry":{"type":"Point","coordinates":[-90.2806,38.69365]}},{"type":"Feature","properties":{"stop_id":"9142","stop_code":"9142","stop_name":"NATURAL BRIDGE @ SALOME PLACE WB","stop_desc":"FAR SIDE NATURAL BRIDGE @ SALOME PLACE WB","wheelchair_boarding":2,"routes":[{"route_id":"19594","agency_id":"70006","route_short_name":"4","route_long_name":"Natural Bridge","route_type":3,"route_color":"#FFFFFF","route_text_color":"#000000"}],"agency_name":"Metro St. Louis"},"geometry":{"type":"Point","coordinates":[-90.28277,38.69451]}},{"type":"Feature","properties":{"stop_id":"9144","stop_code":"9144","stop_name":"NATURAL BRIDGE @ LAWLER WB","stop_desc":"FAR SIDE NATURAL BRIDGE @ LAWLER WB","wheelchair_boarding":2,"routes":[{"route_id":"19594","agency_id":"70006","route_short_name":"4","route_long_name":"Natural Bridge","route_type":3,"route_color":"#FFFFFF","route_text_color":"#000000"}],"agency_name":"Metro St. Louis"},"geometry":{"type":"Point","coordinates":[-90.28564,38.69574]}},{"type":"Feature","properties":{"stop_id":"9146","stop_code":"9146","stop_name":"NATURAL BRIDGE @ NELSON WB","stop_desc":"NEAR SIDE NATURAL BRIDGE @ NELSON WB","wheelchair_boarding":2,"routes":[{"route_id":"19594","agency_id":"70006","route_short_name":"4","route_long_name":"Natural Bridge","route_type":3,"route_color":"#FFFFFF","route_text_color":"#000000"}],"agency_name":"Metro St. Louis"},"geometry":{"type":"Point","coordinates":[-90.28765,38.69771]}},{"type":"Feature","properties":{"stop_id":"9147","stop_code":"9147","stop_name":"NATURAL BRIDGE @ COLONIAL WB","stop_desc":"FAR SIDE NATURAL BRIDGE @ COLONIAL WB","wheelchair_boarding":2,"routes":[{"route_id":"19594","agency_id":"70006","route_short_name":"4","route_long_name":"Natural Bridge","route_type":3,"route_color":"#FFFFFF","route_text_color":"#000000"}],"agency_name":"Metro St. Louis"},"geometry":{"type":"Point","coordinates":[-90.28922,38.69914]}},{"type":"Feature","properties":{"stop_id":"9148","stop_code":"9148","stop_name":"NATURAL BRIDGE @ LINCOLN WB","stop_desc":"FAR SIDE NATURAL BRIDGE @ LINCOLN WB","wheelchair_boarding":1,"routes":[{"route_id":"19594","agency_id":"70006","route_short_name":"4","route_long_name":"Natural Bridge","route_type":3,"route_color":"#FFFFFF","route_text_color":"#000000"}],"agency_name":"Metro St. Louis"},"geometry":{"type":"Point","coordinates":[-90.29082,38.70031]}},{"type":"Feature","properties":{"stop_id":"9149","stop_code":"9149","stop_name":"NATURAL BRIDGE @ LUCAS-HUNT WB","stop_desc":"FAR SIDE NATURAL BRIDGE @ LUCAS-HUNT WB","wheelchair_boarding":1,"routes":[{"route_id":"19594","agency_id":"70006","route_short_name":"4","route_long_name":"Natural Bridge","route_type":3,"route_color":"#FFFFFF","route_text_color":"#000000"}],"agency_name":"Metro St. Louis"},"geometry":{"type":"Point","coordinates":[-90.2931,38.70189]}},{"type":"Feature","properties":{"stop_id":"9151","stop_code":"9151","stop_name":"7277 NATURAL BRIDGE WB","stop_desc":"MID-BLOCK 7277 NATURAL BRIDGE WB","wheelchair_boarding":1,"routes":[{"route_id":"19594","agency_id":"70006","route_short_name":"4","route_long_name":"Natural Bridge","route_type":3,"route_color":"#FFFFFF","route_text_color":"#000000"}],"agency_name":"Metro St. Louis"},"geometry":{"type":"Point","coordinates":[-90.29555,38.70362]}},{"type":"Feature","properties":{"stop_id":"9152","stop_code":"9152","stop_name":"NATURAL BRIDGE @ ST. MARYS WB","stop_desc":"FAR SIDE NATURAL BRIDGE @ ST. MARYS WB","wheelchair_boarding":1,"routes":[{"route_id":"19594","agency_id":"70006","route_short_name":"4","route_long_name":"Natural Bridge","route_type":3,"route_color":"#FFFFFF","route_text_color":"#000000"}],"agency_name":"Metro St. Louis"},"geometry":{"type":"Point","coordinates":[-90.2976,38.7045]}},{"type":"Feature","properties":{"stop_id":"9154","stop_code":"9154","stop_name":"NATURAL BRIDGE @ ST. ANNS WB","stop_desc":"FAR SIDE NATURAL BRIDGE @ ST. ANNS WB","wheelchair_boarding":1,"routes":[{"route_id":"19594","agency_id":"70006","route_short_name":"4","route_long_name":"Natural Bridge","route_type":3,"route_color":"#FFFFFF","route_text_color":"#000000"}],"agency_name":"Metro St. Louis"},"geometry":{"type":"Point","coordinates":[-90.3014,38.70579]}},{"type":"Feature","properties":{"stop_id":"9156","stop_code":"9156","stop_name":"NATURAL BRIDGE @ MARIETTA WB","stop_desc":"FAR SIDE NATURAL BRIDGE @ MARIETTA WB","wheelchair_boarding":1,"routes":[{"route_id":"19594","agency_id":"70006","route_short_name":"4","route_long_name":"Natural Bridge","route_type":3,"route_color":"#FFFFFF","route_text_color":"#000000"}],"agency_name":"Metro St. Louis"},"geometry":{"type":"Point","coordinates":[-90.30331,38.70649]}},{"type":"Feature","properties":{"stop_id":"9157","stop_code":"9157","stop_name":"UMSL SOUTH TRANSIT CENTER","wheelchair_boarding":1,"routes":[{"route_id":"19594","agency_id":"70006","route_short_name":"4","route_long_name":"Natural Bridge","route_type":3,"route_color":"#FFFFFF","route_text_color":"#000000"}],"agency_name":"Metro St. Louis"},"geometry":{"type":"Point","coordinates":[-90.3053,38.70528]}},{"type":"Feature","properties":{"stop_id":"9159","stop_code":"9159","stop_name":"NATURAL BRIDGE @ NORMANDY MIDDLE SCHOOL WB","stop_desc":"FAR SIDE NATURAL BRIDGE @ NORMANDY MIDDLE SCHOOL WB","wheelchair_boarding":1,"routes":[{"route_id":"19594","agency_id":"70006","route_short_name":"4","route_long_name":"Natural Bridge","route_type":3,"route_color":"#FFFFFF","route_text_color":"#000000"}],"agency_name":"Metro St. Louis"},"geometry":{"type":"Point","coordinates":[-90.30763,38.70745]}},{"type":"Feature","properties":{"stop_id":"9160","stop_code":"9160","stop_name":"NATURAL BRIDGE @ UNIVERSITY WB","stop_desc":"FAR SIDE NATURAL BRIDGE @ UNIVERSITY WB","wheelchair_boarding":1,"routes":[{"route_id":"19594","agency_id":"70006","route_short_name":"4","route_long_name":"Natural Bridge","route_type":3,"route_color":"#FFFFFF","route_text_color":"#000000"}],"agency_name":"Metro St. Louis"},"geometry":{"type":"Point","coordinates":[-90.31179,38.70707]}},{"type":"Feature","properties":{"stop_id":"9161","stop_code":"9161","stop_name":"NATURAL BRIDGE @ WEST WB","stop_desc":"FAR SIDE NATURAL BRIDGE @ WEST WB","wheelchair_boarding":1,"routes":[{"route_id":"19594","agency_id":"70006","route_short_name":"4","route_long_name":"Natural Bridge","route_type":3,"route_color":"#FFFFFF","route_text_color":"#000000"}],"agency_name":"Metro St. Louis"},"geometry":{"type":"Point","coordinates":[-90.31509,38.70742]}},{"type":"Feature","properties":{"stop_id":"9163","stop_code":"9163","stop_name":"8443 NATURAL BRIDGE WB","stop_desc":"MID-BLOCK 8443 NATURAL BRIDGE WB","wheelchair_boarding":1,"routes":[{"route_id":"19594","agency_id":"70006","route_short_name":"4","route_long_name":"Natural Bridge","route_type":3,"route_color":"#FFFFFF","route_text_color":"#000000"}],"agency_name":"Metro St. Louis"},"geometry":{"type":"Point","coordinates":[-90.31764,38.70926]}},{"type":"Feature","properties":{"stop_id":"9164","stop_code":"9164","stop_name":"NATURAL BRIDGE @ NORTH HANLEY WB","stop_desc":"NEAR SIDE NATURAL BRIDGE @ NORTH HANLEY WB","wheelchair_boarding":1,"routes":[{"route_id":"19594","agency_id":"70006","route_short_name":"4","route_long_name":"Natural Bridge","route_type":3,"route_color":"#FFFFFF","route_text_color":"#000000"}],"agency_name":"Metro St. Louis"},"geometry":{"type":"Point","coordinates":[-90.31886,38.71029]}},{"type":"Feature","properties":{"stop_id":"9253","stop_code":"9253","stop_name":"NATURAL BRIDGE @ GERALDINE WB","stop_desc":"FAR SIDE NATURAL BRIDGE @ GERALDINE WB","wheelchair_boarding":1,"routes":[{"route_id":"19594","agency_id":"70006","route_short_name":"4","route_long_name":"Natural Bridge","route_type":3,"route_color":"#FFFFFF","route_text_color":"#000000"}],"agency_name":"Metro St. Louis"},"geometry":{"type":"Point","coordinates":[-90.25627,38.67839]}},{"type":"Feature","properties":{"stop_id":"9287","stop_code":"9287","stop_name":"JEFFERSON @ THOMAS NB","stop_desc":"NEAR SIDE JEFFERSON @ THOMAS NB","wheelchair_boarding":2,"routes":[{"route_id":"19594","agency_id":"70006","route_short_name":"4","route_long_name":"Natural Bridge","route_type":3,"route_color":"#FFFFFF","route_text_color":"#000000"}],"agency_name":"Metro St. Louis"},"geometry":{"type":"Point","coordinates":[-90.21265,38.64353]}}]}