{"type":"FeatureCollection","features":[{"type":"Feature","properties":{"agency_name":"Metro St. Louis","route_id":"19601","agency_id":"70006","route_short_name":"16","route_long_name":"City Limits","route_type":3,"route_color":"#FFFFFF","route_text_color":"#000000"},"geometry":{"type":"MultiLineString","coordinates":[[[-90.31943,38.5928],[-90.31913,38.59282],[-90.31943,38.5928],[-90.31983,38.59272],[-90.31988,38.59268],[-90.31991,38.59263],[-90.31989,38.59254],[-90.31984,38.5925],[-90.31977,38.59249],[-90.3194,38.59258],[-90.31876,38.59278],[-90.31856,38.59279],[-90.31842,38.59254],[-90.31844,38.59222],[-90.31641,38.59207],[-90.31475,38.59187],[-90.30976,38.59136],[-90.30945,38.59312],[-90.30849,38.5983],[-90.30816,38.60039],[-90.30797,38.60146],[-90.30754,38.60413],[-90.30734,38.60523],[-90.30724,38.60586],[-90.30722,38.6061],[-90.30716,38.60638],[-90.30675,38.60782],[-90.30661,38.60878],[-90.30735,38.6091],[-90.30794,38.60942],[-90.31019,38.61051],[-90.30996,38.61091],[-90.30918,38.61275],[-90.31041,38.61294],[-90.31065,38.61293],[-90.31095,38.61295],[-90.31409,38.61335],[-90.31391,38.61422],[-90.31381,38.61524],[-90.31352,38.61715],[-90.31349,38.61757],[-90.31361,38.61856],[-90.31358,38.61893],[-90.31349,38.6196],[-90.31319,38.62139],[-90.3131,38.62226],[-90.3131,38.62256],[-90.31308,38.6227],[-90.31302,38.62386],[-90.31312,38.62433],[-90.31266,38.62656],[-90.31266,38.62665],[-90.31279,38.6273],[-90.31251,38.62884],[-90.31236,38.62933],[-90.31222,38.63007],[-90.31223,38.63023],[-90.31235,38.63046],[-90.31238,38.63056],[-90.31239,38.63067],[-90.31229,38.6314],[-90.31196,38.63347],[-90.31087,38.63401],[-90.30798,38.63373],[-90.30432,38.6334],[-90.30406,38.6343],[-90.30382,38.63533],[-90.30366,38.63622],[-90.3034,38.63838],[-90.30316,38.63943],[-90.30284,38.64103],[-90.30251,38.64204],[-90.30158,38.6445],[-90.30135,38.64533],[-90.30122,38.64598],[-90.30103,38.64735],[-90.3007,38.64932],[-90.30062,38.65006],[-90.29985,38.65453],[-90.29977,38.65507],[-90.29911,38.65539],[-90.29601,38.65508],[-90.29604,38.65541],[-90.29608,38.65562],[-90.29582,38.65575],[-90.29533,38.65568],[-90.29512,38.65559],[-90.29503,38.65552],[-90.29496,38.65543],[-90.29469,38.65495]],[[-90.29615,38.65583],[-90.29608,38.65562],[-90.29615,38.65583],[-90.29636,38.65604],[-90.29654,38.65616],[-90.29673,38.65626],[-90.29703,38.65636],[-90.29772,38.65645],[-90.29949,38.65661],[-90.29941,38.65719],[-90.29934,38.65751],[-90.29926,38.6578],[-90.299,38.65839],[-90.29868,38.6589],[-90.29853,38.65898],[-90.29844,38.65911],[-90.29835,38.65927],[-90.29802,38.66005],[-90.29788,38.66034],[-90.29773,38.66056],[-90.29759,38.6607],[-90.29743,38.66082],[-90.29725,38.66092],[-90.29676,38.66113],[-90.29536,38.66178],[-90.29512,38.66192],[-90.295,38.66201],[-90.29488,38.66212],[-90.29467,38.66236],[-90.29458,38.66251],[-90.29444,38.66288],[-90.29432,38.66398],[-90.29425,38.66436],[-90.29413,38.66478],[-90.29395,38.66515],[-90.29377,38.66543],[-90.29358,38.66568],[-90.28993,38.67028],[-90.28986,38.67038],[-90.28984,38.67049],[-90.28953,38.67091],[-90.28928,38.67134],[-90.28915,38.67165],[-90.28902,38.67201],[-90.28878,38.67282],[-90.28818,38.67468],[-90.28806,38.67496],[-90.28791,38.67522],[-90.28708,38.67619],[-90.28671,38.67669],[-90.2854,38.67858],[-90.285,38.67913],[-90.2848,38.67938],[-90.28391,38.68065],[-90.28288,38.68207],[-90.28256,38.68255],[-90.28218,38.68323],[-90.28169,38.68388],[-90.28132,38.68431],[-90.28076,38.68504],[-90.28022,38.68584],[-90.27752,38.68958],[-90.27746,38.68978],[-90.27743,38.69097],[-90.27735,38.69107],[-90.27685,38.69188],[-90.27595,38.6932],[-90.27131,38.69974],[-90.26973,38.70194],[-90.26945,38.70232],[-90.26926,38.70251],[-90.26905,38.70283],[-90.26901,38.7029],[-90.26898,38.70301],[-90.26891,38.7034],[-90.26894,38.70378],[-90.26899,38.70399],[-90.26953,38.70488],[-90.26959,38.70505],[-90.2696,38.70513],[-90.26962,38.70537],[-90.26957,38.70561],[-90.26944,38.70595],[-90.26906,38.70656],[-90.26827,38.70766],[-90.26769,38.70851],[-90.26712,38.70923],[-90.26651,38.71017],[-90.266,38.71118],[-90.26417,38.71371],[-90.26373,38.71429],[-90.26347,38.71467],[-90.26178,38.71697],[-90.26137,38.71765],[-90.26102,38.71816],[-90.26077,38.71844],[-90.26044,38.71872],[-90.2591,38.71971],[-90.2579,38.72057],[-90.25698,38.72118],[-90.25436,38.72274],[-90.25325,38.72342],[-90.25244,38.7239],[-90.25197,38.72415],[-90.25061,38.7247],[-90.24828,38.7256],[-90.24632,38.72641],[-90.24481,38.727],[-90.24267,38.72786],[-90.23952,38.72903],[-90.23513,38.73076],[-90.2348,38.73085],[-90.23435,38.73092],[-90.23374,38.73091],[-90.23294,38.7308],[-90.23245,38.73075],[-90.22997,38.73039],[-90.2295,38.73029],[-90.22914,38.73015],[-90.22867,38.73003],[-90.22811,38.72999],[-90.22816,38.72958],[-90.22815,38.72912],[-90.22805,38.72824],[-90.22792,38.72679],[-90.22792,38.72652],[-90.22794,38.72633],[-90.22586,38.72692],[-90.22471,38.72717],[-90.22461,38.72711]],[[-90.22397,38.72733],[-90.22461,38.72711]]]}},{"type":"Feature","properties":{"stop_id":"10311","stop_code":"10311","stop_name":"JAMIESON @ LANSDOWNE NB","stop_desc":"FAR SIDE JAMIESON @ LANSDOWNE NB","wheelchair_boarding":1,"routes":[{"route_id":"19601","agency_id":"70006","route_short_name":"16","route_long_name":"City Limits","route_type":3,"route_color":"#FFFFFF","route_text_color":"#000000"}],"agency_name":"Metro St. Louis"},"geometry":{"type":"Point","coordinates":[-90.30956,38.59171]}},{"type":"Feature","properties":{"stop_id":"13287","stop_code":"13287","stop_name":"SKINKER @ ETZEL NB","stop_desc":"NEAR SIDE SKINKER @ ETZEL NB","wheelchair_boarding":1,"routes":[{"route_id":"19601","agency_id":"70006","route_short_name":"16","route_long_name":"City Limits","route_type":3,"route_color":"#FFFFFF","route_text_color":"#000000"}],"agency_name":"Metro St. Louis"},"geometry":{"type":"Point","coordinates":[-90.29365,38.66551]}},{"type":"Feature","properties":{"stop_id":"13400","stop_code":"13400","stop_name":"BELLEVUE @ CLAYTON NB","stop_desc":"NEAR SIDE BELLEVUE @ CLAYTON NB","wheelchair_boarding":1,"routes":[{"route_id":"19601","agency_id":"70006","route_short_name":"16","route_long_name":"City Limits","route_type":3,"route_color":"#FFFFFF","route_text_color":"#000000"},{"route_id":"19618","agency_id":"70006","route_short_name":"59","route_long_name":"Oakland","route_type":3,"route_color":"#FFFFFF","route_text_color":"#000000"}],"agency_name":"Metro St. Louis"},"geometry":{"type":"Point","coordinates":[-90.31205,38.63276]}},{"type":"Feature","properties":{"stop_id":"14484","stop_code":"14484","stop_name":"SKINKER @ PERSHING NB","stop_desc":"FAR SIDE SKINKER @ PERSHING NB","wheelchair_boarding":1,"routes":[{"route_id":"19592","agency_id":"70006","route_short_name":"1","route_long_name":"Gold","route_type":3,"route_color":"#FFFFFF","route_text_color":"#000000"},{"route_id":"19593","agency_id":"70006","route_short_name":"2","route_long_name":"Red","route_type":3,"route_color":"#FFFFFF","route_text_color":"#000000"},{"route_id":"19601","agency_id":"70006","route_short_name":"16","route_long_name":"City Limits","route_type":3,"route_color":"#FFFFFF","route_text_color":"#000000"}],"agency_name":"Metro St. Louis"},"geometry":{"type":"Point","coordinates":[-90.3005,38.65018]}},{"type":"Feature","properties":{"stop_id":"14716","stop_code":"14716","stop_name":"JENNINGS STATION ROAD @ DUENKE EB","stop_desc":"NEAR SIDE JENNINGS STATION ROAD @ DUENKE EB","wheelchair_boarding":2,"routes":[{"route_id":"19601","agency_id":"70006","route_short_name":"16","route_long_name":"City Limits","route_type":3,"route_color":"#FFFFFF","route_text_color":"#000000"}],"agency_name":"Metro St. Louis"},"geometry":{"type":"Point","coordinates":[-90.23903,38.72918]}},{"type":"Feature","properties":{"stop_id":"14717","stop_code":"14717","stop_name":"JENNINGS STATION ROAD @ HOPEDALE EB","stop_desc":"NEAR SIDE JENNINGS STATION ROAD @ HOPEDALE EB","wheelchair_boarding":2,"routes":[{"route_id":"19601","agency_id":"70006","route_short_name":"16","route_long_name":"City Limits","route_type":3,"route_color":"#FFFFFF","route_text_color":"#000000"}],"agency_name":"Metro St. Louis"},"geometry":{"type":"Point","coordinates":[-90.23252,38.73069]}},{"type":"Feature","properties":{"stop_id":"14769","stop_code":"14769","stop_name":"SHREWSBURY-LANSDOWNE I-44 TRANSIT CENTER","wheelchair_boarding":1,"routes":[{"route_id":"19599","agency_id":"70006","route_short_name":"11","route_long_name":"Chippewa","route_type":3,"route_color":"#FFFFFF","route_text_color":"#000000"},{"route_id":"19601","agency_id":"70006","route_short_name":"16","route_long_name":"City Limits","route_type":3,"route_color":"#FFFFFF","route_text_color":"#000000"},{"route_id":"19604","agency_id":"70006","route_short_name":"21","route_long_name":"Watson Rd","route_type":3,"route_color":"#FFFFFF","route_text_color":"#000000"},{"route_id":"19605","agency_id":"70006","route_short_name":"30","route_long_name":"Arsenal","route_type":3,"route_color":"#FFFFFF","route_text_color":"#000000"}],"agency_name":"Metro St. Louis"},"geometry":{"type":"Point","coordinates":[-90.31925,38.59277]}},{"type":"Feature","properties":{"stop_id":"15051","stop_code":"15051","stop_name":"ENRIGHT @ ROSEDALE WB","stop_desc":"FAR SIDE ENRIGHT @ ROSEDALE WB","wheelchair_boarding":2,"routes":[{"route_id":"19593","agency_id":"70006","route_short_name":"2","route_long_name":"Red","route_type":3,"route_color":"#FFFFFF","route_text_color":"#000000"},{"route_id":"19601","agency_id":"70006","route_short_name":"16","route_long_name":"City Limits","route_type":3,"route_color":"#FFFFFF","route_text_color":"#000000"},{"route_id":"19630","agency_id":"70006","route_short_name":"91","route_long_name":"Olive","route_type":3,"route_color":"#FFFFFF","route_text_color":"#000000"}],"agency_name":"Metro St. Louis"},"geometry":{"type":"Point","coordinates":[-90.29733,38.65645]}},{"type":"Feature","properties":{"stop_id":"15073","stop_code":"15073","stop_name":"RIVERVIEW @ BROADWAY EB","stop_desc":"FAR SIDE RIVERVIEW @ BROADWAY EB","wheelchair_boarding":2,"routes":[{"route_id":"19601","agency_id":"70006","route_short_name":"16","route_long_name":"City Limits","route_type":3,"route_color":"#FFFFFF","route_text_color":"#000000"},{"route_id":"19611","agency_id":"70006","route_short_name":"40","route_long_name":"Broadway-Halls Ferry","route_type":3,"route_color":"#FFFFFF","route_text_color":"#000000"},{"route_id":"19612","agency_id":"70006","route_short_name":"41","route_long_name":"Lee","route_type":3,"route_color":"#FFFFFF","route_text_color":"#000000"},{"route_id":"19619","agency_id":"70006","route_short_name":"60","route_long_name":"Shepley-Lilac","route_type":3,"route_color":"#FFFFFF","route_text_color":"#000000"},{"route_id":"19620","agency_id":"70006","route_short_name":"61","route_long_name":"Chambers Rd","route_type":3,"route_color":"#FFFFFF","route_text_color":"#000000"},{"route_id":"19621","agency_id":"70006","route_short_name":"64","route_long_name":"Lucas-Hunt","route_type":3,"route_color":"#FFFFFF","route_text_color":"#000000"},{"route_id":"19627","agency_id":"70006","route_short_name":"78","route_long_name":"Bellefontaine","route_type":3,"route_color":"#FFFFFF","route_text_color":"#000000"},{"route_id":"19629","agency_id":"70006","route_short_name":"90","route_long_name":"Hampton","route_type":3,"route_color":"#FFFFFF","route_text_color":"#000000"}],"agency_name":"Metro St. Louis"},"geometry":{"type":"Point","coordinates":[-90.22708,38.72658]}},{"type":"Feature","properties":{"stop_id":"15159","stop_code":"15159","stop_name":"JENNINGS STATION ROAD @ WEDGEWOOD NB","stop_desc":"FAR SIDE JENNINGS STATION ROAD @ WEDGEWOOD NB","wheelchair_boarding":2,"routes":[{"route_id":"19601","agency_id":"70006","route_short_name":"16","route_long_name":"City Limits","route_type":3,"route_color":"#FFFFFF","route_text_color":"#000000"}],"agency_name":"Metro St. Louis"},"geometry":{"type":"Point","coordinates":[-90.24817,38.72557]}},{"type":"Feature","properties":{"stop_id":"15183","stop_code":"15183","stop_name":"SKINKER @ VERNON NB","stop_desc":"NEAR SIDE SKINKER @ VERNON NB","wheelchair_boarding":1,"routes":[{"route_id":"19601","agency_id":"70006","route_short_name":"16","route_long_name":"City Limits","route_type":3,"route_color":"#FFFFFF","route_text_color":"#000000"},{"route_id":"19630","agency_id":"70006","route_short_name":"91","route_long_name":"Olive","route_type":3,"route_color":"#FFFFFF","route_text_color":"#000000"}],"agency_name":"Metro St. Louis"},"geometry":{"type":"Point","coordinates":[-90.29901,38.65818]}},{"type":"Feature","properties":{"stop_id":"1771","stop_code":"1771","stop_name":"JAMIESON @ PERNOD NB","stop_desc":"NEAR SIDE JAMIESON @ PERNOD NB","wheelchair_boarding":2,"routes":[{"route_id":"19601","agency_id":"70006","route_short_name":"16","route_long_name":"City Limits","route_type":3,"route_color":"#FFFFFF","route_text_color":"#000000"}],"agency_name":"Metro St. Louis"},"geometry":{"type":"Point","coordinates":[-90.30843,38.59812]}},{"type":"Feature","properties":{"stop_id":"1776","stop_code":"1776","stop_name":"JAMIESON @ FYLER NB","stop_desc":"FAR SIDE JAMIESON @ FYLER NB","wheelchair_boarding":2,"routes":[{"route_id":"19601","agency_id":"70006","route_short_name":"16","route_long_name":"City Limits","route_type":3,"route_color":"#FFFFFF","route_text_color":"#000000"}],"agency_name":"Metro St. Louis"},"geometry":{"type":"Point","coordinates":[-90.30745,38.60375]}},{"type":"Feature","properties":{"stop_id":"1778","stop_code":"1778","stop_name":"JAMIESON @ SMILEY NB","stop_desc":"NEAR SIDE JAMIESON @ SMILEY NB","wheelchair_boarding":2,"routes":[{"route_id":"19601","agency_id":"70006","route_short_name":"16","route_long_name":"City Limits","route_type":3,"route_color":"#FFFFFF","route_text_color":"#000000"}],"agency_name":"Metro St. Louis"},"geometry":{"type":"Point","coordinates":[-90.30689,38.60691]}},{"type":"Feature","properties":{"stop_id":"2096","stop_code":"2096","stop_name":"DELMAR @ 6144 DELMAR EB","stop_desc":"MID-BLOCK DELMAR @ 6144 DELMAR EB","wheelchair_boarding":1,"routes":[{"route_id":"19593","agency_id":"70006","route_short_name":"2","route_long_name":"Red","route_type":3,"route_color":"#FFFFFF","route_text_color":"#000000"},{"route_id":"19601","agency_id":"70006","route_short_name":"16","route_long_name":"City Limits","route_type":3,"route_color":"#FFFFFF","route_text_color":"#000000"},{"route_id":"19633","agency_id":"70006","route_short_name":"97","route_long_name":"Delmar","route_type":3,"route_color":"#FFFFFF","route_text_color":"#000000"}],"agency_name":"Metro St. Louis"},"geometry":{"type":"Point","coordinates":[-90.29771,38.65516]}},{"type":"Feature","properties":{"stop_id":"2097","stop_code":"2097","stop_name":"DELMAR LOOP TRANSIT CENTER EB","wheelchair_boarding":1,"routes":[{"route_id":"19593","agency_id":"70006","route_short_name":"2","route_long_name":"Red","route_type":3,"route_color":"#FFFFFF","route_text_color":"#000000"},{"route_id":"19601","agency_id":"70006","route_short_name":"16","route_long_name":"City Limits","route_type":3,"route_color":"#FFFFFF","route_text_color":"#000000"},{"route_id":"19630","agency_id":"70006","route_short_name":"91","route_long_name":"Olive","route_type":3,"route_color":"#FFFFFF","route_text_color":"#000000"},{"route_id":"19633","agency_id":"70006","route_short_name":"97","route_long_name":"Delmar","route_type":3,"route_color":"#FFFFFF","route_text_color":"#000000"}],"agency_name":"Metro St. Louis"},"geometry":{"type":"Point","coordinates":[-90.29527,38.65562]}},{"type":"Feature","properties":{"stop_id":"2732","stop_code":"2732","stop_name":"SKINKER @ FORSYTH NB","stop_desc":"FAR SIDE SKINKER @ FORSYTH NB","wheelchair_boarding":1,"routes":[{"route_id":"19592","agency_id":"70006","route_short_name":"1","route_long_name":"Gold","route_type":3,"route_color":"#FFFFFF","route_text_color":"#000000"},{"route_id":"19593","agency_id":"70006","route_short_name":"2","route_long_name":"Red","route_type":3,"route_color":"#FFFFFF","route_text_color":"#000000"},{"route_id":"19601","agency_id":"70006","route_short_name":"16","route_long_name":"City Limits","route_type":3,"route_color":"#FFFFFF","route_text_color":"#000000"}],"agency_name":"Metro St. Louis"},"geometry":{"type":"Point","coordinates":[-90.30103,38.64661]}},{"type":"Feature","properties":{"stop_id":"2928","stop_code":"2928","stop_name":"LANSDOWNE @ WABASH EB","stop_desc":"FAR SIDE LANSDOWNE @ WABASH EB","wheelchair_boarding":2,"routes":[{"route_id":"19599","agency_id":"70006","route_short_name":"11","route_long_name":"Chippewa","route_type":3,"route_color":"#FFFFFF","route_text_color":"#000000"},{"route_id":"19601","agency_id":"70006","route_short_name":"16","route_long_name":"City Limits","route_type":3,"route_color":"#FFFFFF","route_text_color":"#000000"}],"agency_name":"Metro St. Louis"},"geometry":{"type":"Point","coordinates":[-90.31576,38.5919]}},{"type":"Feature","properties":{"stop_id":"2929","stop_code":"2929","stop_name":"LANSDOWNE @ MCCAUSLAND EB","stop_desc":"NEAR SIDE LANSDOWNE @ MCCAUSLAND EB","wheelchair_boarding":2,"routes":[{"route_id":"19599","agency_id":"70006","route_short_name":"11","route_long_name":"Chippewa","route_type":3,"route_color":"#FFFFFF","route_text_color":"#000000"},{"route_id":"19601","agency_id":"70006","route_short_name":"16","route_long_name":"City Limits","route_type":3,"route_color":"#FFFFFF","route_text_color":"#000000"}],"agency_name":"Metro St. Louis"},"geometry":{"type":"Point","coordinates":[-90.31304,38.59164]}},{"type":"Feature","properties":{"stop_id":"5438","stop_code":"5438","stop_name":"CLAYTON @ DE MUN EB","stop_desc":"FAR SIDE CLAYTON @ DE MUN EB","wheelchair_boarding":2,"routes":[{"route_id":"19601","agency_id":"70006","route_short_name":"16","route_long_name":"City Limits","route_type":3,"route_color":"#FFFFFF","route_text_color":"#000000"},{"route_id":"19618","agency_id":"70006","route_short_name":"59","route_long_name":"Oakland","route_type":3,"route_color":"#FFFFFF","route_text_color":"#000000"}],"agency_name":"Metro St. Louis"},"geometry":{"type":"Point","coordinates":[-90.30943,38.63388]}},{"type":"Feature","properties":{"stop_id":"6649","stop_code":"6649","stop_name":"RIVERVIEW TRANSIT CENTER","wheelchair_boarding":1,"routes":[{"route_id":"19601","agency_id":"70006","route_short_name":"16","route_long_name":"City Limits","route_type":3,"route_color":"#FFFFFF","route_text_color":"#000000"},{"route_id":"19611","agency_id":"70006","route_short_name":"40","route_long_name":"Broadway-Halls Ferry","route_type":3,"route_color":"#FFFFFF","route_text_color":"#000000"},{"route_id":"19612","agency_id":"70006","route_short_name":"41","route_long_name":"Lee","route_type":3,"route_color":"#FFFFFF","route_text_color":"#000000"},{"route_id":"19619","agency_id":"70006","route_short_name":"60","route_long_name":"Shepley-Lilac","route_type":3,"route_color":"#FFFFFF","route_text_color":"#000000"}],"agency_name":"Metro St. Louis"},"geometry":{"type":"Point","coordinates":[-90.22406,38.7273]}},{"type":"Feature","properties":{"stop_id":"6791","stop_code":"6791","stop_name":"JENNINGS STATION ROAD @ ASTORIA EB","stop_desc":"NEAR SIDE JENNINGS STATION ROAD @ ASTORIA EB","wheelchair_boarding":2,"routes":[{"route_id":"19601","agency_id":"70006","route_short_name":"16","route_long_name":"City Limits","route_type":3,"route_color":"#FFFFFF","route_text_color":"#000000"}],"agency_name":"Metro St. Louis"},"geometry":{"type":"Point","coordinates":[-90.23597,38.73043]}},{"type":"Feature","properties":{"stop_id":"7210","stop_code":"7210","stop_name":"KIENLEN @ DR ML KING NB","stop_desc":"NEAR SIDE KIENLEN @ DR ML KING NB","wheelchair_boarding":2,"routes":[{"route_id":"19601","agency_id":"70006","route_short_name":"16","route_long_name":"City Limits","route_type":3,"route_color":"#FFFFFF","route_text_color":"#000000"}],"agency_name":"Metro St. Louis"},"geometry":{"type":"Point","coordinates":[-90.28764,38.67544]}},{"type":"Feature","properties":{"stop_id":"8341","stop_code":"8341","stop_name":"BELLEVUE @ MANCHESTER NB","stop_desc":"NEAR SIDE BELLEVUE @ MANCHESTER NB","wheelchair_boarding":1,"routes":[{"route_id":"19601","agency_id":"70006","route_short_name":"16","route_long_name":"City Limits","route_type":3,"route_color":"#FFFFFF","route_text_color":"#000000"}],"agency_name":"Metro St. Louis"},"geometry":{"type":"Point","coordinates":[-90.31402,38.61372]}},{"type":"Feature","properties":{"stop_id":"8342","stop_code":"8342","stop_name":"BELLEVUE @ LYNDOVER PLACE NB","stop_desc":"NEAR SIDE BELLEVUE @ LYNDOVER PLACE NB","wheelchair_boarding":1,"routes":[{"route_id":"19601","agency_id":"70006","route_short_name":"16","route_long_name":"City Limits","route_type":3,"route_color":"#FFFFFF","route_text_color":"#000000"}],"agency_name":"Metro St. Louis"},"geometry":{"type":"Point","coordinates":[-90.31375,38.61536]}},{"type":"Feature","properties":{"stop_id":"8345","stop_code":"8345","stop_name":"BELLEVUE @ BRUNO NB","stop_desc":"FAR SIDE BELLEVUE @ BRUNO NB","wheelchair_boarding":2,"routes":[{"route_id":"19601","agency_id":"70006","route_short_name":"16","route_long_name":"City Limits","route_type":3,"route_color":"#FFFFFF","route_text_color":"#000000"}],"agency_name":"Metro St. Louis"},"geometry":{"type":"Point","coordinates":[-90.31357,38.61874]}},{"type":"Feature","properties":{"stop_id":"8348","stop_code":"8348","stop_name":"BELLEVUE @ ARLINGTON NB","stop_desc":"NEAR SIDE BELLEVUE @ ARLINGTON NB","wheelchair_boarding":1,"routes":[{"route_id":"19601","agency_id":"70006","route_short_name":"16","route_long_name":"City Limits","route_type":3,"route_color":"#FFFFFF","route_text_color":"#000000"}],"agency_name":"Metro St. Louis"},"geometry":{"type":"Point","coordinates":[-90.31302,38.62365]}},{"type":"Feature","properties":{"stop_id":"8351","stop_code":"8351","stop_name":"BELLEVUE @ DALE NB","stop_desc":"FAR SIDE BELLEVUE @ DALE NB","wheelchair_boarding":2,"routes":[{"route_id":"19601","agency_id":"70006","route_short_name":"16","route_long_name":"City Limits","route_type":3,"route_color":"#FFFFFF","route_text_color":"#000000"}],"agency_name":"Metro St. Louis"},"geometry":{"type":"Point","coordinates":[-90.31268,38.62768]}},{"type":"Feature","properties":{"stop_id":"8353","stop_code":"8353","stop_name":"BELLEVUE @ WISE NB","stop_desc":"FAR SIDE BELLEVUE @ WISE NB","wheelchair_boarding":2,"routes":[{"route_id":"19601","agency_id":"70006","route_short_name":"16","route_long_name":"City Limits","route_type":3,"route_color":"#FFFFFF","route_text_color":"#000000"}],"agency_name":"Metro St. Louis"},"geometry":{"type":"Point","coordinates":[-90.31236,38.63069]}},{"type":"Feature","properties":{"stop_id":"8357","stop_code":"8357","stop_name":"SKINKER @ WELLS NB","stop_desc":"FAR SIDE SKINKER @ WELLS NB","wheelchair_boarding":2,"routes":[{"route_id":"19601","agency_id":"70006","route_short_name":"16","route_long_name":"City Limits","route_type":3,"route_color":"#FFFFFF","route_text_color":"#000000"}],"agency_name":"Metro St. Louis"},"geometry":{"type":"Point","coordinates":[-90.30389,38.63452]}},{"type":"Feature","properties":{"stop_id":"8358","stop_code":"8358","stop_name":"SKINKER @ SOUTHWOOD NB","stop_desc":"NEAR SIDE SKINKER @ SOUTHWOOD NB","wheelchair_boarding":2,"routes":[{"route_id":"19601","agency_id":"70006","route_short_name":"16","route_long_name":"City Limits","route_type":3,"route_color":"#FFFFFF","route_text_color":"#000000"}],"agency_name":"Metro St. Louis"},"geometry":{"type":"Point","coordinates":[-90.3036,38.63602]}},{"type":"Feature","properties":{"stop_id":"8360","stop_code":"8360","stop_name":"SKINKER @ NORTHWOOD NB","stop_desc":"NEAR SIDE SKINKER @ NORTHWOOD NB","wheelchair_boarding":1,"routes":[{"route_id":"19601","agency_id":"70006","route_short_name":"16","route_long_name":"City Limits","route_type":3,"route_color":"#FFFFFF","route_text_color":"#000000"}],"agency_name":"Metro St. Louis"},"geometry":{"type":"Point","coordinates":[-90.3033,38.63834]}},{"type":"Feature","properties":{"stop_id":"8364","stop_code":"8364","stop_name":"SKINKER @ WATERMAN NB","stop_desc":"FAR SIDE SKINKER @ WATERMAN NB","wheelchair_boarding":1,"routes":[{"route_id":"19593","agency_id":"70006","route_short_name":"2","route_long_name":"Red","route_type":3,"route_color":"#FFFFFF","route_text_color":"#000000"},{"route_id":"19601","agency_id":"70006","route_short_name":"16","route_long_name":"City Limits","route_type":3,"route_color":"#FFFFFF","route_text_color":"#000000"}],"agency_name":"Metro St. Louis"},"geometry":{"type":"Point","coordinates":[-90.3003,38.65116]}},{"type":"Feature","properties":{"stop_id":"8366","stop_code":"8366","stop_name":"SKINKER @ WESTMINSTER PLACE NB","stop_desc":"NEAR SIDE SKINKER @ WESTMINSTER PLACE NB","wheelchair_boarding":1,"routes":[{"route_id":"19593","agency_id":"70006","route_short_name":"2","route_long_name":"Red","route_type":3,"route_color":"#FFFFFF","route_text_color":"#000000"},{"route_id":"19601","agency_id":"70006","route_short_name":"16","route_long_name":"City Limits","route_type":3,"route_color":"#FFFFFF","route_text_color":"#000000"}],"agency_name":"Metro St. Louis"},"geometry":{"type":"Point","coordinates":[-90.29993,38.65353]}},{"type":"Feature","properties":{"stop_id":"8367","stop_code":"8367","stop_name":"SKINKER @ DELMAR NB","stop_desc":"NEAR SIDE SKINKER @ DELMAR NB","wheelchair_boarding":1,"routes":[{"route_id":"19593","agency_id":"70006","route_short_name":"2","route_long_name":"Red","route_type":3,"route_color":"#FFFFFF","route_text_color":"#000000"},{"route_id":"19601","agency_id":"70006","route_short_name":"16","route_long_name":"City Limits","route_type":3,"route_color":"#FFFFFF","route_text_color":"#000000"}],"agency_name":"Metro St. Louis"},"geometry":{"type":"Point","coordinates":[-90.29968,38.65491]}},{"type":"Feature","properties":{"stop_id":"8386","stop_code":"8386","stop_name":"KIENLEN @ COTE BRILLIANTE NB","stop_desc":"FAR SIDE KIENLEN @ COTE BRILLIANTE NB","wheelchair_boarding":2,"routes":[{"route_id":"19601","agency_id":"70006","route_short_name":"16","route_long_name":"City Limits","route_type":3,"route_color":"#FFFFFF","route_text_color":"#000000"}],"agency_name":"Metro St. Louis"},"geometry":{"type":"Point","coordinates":[-90.28594,38.67779]}},{"type":"Feature","properties":{"stop_id":"8387","stop_code":"8387","stop_name":"KIENLEN @ WABADA NB","stop_desc":"FAR SIDE KIENLEN @ WABADA NB","wheelchair_boarding":1,"routes":[{"route_id":"19601","agency_id":"70006","route_short_name":"16","route_long_name":"City Limits","route_type":3,"route_color":"#FFFFFF","route_text_color":"#000000"}],"agency_name":"Metro St. Louis"},"geometry":{"type":"Point","coordinates":[-90.28459,38.67969]}},{"type":"Feature","properties":{"stop_id":"8390","stop_code":"8390","stop_name":"KIENLEN @ ST. LOUIS NB","stop_desc":"FAR SIDE KIENLEN @ ST. LOUIS NB","wheelchair_boarding":1,"routes":[{"route_id":"19601","agency_id":"70006","route_short_name":"16","route_long_name":"City Limits","route_type":3,"route_color":"#FFFFFF","route_text_color":"#000000"}],"agency_name":"Metro St. Louis"},"geometry":{"type":"Point","coordinates":[-90.28071,38.68501]}},{"type":"Feature","properties":{"stop_id":"8392","stop_code":"8392","stop_name":"KIENLEN @ LORRAINE NB","stop_desc":"NEAR SIDE KIENLEN @ LORRAINE NB","wheelchair_boarding":2,"routes":[{"route_id":"19601","agency_id":"70006","route_short_name":"16","route_long_name":"City Limits","route_type":3,"route_color":"#FFFFFF","route_text_color":"#000000"}],"agency_name":"Metro St. Louis"},"geometry":{"type":"Point","coordinates":[-90.27978,38.68631]}},{"type":"Feature","properties":{"stop_id":"8394","stop_code":"8394","stop_name":"KIENLEN @ LEXINGTON NB","stop_desc":"NEAR SIDE KIENLEN @ LEXINGTON NB","wheelchair_boarding":1,"routes":[{"route_id":"19601","agency_id":"70006","route_short_name":"16","route_long_name":"City Limits","route_type":3,"route_color":"#FFFFFF","route_text_color":"#000000"}],"agency_name":"Metro St. Louis"},"geometry":{"type":"Point","coordinates":[-90.27844,38.68815]}},{"type":"Feature","properties":{"stop_id":"8395","stop_code":"8395","stop_name":"JENNINGS STATION ROAD @ NATURAL BRIDGE NB","stop_desc":"FAR SIDE JENNINGS STATION ROAD @ NATURAL BRIDGE NB","wheelchair_boarding":2,"routes":[{"route_id":"19601","agency_id":"70006","route_short_name":"16","route_long_name":"City Limits","route_type":3,"route_color":"#FFFFFF","route_text_color":"#000000"}],"agency_name":"Metro St. Louis"},"geometry":{"type":"Point","coordinates":[-90.27695,38.69155]}},{"type":"Feature","properties":{"stop_id":"8396","stop_code":"8396","stop_name":"JENNINGS STATION ROAD @ VETTER PLACE NB","stop_desc":"NEAR SIDE JENNINGS STATION ROAD @ VETTER PLACE NB","wheelchair_boarding":1,"routes":[{"route_id":"19601","agency_id":"70006","route_short_name":"16","route_long_name":"City Limits","route_type":3,"route_color":"#FFFFFF","route_text_color":"#000000"}],"agency_name":"Metro St. Louis"},"geometry":{"type":"Point","coordinates":[-90.27592,38.69311]}},{"type":"Feature","properties":{"stop_id":"8397","stop_code":"8397","stop_name":"4000 JENNINGS STATION ROAD NB","stop_desc":"FAR SIDE 4000 JENNINGS STATION ROAD NB","wheelchair_boarding":2,"routes":[{"route_id":"19601","agency_id":"70006","route_short_name":"16","route_long_name":"City Limits","route_type":3,"route_color":"#FFFFFF","route_text_color":"#000000"}],"agency_name":"Metro St. Louis"},"geometry":{"type":"Point","coordinates":[-90.27479,38.69473]}},{"type":"Feature","properties":{"stop_id":"8399","stop_code":"8399","stop_name":"JENNINGS STATION ROAD @ OTTO NB","stop_desc":"NEAR SIDE JENNINGS STATION ROAD @ OTTO NB","wheelchair_boarding":2,"routes":[{"route_id":"19601","agency_id":"70006","route_short_name":"16","route_long_name":"City Limits","route_type":3,"route_color":"#FFFFFF","route_text_color":"#000000"}],"agency_name":"Metro St. Louis"},"geometry":{"type":"Point","coordinates":[-90.27365,38.69626]}},{"type":"Feature","properties":{"stop_id":"8401","stop_code":"8401","stop_name":"JENNINGS STATION ROAD @ STRATFORD NB","stop_desc":"NEAR SIDE JENNINGS STATION ROAD @ STRATFORD NB","wheelchair_boarding":1,"routes":[{"route_id":"19601","agency_id":"70006","route_short_name":"16","route_long_name":"City Limits","route_type":3,"route_color":"#FFFFFF","route_text_color":"#000000"}],"agency_name":"Metro St. Louis"},"geometry":{"type":"Point","coordinates":[-90.2713,38.69961]}},{"type":"Feature","properties":{"stop_id":"8402","stop_code":"8402","stop_name":"JENNINGS STATION ROAD @ KENEWAH NB","stop_desc":"NEAR SIDE JENNINGS STATION ROAD @ KENEWAH NB","wheelchair_boarding":1,"routes":[{"route_id":"19601","agency_id":"70006","route_short_name":"16","route_long_name":"City Limits","route_type":3,"route_color":"#FFFFFF","route_text_color":"#000000"}],"agency_name":"Metro St. Louis"},"geometry":{"type":"Point","coordinates":[-90.26979,38.7017]}},{"type":"Feature","properties":{"stop_id":"8403","stop_code":"8403","stop_name":"JENNINGS STATION ROAD @ LILLIAN NB","stop_desc":"NEAR SIDE JENNINGS STATION ROAD @ LILLIAN NB","wheelchair_boarding":1,"routes":[{"route_id":"19601","agency_id":"70006","route_short_name":"16","route_long_name":"City Limits","route_type":3,"route_color":"#FFFFFF","route_text_color":"#000000"}],"agency_name":"Metro St. Louis"},"geometry":{"type":"Point","coordinates":[-90.26886,38.70392]}},{"type":"Feature","properties":{"stop_id":"8404","stop_code":"8404","stop_name":"JENNINGS STATION ROAD @ THEODORE NB","stop_desc":"FAR SIDE JENNINGS STATION ROAD @ THEODORE NB","wheelchair_boarding":1,"routes":[{"route_id":"19601","agency_id":"70006","route_short_name":"16","route_long_name":"City Limits","route_type":3,"route_color":"#FFFFFF","route_text_color":"#000000"}],"agency_name":"Metro St. Louis"},"geometry":{"type":"Point","coordinates":[-90.2692,38.70621]}},{"type":"Feature","properties":{"stop_id":"8405","stop_code":"8405","stop_name":"JENNINGS STATION ROAD @ GARESCHE NB","stop_desc":"FAR SIDE JENNINGS STATION ROAD @ GARESCHE NB","wheelchair_boarding":1,"routes":[{"route_id":"19601","agency_id":"70006","route_short_name":"16","route_long_name":"City Limits","route_type":3,"route_color":"#FFFFFF","route_text_color":"#000000"}],"agency_name":"Metro St. Louis"},"geometry":{"type":"Point","coordinates":[-90.26738,38.70871]}},{"type":"Feature","properties":{"stop_id":"8406","stop_code":"8406","stop_name":"JENNINGS STATION ROAD @ EMMA NB","stop_desc":"NEAR SIDE JENNINGS STATION ROAD @ EMMA NB","wheelchair_boarding":1,"routes":[{"route_id":"19601","agency_id":"70006","route_short_name":"16","route_long_name":"City Limits","route_type":3,"route_color":"#FFFFFF","route_text_color":"#000000"}],"agency_name":"Metro St. Louis"},"geometry":{"type":"Point","coordinates":[-90.26618,38.71072]}},{"type":"Feature","properties":{"stop_id":"8408","stop_code":"8408","stop_name":"JENNINGS STATION ROAD @ GREENHAVEN NB","stop_desc":"NEAR SIDE JENNINGS STATION ROAD @ GREENHAVEN NB","wheelchair_boarding":1,"routes":[{"route_id":"19601","agency_id":"70006","route_short_name":"16","route_long_name":"City Limits","route_type":3,"route_color":"#FFFFFF","route_text_color":"#000000"}],"agency_name":"Metro St. Louis"},"geometry":{"type":"Point","coordinates":[-90.26343,38.71462]}},{"type":"Feature","properties":{"stop_id":"8409","stop_code":"8409","stop_name":"JENNINGS STATION ROAD @ WEST FLORISSANT NB","stop_desc":"NEAR SIDE JENNINGS STATION ROAD @ WEST FLORISSANT NB","wheelchair_boarding":1,"routes":[{"route_id":"19601","agency_id":"70006","route_short_name":"16","route_long_name":"City Limits","route_type":3,"route_color":"#FFFFFF","route_text_color":"#000000"}],"agency_name":"Metro St. Louis"},"geometry":{"type":"Point","coordinates":[-90.26145,38.71738]}},{"type":"Feature","properties":{"stop_id":"8410","stop_code":"8410","stop_name":"JENNINGS STATION ROAD @ WEST FLORISSANT NB","stop_desc":"FAR SIDE JENNINGS STATION ROAD @ WEST FLORISSANT NB","wheelchair_boarding":1,"routes":[{"route_id":"19601","agency_id":"70006","route_short_name":"16","route_long_name":"City Limits","route_type":3,"route_color":"#FFFFFF","route_text_color":"#000000"}],"agency_name":"Metro St. Louis"},"geometry":{"type":"Point","coordinates":[-90.26073,38.71835]}},{"type":"Feature","properties":{"stop_id":"8411","stop_code":"8411","stop_name":"JENNINGS STATION ROAD @ SWITZER NB","stop_desc":"FAR SIDE JENNINGS STATION ROAD @ SWITZER NB","wheelchair_boarding":2,"routes":[{"route_id":"19601","agency_id":"70006","route_short_name":"16","route_long_name":"City Limits","route_type":3,"route_color":"#FFFFFF","route_text_color":"#000000"}],"agency_name":"Metro St. Louis"},"geometry":{"type":"Point","coordinates":[-90.25812,38.72033]}},{"type":"Feature","properties":{"stop_id":"8413","stop_code":"8413","stop_name":"JENNINGS STATION @ HORD NB","stop_desc":"NEAR SIDE JENNINGS STATION @ HORD NB","wheelchair_boarding":2,"routes":[{"route_id":"19601","agency_id":"70006","route_short_name":"16","route_long_name":"City Limits","route_type":3,"route_color":"#FFFFFF","route_text_color":"#000000"}],"agency_name":"Metro St. Louis"},"geometry":{"type":"Point","coordinates":[-90.25453,38.72256]}},{"type":"Feature","properties":{"stop_id":"8419","stop_code":"8419","stop_name":"JENNINGS STATION ROAD @ SHANNON NB","stop_desc":"FAR SIDE JENNINGS STATION ROAD @ SHANNON NB","wheelchair_boarding":2,"routes":[{"route_id":"19601","agency_id":"70006","route_short_name":"16","route_long_name":"City Limits","route_type":3,"route_color":"#FFFFFF","route_text_color":"#000000"}],"agency_name":"Metro St. Louis"},"geometry":{"type":"Point","coordinates":[-90.25162,38.72421]}},{"type":"Feature","properties":{"stop_id":"8423","stop_code":"8423","stop_name":"JENNINGS STATION ROAD @ HALLS FERRY EB","stop_desc":"MID-BLOCK JENNINGS STATION ROAD @ HALLS FERRY EB","wheelchair_boarding":2,"routes":[{"route_id":"19601","agency_id":"70006","route_short_name":"16","route_long_name":"City Limits","route_type":3,"route_color":"#FFFFFF","route_text_color":"#000000"}],"agency_name":"Metro St. Louis"},"geometry":{"type":"Point","coordinates":[-90.24435,38.72707]}},{"type":"Feature","properties":{"stop_id":"8470","stop_code":"8470","stop_name":"KIENLEN @ PAGE NB","stop_desc":"FAR SIDE KIENLEN @ PAGE NB","wheelchair_boarding":2,"routes":[{"route_id":"19601","agency_id":"70006","route_short_name":"16","route_long_name":"City Limits","route_type":3,"route_color":"#FFFFFF","route_text_color":"#000000"}],"agency_name":"Metro St. Louis"},"geometry":{"type":"Point","coordinates":[-90.2895,38.67085]}},{"type":"Feature","properties":{"stop_id":"9631","stop_code":"9631","stop_name":"SOUTHWEST @ MCCAUSLAND WB","stop_desc":"FAR SIDE SOUTHWEST @ MCCAUSLAND WB","wheelchair_boarding":1,"routes":[{"route_id":"19601","agency_id":"70006","route_short_name":"16","route_long_name":"City Limits","route_type":3,"route_color":"#FFFFFF","route_text_color":"#000000"}],"agency_name":"Metro St. Louis"},"geometry":{"type":"Point","coordinates":[-90.30983,38.61306]}},{"type":"Feature","properties":{"stop_id":"9632","stop_code":"9632","stop_name":"SOUTHWEST @ HEWITT WB","stop_desc":"NEAR SIDE SOUTHWEST @ HEWITT WB","wheelchair_boarding":2,"routes":[{"route_id":"19601","agency_id":"70006","route_short_name":"16","route_long_name":"City Limits","route_type":3,"route_color":"#FFFFFF","route_text_color":"#000000"}],"agency_name":"Metro St. Louis"},"geometry":{"type":"Point","coordinates":[-90.31207,38.61313]}},{"type":"Feature","properties":{"stop_id":"9919","stop_code":"9919","stop_name":"JENNINGS STATION ROAD @ BELLEFONTAINE EB","stop_desc":"NEAR SIDE JENNINGS STATION ROAD @ BELLEFONTAINE EB","wheelchair_boarding":1,"routes":[{"route_id":"19601","agency_id":"70006","route_short_name":"16","route_long_name":"City Limits","route_type":3,"route_color":"#FFFFFF","route_text_color":"#000000"}],"agency_name":"Metro St. Louis"},"geometry":{"type":"Point","coordinates":[-90.22836,38.72997]}}]}