{"type":"FeatureCollection","features":[{"type":"Feature","properties":{"agency_name":"Metro St. Louis","route_id":"19619","agency_id":"70006","route_short_name":"60","route_long_name":"Shepley-Lilac","route_type":3,"route_color":"#FFFFFF","route_text_color":"#000000"},"geometry":{"type":"MultiLineString","coordinates":[[[-90.22394,38.72734],[-90.22397,38.72733],[-90.22388,38.7274],[-90.22386,38.72748],[-90.22406,38.72761],[-90.22596,38.72711],[-90.22664,38.72704],[-90.22696,38.72699],[-90.22792,38.72679],[-90.22805,38.72824],[-90.22815,38.72912],[-90.22816,38.72958],[-90.22808,38.73026],[-90.22793,38.73084],[-90.22786,38.73119],[-90.22744,38.73261],[-90.22714,38.73371],[-90.22667,38.73549],[-90.22639,38.73665],[-90.22624,38.73708],[-90.2262,38.73728],[-90.22618,38.73765],[-90.22621,38.73903],[-90.22615,38.7396],[-90.22609,38.73994],[-90.22552,38.74237],[-90.22512,38.74419],[-90.22486,38.74553],[-90.22414,38.74892],[-90.22352,38.74943],[-90.21493,38.74852],[-90.21367,38.74841],[-90.21258,38.74829],[-90.20621,38.74768],[-90.20451,38.74753],[-90.20411,38.74992],[-90.20406,38.75035],[-90.20405,38.75059],[-90.20407,38.75079],[-90.20414,38.75109],[-90.20359,38.75117],[-90.20271,38.75113],[-90.2025,38.75117],[-90.2023,38.75124],[-90.20211,38.75134],[-90.20197,38.75149],[-90.20184,38.75171],[-90.2017,38.752],[-90.20149,38.75224],[-90.20126,38.75247],[-90.20099,38.75269],[-90.20057,38.75297],[-90.19992,38.75333],[-90.19962,38.75345],[-90.19931,38.75354],[-90.19899,38.75359],[-90.19878,38.75359],[-90.19819,38.75351],[-90.19797,38.75343],[-90.19552,38.75226],[-90.19516,38.75272],[-90.19487,38.75314],[-90.19434,38.75409],[-90.19455,38.75417],[-90.19713,38.75542],[-90.19876,38.75608],[-90.19935,38.75628],[-90.2006,38.75658],[-90.20214,38.75682],[-90.20249,38.75685],[-90.20304,38.75687],[-90.2037,38.75684],[-90.20413,38.75679],[-90.20445,38.75673],[-90.20497,38.75658],[-90.20557,38.75637],[-90.20588,38.75631],[-90.20608,38.7563],[-90.20747,38.75643],[-90.20778,38.75627],[-90.20822,38.75607],[-90.20841,38.75594],[-90.20865,38.75573],[-90.20884,38.75563],[-90.20924,38.75556],[-90.20945,38.75558],[-90.20965,38.75564],[-90.20982,38.75573],[-90.21019,38.75608],[-90.2104,38.75633],[-90.21042,38.7564],[-90.21071,38.75701],[-90.21033,38.75938],[-90.21016,38.75977],[-90.20995,38.76014],[-90.20975,38.76039],[-90.20953,38.76059],[-90.20933,38.76074],[-90.20894,38.76099],[-90.20498,38.76315],[-90.20434,38.76353],[-90.20407,38.76373],[-90.20383,38.76397],[-90.20359,38.76426],[-90.20349,38.76445],[-90.20337,38.76474],[-90.20322,38.76528],[-90.203,38.76663],[-90.20287,38.76732],[-90.20271,38.7685],[-90.20228,38.77111],[-90.20204,38.77192],[-90.20133,38.77612],[-90.2043,38.77642],[-90.20546,38.77509],[-90.20563,38.77487],[-90.20586,38.77466],[-90.20867,38.77244],[-90.20883,38.77237],[-90.20892,38.77235],[-90.21148,38.7724],[-90.21494,38.77213],[-90.21603,38.77207],[-90.21634,38.77208],[-90.21684,38.77216],[-90.21722,38.77224],[-90.21744,38.7723],[-90.218,38.77257],[-90.21821,38.77263],[-90.21914,38.77277],[-90.22025,38.77252],[-90.22043,38.77169],[-90.22066,38.7705],[-90.22081,38.77038],[-90.22094,38.77032],[-90.22109,38.77032],[-90.22327,38.77092],[-90.2236,38.77098],[-90.22401,38.77102],[-90.22997,38.77104],[-90.22996,38.77173],[-90.22948,38.77187],[-90.22943,38.77184],[-90.22942,38.77179],[-90.22945,38.77174],[-90.22951,38.77173]],[[-90.2344,38.77104],[-90.22997,38.77104],[-90.2344,38.77104],[-90.23495,38.77111],[-90.23549,38.77125],[-90.236,38.77147],[-90.23639,38.77169],[-90.23673,38.77198],[-90.23689,38.77214],[-90.2371,38.7724],[-90.23722,38.77259],[-90.23732,38.77279],[-90.23747,38.77318],[-90.23769,38.77436],[-90.23771,38.77479],[-90.23767,38.77522],[-90.23751,38.77582],[-90.23704,38.77725],[-90.23676,38.7777],[-90.23651,38.77794],[-90.23618,38.77809],[-90.23595,38.77825],[-90.23582,38.77842],[-90.23579,38.77865],[-90.23568,38.7788],[-90.2364,38.77904],[-90.23701,38.77917],[-90.23763,38.77889],[-90.2378,38.77837],[-90.2379,38.77803],[-90.23805,38.777],[-90.23815,38.77659],[-90.23825,38.77631],[-90.23835,38.77589],[-90.23845,38.77562],[-90.23865,38.77495],[-90.2388,38.77423],[-90.23885,38.7739],[-90.23891,38.77313],[-90.23887,38.77115],[-90.23887,38.76754],[-90.2389,38.76712],[-90.23889,38.76646],[-90.23886,38.76589],[-90.23877,38.76552],[-90.23881,38.76382],[-90.23712,38.76382],[-90.23694,38.76378],[-90.2368,38.7637],[-90.23668,38.76354],[-90.23659,38.76338],[-90.23657,38.76322],[-90.23661,38.76302],[-90.237,38.76267],[-90.23717,38.76257],[-90.23734,38.7624],[-90.23739,38.76233],[-90.23744,38.7622],[-90.23742,38.76208],[-90.23737,38.762],[-90.23731,38.76195],[-90.23721,38.76192],[-90.23713,38.76193],[-90.23693,38.7621],[-90.2369,38.76214],[-90.23689,38.76219],[-90.23692,38.76226],[-90.23718,38.76246],[-90.23719,38.7625]],[[-90.23877,38.76552],[-90.23881,38.76382],[-90.23877,38.76552],[-90.23872,38.76579],[-90.23871,38.7667],[-90.23876,38.77027],[-90.23876,38.77314],[-90.23873,38.77359],[-90.23866,38.77412],[-90.23851,38.77486],[-90.23836,38.77511],[-90.23808,38.77587],[-90.23788,38.77627],[-90.23758,38.77679],[-90.23722,38.77737],[-90.23713,38.77756],[-90.23677,38.77815],[-90.23658,38.77852]],[[-90.23764,38.77934],[-90.23701,38.77917],[-90.23764,38.77934],[-90.23783,38.77933],[-90.23806,38.77928],[-90.23826,38.77913],[-90.23836,38.77896],[-90.23833,38.77871],[-90.23824,38.77838],[-90.23818,38.77795],[-90.23821,38.77756],[-90.23841,38.77708],[-90.23865,38.77642],[-90.23901,38.77575],[-90.23977,38.77454],[-90.24011,38.77466],[-90.24015,38.7747],[-90.24016,38.77473],[-90.23978,38.77527],[-90.23901,38.77575]],[[-90.2364,38.77904],[-90.23571,38.78089],[-90.2355,38.7816],[-90.23506,38.78279],[-90.23422,38.78481],[-90.2343,38.7854],[-90.2357,38.78502],[-90.23727,38.78456],[-90.24664,38.78199],[-90.24809,38.7816],[-90.24954,38.7813],[-90.24997,38.78117],[-90.2504,38.78102],[-90.25091,38.78078],[-90.25421,38.77903],[-90.25472,38.77883],[-90.25525,38.7787],[-90.25547,38.77867],[-90.25585,38.77865],[-90.26247,38.77873],[-90.26526,38.77872],[-90.2648,38.77793],[-90.26458,38.77759],[-90.26314,38.77549],[-90.26272,38.77486],[-90.26221,38.77405],[-90.26259,38.7739],[-90.26279,38.77391],[-90.26299,38.77397],[-90.26334,38.77422],[-90.26352,38.7743],[-90.26371,38.77435],[-90.26389,38.77437],[-90.26993,38.77444],[-90.27024,38.77438],[-90.27044,38.77431],[-90.27062,38.77421],[-90.27088,38.77403],[-90.26972,38.77308],[-90.26791,38.77165],[-90.26789,38.77155],[-90.26792,38.77147],[-90.26802,38.77136],[-90.26839,38.77138],[-90.27028,38.77141],[-90.27166,38.77146],[-90.27573,38.77147],[-90.27615,38.7715],[-90.27719,38.77167],[-90.278,38.77174],[-90.27828,38.77173],[-90.27865,38.77168],[-90.27953,38.77171],[-90.27998,38.77145],[-90.28001,38.77063],[-90.28005,38.77025],[-90.28011,38.7699],[-90.27971,38.76982],[-90.2795,38.76981],[-90.27929,38.76982],[-90.27898,38.76986],[-90.27867,38.76996],[-90.27793,38.77039],[-90.27761,38.77053],[-90.27718,38.77066],[-90.27667,38.77072],[-90.27625,38.77074],[-90.27468,38.77071]],[[-90.2344,38.77104],[-90.22401,38.77102]]]}},{"type":"Feature","properties":{"stop_id":"10126","stop_code":"10126","stop_name":"NEW HALLS FERRY @ DUNN SB","stop_desc":"NEAR SIDE NEW HALLS FERRY @ DUNN SB","wheelchair_boarding":2,"routes":[{"route_id":"19619","agency_id":"70006","route_short_name":"60","route_long_name":"Shepley-Lilac","route_type":3,"route_color":"#FFFFFF","route_text_color":"#000000"}],"agency_name":"Metro St. Louis"},"geometry":{"type":"Point","coordinates":[-90.26867,38.7721]}},{"type":"Feature","properties":{"stop_id":"10164","stop_code":"10164","stop_name":"DUNN @ NEW HALLS FERRY WB","stop_desc":"FAR SIDE DUNN @ NEW HALLS FERRY WB","wheelchair_boarding":2,"routes":[{"route_id":"19611","agency_id":"70006","route_short_name":"40","route_long_name":"Broadway-Halls Ferry","route_type":3,"route_color":"#FFFFFF","route_text_color":"#000000"},{"route_id":"19619","agency_id":"70006","route_short_name":"60","route_long_name":"Shepley-Lilac","route_type":3,"route_color":"#FFFFFF","route_text_color":"#000000"},{"route_id":"19627","agency_id":"70006","route_short_name":"78","route_long_name":"Bellefontaine","route_type":3,"route_color":"#FFFFFF","route_text_color":"#000000"}],"agency_name":"Metro St. Louis"},"geometry":{"type":"Point","coordinates":[-90.26924,38.77142]}},{"type":"Feature","properties":{"stop_id":"10460","stop_code":"10460","stop_name":"LILAC @ FOXLAIR NB","stop_desc":"FAR SIDE LILAC @ FOXLAIR NB","wheelchair_boarding":1,"routes":[{"route_id":"19619","agency_id":"70006","route_short_name":"60","route_long_name":"Shepley-Lilac","route_type":3,"route_color":"#FFFFFF","route_text_color":"#000000"}],"agency_name":"Metro St. Louis"},"geometry":{"type":"Point","coordinates":[-90.2073,38.76188]}},{"type":"Feature","properties":{"stop_id":"10461","stop_code":"10461","stop_name":"LILAC @ KENRAN INDUSTRIAL NB","stop_desc":"FAR SIDE LILAC @ KENRAN INDUSTRIAL NB","wheelchair_boarding":1,"routes":[{"route_id":"19619","agency_id":"70006","route_short_name":"60","route_long_name":"Shepley-Lilac","route_type":3,"route_color":"#FFFFFF","route_text_color":"#000000"}],"agency_name":"Metro St. Louis"},"geometry":{"type":"Point","coordinates":[-90.20388,38.76388]}},{"type":"Feature","properties":{"stop_id":"13410","stop_code":"13410","stop_name":"DUNN @ CHRISTIAN HOSPITAL ENTRANCE 1 SB","stop_desc":"NEAR SIDE DUNN @ CHRISTIAN HOSPITAL ENTRANCE 1 SB","wheelchair_boarding":2,"routes":[{"route_id":"19619","agency_id":"70006","route_short_name":"60","route_long_name":"Shepley-Lilac","route_type":3,"route_color":"#FFFFFF","route_text_color":"#000000"}],"agency_name":"Metro St. Louis"},"geometry":{"type":"Point","coordinates":[-90.23836,38.77735]}},{"type":"Feature","properties":{"stop_id":"13642","stop_code":"13642","stop_name":"LILAC @ WISKOW NB","stop_desc":"NEAR SIDE LILAC @ WISKOW NB","wheelchair_boarding":2,"routes":[{"route_id":"19619","agency_id":"70006","route_short_name":"60","route_long_name":"Shepley-Lilac","route_type":3,"route_color":"#FFFFFF","route_text_color":"#000000"}],"agency_name":"Metro St. Louis"},"geometry":{"type":"Point","coordinates":[-90.20256,38.76935]}},{"type":"Feature","properties":{"stop_id":"14603","stop_code":"14603","stop_name":"VETERANS HOME LOOP","stop_desc":"NEAR SIDE VETERANS HOME LOOP","wheelchair_boarding":1,"routes":[{"route_id":"19619","agency_id":"70006","route_short_name":"60","route_long_name":"Shepley-Lilac","route_type":3,"route_color":"#FFFFFF","route_text_color":"#000000"}],"agency_name":"Metro St. Louis"},"geometry":{"type":"Point","coordinates":[-90.23686,38.7622]}},{"type":"Feature","properties":{"stop_id":"14729","stop_code":"14729","stop_name":"OLD HALLS FERRY @ REDMAN SB","stop_desc":"FAR SIDE OLD HALLS FERRY @ REDMAN SB","wheelchair_boarding":2,"routes":[{"route_id":"19619","agency_id":"70006","route_short_name":"60","route_long_name":"Shepley-Lilac","route_type":3,"route_color":"#FFFFFF","route_text_color":"#000000"}],"agency_name":"Metro St. Louis"},"geometry":{"type":"Point","coordinates":[-90.26511,38.77831]}},{"type":"Feature","properties":{"stop_id":"14730","stop_code":"14730","stop_name":"NETHERTON @ ROTTINGDEAN WB","stop_desc":"FAR SIDE NETHERTON @ ROTTINGDEAN WB","wheelchair_boarding":2,"routes":[{"route_id":"19619","agency_id":"70006","route_short_name":"60","route_long_name":"Shepley-Lilac","route_type":3,"route_color":"#FFFFFF","route_text_color":"#000000"}],"agency_name":"Metro St. Louis"},"geometry":{"type":"Point","coordinates":[-90.26507,38.77441]}},{"type":"Feature","properties":{"stop_id":"14904","stop_code":"14904","stop_name":"REDMAN @ LAS LADERA WB","stop_desc":"NEAR SIDE REDMAN @ LAS LADERA WB","wheelchair_boarding":2,"routes":[{"route_id":"19619","agency_id":"70006","route_short_name":"60","route_long_name":"Shepley-Lilac","route_type":3,"route_color":"#FFFFFF","route_text_color":"#000000"}],"agency_name":"Metro St. Louis"},"geometry":{"type":"Point","coordinates":[-90.23709,38.78467]}},{"type":"Feature","properties":{"stop_id":"15489","stop_code":"15489","stop_name":"8937 RIVERVIEW WB","stop_desc":"MID-BLOCK 8937 RIVERVIEW WB","wheelchair_boarding":2,"routes":[{"route_id":"19601","agency_id":"70006","route_short_name":"16","route_long_name":"City Limits","route_type":3,"route_color":"#FFFFFF","route_text_color":"#000000"},{"route_id":"19611","agency_id":"70006","route_short_name":"40","route_long_name":"Broadway-Halls Ferry","route_type":3,"route_color":"#FFFFFF","route_text_color":"#000000"},{"route_id":"19612","agency_id":"70006","route_short_name":"41","route_long_name":"Lee","route_type":3,"route_color":"#FFFFFF","route_text_color":"#000000"},{"route_id":"19619","agency_id":"70006","route_short_name":"60","route_long_name":"Shepley-Lilac","route_type":3,"route_color":"#FFFFFF","route_text_color":"#000000"},{"route_id":"19620","agency_id":"70006","route_short_name":"61","route_long_name":"Chambers Rd","route_type":3,"route_color":"#FFFFFF","route_text_color":"#000000"},{"route_id":"19621","agency_id":"70006","route_short_name":"64","route_long_name":"Lucas-Hunt","route_type":3,"route_color":"#FFFFFF","route_text_color":"#000000"},{"route_id":"19627","agency_id":"70006","route_short_name":"78","route_long_name":"Bellefontaine","route_type":3,"route_color":"#FFFFFF","route_text_color":"#000000"},{"route_id":"19629","agency_id":"70006","route_short_name":"90","route_long_name":"Hampton","route_type":3,"route_color":"#FFFFFF","route_text_color":"#000000"}],"agency_name":"Metro St. Louis"},"geometry":{"type":"Point","coordinates":[-90.22641,38.72709]}},{"type":"Feature","properties":{"stop_id":"15752","stop_code":"15752","stop_name":"DUNN @ HAZELWOOD MIDDLE SCHOOL WB","stop_desc":"MID-BLOCK DUNN @ HAZELWOOD MIDDLE SCHOOL WB","wheelchair_boarding":2,"routes":[{"route_id":"19619","agency_id":"70006","route_short_name":"60","route_long_name":"Shepley-Lilac","route_type":3,"route_color":"#FFFFFF","route_text_color":"#000000"}],"agency_name":"Metro St. Louis"},"geometry":{"type":"Point","coordinates":[-90.23348,38.7711]}},{"type":"Feature","properties":{"stop_id":"15862","stop_code":"15862","stop_name":"LUSHER @ DUNN NB","stop_desc":"FAR SIDE LUSHER @ DUNN NB","wheelchair_boarding":2,"routes":[{"route_id":"19619","agency_id":"70006","route_short_name":"60","route_long_name":"Shepley-Lilac","route_type":3,"route_color":"#FFFFFF","route_text_color":"#000000"}],"agency_name":"Metro St. Louis"},"geometry":{"type":"Point","coordinates":[-90.23616,38.77951]}},{"type":"Feature","properties":{"stop_id":"16022","stop_code":"16022","stop_name":"DUNN @ HAZELWOOD EAST HIGH SCHOOL NB","stop_desc":"FAR SIDE DUNN @ HAZELWOOD EAST HIGH SCHOOL NB","wheelchair_boarding":2,"routes":[{"route_id":"19619","agency_id":"70006","route_short_name":"60","route_long_name":"Shepley-Lilac","route_type":3,"route_color":"#FFFFFF","route_text_color":"#000000"}],"agency_name":"Metro St. Louis"},"geometry":{"type":"Point","coordinates":[-90.23744,38.77362]}},{"type":"Feature","properties":{"stop_id":"16085","stop_code":"16085","stop_name":"NATIONAL PERSONNEL RECORD CENTER & NATIONAL ARCHIVES","stop_desc":"MID-BLOCK NATIONAL PERSONNEL RECORD CENTER & NATIONAL ARCHIVES","wheelchair_boarding":1,"routes":[{"route_id":"19619","agency_id":"70006","route_short_name":"60","route_long_name":"Shepley-Lilac","route_type":3,"route_color":"#FFFFFF","route_text_color":"#000000"}],"agency_name":"Metro St. Louis"},"geometry":{"type":"Point","coordinates":[-90.22957,38.77187]}},{"type":"Feature","properties":{"stop_id":"16086","stop_code":"16086","stop_name":"DUNN @ CHRISTIAN HOSPITAL ENTRANCE 1 NB","stop_desc":"FAR SIDE DUNN @ CHRISTIAN HOSPITAL ENTRANCE 1 NB","wheelchair_boarding":2,"routes":[{"route_id":"19619","agency_id":"70006","route_short_name":"60","route_long_name":"Shepley-Lilac","route_type":3,"route_color":"#FFFFFF","route_text_color":"#000000"}],"agency_name":"Metro St. Louis"},"geometry":{"type":"Point","coordinates":[-90.23809,38.7778]}},{"type":"Feature","properties":{"stop_id":"16111","stop_code":"16111","stop_name":"REDMAN @ STONYMONT WB","stop_desc":"FAR SIDE REDMAN @ STONYMONT WB","wheelchair_boarding":2,"routes":[{"route_id":"19619","agency_id":"70006","route_short_name":"60","route_long_name":"Shepley-Lilac","route_type":3,"route_color":"#FFFFFF","route_text_color":"#000000"}],"agency_name":"Metro St. Louis"},"geometry":{"type":"Point","coordinates":[-90.24688,38.78198]}},{"type":"Feature","properties":{"stop_id":"16114","stop_code":"16114","stop_name":"REDMAN @ NORTHWAY WB","stop_desc":"FAR SIDE REDMAN @ NORTHWAY WB","wheelchair_boarding":2,"routes":[{"route_id":"19619","agency_id":"70006","route_short_name":"60","route_long_name":"Shepley-Lilac","route_type":3,"route_color":"#FFFFFF","route_text_color":"#000000"}],"agency_name":"Metro St. Louis"},"geometry":{"type":"Point","coordinates":[-90.24301,38.78302]}},{"type":"Feature","properties":{"stop_id":"16116","stop_code":"16116","stop_name":"DUNN @ BENHAM SB","stop_desc":"FAR SIDE DUNN @ BENHAM SB","wheelchair_boarding":2,"routes":[{"route_id":"19619","agency_id":"70006","route_short_name":"60","route_long_name":"Shepley-Lilac","route_type":3,"route_color":"#FFFFFF","route_text_color":"#000000"}],"agency_name":"Metro St. Louis"},"geometry":{"type":"Point","coordinates":[-90.23785,38.7794]}},{"type":"Feature","properties":{"stop_id":"16123","stop_code":"16123","stop_name":"CHAMBERS @ BELLEFONTAINE EB","stop_desc":"FAR SIDE CHAMBERS @ BELLEFONTAINE EB","wheelchair_boarding":2,"routes":[{"route_id":"19619","agency_id":"70006","route_short_name":"60","route_long_name":"Shepley-Lilac","route_type":3,"route_color":"#FFFFFF","route_text_color":"#000000"}],"agency_name":"Metro St. Louis"},"geometry":{"type":"Point","coordinates":[-90.22348,38.74936]}},{"type":"Feature","properties":{"stop_id":"16146","stop_code":"16146","stop_name":"NORTH COUNTY TRANSIT CENTER","wheelchair_boarding":1,"routes":[{"route_id":"19611","agency_id":"70006","route_short_name":"40","route_long_name":"Broadway-Halls Ferry","route_type":3,"route_color":"#FFFFFF","route_text_color":"#000000"},{"route_id":"19619","agency_id":"70006","route_short_name":"60","route_long_name":"Shepley-Lilac","route_type":3,"route_color":"#FFFFFF","route_text_color":"#000000"},{"route_id":"19624","agency_id":"70006","route_short_name":"74","route_long_name":"Florissant","route_type":3,"route_color":"#FFFFFF","route_text_color":"#000000"},{"route_id":"19627","agency_id":"70006","route_short_name":"78","route_long_name":"Bellefontaine","route_type":3,"route_color":"#FFFFFF","route_text_color":"#000000"}],"agency_name":"Metro St. Louis"},"geometry":{"type":"Point","coordinates":[-90.27452,38.76987]}},{"type":"Feature","properties":{"stop_id":"16211","stop_code":"16211","stop_name":"COAL BANK @ LARIMORE WB","stop_desc":"NEAR SIDE COAL BANK @ LARIMORE WB","wheelchair_boarding":2,"routes":[{"route_id":"19619","agency_id":"70006","route_short_name":"60","route_long_name":"Shepley-Lilac","route_type":3,"route_color":"#FFFFFF","route_text_color":"#000000"}],"agency_name":"Metro St. Louis"},"geometry":{"type":"Point","coordinates":[-90.20378,38.77642]}},{"type":"Feature","properties":{"stop_id":"16212","stop_code":"16212","stop_name":"LARIMORE @ CADIGAM WB","stop_desc":"FAR SIDE LARIMORE @ CADIGAM WB","wheelchair_boarding":2,"routes":[{"route_id":"19619","agency_id":"70006","route_short_name":"60","route_long_name":"Shepley-Lilac","route_type":3,"route_color":"#FFFFFF","route_text_color":"#000000"}],"agency_name":"Metro St. Louis"},"geometry":{"type":"Point","coordinates":[-90.21347,38.77227]}},{"type":"Feature","properties":{"stop_id":"16297","stop_code":"16297","stop_name":"DUNN @ WEST FLORISSANT WB","stop_desc":"NEAR SIDE DUNN @ WEST FLORISSANT WB","wheelchair_boarding":2,"routes":[{"route_id":"19611","agency_id":"70006","route_short_name":"40","route_long_name":"Broadway-Halls Ferry","route_type":3,"route_color":"#FFFFFF","route_text_color":"#000000"},{"route_id":"19619","agency_id":"70006","route_short_name":"60","route_long_name":"Shepley-Lilac","route_type":3,"route_color":"#FFFFFF","route_text_color":"#000000"},{"route_id":"19627","agency_id":"70006","route_short_name":"78","route_long_name":"Bellefontaine","route_type":3,"route_color":"#FFFFFF","route_text_color":"#000000"}],"agency_name":"Metro St. Louis"},"geometry":{"type":"Point","coordinates":[-90.27903,38.77177]}},{"type":"Feature","properties":{"stop_id":"16298","stop_code":"16298","stop_name":"DUNN @ CLOCK TOWER WB","stop_desc":"FAR SIDE DUNN @ CLOCK TOWER WB","wheelchair_boarding":2,"routes":[{"route_id":"19611","agency_id":"70006","route_short_name":"40","route_long_name":"Broadway-Halls Ferry","route_type":3,"route_color":"#FFFFFF","route_text_color":"#000000"},{"route_id":"19619","agency_id":"70006","route_short_name":"60","route_long_name":"Shepley-Lilac","route_type":3,"route_color":"#FFFFFF","route_text_color":"#000000"},{"route_id":"19627","agency_id":"70006","route_short_name":"78","route_long_name":"Bellefontaine","route_type":3,"route_color":"#FFFFFF","route_text_color":"#000000"}],"agency_name":"Metro St. Louis"},"geometry":{"type":"Point","coordinates":[-90.2778,38.77181]}},{"type":"Feature","properties":{"stop_id":"16300","stop_code":"16300","stop_name":"LARIMORE @ ASPEN WOODS WB","stop_desc":"FAR SIDE LARIMORE @ ASPEN WOODS WB","wheelchair_boarding":2,"routes":[{"route_id":"19619","agency_id":"70006","route_short_name":"60","route_long_name":"Shepley-Lilac","route_type":3,"route_color":"#FFFFFF","route_text_color":"#000000"}],"agency_name":"Metro St. Louis"},"geometry":{"type":"Point","coordinates":[-90.21093,38.77242]}},{"type":"Feature","properties":{"stop_id":"16313","stop_code":"16313","stop_name":"2600 REDMAN WB","stop_desc":"MID-BLOCK 2600 REDMAN WB","wheelchair_boarding":1,"routes":[{"route_id":"19619","agency_id":"70006","route_short_name":"60","route_long_name":"Shepley-Lilac","route_type":3,"route_color":"#FFFFFF","route_text_color":"#000000"}],"agency_name":"Metro St. Louis"},"geometry":{"type":"Point","coordinates":[-90.2522,38.78011]}},{"type":"Feature","properties":{"stop_id":"16465","stop_code":"16465","stop_name":"DUNN @ SUGARPINES WB","stop_desc":"NEAR SIDE DUNN @ SUGARPINES WB","wheelchair_boarding":2,"routes":[{"route_id":"19611","agency_id":"70006","route_short_name":"40","route_long_name":"Broadway-Halls Ferry","route_type":3,"route_color":"#FFFFFF","route_text_color":"#000000"},{"route_id":"19619","agency_id":"70006","route_short_name":"60","route_long_name":"Shepley-Lilac","route_type":3,"route_color":"#FFFFFF","route_text_color":"#000000"},{"route_id":"19627","agency_id":"70006","route_short_name":"78","route_long_name":"Bellefontaine","route_type":3,"route_color":"#FFFFFF","route_text_color":"#000000"}],"agency_name":"Metro St. Louis"},"geometry":{"type":"Point","coordinates":[-90.27105,38.77144]}},{"type":"Feature","properties":{"stop_id":"16541","stop_code":"16541","stop_name":"433 SHEPLEY WB","stop_desc":"MID-BLOCK 433 SHEPLEY WB","wheelchair_boarding":2,"routes":[{"route_id":"19619","agency_id":"70006","route_short_name":"60","route_long_name":"Shepley-Lilac","route_type":3,"route_color":"#FFFFFF","route_text_color":"#000000"}],"agency_name":"Metro St. Louis"},"geometry":{"type":"Point","coordinates":[-90.20449,38.7568]}},{"type":"Feature","properties":{"stop_id":"3693","stop_code":"3693","stop_name":"PERSHALL @ METRO PLAZA EB","stop_desc":"MID-BLOCK PERSHALL @ METRO PLAZA EB","wheelchair_boarding":2,"routes":[{"route_id":"19611","agency_id":"70006","route_short_name":"40","route_long_name":"Broadway-Halls Ferry","route_type":3,"route_color":"#FFFFFF","route_text_color":"#000000"},{"route_id":"19619","agency_id":"70006","route_short_name":"60","route_long_name":"Shepley-Lilac","route_type":3,"route_color":"#FFFFFF","route_text_color":"#000000"},{"route_id":"19624","agency_id":"70006","route_short_name":"74","route_long_name":"Florissant","route_type":3,"route_color":"#FFFFFF","route_text_color":"#000000"},{"route_id":"19626","agency_id":"70006","route_short_name":"77","route_long_name":"Village Square","route_type":3,"route_color":"#FFFFFF","route_text_color":"#000000"},{"route_id":"19627","agency_id":"70006","route_short_name":"78","route_long_name":"Bellefontaine","route_type":3,"route_color":"#FFFFFF","route_text_color":"#000000"},{"route_id":"19628","agency_id":"70006","route_short_name":"79","route_long_name":"Ferguson-Clayton","route_type":3,"route_color":"#FFFFFF","route_text_color":"#000000"}],"agency_name":"Metro St. Louis"},"geometry":{"type":"Point","coordinates":[-90.27873,38.77001]}},{"type":"Feature","properties":{"stop_id":"4532","stop_code":"4532","stop_name":"SHEPLEY @ SPRING GARDEN WB","stop_desc":"FAR SIDE SHEPLEY @ SPRING GARDEN WB","wheelchair_boarding":2,"routes":[{"route_id":"19619","agency_id":"70006","route_short_name":"60","route_long_name":"Shepley-Lilac","route_type":3,"route_color":"#FFFFFF","route_text_color":"#000000"}],"agency_name":"Metro St. Louis"},"geometry":{"type":"Point","coordinates":[-90.19506,38.75444]}},{"type":"Feature","properties":{"stop_id":"4533","stop_code":"4533","stop_name":"SHEPLEY @ LOTHIAN CIRCLE WB","stop_desc":"NEAR SIDE SHEPLEY @ LOTHIAN CIRCLE WB","wheelchair_boarding":2,"routes":[{"route_id":"19619","agency_id":"70006","route_short_name":"60","route_long_name":"Shepley-Lilac","route_type":3,"route_color":"#FFFFFF","route_text_color":"#000000"}],"agency_name":"Metro St. Louis"},"geometry":{"type":"Point","coordinates":[-90.19859,38.75603]}},{"type":"Feature","properties":{"stop_id":"4535","stop_code":"4535","stop_name":"SHEPLEY @ BALMORAL WB","stop_desc":"NEAR SIDE SHEPLEY @ BALMORAL WB","wheelchair_boarding":2,"routes":[{"route_id":"19619","agency_id":"70006","route_short_name":"60","route_long_name":"Shepley-Lilac","route_type":3,"route_color":"#FFFFFF","route_text_color":"#000000"}],"agency_name":"Metro St. Louis"},"geometry":{"type":"Point","coordinates":[-90.20112,38.75674]}},{"type":"Feature","properties":{"stop_id":"4537","stop_code":"4537","stop_name":"SHEPLEY @ RENFREW WB","stop_desc":"NEAR SIDE SHEPLEY @ RENFREW WB","wheelchair_boarding":2,"routes":[{"route_id":"19619","agency_id":"70006","route_short_name":"60","route_long_name":"Shepley-Lilac","route_type":3,"route_color":"#FFFFFF","route_text_color":"#000000"}],"agency_name":"Metro St. Louis"},"geometry":{"type":"Point","coordinates":[-90.20593,38.75637]}},{"type":"Feature","properties":{"stop_id":"4539","stop_code":"4539","stop_name":"SHEPLEY @ MELVICH WB","stop_desc":"NEAR SIDE SHEPLEY @ MELVICH WB","wheelchair_boarding":2,"routes":[{"route_id":"19619","agency_id":"70006","route_short_name":"60","route_long_name":"Shepley-Lilac","route_type":3,"route_color":"#FFFFFF","route_text_color":"#000000"}],"agency_name":"Metro St. Louis"},"geometry":{"type":"Point","coordinates":[-90.20885,38.75569]}},{"type":"Feature","properties":{"stop_id":"4643","stop_code":"4643","stop_name":"CHAMBERS @ HAYWARD EB","stop_desc":"FAR SIDE CHAMBERS @ HAYWARD EB","wheelchair_boarding":1,"routes":[{"route_id":"19619","agency_id":"70006","route_short_name":"60","route_long_name":"Shepley-Lilac","route_type":3,"route_color":"#FFFFFF","route_text_color":"#000000"}],"agency_name":"Metro St. Louis"},"geometry":{"type":"Point","coordinates":[-90.21737,38.74876]}},{"type":"Feature","properties":{"stop_id":"4645","stop_code":"4645","stop_name":"CHAMBERS @ LILAC EB","stop_desc":"NEAR SIDE CHAMBERS @ LILAC EB","wheelchair_boarding":2,"routes":[{"route_id":"19619","agency_id":"70006","route_short_name":"60","route_long_name":"Shepley-Lilac","route_type":3,"route_color":"#FFFFFF","route_text_color":"#000000"}],"agency_name":"Metro St. Louis"},"geometry":{"type":"Point","coordinates":[-90.21422,38.74845]}},{"type":"Feature","properties":{"stop_id":"4647","stop_code":"4647","stop_name":"CHAMBERS @ STIMSON EB","stop_desc":"FAR SIDE CHAMBERS @ STIMSON EB","wheelchair_boarding":2,"routes":[{"route_id":"19619","agency_id":"70006","route_short_name":"60","route_long_name":"Shepley-Lilac","route_type":3,"route_color":"#FFFFFF","route_text_color":"#000000"}],"agency_name":"Metro St. Louis"},"geometry":{"type":"Point","coordinates":[-90.20977,38.74797]}},{"type":"Feature","properties":{"stop_id":"4648","stop_code":"4648","stop_name":"CHAMBERS @ VALLEY EB","stop_desc":"FAR SIDE CHAMBERS @ VALLEY EB","wheelchair_boarding":2,"routes":[{"route_id":"19619","agency_id":"70006","route_short_name":"60","route_long_name":"Shepley-Lilac","route_type":3,"route_color":"#FFFFFF","route_text_color":"#000000"}],"agency_name":"Metro St. Louis"},"geometry":{"type":"Point","coordinates":[-90.20719,38.74774]}},{"type":"Feature","properties":{"stop_id":"4649","stop_code":"4649","stop_name":"CHAMBERS @ JEFFREY EB","stop_desc":"FAR SIDE CHAMBERS @ JEFFREY EB","wheelchair_boarding":2,"routes":[{"route_id":"19619","agency_id":"70006","route_short_name":"60","route_long_name":"Shepley-Lilac","route_type":3,"route_color":"#FFFFFF","route_text_color":"#000000"}],"agency_name":"Metro St. Louis"},"geometry":{"type":"Point","coordinates":[-90.20589,38.74763]}},{"type":"Feature","properties":{"stop_id":"4650","stop_code":"4650","stop_name":"NORTHGATE @ HABECKING EB","stop_desc":"NEAR SIDE NORTHGATE @ HABECKING EB","wheelchair_boarding":2,"routes":[{"route_id":"19619","agency_id":"70006","route_short_name":"60","route_long_name":"Shepley-Lilac","route_type":3,"route_color":"#FFFFFF","route_text_color":"#000000"}],"agency_name":"Metro St. Louis"},"geometry":{"type":"Point","coordinates":[-90.20434,38.74863]}},{"type":"Feature","properties":{"stop_id":"4652","stop_code":"4652","stop_name":"NORTHGATE @ CAMERON NB","stop_desc":"NEAR SIDE NORTHGATE @ CAMERON NB","wheelchair_boarding":2,"routes":[{"route_id":"19619","agency_id":"70006","route_short_name":"60","route_long_name":"Shepley-Lilac","route_type":3,"route_color":"#FFFFFF","route_text_color":"#000000"}],"agency_name":"Metro St. Louis"},"geometry":{"type":"Point","coordinates":[-90.20402,38.75055]}},{"type":"Feature","properties":{"stop_id":"4654","stop_code":"4654","stop_name":"CAMERON @ ESTRIDGE EB","stop_desc":"NEAR SIDE CAMERON @ ESTRIDGE EB","wheelchair_boarding":2,"routes":[{"route_id":"19619","agency_id":"70006","route_short_name":"60","route_long_name":"Shepley-Lilac","route_type":3,"route_color":"#FFFFFF","route_text_color":"#000000"}],"agency_name":"Metro St. Louis"},"geometry":{"type":"Point","coordinates":[-90.20111,38.75262]}},{"type":"Feature","properties":{"stop_id":"4655","stop_code":"4655","stop_name":"CAMERON @ TRONGATE PLACE EB","stop_desc":"FAR SIDE CAMERON @ TRONGATE PLACE EB","wheelchair_boarding":2,"routes":[{"route_id":"19619","agency_id":"70006","route_short_name":"60","route_long_name":"Shepley-Lilac","route_type":3,"route_color":"#FFFFFF","route_text_color":"#000000"}],"agency_name":"Metro St. Louis"},"geometry":{"type":"Point","coordinates":[-90.19841,38.75355]}},{"type":"Feature","properties":{"stop_id":"4656","stop_code":"4656","stop_name":"CAMERON @ SPRING GARDEN EB","stop_desc":"NEAR SIDE CAMERON @ SPRING GARDEN EB","wheelchair_boarding":2,"routes":[{"route_id":"19619","agency_id":"70006","route_short_name":"60","route_long_name":"Shepley-Lilac","route_type":3,"route_color":"#FFFFFF","route_text_color":"#000000"}],"agency_name":"Metro St. Louis"},"geometry":{"type":"Point","coordinates":[-90.19574,38.75235]}},{"type":"Feature","properties":{"stop_id":"5791","stop_code":"5791","stop_name":"LUSHER @ KINGSGATE NB","stop_desc":"NEAR SIDE LUSHER @ KINGSGATE NB","wheelchair_boarding":2,"routes":[{"route_id":"19619","agency_id":"70006","route_short_name":"60","route_long_name":"Shepley-Lilac","route_type":3,"route_color":"#FFFFFF","route_text_color":"#000000"}],"agency_name":"Metro St. Louis"},"geometry":{"type":"Point","coordinates":[-90.23496,38.78292]}},{"type":"Feature","properties":{"stop_id":"5792","stop_code":"5792","stop_name":"CHRISTIAN HOSPITAL NORTHEAST LOOP","stop_desc":"MID-BLOCK CHRISTIAN HOSPITAL NORTHEAST LOOP","wheelchair_boarding":2,"routes":[{"route_id":"19619","agency_id":"70006","route_short_name":"60","route_long_name":"Shepley-Lilac","route_type":3,"route_color":"#FFFFFF","route_text_color":"#000000"}],"agency_name":"Metro St. Louis"},"geometry":{"type":"Point","coordinates":[-90.23952,38.77577]}},{"type":"Feature","properties":{"stop_id":"6506","stop_code":"6506","stop_name":"OLD HALLS FERRY @ NETHERTON SB","stop_desc":"NEAR SIDE OLD HALLS FERRY @ NETHERTON SB","wheelchair_boarding":2,"routes":[{"route_id":"19619","agency_id":"70006","route_short_name":"60","route_long_name":"Shepley-Lilac","route_type":3,"route_color":"#FFFFFF","route_text_color":"#000000"}],"agency_name":"Metro St. Louis"},"geometry":{"type":"Point","coordinates":[-90.26258,38.77447]}},{"type":"Feature","properties":{"stop_id":"6649","stop_code":"6649","stop_name":"RIVERVIEW TRANSIT CENTER","wheelchair_boarding":1,"routes":[{"route_id":"19601","agency_id":"70006","route_short_name":"16","route_long_name":"City Limits","route_type":3,"route_color":"#FFFFFF","route_text_color":"#000000"},{"route_id":"19611","agency_id":"70006","route_short_name":"40","route_long_name":"Broadway-Halls Ferry","route_type":3,"route_color":"#FFFFFF","route_text_color":"#000000"},{"route_id":"19612","agency_id":"70006","route_short_name":"41","route_long_name":"Lee","route_type":3,"route_color":"#FFFFFF","route_text_color":"#000000"},{"route_id":"19619","agency_id":"70006","route_short_name":"60","route_long_name":"Shepley-Lilac","route_type":3,"route_color":"#FFFFFF","route_text_color":"#000000"}],"agency_name":"Metro St. Louis"},"geometry":{"type":"Point","coordinates":[-90.22406,38.7273]}},{"type":"Feature","properties":{"stop_id":"6683","stop_code":"6683","stop_name":"REDMAN @ PRITCHARD WB","stop_desc":"NEAR SIDE REDMAN @ PRITCHARD WB","wheelchair_boarding":2,"routes":[{"route_id":"19619","agency_id":"70006","route_short_name":"60","route_long_name":"Shepley-Lilac","route_type":3,"route_color":"#FFFFFF","route_text_color":"#000000"}],"agency_name":"Metro St. Louis"},"geometry":{"type":"Point","coordinates":[-90.25876,38.77874]}},{"type":"Feature","properties":{"stop_id":"6685","stop_code":"6685","stop_name":"REDMAN @ GARHAM WB","stop_desc":"FAR SIDE REDMAN @ GARHAM WB","wheelchair_boarding":2,"routes":[{"route_id":"19619","agency_id":"70006","route_short_name":"60","route_long_name":"Shepley-Lilac","route_type":3,"route_color":"#FFFFFF","route_text_color":"#000000"}],"agency_name":"Metro St. Louis"},"geometry":{"type":"Point","coordinates":[-90.26324,38.77879]}},{"type":"Feature","properties":{"stop_id":"6688","stop_code":"6688","stop_name":"NETHERTON @ MEHL WB","stop_desc":"NEAR SIDE NETHERTON @ MEHL WB","wheelchair_boarding":1,"routes":[{"route_id":"19619","agency_id":"70006","route_short_name":"60","route_long_name":"Shepley-Lilac","route_type":3,"route_color":"#FFFFFF","route_text_color":"#000000"}],"agency_name":"Metro St. Louis"},"geometry":{"type":"Point","coordinates":[-90.26936,38.77448]}},{"type":"Feature","properties":{"stop_id":"6747","stop_code":"6747","stop_name":"BELLEFONTAINE @ LARIMORE SB","stop_desc":"FAR SIDE BELLEFONTAINE @ LARIMORE SB","wheelchair_boarding":1,"routes":[{"route_id":"19619","agency_id":"70006","route_short_name":"60","route_long_name":"Shepley-Lilac","route_type":3,"route_color":"#FFFFFF","route_text_color":"#000000"},{"route_id":"19627","agency_id":"70006","route_short_name":"78","route_long_name":"Bellefontaine","route_type":3,"route_color":"#FFFFFF","route_text_color":"#000000"}],"agency_name":"Metro St. Louis"},"geometry":{"type":"Point","coordinates":[-90.22043,38.77225]}},{"type":"Feature","properties":{"stop_id":"6793","stop_code":"6793","stop_name":"BELLEFONTAINE @ FONTAINE PLACE NB","stop_desc":"FAR SIDE BELLEFONTAINE @ FONTAINE PLACE NB","wheelchair_boarding":2,"routes":[{"route_id":"19619","agency_id":"70006","route_short_name":"60","route_long_name":"Shepley-Lilac","route_type":3,"route_color":"#FFFFFF","route_text_color":"#000000"},{"route_id":"19620","agency_id":"70006","route_short_name":"61","route_long_name":"Chambers Rd","route_type":3,"route_color":"#FFFFFF","route_text_color":"#000000"},{"route_id":"19627","agency_id":"70006","route_short_name":"78","route_long_name":"Bellefontaine","route_type":3,"route_color":"#FFFFFF","route_text_color":"#000000"}],"agency_name":"Metro St. Louis"},"geometry":{"type":"Point","coordinates":[-90.22783,38.73101]}},{"type":"Feature","properties":{"stop_id":"6794","stop_code":"6794","stop_name":"BELLEFONTAINE @ TEURVILLE NB","stop_desc":"FAR SIDE BELLEFONTAINE @ TEURVILLE NB","wheelchair_boarding":2,"routes":[{"route_id":"19619","agency_id":"70006","route_short_name":"60","route_long_name":"Shepley-Lilac","route_type":3,"route_color":"#FFFFFF","route_text_color":"#000000"},{"route_id":"19620","agency_id":"70006","route_short_name":"61","route_long_name":"Chambers Rd","route_type":3,"route_color":"#FFFFFF","route_text_color":"#000000"},{"route_id":"19627","agency_id":"70006","route_short_name":"78","route_long_name":"Bellefontaine","route_type":3,"route_color":"#FFFFFF","route_text_color":"#000000"}],"agency_name":"Metro St. Louis"},"geometry":{"type":"Point","coordinates":[-90.22699,38.73396]}},{"type":"Feature","properties":{"stop_id":"6796","stop_code":"6796","stop_name":"BELLEFONTAINE @ ST. CYR NB","stop_desc":"FAR SIDE BELLEFONTAINE @ ST. CYR NB","wheelchair_boarding":2,"routes":[{"route_id":"19619","agency_id":"70006","route_short_name":"60","route_long_name":"Shepley-Lilac","route_type":3,"route_color":"#FFFFFF","route_text_color":"#000000"},{"route_id":"19620","agency_id":"70006","route_short_name":"61","route_long_name":"Chambers Rd","route_type":3,"route_color":"#FFFFFF","route_text_color":"#000000"},{"route_id":"19627","agency_id":"70006","route_short_name":"78","route_long_name":"Bellefontaine","route_type":3,"route_color":"#FFFFFF","route_text_color":"#000000"}],"agency_name":"Metro St. Louis"},"geometry":{"type":"Point","coordinates":[-90.22616,38.73731]}},{"type":"Feature","properties":{"stop_id":"6797","stop_code":"6797","stop_name":"BELLEFONTAINE @ ZELLWEGER NB","stop_desc":"NEAR SIDE BELLEFONTAINE @ ZELLWEGER NB","wheelchair_boarding":2,"routes":[{"route_id":"19619","agency_id":"70006","route_short_name":"60","route_long_name":"Shepley-Lilac","route_type":3,"route_color":"#FFFFFF","route_text_color":"#000000"},{"route_id":"19620","agency_id":"70006","route_short_name":"61","route_long_name":"Chambers Rd","route_type":3,"route_color":"#FFFFFF","route_text_color":"#000000"},{"route_id":"19627","agency_id":"70006","route_short_name":"78","route_long_name":"Bellefontaine","route_type":3,"route_color":"#FFFFFF","route_text_color":"#000000"}],"agency_name":"Metro St. Louis"},"geometry":{"type":"Point","coordinates":[-90.22571,38.74137]}},{"type":"Feature","properties":{"stop_id":"6799","stop_code":"6799","stop_name":"BELLEFONTAINE @ BIRITZ NB","stop_desc":"FAR SIDE BELLEFONTAINE @ BIRITZ NB","wheelchair_boarding":2,"routes":[{"route_id":"19619","agency_id":"70006","route_short_name":"60","route_long_name":"Shepley-Lilac","route_type":3,"route_color":"#FFFFFF","route_text_color":"#000000"},{"route_id":"19620","agency_id":"70006","route_short_name":"61","route_long_name":"Chambers Rd","route_type":3,"route_color":"#FFFFFF","route_text_color":"#000000"},{"route_id":"19627","agency_id":"70006","route_short_name":"78","route_long_name":"Bellefontaine","route_type":3,"route_color":"#FFFFFF","route_text_color":"#000000"}],"agency_name":"Metro St. Louis"},"geometry":{"type":"Point","coordinates":[-90.22491,38.74492]}},{"type":"Feature","properties":{"stop_id":"6801","stop_code":"6801","stop_name":"BELLEFONTAINE @ SURREY NB","stop_desc":"FAR SIDE BELLEFONTAINE @ SURREY NB","wheelchair_boarding":2,"routes":[{"route_id":"19619","agency_id":"70006","route_short_name":"60","route_long_name":"Shepley-Lilac","route_type":3,"route_color":"#FFFFFF","route_text_color":"#000000"},{"route_id":"19620","agency_id":"70006","route_short_name":"61","route_long_name":"Chambers Rd","route_type":3,"route_color":"#FFFFFF","route_text_color":"#000000"},{"route_id":"19627","agency_id":"70006","route_short_name":"78","route_long_name":"Bellefontaine","route_type":3,"route_color":"#FFFFFF","route_text_color":"#000000"}],"agency_name":"Metro St. Louis"},"geometry":{"type":"Point","coordinates":[-90.22421,38.74831]}}]}