{"type":"FeatureCollection","features":[{"type":"Feature","properties":{"agency_name":"Metro St. Louis","route_id":"19604","agency_id":"70006","route_short_name":"21","route_long_name":"Watson Rd","route_type":3,"route_color":"#FFFFFF","route_text_color":"#000000"},"geometry":{"type":"MultiLineString","coordinates":[[[-90.41735,38.56914],[-90.41736,38.56873],[-90.41735,38.56914],[-90.41737,38.56958],[-90.41733,38.57056],[-90.41596,38.57056],[-90.41586,38.56934],[-90.4159,38.56692],[-90.41368,38.56685],[-90.40968,38.56678],[-90.40677,38.5667],[-90.40686,38.56362],[-90.40693,38.55946],[-90.407,38.55762],[-90.40699,38.55675],[-90.40711,38.55639],[-90.40724,38.55613],[-90.40744,38.5559],[-90.40774,38.55569],[-90.40774,38.55546],[-90.40699,38.55548],[-90.40545,38.55562],[-90.40215,38.55583],[-90.38959,38.5567],[-90.38774,38.55684],[-90.38697,38.55687],[-90.38374,38.55712],[-90.38313,38.55715],[-90.38163,38.55727],[-90.38092,38.55741],[-90.3799,38.55765],[-90.37946,38.55779],[-90.37897,38.55797],[-90.37686,38.55881],[-90.37073,38.56131],[-90.369,38.562],[-90.36801,38.56243],[-90.36685,38.56287],[-90.36546,38.56345],[-90.36449,38.5638],[-90.36385,38.56398],[-90.36317,38.56415],[-90.36237,38.56432],[-90.3591,38.56487],[-90.35753,38.5651],[-90.34816,38.56663],[-90.34146,38.5677],[-90.34079,38.56785],[-90.33987,38.56812],[-90.33939,38.56835],[-90.33875,38.56875],[-90.338,38.5693],[-90.33378,38.57251],[-90.33301,38.57313],[-90.33262,38.57347],[-90.33235,38.57372],[-90.33198,38.5741],[-90.32832,38.57799],[-90.32768,38.57871],[-90.32711,38.57921],[-90.32675,38.57943],[-90.3263,38.57966],[-90.32572,38.57988],[-90.32528,38.58001],[-90.32479,38.5801],[-90.32339,38.5803],[-90.3229,38.58042],[-90.32238,38.58059],[-90.32211,38.5807],[-90.32157,38.58097],[-90.32078,38.5815],[-90.32009,38.582],[-90.31793,38.58349],[-90.31402,38.58629],[-90.31265,38.58537],[-90.31272,38.58525],[-90.31283,38.58519],[-90.31293,38.5852],[-90.31315,38.58531],[-90.31616,38.58866],[-90.31643,38.58913],[-90.31668,38.58986],[-90.31684,38.59018],[-90.31701,38.59043],[-90.31713,38.59059],[-90.31735,38.59082],[-90.31764,38.59105],[-90.31804,38.59132],[-90.31823,38.59148],[-90.31844,38.59174],[-90.31846,38.59199],[-90.31842,38.59252],[-90.31843,38.59257],[-90.31856,38.59279],[-90.3186,38.59282],[-90.31878,38.59286]],[[-90.47416,38.52791],[-90.47417,38.52802],[-90.47415,38.52757],[-90.47425,38.52718],[-90.47432,38.52698],[-90.47453,38.52661],[-90.47482,38.52618],[-90.4749,38.5261],[-90.47503,38.52603],[-90.47555,38.52585],[-90.47616,38.52582],[-90.47664,38.5259],[-90.4771,38.52609],[-90.47751,38.52628],[-90.47765,38.52646],[-90.47627,38.52694],[-90.47554,38.52636]],[[-90.47419,38.52818],[-90.47417,38.52802],[-90.47419,38.52818],[-90.47423,38.52833],[-90.47444,38.52884],[-90.47471,38.52918],[-90.47497,38.52945],[-90.47515,38.52958],[-90.47526,38.52969],[-90.47529,38.53005],[-90.47518,38.53014],[-90.47506,38.53019],[-90.47493,38.53022],[-90.47481,38.53021],[-90.47467,38.53016],[-90.47453,38.53007],[-90.47445,38.52998],[-90.47437,38.52985],[-90.47424,38.52974],[-90.47407,38.52969],[-90.47393,38.52967],[-90.47363,38.52967],[-90.47362,38.53045],[-90.47378,38.53139],[-90.47378,38.53179],[-90.47375,38.53289],[-90.47363,38.53542],[-90.47352,38.53929],[-90.4735,38.53949],[-90.47342,38.53969],[-90.4733,38.53986],[-90.47319,38.53997],[-90.47301,38.54006],[-90.47279,38.54014],[-90.47258,38.54018],[-90.47037,38.54017],[-90.47008,38.54021],[-90.46991,38.54026],[-90.46974,38.54036],[-90.46958,38.54048],[-90.46941,38.54072],[-90.46935,38.54096],[-90.46922,38.54174],[-90.46922,38.5419],[-90.46826,38.54206],[-90.4678,38.54217],[-90.46678,38.54247],[-90.46626,38.54259],[-90.46551,38.54267],[-90.46471,38.54268],[-90.46113,38.54267],[-90.45612,38.54261],[-90.44859,38.54259],[-90.44516,38.54254],[-90.4423,38.54272],[-90.4393,38.54269],[-90.4378,38.5427],[-90.43631,38.54285],[-90.43573,38.54295],[-90.43516,38.54307],[-90.43444,38.54325],[-90.43324,38.54367],[-90.43271,38.5439],[-90.43221,38.54414],[-90.43172,38.5444],[-90.43124,38.54469],[-90.43091,38.54491],[-90.43012,38.54551],[-90.42953,38.54603],[-90.42865,38.54685],[-90.42826,38.54706],[-90.42743,38.5476],[-90.42656,38.54842],[-90.4255,38.54938],[-90.42506,38.54985],[-90.42394,38.55062],[-90.42356,38.55086],[-90.42219,38.55161],[-90.42112,38.55215],[-90.42074,38.55232],[-90.4201,38.55257],[-90.42003,38.55257],[-90.41948,38.55274],[-90.41732,38.55331],[-90.41629,38.55361],[-90.41153,38.55487],[-90.41029,38.55518],[-90.40916,38.55535],[-90.40858,38.5554]]]}},{"type":"Feature","properties":{"stop_id":"13343","stop_code":"13343","stop_name":"STLCC MERAMEC","stop_desc":"MID-BLOCK STLCC MERAMEC","wheelchair_boarding":1,"routes":[{"route_id":"19604","agency_id":"70006","route_short_name":"21","route_long_name":"Watson Rd","route_type":3,"route_color":"#FFFFFF","route_text_color":"#000000"},{"route_id":"19615","agency_id":"70006","route_short_name":"56","route_long_name":"Kirkwood-Webster","route_type":3,"route_color":"#FFFFFF","route_text_color":"#000000"}],"agency_name":"Metro St. Louis"},"geometry":{"type":"Point","coordinates":[-90.41737,38.56819]}},{"type":"Feature","properties":{"stop_id":"14769","stop_code":"14769","stop_name":"SHREWSBURY-LANSDOWNE I-44 TRANSIT CENTER","wheelchair_boarding":1,"routes":[{"route_id":"19599","agency_id":"70006","route_short_name":"11","route_long_name":"Chippewa","route_type":3,"route_color":"#FFFFFF","route_text_color":"#000000"},{"route_id":"19601","agency_id":"70006","route_short_name":"16","route_long_name":"City Limits","route_type":3,"route_color":"#FFFFFF","route_text_color":"#000000"},{"route_id":"19604","agency_id":"70006","route_short_name":"21","route_long_name":"Watson Rd","route_type":3,"route_color":"#FFFFFF","route_text_color":"#000000"},{"route_id":"19605","agency_id":"70006","route_short_name":"30","route_long_name":"Arsenal","route_type":3,"route_color":"#FFFFFF","route_text_color":"#000000"}],"agency_name":"Metro St. Louis"},"geometry":{"type":"Point","coordinates":[-90.31925,38.59277]}},{"type":"Feature","properties":{"stop_id":"15484","stop_code":"15484","stop_name":"SOUTH HIGHWAY @ DRURY INN EB","stop_desc":"NEAR SIDE SOUTH HIGHWAY @ DRURY INN EB","wheelchair_boarding":2,"routes":[{"route_id":"19604","agency_id":"70006","route_short_name":"21","route_long_name":"Watson Rd","route_type":3,"route_color":"#FFFFFF","route_text_color":"#000000"}],"agency_name":"Metro St. Louis"},"geometry":{"type":"Point","coordinates":[-90.46616,38.54248]}},{"type":"Feature","properties":{"stop_id":"15863","stop_code":"15863","stop_name":"SSM ST CLARE HOSPITAL DRIVEWAY","stop_desc":"MID-BLOCK SSM ST CLARE HOSPITAL DRIVEWAY","wheelchair_boarding":1,"routes":[{"route_id":"19604","agency_id":"70006","route_short_name":"21","route_long_name":"Watson Rd","route_type":3,"route_color":"#FFFFFF","route_text_color":"#000000"}],"agency_name":"Metro St. Louis"},"geometry":{"type":"Point","coordinates":[-90.47429,38.52811]}},{"type":"Feature","properties":{"stop_id":"16098","stop_code":"16098","stop_name":"BOWLES @ WESTPARK CENTER NB","stop_desc":"FAR SIDE BOWLES @ WESTPARK CENTER NB","wheelchair_boarding":2,"routes":[{"route_id":"19604","agency_id":"70006","route_short_name":"21","route_long_name":"Watson Rd","route_type":3,"route_color":"#FFFFFF","route_text_color":"#000000"}],"agency_name":"Metro St. Louis"},"geometry":{"type":"Point","coordinates":[-90.46942,38.54046]}},{"type":"Feature","properties":{"stop_id":"16219","stop_code":"16219","stop_name":"BOWLES @ FENTON MEADOWS COURT NB","stop_desc":"NEAR SIDE BOWLES @ FENTON MEADOWS COURT NB","wheelchair_boarding":2,"routes":[{"route_id":"19604","agency_id":"70006","route_short_name":"21","route_long_name":"Watson Rd","route_type":3,"route_color":"#FFFFFF","route_text_color":"#000000"}],"agency_name":"Metro St. Louis"},"geometry":{"type":"Point","coordinates":[-90.4736,38.53117]}},{"type":"Feature","properties":{"stop_id":"16524","stop_code":"16524","stop_name":"BOWLES @ HORAN NB","stop_desc":"NEAR SIDE BOWLES @ HORAN NB","wheelchair_boarding":2,"routes":[{"route_id":"19604","agency_id":"70006","route_short_name":"21","route_long_name":"Watson Rd","route_type":3,"route_color":"#FFFFFF","route_text_color":"#000000"}],"agency_name":"Metro St. Louis"},"geometry":{"type":"Point","coordinates":[-90.47347,38.53794]}},{"type":"Feature","properties":{"stop_id":"16547","stop_code":"16547","stop_name":"SOUTH HIGHWAY @ LARKIN WILLIAMS EB","stop_desc":"NEAR SIDE SOUTH HIGHWAY @ LARKIN WILLIAMS EB","wheelchair_boarding":2,"routes":[{"route_id":"19604","agency_id":"70006","route_short_name":"21","route_long_name":"Watson Rd","route_type":3,"route_color":"#FFFFFF","route_text_color":"#000000"}],"agency_name":"Metro St. Louis"},"geometry":{"type":"Point","coordinates":[-90.45936,38.54256]}},{"type":"Feature","properties":{"stop_id":"5596","stop_code":"5596","stop_name":"KIRKWOOD @ BIG BEND SB","stop_desc":"FAR SIDE KIRKWOOD @ BIG BEND SB","wheelchair_boarding":1,"routes":[{"route_id":"19604","agency_id":"70006","route_short_name":"21","route_long_name":"Watson Rd","route_type":3,"route_color":"#FFFFFF","route_text_color":"#000000"},{"route_id":"19614","agency_id":"70006","route_short_name":"49","route_long_name":"Lindbergh","route_type":3,"route_color":"#FFFFFF","route_text_color":"#000000"}],"agency_name":"Metro St. Louis"},"geometry":{"type":"Point","coordinates":[-90.40691,38.5653]}},{"type":"Feature","properties":{"stop_id":"5597","stop_code":"5597","stop_name":"LINDBERGH @ KIRKWOOD CROSSING SB","stop_desc":"FAR SIDE LINDBERGH @ KIRKWOOD CROSSING SB","wheelchair_boarding":1,"routes":[{"route_id":"19604","agency_id":"70006","route_short_name":"21","route_long_name":"Watson Rd","route_type":3,"route_color":"#FFFFFF","route_text_color":"#000000"},{"route_id":"19614","agency_id":"70006","route_short_name":"49","route_long_name":"Lindbergh","route_type":3,"route_color":"#FFFFFF","route_text_color":"#000000"}],"agency_name":"Metro St. Louis"},"geometry":{"type":"Point","coordinates":[-90.40699,38.56307]}},{"type":"Feature","properties":{"stop_id":"5599","stop_code":"5599","stop_name":"LINDBERGH @ SUNSET OFFICE SB","stop_desc":"FAR SIDE LINDBERGH @ SUNSET OFFICE SB","wheelchair_boarding":1,"routes":[{"route_id":"19604","agency_id":"70006","route_short_name":"21","route_long_name":"Watson Rd","route_type":3,"route_color":"#FFFFFF","route_text_color":"#000000"},{"route_id":"19614","agency_id":"70006","route_short_name":"49","route_long_name":"Lindbergh","route_type":3,"route_color":"#FFFFFF","route_text_color":"#000000"}],"agency_name":"Metro St. Louis"},"geometry":{"type":"Point","coordinates":[-90.40711,38.55723]}},{"type":"Feature","properties":{"stop_id":"8748","stop_code":"8748","stop_name":"WATSON @ SUNSET OFFICE EB","stop_desc":"NEAR SIDE WATSON @ SUNSET OFFICE EB","wheelchair_boarding":2,"routes":[{"route_id":"19604","agency_id":"70006","route_short_name":"21","route_long_name":"Watson Rd","route_type":3,"route_color":"#FFFFFF","route_text_color":"#000000"}],"agency_name":"Metro St. Louis"},"geometry":{"type":"Point","coordinates":[-90.41071,38.55498]}},{"type":"Feature","properties":{"stop_id":"8750","stop_code":"8750","stop_name":"10216 WATSON EB","stop_desc":"MID-BLOCK 10216 WATSON EB","wheelchair_boarding":1,"routes":[{"route_id":"19604","agency_id":"70006","route_short_name":"21","route_long_name":"Watson Rd","route_type":3,"route_color":"#FFFFFF","route_text_color":"#000000"}],"agency_name":"Metro St. Louis"},"geometry":{"type":"Point","coordinates":[-90.40048,38.55589]}},{"type":"Feature","properties":{"stop_id":"8751","stop_code":"8751","stop_name":"WATSON @ STARLING EB","stop_desc":"NEAR SIDE WATSON @ STARLING EB","wheelchair_boarding":2,"routes":[{"route_id":"19604","agency_id":"70006","route_short_name":"21","route_long_name":"Watson Rd","route_type":3,"route_color":"#FFFFFF","route_text_color":"#000000"}],"agency_name":"Metro St. Louis"},"geometry":{"type":"Point","coordinates":[-90.39774,38.55606]}},{"type":"Feature","properties":{"stop_id":"8752","stop_code":"8752","stop_name":"WATSON @ STURDY EB","stop_desc":"FAR SIDE WATSON @ STURDY EB","wheelchair_boarding":2,"routes":[{"route_id":"19604","agency_id":"70006","route_short_name":"21","route_long_name":"Watson Rd","route_type":3,"route_color":"#FFFFFF","route_text_color":"#000000"}],"agency_name":"Metro St. Louis"},"geometry":{"type":"Point","coordinates":[-90.39404,38.55633]}},{"type":"Feature","properties":{"stop_id":"8753","stop_code":"8753","stop_name":"9834 WATSON EB","stop_desc":"MID-BLOCK 9834 WATSON EB","wheelchair_boarding":2,"routes":[{"route_id":"19604","agency_id":"70006","route_short_name":"21","route_long_name":"Watson Rd","route_type":3,"route_color":"#FFFFFF","route_text_color":"#000000"}],"agency_name":"Metro St. Louis"},"geometry":{"type":"Point","coordinates":[-90.38994,38.55662]}},{"type":"Feature","properties":{"stop_id":"8754","stop_code":"8754","stop_name":"WATSON @ GLENWOOD EB","stop_desc":"FAR SIDE WATSON @ GLENWOOD EB","wheelchair_boarding":2,"routes":[{"route_id":"19604","agency_id":"70006","route_short_name":"21","route_long_name":"Watson Rd","route_type":3,"route_color":"#FFFFFF","route_text_color":"#000000"}],"agency_name":"Metro St. Louis"},"geometry":{"type":"Point","coordinates":[-90.38675,38.55681]}},{"type":"Feature","properties":{"stop_id":"8755","stop_code":"8755","stop_name":"WATSON @ NEW SAPPINGTON EB","stop_desc":"FAR SIDE WATSON @ NEW SAPPINGTON EB","wheelchair_boarding":2,"routes":[{"route_id":"19604","agency_id":"70006","route_short_name":"21","route_long_name":"Watson Rd","route_type":3,"route_color":"#FFFFFF","route_text_color":"#000000"}],"agency_name":"Metro St. Louis"},"geometry":{"type":"Point","coordinates":[-90.38268,38.5571]}},{"type":"Feature","properties":{"stop_id":"8757","stop_code":"8757","stop_name":"WATSON @ PARK CRESTWOOD EB","stop_desc":"FAR SIDE WATSON @ PARK CRESTWOOD EB","wheelchair_boarding":2,"routes":[{"route_id":"19604","agency_id":"70006","route_short_name":"21","route_long_name":"Watson Rd","route_type":3,"route_color":"#FFFFFF","route_text_color":"#000000"}],"agency_name":"Metro St. Louis"},"geometry":{"type":"Point","coordinates":[-90.37631,38.55893]}},{"type":"Feature","properties":{"stop_id":"8758","stop_code":"8758","stop_name":"9206 WATSON EB","stop_desc":"MID-BLOCK 9206 WATSON EB","wheelchair_boarding":2,"routes":[{"route_id":"19604","agency_id":"70006","route_short_name":"21","route_long_name":"Watson Rd","route_type":3,"route_color":"#FFFFFF","route_text_color":"#000000"}],"agency_name":"Metro St. Louis"},"geometry":{"type":"Point","coordinates":[-90.3737,38.56]}},{"type":"Feature","properties":{"stop_id":"8759","stop_code":"8759","stop_name":"WATSON @ BROOKVIEW EB","stop_desc":"FAR SIDE WATSON @ BROOKVIEW EB","wheelchair_boarding":1,"routes":[{"route_id":"19604","agency_id":"70006","route_short_name":"21","route_long_name":"Watson Rd","route_type":3,"route_color":"#FFFFFF","route_text_color":"#000000"}],"agency_name":"Metro St. Louis"},"geometry":{"type":"Point","coordinates":[-90.37194,38.5607]}},{"type":"Feature","properties":{"stop_id":"8761","stop_code":"8761","stop_name":"WATSON @ GRANT EB","stop_desc":"MID-BLOCK WATSON @ GRANT EB","wheelchair_boarding":2,"routes":[{"route_id":"19604","agency_id":"70006","route_short_name":"21","route_long_name":"Watson Rd","route_type":3,"route_color":"#FFFFFF","route_text_color":"#000000"}],"agency_name":"Metro St. Louis"},"geometry":{"type":"Point","coordinates":[-90.3666,38.56286]}},{"type":"Feature","properties":{"stop_id":"8763","stop_code":"8763","stop_name":"8742 WATSON EB","stop_desc":"MID-BLOCK 8742 WATSON EB","wheelchair_boarding":1,"routes":[{"route_id":"19604","agency_id":"70006","route_short_name":"21","route_long_name":"Watson Rd","route_type":3,"route_color":"#FFFFFF","route_text_color":"#000000"}],"agency_name":"Metro St. Louis"},"geometry":{"type":"Point","coordinates":[-90.36343,38.56397]}},{"type":"Feature","properties":{"stop_id":"8765","stop_code":"8765","stop_name":"WATSON @ ROCK HILL EB","stop_desc":"FAR SIDE WATSON @ ROCK HILL EB","wheelchair_boarding":2,"routes":[{"route_id":"19604","agency_id":"70006","route_short_name":"21","route_long_name":"Watson Rd","route_type":3,"route_color":"#FFFFFF","route_text_color":"#000000"}],"agency_name":"Metro St. Louis"},"geometry":{"type":"Point","coordinates":[-90.35874,38.5648]}},{"type":"Feature","properties":{"stop_id":"8766","stop_code":"8766","stop_name":"WATSON @ GENERAL GRANT EB","stop_desc":"FAR SIDE WATSON @ GENERAL GRANT EB","wheelchair_boarding":2,"routes":[{"route_id":"19604","agency_id":"70006","route_short_name":"21","route_long_name":"Watson Rd","route_type":3,"route_color":"#FFFFFF","route_text_color":"#000000"}],"agency_name":"Metro St. Louis"},"geometry":{"type":"Point","coordinates":[-90.35469,38.5655]}},{"type":"Feature","properties":{"stop_id":"8767","stop_code":"8767","stop_name":"WATSON @ CHESHIRE EB","stop_desc":"NEAR SIDE WATSON @ CHESHIRE EB","wheelchair_boarding":2,"routes":[{"route_id":"19604","agency_id":"70006","route_short_name":"21","route_long_name":"Watson Rd","route_type":3,"route_color":"#FFFFFF","route_text_color":"#000000"}],"agency_name":"Metro St. Louis"},"geometry":{"type":"Point","coordinates":[-90.35139,38.566]}},{"type":"Feature","properties":{"stop_id":"8768","stop_code":"8768","stop_name":"WATSON @ EDGAR EB","stop_desc":"NEAR SIDE WATSON @ EDGAR EB","wheelchair_boarding":2,"routes":[{"route_id":"19604","agency_id":"70006","route_short_name":"21","route_long_name":"Watson Rd","route_type":3,"route_color":"#FFFFFF","route_text_color":"#000000"}],"agency_name":"Metro St. Louis"},"geometry":{"type":"Point","coordinates":[-90.34793,38.56657]}},{"type":"Feature","properties":{"stop_id":"8769","stop_code":"8769","stop_name":"8086 WATSON EB","stop_desc":"MID-BLOCK 8086 WATSON EB","wheelchair_boarding":1,"routes":[{"route_id":"19604","agency_id":"70006","route_short_name":"21","route_long_name":"Watson Rd","route_type":3,"route_color":"#FFFFFF","route_text_color":"#000000"}],"agency_name":"Metro St. Louis"},"geometry":{"type":"Point","coordinates":[-90.34413,38.56721]}},{"type":"Feature","properties":{"stop_id":"8770","stop_code":"8770","stop_name":"WATSON @ LACLEDE STATION ROAD EB","stop_desc":"NEAR SIDE WATSON @ LACLEDE STATION ROAD EB","wheelchair_boarding":1,"routes":[{"route_id":"19604","agency_id":"70006","route_short_name":"21","route_long_name":"Watson Rd","route_type":3,"route_color":"#FFFFFF","route_text_color":"#000000"}],"agency_name":"Metro St. Louis"},"geometry":{"type":"Point","coordinates":[-90.3415,38.56763]}},{"type":"Feature","properties":{"stop_id":"8772","stop_code":"8772","stop_name":"WATSON @ ALDERSHOT EB","stop_desc":"NEAR SIDE WATSON @ ALDERSHOT EB","wheelchair_boarding":2,"routes":[{"route_id":"19604","agency_id":"70006","route_short_name":"21","route_long_name":"Watson Rd","route_type":3,"route_color":"#FFFFFF","route_text_color":"#000000"}],"agency_name":"Metro St. Louis"},"geometry":{"type":"Point","coordinates":[-90.33745,38.56963]}},{"type":"Feature","properties":{"stop_id":"8774","stop_code":"8774","stop_name":"7738 WATSON EB","stop_desc":"MID-BLOCK 7738 WATSON EB","wheelchair_boarding":2,"routes":[{"route_id":"19604","agency_id":"70006","route_short_name":"21","route_long_name":"Watson Rd","route_type":3,"route_color":"#FFFFFF","route_text_color":"#000000"}],"agency_name":"Metro St. Louis"},"geometry":{"type":"Point","coordinates":[-90.33335,38.57273]}},{"type":"Feature","properties":{"stop_id":"8775","stop_code":"8775","stop_name":"7626 WATSON EB","stop_desc":"MID-BLOCK 7626 WATSON EB","wheelchair_boarding":2,"routes":[{"route_id":"19604","agency_id":"70006","route_short_name":"21","route_long_name":"Watson Rd","route_type":3,"route_color":"#FFFFFF","route_text_color":"#000000"}],"agency_name":"Metro St. Louis"},"geometry":{"type":"Point","coordinates":[-90.33008,38.576]}},{"type":"Feature","properties":{"stop_id":"8777","stop_code":"8777","stop_name":"WATSON @ TRIANON PARKWAY EB","stop_desc":"NEAR SIDE WATSON @ TRIANON PARKWAY EB","wheelchair_boarding":1,"routes":[{"route_id":"19604","agency_id":"70006","route_short_name":"21","route_long_name":"Watson Rd","route_type":3,"route_color":"#FFFFFF","route_text_color":"#000000"}],"agency_name":"Metro St. Louis"},"geometry":{"type":"Point","coordinates":[-90.32756,38.57866]}},{"type":"Feature","properties":{"stop_id":"8778","stop_code":"8778","stop_name":"WATSON @  MACKENZIE PLAZA EXIT EB","stop_desc":"FAR SIDE WATSON @  MACKENZIE PLAZA EXIT EB","wheelchair_boarding":2,"routes":[{"route_id":"19604","agency_id":"70006","route_short_name":"21","route_long_name":"Watson Rd","route_type":3,"route_color":"#FFFFFF","route_text_color":"#000000"}],"agency_name":"Metro St. Louis"},"geometry":{"type":"Point","coordinates":[-90.32033,38.5817]}},{"type":"Feature","properties":{"stop_id":"8779","stop_code":"8779","stop_name":"WATSON @ MACKENZIE EB","stop_desc":"FAR SIDE WATSON @ MACKENZIE EB","wheelchair_boarding":2,"routes":[{"route_id":"19604","agency_id":"70006","route_short_name":"21","route_long_name":"Watson Rd","route_type":3,"route_color":"#FFFFFF","route_text_color":"#000000"}],"agency_name":"Metro St. Louis"},"geometry":{"type":"Point","coordinates":[-90.31746,38.58367]}},{"type":"Feature","properties":{"stop_id":"8781","stop_code":"8781","stop_name":"WATSON @ WEIL EB","stop_desc":"NEAR SIDE WATSON @ WEIL EB","wheelchair_boarding":2,"routes":[{"route_id":"19604","agency_id":"70006","route_short_name":"21","route_long_name":"Watson Rd","route_type":3,"route_color":"#FFFFFF","route_text_color":"#000000"}],"agency_name":"Metro St. Louis"},"geometry":{"type":"Point","coordinates":[-90.31467,38.58574]}},{"type":"Feature","properties":{"stop_id":"9647","stop_code":"9647","stop_name":"986 SOUTH HIGHWAY EB","stop_desc":"MID-BLOCK 986 SOUTH HIGHWAY EB","wheelchair_boarding":2,"routes":[{"route_id":"19604","agency_id":"70006","route_short_name":"21","route_long_name":"Watson Rd","route_type":3,"route_color":"#FFFFFF","route_text_color":"#000000"}],"agency_name":"Metro St. Louis"},"geometry":{"type":"Point","coordinates":[-90.46386,38.54256]}},{"type":"Feature","properties":{"stop_id":"9889","stop_code":"9889","stop_name":"BIG BEND @ MAEVILLE EB","stop_desc":"FAR SIDE BIG BEND @ MAEVILLE EB","wheelchair_boarding":1,"routes":[{"route_id":"19604","agency_id":"70006","route_short_name":"21","route_long_name":"Watson Rd","route_type":3,"route_color":"#FFFFFF","route_text_color":"#000000"},{"route_id":"19615","agency_id":"70006","route_short_name":"56","route_long_name":"Kirkwood-Webster","route_type":3,"route_color":"#FFFFFF","route_text_color":"#000000"}],"agency_name":"Metro St. Louis"},"geometry":{"type":"Point","coordinates":[-90.41346,38.5668]}},{"type":"Feature","properties":{"stop_id":"9891","stop_code":"9891","stop_name":"BIG BEND @ MARYHURST EB","stop_desc":"FAR SIDE BIG BEND @ MARYHURST EB","wheelchair_boarding":2,"routes":[{"route_id":"19604","agency_id":"70006","route_short_name":"21","route_long_name":"Watson Rd","route_type":3,"route_color":"#FFFFFF","route_text_color":"#000000"},{"route_id":"19615","agency_id":"70006","route_short_name":"56","route_long_name":"Kirkwood-Webster","route_type":3,"route_color":"#FFFFFF","route_text_color":"#000000"}],"agency_name":"Metro St. Louis"},"geometry":{"type":"Point","coordinates":[-90.40909,38.5667]}}]}