{"type":"FeatureCollection","features":[{"type":"Feature","properties":{"agency_name":"Metro St. Louis","route_id":"19637","agency_id":"70006","route_short_name":"2","route_long_name":"Cahokia Heights","route_type":3,"route_color":"#FFFFFF","route_text_color":"#000000"},"geometry":{"type":"MultiLineString","coordinates":[[[-90.16705,38.55476],[-90.16672,38.55446],[-90.16824,38.55581],[-90.17095,38.5581],[-90.17185,38.55884],[-90.17318,38.55997],[-90.17455,38.56116],[-90.17469,38.56129],[-90.17502,38.56165],[-90.1753,38.5621],[-90.17616,38.56284],[-90.17649,38.56272],[-90.17683,38.56305],[-90.17792,38.564],[-90.17701,38.56448],[-90.1801,38.56646],[-90.18242,38.5679],[-90.18351,38.56864],[-90.18423,38.56916],[-90.18494,38.56974],[-90.18628,38.57087],[-90.1869,38.57137],[-90.18668,38.5715],[-90.18641,38.57162],[-90.18462,38.57201],[-90.18389,38.57222],[-90.18268,38.57264],[-90.18219,38.57285],[-90.17983,38.57428],[-90.1762,38.57652],[-90.17544,38.57718],[-90.1751,38.57753],[-90.17477,38.5779],[-90.17404,38.57877],[-90.1728,38.58029],[-90.17245,38.58077],[-90.17214,38.58124],[-90.17176,38.58192],[-90.17106,38.58336],[-90.17049,38.5846],[-90.16994,38.58586],[-90.16972,38.58644],[-90.16946,38.5877],[-90.16925,38.58921],[-90.17217,38.58973],[-90.17288,38.58962],[-90.17326,38.58959],[-90.17354,38.58958],[-90.17383,38.5896],[-90.1741,38.58963],[-90.17469,38.58973],[-90.17652,38.59007],[-90.17378,38.59801],[-90.17319,38.59967],[-90.1729,38.60055],[-90.17184,38.6042],[-90.17161,38.60512],[-90.17151,38.60576],[-90.17128,38.60642],[-90.17092,38.60714],[-90.17082,38.60757],[-90.17032,38.60919],[-90.16982,38.61091],[-90.16942,38.61238],[-90.16929,38.61278],[-90.16906,38.61331],[-90.1688,38.61379],[-90.1685,38.61418],[-90.16814,38.61454],[-90.16793,38.61472],[-90.16522,38.61674],[-90.1615,38.61942],[-90.1581,38.62192],[-90.15966,38.62323],[-90.15982,38.62339],[-90.15804,38.62469],[-90.15827,38.62486],[-90.15851,38.62496]]]}},{"type":"Feature","properties":{"stop_id":"12696","stop_code":"12696","stop_name":"8TH STREET @ CONVERSE NB","stop_desc":"NEAR SIDE 8TH STREET @ CONVERSE NB","wheelchair_boarding":2,"routes":[{"route_id":"19637","agency_id":"70006","route_short_name":"2","route_long_name":"Cahokia Heights","route_type":3,"route_color":"#FFFFFF","route_text_color":"#000000"},{"route_id":"19638","agency_id":"70006","route_short_name":"3","route_long_name":"Sauget - Water Street","route_type":3,"route_color":"#FFFFFF","route_text_color":"#000000"}],"agency_name":"Metro St. Louis"},"geometry":{"type":"Point","coordinates":[-90.16165,38.61931]}},{"type":"Feature","properties":{"stop_id":"12697","stop_code":"12697","stop_name":"8TH STREET @ BRADY NB","stop_desc":"FAR SIDE 8TH STREET @ BRADY NB","wheelchair_boarding":2,"routes":[{"route_id":"19637","agency_id":"70006","route_short_name":"2","route_long_name":"Cahokia Heights","route_type":3,"route_color":"#FFFFFF","route_text_color":"#000000"},{"route_id":"19638","agency_id":"70006","route_short_name":"3","route_long_name":"Sauget - Water Street","route_type":3,"route_color":"#FFFFFF","route_text_color":"#000000"}],"agency_name":"Metro St. Louis"},"geometry":{"type":"Point","coordinates":[-90.16048,38.62016]}},{"type":"Feature","properties":{"stop_id":"12698","stop_code":"12698","stop_name":"8TH STREET @ WALNUT NB","stop_desc":"NEAR SIDE 8TH STREET @ WALNUT NB","wheelchair_boarding":2,"routes":[{"route_id":"19637","agency_id":"70006","route_short_name":"2","route_long_name":"Cahokia Heights","route_type":3,"route_color":"#FFFFFF","route_text_color":"#000000"},{"route_id":"19638","agency_id":"70006","route_short_name":"3","route_long_name":"Sauget - Water Street","route_type":3,"route_color":"#FFFFFF","route_text_color":"#000000"}],"agency_name":"Metro St. Louis"},"geometry":{"type":"Point","coordinates":[-90.15906,38.62121]}},{"type":"Feature","properties":{"stop_id":"12700","stop_code":"12700","stop_name":"BROADWAY @ 8TH STREET WB","stop_desc":"FAR SIDE BROADWAY @ 8TH STREET WB","wheelchair_boarding":2,"routes":[{"route_id":"19637","agency_id":"70006","route_short_name":"2","route_long_name":"Cahokia Heights","route_type":3,"route_color":"#FFFFFF","route_text_color":"#000000"},{"route_id":"19638","agency_id":"70006","route_short_name":"3","route_long_name":"Sauget - Water Street","route_type":3,"route_color":"#FFFFFF","route_text_color":"#000000"},{"route_id":"19639","agency_id":"70006","route_short_name":"4","route_long_name":"19th & Central","route_type":3,"route_color":"#FFFFFF","route_text_color":"#000000"}],"agency_name":"Metro St. Louis"},"geometry":{"type":"Point","coordinates":[-90.1584,38.62224]}},{"type":"Feature","properties":{"stop_id":"12701","stop_code":"12701","stop_name":"BROADWAY @ 6TH STREET WB","stop_desc":"NEAR SIDE BROADWAY @ 6TH STREET WB","wheelchair_boarding":2,"routes":[{"route_id":"19637","agency_id":"70006","route_short_name":"2","route_long_name":"Cahokia Heights","route_type":3,"route_color":"#FFFFFF","route_text_color":"#000000"},{"route_id":"19638","agency_id":"70006","route_short_name":"3","route_long_name":"Sauget - Water Street","route_type":3,"route_color":"#FFFFFF","route_text_color":"#000000"},{"route_id":"19639","agency_id":"70006","route_short_name":"4","route_long_name":"19th & Central","route_type":3,"route_color":"#FFFFFF","route_text_color":"#000000"}],"agency_name":"Metro St. Louis"},"geometry":{"type":"Point","coordinates":[-90.15962,38.62327]}},{"type":"Feature","properties":{"stop_id":"13009","stop_code":"13009","stop_name":"FALLING SPRINGS @ CAMP JACKSON EB","stop_desc":"FAR SIDE FALLING SPRINGS @ CAMP JACKSON EB","wheelchair_boarding":2,"routes":[{"route_id":"19637","agency_id":"70006","route_short_name":"2","route_long_name":"Cahokia Heights","route_type":3,"route_color":"#FFFFFF","route_text_color":"#000000"}],"agency_name":"Metro St. Louis"},"geometry":{"type":"Point","coordinates":[-90.18662,38.57142]}},{"type":"Feature","properties":{"stop_id":"13029","stop_code":"13029","stop_name":"CAMP JACKSON @ PARIS NB","stop_desc":"FAR SIDE CAMP JACKSON @ PARIS NB","wheelchair_boarding":2,"routes":[{"route_id":"19637","agency_id":"70006","route_short_name":"2","route_long_name":"Cahokia Heights","route_type":3,"route_color":"#FFFFFF","route_text_color":"#000000"},{"route_id":"19642","agency_id":"70006","route_short_name":"8","route_long_name":"Alta Sita","route_type":3,"route_color":"#FFFFFF","route_text_color":"#000000"}],"agency_name":"Metro St. Louis"},"geometry":{"type":"Point","coordinates":[-90.16717,38.55503]}},{"type":"Feature","properties":{"stop_id":"13030","stop_code":"13030","stop_name":"CAMP JACKSON @ FOX MEADOW NB","stop_desc":"NEAR SIDE CAMP JACKSON @ FOX MEADOW NB","wheelchair_boarding":2,"routes":[{"route_id":"19637","agency_id":"70006","route_short_name":"2","route_long_name":"Cahokia Heights","route_type":3,"route_color":"#FFFFFF","route_text_color":"#000000"},{"route_id":"19642","agency_id":"70006","route_short_name":"8","route_long_name":"Alta Sita","route_type":3,"route_color":"#FFFFFF","route_text_color":"#000000"}],"agency_name":"Metro St. Louis"},"geometry":{"type":"Point","coordinates":[-90.16872,38.55636]}},{"type":"Feature","properties":{"stop_id":"13033","stop_code":"13033","stop_name":"CAMP JACKSON @ ANNUNCIATION COURT NB","stop_desc":"FAR SIDE CAMP JACKSON @ ANNUNCIATION COURT NB","wheelchair_boarding":2,"routes":[{"route_id":"19637","agency_id":"70006","route_short_name":"2","route_long_name":"Cahokia Heights","route_type":3,"route_color":"#FFFFFF","route_text_color":"#000000"},{"route_id":"19642","agency_id":"70006","route_short_name":"8","route_long_name":"Alta Sita","route_type":3,"route_color":"#FFFFFF","route_text_color":"#000000"}],"agency_name":"Metro St. Louis"},"geometry":{"type":"Point","coordinates":[-90.17008,38.5575]}},{"type":"Feature","properties":{"stop_id":"13034","stop_code":"13034","stop_name":"CAMP JACKSON @ KAZILEK NB","stop_desc":"NEAR SIDE CAMP JACKSON @ KAZILEK NB","wheelchair_boarding":2,"routes":[{"route_id":"19637","agency_id":"70006","route_short_name":"2","route_long_name":"Cahokia Heights","route_type":3,"route_color":"#FFFFFF","route_text_color":"#000000"},{"route_id":"19642","agency_id":"70006","route_short_name":"8","route_long_name":"Alta Sita","route_type":3,"route_color":"#FFFFFF","route_text_color":"#000000"}],"agency_name":"Metro St. Louis"},"geometry":{"type":"Point","coordinates":[-90.17158,38.55876]}},{"type":"Feature","properties":{"stop_id":"13035","stop_code":"13035","stop_name":"CAMP JACKSON @ HUTCHINS NB","stop_desc":"FAR SIDE CAMP JACKSON @ HUTCHINS NB","wheelchair_boarding":2,"routes":[{"route_id":"19637","agency_id":"70006","route_short_name":"2","route_long_name":"Cahokia Heights","route_type":3,"route_color":"#FFFFFF","route_text_color":"#000000"},{"route_id":"19642","agency_id":"70006","route_short_name":"8","route_long_name":"Alta Sita","route_type":3,"route_color":"#FFFFFF","route_text_color":"#000000"}],"agency_name":"Metro St. Louis"},"geometry":{"type":"Point","coordinates":[-90.17374,38.56059]}},{"type":"Feature","properties":{"stop_id":"13036","stop_code":"13036","stop_name":"CAMP JACKSON @ HAWKINS NB","stop_desc":"NEAR SIDE CAMP JACKSON @ HAWKINS NB","wheelchair_boarding":2,"routes":[{"route_id":"19637","agency_id":"70006","route_short_name":"2","route_long_name":"Cahokia Heights","route_type":3,"route_color":"#FFFFFF","route_text_color":"#000000"},{"route_id":"19642","agency_id":"70006","route_short_name":"8","route_long_name":"Alta Sita","route_type":3,"route_color":"#FFFFFF","route_text_color":"#000000"}],"agency_name":"Metro St. Louis"},"geometry":{"type":"Point","coordinates":[-90.17438,38.56119]}},{"type":"Feature","properties":{"stop_id":"13038","stop_code":"13038","stop_name":"OLD CAMP JACKSON @ RANGE WB","stop_desc":"NEAR SIDE OLD CAMP JACKSON @ RANGE WB","wheelchair_boarding":2,"routes":[{"route_id":"19637","agency_id":"70006","route_short_name":"2","route_long_name":"Cahokia Heights","route_type":3,"route_color":"#FFFFFF","route_text_color":"#000000"}],"agency_name":"Metro St. Louis"},"geometry":{"type":"Point","coordinates":[-90.17738,38.5635]}},{"type":"Feature","properties":{"stop_id":"13057","stop_code":"13057","stop_name":"FALLING SPRINGS @ UPPER CAHOKIA NB","stop_desc":"NEAR SIDE FALLING SPRINGS @ UPPER CAHOKIA NB","wheelchair_boarding":2,"routes":[{"route_id":"19637","agency_id":"70006","route_short_name":"2","route_long_name":"Cahokia Heights","route_type":3,"route_color":"#FFFFFF","route_text_color":"#000000"}],"agency_name":"Metro St. Louis"},"geometry":{"type":"Point","coordinates":[-90.17862,38.57493]}},{"type":"Feature","properties":{"stop_id":"13058","stop_code":"13058","stop_name":"FALLING SPRINGS @ JEROME NB","stop_desc":"NEAR SIDE FALLING SPRINGS @ JEROME NB","wheelchair_boarding":1,"routes":[{"route_id":"19637","agency_id":"70006","route_short_name":"2","route_long_name":"Cahokia Heights","route_type":3,"route_color":"#FFFFFF","route_text_color":"#000000"}],"agency_name":"Metro St. Louis"},"geometry":{"type":"Point","coordinates":[-90.17665,38.57614]}},{"type":"Feature","properties":{"stop_id":"13059","stop_code":"13059","stop_name":"FALLING SPRINGS @ KINDER NB","stop_desc":"NEAR SIDE FALLING SPRINGS @ KINDER NB","wheelchair_boarding":2,"routes":[{"route_id":"19637","agency_id":"70006","route_short_name":"2","route_long_name":"Cahokia Heights","route_type":3,"route_color":"#FFFFFF","route_text_color":"#000000"},{"route_id":"19638","agency_id":"70006","route_short_name":"3","route_long_name":"Sauget - Water Street","route_type":3,"route_color":"#FFFFFF","route_text_color":"#000000"}],"agency_name":"Metro St. Louis"},"geometry":{"type":"Point","coordinates":[-90.17485,38.57779]}},{"type":"Feature","properties":{"stop_id":"13060","stop_code":"13060","stop_name":"FALLING SPRINGS @ JULIAN NB","stop_desc":"FAR SIDE FALLING SPRINGS @ JULIAN NB","wheelchair_boarding":2,"routes":[{"route_id":"19637","agency_id":"70006","route_short_name":"2","route_long_name":"Cahokia Heights","route_type":3,"route_color":"#FFFFFF","route_text_color":"#000000"},{"route_id":"19638","agency_id":"70006","route_short_name":"3","route_long_name":"Sauget - Water Street","route_type":3,"route_color":"#FFFFFF","route_text_color":"#000000"}],"agency_name":"Metro St. Louis"},"geometry":{"type":"Point","coordinates":[-90.17273,38.58033]}},{"type":"Feature","properties":{"stop_id":"13061","stop_code":"13061","stop_name":"FALLING SPRINGS @ JUDITH NB","stop_desc":"NEAR SIDE FALLING SPRINGS @ JUDITH NB","wheelchair_boarding":2,"routes":[{"route_id":"19637","agency_id":"70006","route_short_name":"2","route_long_name":"Cahokia Heights","route_type":3,"route_color":"#FFFFFF","route_text_color":"#000000"},{"route_id":"19638","agency_id":"70006","route_short_name":"3","route_long_name":"Sauget - Water Street","route_type":3,"route_color":"#FFFFFF","route_text_color":"#000000"}],"agency_name":"Metro St. Louis"},"geometry":{"type":"Point","coordinates":[-90.17155,38.58235]}},{"type":"Feature","properties":{"stop_id":"13062","stop_code":"13062","stop_name":"FALLING SPRINGS @ CURTIS STEINBERG NB","stop_desc":"FAR SIDE FALLING SPRINGS @ CURTIS STEINBERG NB","wheelchair_boarding":2,"routes":[{"route_id":"19637","agency_id":"70006","route_short_name":"2","route_long_name":"Cahokia Heights","route_type":3,"route_color":"#FFFFFF","route_text_color":"#000000"},{"route_id":"19638","agency_id":"70006","route_short_name":"3","route_long_name":"Sauget - Water Street","route_type":3,"route_color":"#FFFFFF","route_text_color":"#000000"}],"agency_name":"Metro St. Louis"},"geometry":{"type":"Point","coordinates":[-90.16981,38.58615]}},{"type":"Feature","properties":{"stop_id":"13067","stop_code":"13067","stop_name":"QUEENY @ ILLINOIS ROUTE 3 WB","stop_desc":"NEAR SIDE QUEENY @ ILLINOIS ROUTE 3 WB","wheelchair_boarding":2,"routes":[{"route_id":"19637","agency_id":"70006","route_short_name":"2","route_long_name":"Cahokia Heights","route_type":3,"route_color":"#FFFFFF","route_text_color":"#000000"},{"route_id":"19638","agency_id":"70006","route_short_name":"3","route_long_name":"Sauget - Water Street","route_type":3,"route_color":"#FFFFFF","route_text_color":"#000000"}],"agency_name":"Metro St. Louis"},"geometry":{"type":"Point","coordinates":[-90.17595,38.58996]}},{"type":"Feature","properties":{"stop_id":"13069","stop_code":"13069","stop_name":"ILLINOIS ROUTE 3 @ MONSANTO NB","stop_desc":"FAR SIDE ILLINOIS ROUTE 3 @ MONSANTO NB","wheelchair_boarding":1,"routes":[{"route_id":"19637","agency_id":"70006","route_short_name":"2","route_long_name":"Cahokia Heights","route_type":3,"route_color":"#FFFFFF","route_text_color":"#000000"},{"route_id":"19638","agency_id":"70006","route_short_name":"3","route_long_name":"Sauget - Water Street","route_type":3,"route_color":"#FFFFFF","route_text_color":"#000000"}],"agency_name":"Metro St. Louis"},"geometry":{"type":"Point","coordinates":[-90.17263,38.60105]}},{"type":"Feature","properties":{"stop_id":"13071","stop_code":"13071","stop_name":"MISSISSIPPI @ LIBERTY NB","stop_desc":"FAR SIDE MISSISSIPPI @ LIBERTY NB","wheelchair_boarding":2,"routes":[{"route_id":"19637","agency_id":"70006","route_short_name":"2","route_long_name":"Cahokia Heights","route_type":3,"route_color":"#FFFFFF","route_text_color":"#000000"},{"route_id":"19638","agency_id":"70006","route_short_name":"3","route_long_name":"Sauget - Water Street","route_type":3,"route_color":"#FFFFFF","route_text_color":"#000000"}],"agency_name":"Metro St. Louis"},"geometry":{"type":"Point","coordinates":[-90.17026,38.60929]}},{"type":"Feature","properties":{"stop_id":"13075","stop_code":"13075","stop_name":"8TH STREET @ MARKET NB","stop_desc":"NEAR SIDE 8TH STREET @ MARKET NB","wheelchair_boarding":2,"routes":[{"route_id":"19637","agency_id":"70006","route_short_name":"2","route_long_name":"Cahokia Heights","route_type":3,"route_color":"#FFFFFF","route_text_color":"#000000"},{"route_id":"19638","agency_id":"70006","route_short_name":"3","route_long_name":"Sauget - Water Street","route_type":3,"route_color":"#FFFFFF","route_text_color":"#000000"}],"agency_name":"Metro St. Louis"},"geometry":{"type":"Point","coordinates":[-90.16352,38.61795]}},{"type":"Feature","properties":{"stop_id":"14173","stop_code":"14173","stop_name":"MISSISSIPPI @ SYCAMORE NB","stop_desc":"NEAR SIDE MISSISSIPPI @ SYCAMORE NB","wheelchair_boarding":2,"routes":[{"route_id":"19637","agency_id":"70006","route_short_name":"2","route_long_name":"Cahokia Heights","route_type":3,"route_color":"#FFFFFF","route_text_color":"#000000"},{"route_id":"19638","agency_id":"70006","route_short_name":"3","route_long_name":"Sauget - Water Street","route_type":3,"route_color":"#FFFFFF","route_text_color":"#000000"}],"agency_name":"Metro St. Louis"},"geometry":{"type":"Point","coordinates":[-90.1696,38.61152]}},{"type":"Feature","properties":{"stop_id":"14330","stop_code":"14330","stop_name":"5TH & MISSOURI TRANSIT CENTER","wheelchair_boarding":1,"routes":[{"route_id":"19636","agency_id":"70006","route_short_name":"1","route_long_name":"Main Street - State Street","route_type":3,"route_color":"#FFFFFF","route_text_color":"#000000"},{"route_id":"19637","agency_id":"70006","route_short_name":"2","route_long_name":"Cahokia Heights","route_type":3,"route_color":"#FFFFFF","route_text_color":"#000000"},{"route_id":"19638","agency_id":"70006","route_short_name":"3","route_long_name":"Sauget - Water Street","route_type":3,"route_color":"#FFFFFF","route_text_color":"#000000"},{"route_id":"19639","agency_id":"70006","route_short_name":"4","route_long_name":"19th & Central","route_type":3,"route_color":"#FFFFFF","route_text_color":"#000000"},{"route_id":"19640","agency_id":"70006","route_short_name":"5","route_long_name":"Missouri Ave - ML King","route_type":3,"route_color":"#FFFFFF","route_text_color":"#000000"}],"agency_name":"Metro St. Louis"},"geometry":{"type":"Point","coordinates":[-90.15906,38.62501]}},{"type":"Feature","properties":{"stop_id":"14880","stop_code":"14880","stop_name":"NICKELL @ FALLING SPRING NB","stop_desc":"FAR SIDE NICKELL @ FALLING SPRING NB","wheelchair_boarding":2,"routes":[{"route_id":"19637","agency_id":"70006","route_short_name":"2","route_long_name":"Cahokia Heights","route_type":3,"route_color":"#FFFFFF","route_text_color":"#000000"},{"route_id":"19638","agency_id":"70006","route_short_name":"3","route_long_name":"Sauget - Water Street","route_type":3,"route_color":"#FFFFFF","route_text_color":"#000000"}],"agency_name":"Metro St. Louis"},"geometry":{"type":"Point","coordinates":[-90.16949,38.58941]}},{"type":"Feature","properties":{"stop_id":"16167","stop_code":"16167","stop_name":"CAMP JACKSON @ SAINT PAUL WB","stop_desc":"FAR SIDE CAMP JACKSON @ SAINT PAUL WB","wheelchair_boarding":2,"routes":[{"route_id":"19637","agency_id":"70006","route_short_name":"2","route_long_name":"Cahokia Heights","route_type":3,"route_color":"#FFFFFF","route_text_color":"#000000"}],"agency_name":"Metro St. Louis"},"geometry":{"type":"Point","coordinates":[-90.18141,38.56741]}},{"type":"Feature","properties":{"stop_id":"16181","stop_code":"16181","stop_name":"FALLING SPRINGS @ MILDRED EB","stop_desc":"FAR SIDE FALLING SPRINGS @ MILDRED EB","wheelchair_boarding":1,"routes":[{"route_id":"19637","agency_id":"70006","route_short_name":"2","route_long_name":"Cahokia Heights","route_type":3,"route_color":"#FFFFFF","route_text_color":"#000000"}],"agency_name":"Metro St. Louis"},"geometry":{"type":"Point","coordinates":[-90.17958,38.57434]}},{"type":"Feature","properties":{"stop_id":"16425","stop_code":"16425","stop_name":"PARIS @ CAMP JACKSON SB","stop_desc":"NEAR SIDE PARIS @ CAMP JACKSON SB","wheelchair_boarding":2,"routes":[{"route_id":"19637","agency_id":"70006","route_short_name":"2","route_long_name":"Cahokia Heights","route_type":3,"route_color":"#FFFFFF","route_text_color":"#000000"}],"agency_name":"Metro St. Louis"},"geometry":{"type":"Point","coordinates":[-90.16658,38.55467]}},{"type":"Feature","properties":{"stop_id":"16445","stop_code":"16445","stop_name":"CAMP JACKSON @ CAHOKIA SPORTS COMPLEX WB","stop_desc":"NEAR SIDE CAMP JACKSON @ CAHOKIA SPORTS COMPLEX WB","wheelchair_boarding":2,"routes":[{"route_id":"19637","agency_id":"70006","route_short_name":"2","route_long_name":"Cahokia Heights","route_type":3,"route_color":"#FFFFFF","route_text_color":"#000000"}],"agency_name":"Metro St. Louis"},"geometry":{"type":"Point","coordinates":[-90.18402,38.56909]}}]}