{"type":"FeatureCollection","features":[{"type":"Feature","properties":{"agency_name":"Metro St. Louis","route_id":"19634","agency_id":"70006","route_short_name":"98","route_long_name":"Ballas-North Hanley","route_type":3,"route_color":"#FFFFFF","route_text_color":"#000000"},"geometry":{"type":"MultiLineString","coordinates":[[[-90.31577,38.71967],[-90.31561,38.71975],[-90.31577,38.71967],[-90.31586,38.7195],[-90.31605,38.7188],[-90.3161,38.71825],[-90.31606,38.71782],[-90.31624,38.71782],[-90.31782,38.71823],[-90.31762,38.71869],[-90.31721,38.71952],[-90.31716,38.71967],[-90.3171,38.72013],[-90.31713,38.72098],[-90.31767,38.72128],[-90.31875,38.72124],[-90.31923,38.72124],[-90.31987,38.72136],[-90.32049,38.72151],[-90.32123,38.72187],[-90.32173,38.72216],[-90.32203,38.72238],[-90.3246,38.72447],[-90.32512,38.72487],[-90.32723,38.72659],[-90.32767,38.72698],[-90.32806,38.7273],[-90.33051,38.72925],[-90.33121,38.72975],[-90.3316,38.72998],[-90.33199,38.73017],[-90.33274,38.73047],[-90.33297,38.73055],[-90.33382,38.73076],[-90.33466,38.731],[-90.33603,38.73135],[-90.33718,38.73167],[-90.34047,38.73248],[-90.34281,38.73308],[-90.34352,38.73325],[-90.34413,38.73337],[-90.34475,38.73342],[-90.3454,38.73343],[-90.34579,38.73341],[-90.346,38.73336],[-90.3473,38.7332],[-90.34768,38.73317],[-90.34862,38.73317],[-90.34932,38.73321],[-90.3501,38.7333],[-90.35049,38.73336],[-90.35103,38.73347],[-90.35135,38.73357],[-90.35221,38.7338],[-90.3528,38.73402],[-90.35365,38.73438],[-90.35481,38.73498],[-90.35624,38.73575],[-90.35944,38.73743],[-90.36139,38.73837],[-90.36175,38.73853],[-90.36253,38.73882],[-90.36314,38.739],[-90.36365,38.73913],[-90.36441,38.73927],[-90.36536,38.73939],[-90.37097,38.73999],[-90.37131,38.74004],[-90.37195,38.74017],[-90.37259,38.74034],[-90.3737,38.74072],[-90.37486,38.74126],[-90.37586,38.74177],[-90.37731,38.74248],[-90.37795,38.74274],[-90.37833,38.74286],[-90.37916,38.74307],[-90.38011,38.7432],[-90.38048,38.74321],[-90.38113,38.74321],[-90.38159,38.74318],[-90.38272,38.74315],[-90.38304,38.74312],[-90.38498,38.74306],[-90.38626,38.74309],[-90.39934,38.74391],[-90.40037,38.74396],[-90.40275,38.74414],[-90.405,38.74427],[-90.40599,38.7443],[-90.40732,38.74428],[-90.40842,38.74423],[-90.41131,38.74403],[-90.41271,38.74396],[-90.41476,38.74383],[-90.41621,38.74376],[-90.4174,38.74368],[-90.41811,38.74366],[-90.41868,38.74368],[-90.41936,38.74373],[-90.41999,38.74382],[-90.4311,38.74596],[-90.43141,38.74608],[-90.43231,38.74633],[-90.43297,38.74655],[-90.43435,38.74714],[-90.43483,38.74741],[-90.43522,38.74761],[-90.43556,38.74776],[-90.43625,38.74794],[-90.43668,38.74801],[-90.43718,38.74803],[-90.4381,38.74792],[-90.43842,38.74784],[-90.43899,38.74766],[-90.43941,38.7475],[-90.4398,38.74728],[-90.44005,38.74709],[-90.44042,38.74675],[-90.44078,38.74639],[-90.4409,38.74622],[-90.44097,38.74598],[-90.44108,38.74548],[-90.44116,38.74475],[-90.44111,38.74425],[-90.4411,38.74319],[-90.44124,38.74196],[-90.44239,38.73699],[-90.44329,38.73302],[-90.44391,38.7304],[-90.44578,38.72224],[-90.44612,38.72081],[-90.44676,38.71793],[-90.44695,38.71761],[-90.44719,38.71694],[-90.44736,38.71654],[-90.44752,38.71618],[-90.44786,38.71551],[-90.44805,38.71507],[-90.44822,38.71483],[-90.44834,38.71472],[-90.44863,38.71454],[-90.44993,38.71451],[-90.45399,38.71454],[-90.45406,38.71426],[-90.45415,38.71408],[-90.4542,38.71399],[-90.45469,38.71331],[-90.45482,38.7131],[-90.45491,38.7129],[-90.45498,38.71269],[-90.45582,38.70921],[-90.456,38.7084],[-90.45695,38.70472],[-90.45704,38.70443],[-90.4572,38.70403],[-90.45751,38.70347],[-90.45772,38.70319],[-90.45294,38.70321],[-90.45267,38.70323],[-90.45216,38.70333],[-90.45122,38.70365],[-90.45078,38.70377],[-90.45038,38.70385],[-90.45,38.7039],[-90.44943,38.70393],[-90.44909,38.70391],[-90.44874,38.70387],[-90.44819,38.70378],[-90.44785,38.70369],[-90.44755,38.70359],[-90.44717,38.70343],[-90.4468,38.70325],[-90.44422,38.70179],[-90.44401,38.70164],[-90.44365,38.7013],[-90.44339,38.70095],[-90.44319,38.70056],[-90.44313,38.7004],[-90.44226,38.69749],[-90.44216,38.69706],[-90.44214,38.69668],[-90.44215,38.6966],[-90.44224,38.69632],[-90.44236,38.69607],[-90.44259,38.69571],[-90.44284,38.6954],[-90.44354,38.6946],[-90.44368,38.69441],[-90.44381,38.69417],[-90.4439,38.69395],[-90.44407,38.6934],[-90.44446,38.69188],[-90.44493,38.69027],[-90.44503,38.68983],[-90.44504,38.68955],[-90.44499,38.68928],[-90.44485,38.68887],[-90.44462,38.68806],[-90.4446,38.6878],[-90.44461,38.68749],[-90.44471,38.68656],[-90.44467,38.68625],[-90.44458,38.68601],[-90.44439,38.68573],[-90.44397,38.68522],[-90.44201,38.68297],[-90.4406,38.68132],[-90.43864,38.6791],[-90.43845,38.67892],[-90.43808,38.67851],[-90.43792,38.67828],[-90.43779,38.67799],[-90.43774,38.67781],[-90.43771,38.67764],[-90.43771,38.67748],[-90.43796,38.67619],[-90.43808,38.67571],[-90.43811,38.67544],[-90.4381,38.67522],[-90.4384,38.67522],[-90.43864,38.67516],[-90.43886,38.67507],[-90.43905,38.67497],[-90.43922,38.67484],[-90.43943,38.67462],[-90.43961,38.6744],[-90.43978,38.67426],[-90.44001,38.67415],[-90.4403,38.67406],[-90.44202,38.67367],[-90.44239,38.67356],[-90.44266,38.67343],[-90.44288,38.67324],[-90.44304,38.67302],[-90.44315,38.6728],[-90.4432,38.6726],[-90.44316,38.67241],[-90.44325,38.67063],[-90.4433,38.67011],[-90.44333,38.6693],[-90.44332,38.66744],[-90.44327,38.66487],[-90.44325,38.6628],[-90.44327,38.65981],[-90.44326,38.65857],[-90.44335,38.64955],[-90.44339,38.64686],[-90.44341,38.64376],[-90.44345,38.64226],[-90.44345,38.64156],[-90.44518,38.64153],[-90.44562,38.64156],[-90.44594,38.64162],[-90.44651,38.64179],[-90.4465,38.64208],[-90.44653,38.64227],[-90.44656,38.64241],[-90.44666,38.64271],[-90.44686,38.6427],[-90.4471,38.64272],[-90.44731,38.64278],[-90.4475,38.64287],[-90.44764,38.64298],[-90.44777,38.64312],[-90.44777,38.64354],[-90.44718,38.6435],[-90.44661,38.64342],[-90.44675,38.64311],[-90.44674,38.643]],[[-90.44345,38.64079],[-90.44428,38.64155],[-90.44345,38.64079],[-90.44346,38.64011],[-90.44356,38.63777],[-90.44355,38.637],[-90.44358,38.63598],[-90.44416,38.63593],[-90.44443,38.63583],[-90.44457,38.63572],[-90.4447,38.63553],[-90.44479,38.63546],[-90.44497,38.63525],[-90.44502,38.63513],[-90.44505,38.63488],[-90.44505,38.63479],[-90.44495,38.63473],[-90.44488,38.63466],[-90.44484,38.63452],[-90.44477,38.63441],[-90.44459,38.63421],[-90.4442,38.63426],[-90.44359,38.63426],[-90.44359,38.63472]],[[-90.44337,38.63938],[-90.44351,38.63912],[-90.44332,38.63948],[-90.44325,38.63955],[-90.44294,38.63974],[-90.44275,38.63989],[-90.44197,38.64024],[-90.4416,38.64038],[-90.44149,38.64038],[-90.44138,38.64035],[-90.44127,38.64031],[-90.44119,38.64024],[-90.44114,38.64016],[-90.44111,38.64007],[-90.4411,38.63994],[-90.44111,38.63986],[-90.44148,38.63922],[-90.44162,38.639],[-90.44172,38.63896],[-90.44271,38.63896]]]}},{"type":"Feature","properties":{"stop_id":"13526","stop_code":"13526","stop_name":"MERCY HOSPITAL DRIVEWAY","stop_desc":"MID-BLOCK MERCY HOSPITAL DRIVEWAY","wheelchair_boarding":1,"routes":[{"route_id":"19634","agency_id":"70006","route_short_name":"98","route_long_name":"Ballas-North Hanley","route_type":3,"route_color":"#FFFFFF","route_text_color":"#000000"}],"agency_name":"Metro St. Louis"},"geometry":{"type":"Point","coordinates":[-90.44692,38.64345]}},{"type":"Feature","properties":{"stop_id":"13967","stop_code":"13967","stop_name":"BALLAS TRANSIT CENTER","wheelchair_boarding":1,"routes":[{"route_id":"19617","agency_id":"70006","route_short_name":"58","route_long_name":"Chesterfield Valley","route_type":3,"route_color":"#FFFFFF","route_text_color":"#000000"},{"route_id":"19634","agency_id":"70006","route_short_name":"98","route_long_name":"Ballas-North Hanley","route_type":3,"route_color":"#FFFFFF","route_text_color":"#000000"}],"agency_name":"Metro St. Louis"},"geometry":{"type":"Point","coordinates":[-90.44237,38.63899]}},{"type":"Feature","properties":{"stop_id":"14680","stop_code":"14680","stop_name":"CRAIG @ LACKLAND SB","stop_desc":"FAR SIDE CRAIG @ LACKLAND SB","wheelchair_boarding":2,"routes":[{"route_id":"19634","agency_id":"70006","route_short_name":"98","route_long_name":"Ballas-North Hanley","route_type":3,"route_color":"#FFFFFF","route_text_color":"#000000"}],"agency_name":"Metro St. Louis"},"geometry":{"type":"Point","coordinates":[-90.44258,38.69575]}},{"type":"Feature","properties":{"stop_id":"14693","stop_code":"14693","stop_name":"MCKELVEY @ DAWN BETH SB","stop_desc":"FAR SIDE MCKELVEY @ DAWN BETH SB","wheelchair_boarding":1,"routes":[{"route_id":"19634","agency_id":"70006","route_short_name":"98","route_long_name":"Ballas-North Hanley","route_type":3,"route_color":"#FFFFFF","route_text_color":"#000000"}],"agency_name":"Metro St. Louis"},"geometry":{"type":"Point","coordinates":[-90.45552,38.71057]}},{"type":"Feature","properties":{"stop_id":"14694","stop_code":"14694","stop_name":"MARINE @ MCKELVEY EB","stop_desc":"FAR SIDE MARINE @ MCKELVEY EB","wheelchair_boarding":1,"routes":[{"route_id":"19634","agency_id":"70006","route_short_name":"98","route_long_name":"Ballas-North Hanley","route_type":3,"route_color":"#FFFFFF","route_text_color":"#000000"}],"agency_name":"Metro St. Louis"},"geometry":{"type":"Point","coordinates":[-90.45667,38.70311]}},{"type":"Feature","properties":{"stop_id":"14695","stop_code":"14695","stop_name":"MARINE @ WHISPER HOLLOW EB","stop_desc":"FAR SIDE MARINE @ WHISPER HOLLOW EB","wheelchair_boarding":1,"routes":[{"route_id":"19634","agency_id":"70006","route_short_name":"98","route_long_name":"Ballas-North Hanley","route_type":3,"route_color":"#FFFFFF","route_text_color":"#000000"}],"agency_name":"Metro St. Louis"},"geometry":{"type":"Point","coordinates":[-90.45387,38.70315]}},{"type":"Feature","properties":{"stop_id":"15871","stop_code":"15871","stop_name":"NEW BALLAS @ OLIVE SB","stop_desc":"FAR SIDE NEW BALLAS @ OLIVE SB","wheelchair_boarding":2,"routes":[{"route_id":"19634","agency_id":"70006","route_short_name":"98","route_long_name":"Ballas-North Hanley","route_type":3,"route_color":"#FFFFFF","route_text_color":"#000000"}],"agency_name":"Metro St. Louis"},"geometry":{"type":"Point","coordinates":[-90.44339,38.66982]}},{"type":"Feature","properties":{"stop_id":"15887","stop_code":"15887","stop_name":"CRAIG @ CRAIGSHIRE SB","stop_desc":"NEAR SIDE CRAIG @ CRAIGSHIRE SB","wheelchair_boarding":2,"routes":[{"route_id":"19634","agency_id":"70006","route_short_name":"98","route_long_name":"Ballas-North Hanley","route_type":3,"route_color":"#FFFFFF","route_text_color":"#000000"}],"agency_name":"Metro St. Louis"},"geometry":{"type":"Point","coordinates":[-90.44432,38.69259]}},{"type":"Feature","properties":{"stop_id":"15888","stop_code":"15888","stop_name":"CRAIG @ CRAIG ELEMENTARY SCHOOL SB","stop_desc":"MID-BLOCK CRAIG @ CRAIG ELEMENTARY SCHOOL SB","wheelchair_boarding":2,"routes":[{"route_id":"19634","agency_id":"70006","route_short_name":"98","route_long_name":"Ballas-North Hanley","route_type":3,"route_color":"#FFFFFF","route_text_color":"#000000"}],"agency_name":"Metro St. Louis"},"geometry":{"type":"Point","coordinates":[-90.44292,38.68399]}},{"type":"Feature","properties":{"stop_id":"15889","stop_code":"15889","stop_name":"CRAIG @ DEBONNAIRE SB","stop_desc":"NEAR SIDE CRAIG @ DEBONNAIRE SB","wheelchair_boarding":2,"routes":[{"route_id":"19634","agency_id":"70006","route_short_name":"98","route_long_name":"Ballas-North Hanley","route_type":3,"route_color":"#FFFFFF","route_text_color":"#000000"}],"agency_name":"Metro St. Louis"},"geometry":{"type":"Point","coordinates":[-90.43805,38.67593]}},{"type":"Feature","properties":{"stop_id":"15890","stop_code":"15890","stop_name":"NEW BALLAS @ CITY PLACE SB","stop_desc":"FAR SIDE NEW BALLAS @ CITY PLACE SB","wheelchair_boarding":1,"routes":[{"route_id":"19634","agency_id":"70006","route_short_name":"98","route_long_name":"Ballas-North Hanley","route_type":3,"route_color":"#FFFFFF","route_text_color":"#000000"}],"agency_name":"Metro St. Louis"},"geometry":{"type":"Point","coordinates":[-90.44233,38.67367]}},{"type":"Feature","properties":{"stop_id":"15891","stop_code":"15891","stop_name":"NEW BALLAS @ OLD BALLAS SB","stop_desc":"FAR SIDE NEW BALLAS @ OLD BALLAS SB","wheelchair_boarding":2,"routes":[{"route_id":"19634","agency_id":"70006","route_short_name":"98","route_long_name":"Ballas-North Hanley","route_type":3,"route_color":"#FFFFFF","route_text_color":"#000000"}],"agency_name":"Metro St. Louis"},"geometry":{"type":"Point","coordinates":[-90.44337,38.66605]}},{"type":"Feature","properties":{"stop_id":"15892","stop_code":"15892","stop_name":"NEW BALLAS @ POST OFFICE SB","stop_desc":"MID-BLOCK NEW BALLAS @ POST OFFICE SB","wheelchair_boarding":2,"routes":[{"route_id":"19634","agency_id":"70006","route_short_name":"98","route_long_name":"Ballas-North Hanley","route_type":3,"route_color":"#FFFFFF","route_text_color":"#000000"}],"agency_name":"Metro St. Louis"},"geometry":{"type":"Point","coordinates":[-90.44334,38.66199]}},{"type":"Feature","properties":{"stop_id":"15893","stop_code":"15893","stop_name":"NEW BALLAS @ LADUE SB","stop_desc":"FAR SIDE NEW BALLAS @ LADUE SB","wheelchair_boarding":2,"routes":[{"route_id":"19634","agency_id":"70006","route_short_name":"98","route_long_name":"Ballas-North Hanley","route_type":3,"route_color":"#FFFFFF","route_text_color":"#000000"}],"agency_name":"Metro St. Louis"},"geometry":{"type":"Point","coordinates":[-90.4434,38.65476]}},{"type":"Feature","properties":{"stop_id":"16063","stop_code":"16063","stop_name":"NORTH HANLEY TRANSIT CENTER","wheelchair_boarding":1,"routes":[{"route_id":"19628","agency_id":"70006","route_short_name":"79","route_long_name":"Ferguson-Clayton","route_type":3,"route_color":"#FFFFFF","route_text_color":"#000000"},{"route_id":"19634","agency_id":"70006","route_short_name":"98","route_long_name":"Ballas-North Hanley","route_type":3,"route_color":"#FFFFFF","route_text_color":"#000000"},{"route_id":"19635","agency_id":"70006","route_short_name":"100","route_long_name":"Hazelwood","route_type":3,"route_color":"#FFFFFF","route_text_color":"#000000"}],"agency_name":"Metro St. Louis"},"geometry":{"type":"Point","coordinates":[-90.31522,38.71962]}},{"type":"Feature","properties":{"stop_id":"16076","stop_code":"16076","stop_name":"CRAIG @ CRAIGVIEW SB","stop_desc":"FAR SIDE CRAIG @ CRAIGVIEW SB","wheelchair_boarding":2,"routes":[{"route_id":"19634","agency_id":"70006","route_short_name":"98","route_long_name":"Ballas-North Hanley","route_type":3,"route_color":"#FFFFFF","route_text_color":"#000000"}],"agency_name":"Metro St. Louis"},"geometry":{"type":"Point","coordinates":[-90.43899,38.67944]}},{"type":"Feature","properties":{"stop_id":"2470","stop_code":"2470","stop_name":"WESTPORT PLAZA @ FEE FEE EB","stop_desc":"FAR SIDE WESTPORT PLAZA @ FEE FEE EB","wheelchair_boarding":2,"routes":[{"route_id":"19631","agency_id":"70006","route_short_name":"94","route_long_name":"Page","route_type":3,"route_color":"#FFFFFF","route_text_color":"#000000"},{"route_id":"19634","agency_id":"70006","route_short_name":"98","route_long_name":"Ballas-North Hanley","route_type":3,"route_color":"#FFFFFF","route_text_color":"#000000"}],"agency_name":"Metro St. Louis"},"geometry":{"type":"Point","coordinates":[-90.44437,38.70184]}},{"type":"Feature","properties":{"stop_id":"2537","stop_code":"2537","stop_name":"MCKELVEY @ DORSETT SB","stop_desc":"FAR SIDE MCKELVEY @ DORSETT SB","wheelchair_boarding":2,"routes":[{"route_id":"19634","agency_id":"70006","route_short_name":"98","route_long_name":"Ballas-North Hanley","route_type":3,"route_color":"#FFFFFF","route_text_color":"#000000"}],"agency_name":"Metro St. Louis"},"geometry":{"type":"Point","coordinates":[-90.45432,38.71389]}},{"type":"Feature","properties":{"stop_id":"2539","stop_code":"2539","stop_name":"MCKELVEY @ GLENLEA SB","stop_desc":"NEAR SIDE MCKELVEY @ GLENLEA SB","wheelchair_boarding":1,"routes":[{"route_id":"19634","agency_id":"70006","route_short_name":"98","route_long_name":"Ballas-North Hanley","route_type":3,"route_color":"#FFFFFF","route_text_color":"#000000"}],"agency_name":"Metro St. Louis"},"geometry":{"type":"Point","coordinates":[-90.45615,38.70796]}},{"type":"Feature","properties":{"stop_id":"2543","stop_code":"2543","stop_name":"WESTPORT PLAZA @ PROGRESS PARKWAY EB","stop_desc":"FAR SIDE WESTPORT PLAZA @ PROGRESS PARKWAY EB","wheelchair_boarding":2,"routes":[{"route_id":"19631","agency_id":"70006","route_short_name":"94","route_long_name":"Page","route_type":3,"route_color":"#FFFFFF","route_text_color":"#000000"},{"route_id":"19634","agency_id":"70006","route_short_name":"98","route_long_name":"Ballas-North Hanley","route_type":3,"route_color":"#FFFFFF","route_text_color":"#000000"}],"agency_name":"Metro St. Louis"},"geometry":{"type":"Point","coordinates":[-90.44581,38.70265]}},{"type":"Feature","properties":{"stop_id":"3111","stop_code":"3111","stop_name":"NEW BALLAS @ VON GONTARD SB","stop_desc":"FAR SIDE NEW BALLAS @ VON GONTARD SB","wheelchair_boarding":2,"routes":[{"route_id":"19634","agency_id":"70006","route_short_name":"98","route_long_name":"Ballas-North Hanley","route_type":3,"route_color":"#FFFFFF","route_text_color":"#000000"}],"agency_name":"Metro St. Louis"},"geometry":{"type":"Point","coordinates":[-90.4435,38.64398]}},{"type":"Feature","properties":{"stop_id":"4822","stop_code":"4822","stop_name":"MISSOURI BAPTIST HOSPITAL LOOP","stop_desc":"MID-BLOCK MISSOURI BAPTIST HOSPITAL LOOP","wheelchair_boarding":1,"routes":[{"route_id":"19617","agency_id":"70006","route_short_name":"58","route_long_name":"Chesterfield Valley","route_type":3,"route_color":"#FFFFFF","route_text_color":"#000000"},{"route_id":"19634","agency_id":"70006","route_short_name":"98","route_long_name":"Ballas-North Hanley","route_type":3,"route_color":"#FFFFFF","route_text_color":"#000000"}],"agency_name":"Metro St. Louis"},"geometry":{"type":"Point","coordinates":[-90.44482,38.63453]}},{"type":"Feature","properties":{"stop_id":"6964","stop_code":"6964","stop_name":"DORSETT @ MCKELVEY HILL WB","stop_desc":"NEAR SIDE DORSETT @ MCKELVEY HILL WB","wheelchair_boarding":2,"routes":[{"route_id":"19634","agency_id":"70006","route_short_name":"98","route_long_name":"Ballas-North Hanley","route_type":3,"route_color":"#FFFFFF","route_text_color":"#000000"}],"agency_name":"Metro St. Louis"},"geometry":{"type":"Point","coordinates":[-90.45025,38.71461]}}]}