{"type":"FeatureCollection","features":[{"type":"Feature","properties":{"agency_name":"Metro St. Louis","route_id":"19607","agency_id":"70006","route_short_name":"32","route_long_name":"Dr ML King","route_type":3,"route_color":"#FFFFFF","route_text_color":"#000000"},"geometry":{"type":"MultiLineString","coordinates":[[[-90.20285,38.62455],[-90.20293,38.62434],[-90.20271,38.62491],[-90.2027,38.62541],[-90.20267,38.62561],[-90.20262,38.62567],[-90.20257,38.62568],[-90.20252,38.62567],[-90.20248,38.62564],[-90.20246,38.6256],[-90.20257,38.62503],[-90.20253,38.62498],[-90.20231,38.62495],[-90.20188,38.62591],[-90.20104,38.62808],[-90.20056,38.62954],[-90.20017,38.63026],[-90.199,38.63002],[-90.19784,38.62976],[-90.19743,38.62971],[-90.19712,38.63048],[-90.19692,38.63121],[-90.19673,38.63176],[-90.19633,38.63276],[-90.19613,38.63322],[-90.19588,38.63373],[-90.19568,38.63426],[-90.19535,38.63521],[-90.19514,38.63536],[-90.19496,38.63534],[-90.19457,38.63523],[-90.19142,38.63459],[-90.19108,38.63551],[-90.19071,38.63668],[-90.18981,38.63933],[-90.1895,38.6402],[-90.19064,38.64044],[-90.19188,38.64067],[-90.19517,38.64139],[-90.20058,38.6425],[-90.20248,38.64292],[-90.20538,38.64351],[-90.21589,38.64574],[-90.21871,38.64631],[-90.21992,38.64658],[-90.22381,38.64739],[-90.22412,38.64744],[-90.22464,38.64759],[-90.22782,38.64899],[-90.22889,38.64945],[-90.22961,38.64974],[-90.23662,38.65281],[-90.23767,38.65325],[-90.24331,38.65575],[-90.24513,38.65655],[-90.24571,38.65679],[-90.25417,38.66051],[-90.25458,38.66068],[-90.25503,38.66084],[-90.25971,38.66243],[-90.26369,38.66381],[-90.26466,38.66418],[-90.26565,38.66464],[-90.27236,38.66828],[-90.2784,38.67152],[-90.27939,38.67208],[-90.28522,38.67521],[-90.28708,38.67619],[-90.29023,38.67789],[-90.29209,38.67886],[-90.29402,38.67992],[-90.29631,38.68111],[-90.29861,38.68234],[-90.30114,38.68363],[-90.30149,38.68383],[-90.30283,38.68454],[-90.30212,38.68467],[-90.30195,38.68459],[-90.30182,38.68464]]]}},{"type":"Feature","properties":{"stop_id":"13297","stop_code":"13297","stop_name":"DR ML KING @ HODIAMONT WB","stop_desc":"NEAR SIDE DR ML KING @ HODIAMONT WB","wheelchair_boarding":1,"routes":[{"route_id":"19603","agency_id":"70006","route_short_name":"19","route_long_name":"St Louis Ave","route_type":3,"route_color":"#FFFFFF","route_text_color":"#000000"},{"route_id":"19607","agency_id":"70006","route_short_name":"32","route_long_name":"Dr ML King","route_type":3,"route_color":"#FFFFFF","route_text_color":"#000000"}],"agency_name":"Metro St. Louis"},"geometry":{"type":"Point","coordinates":[-90.28498,38.67511]}},{"type":"Feature","properties":{"stop_id":"13311","stop_code":"13311","stop_name":"ST. CHARLES ROCK ROAD @ LUCAS-HUNT WB","stop_desc":"FAR SIDE ST. CHARLES ROCK ROAD @ LUCAS-HUNT WB","wheelchair_boarding":1,"routes":[{"route_id":"19603","agency_id":"70006","route_short_name":"19","route_long_name":"St Louis Ave","route_type":3,"route_color":"#FFFFFF","route_text_color":"#000000"},{"route_id":"19607","agency_id":"70006","route_short_name":"32","route_long_name":"Dr ML King","route_type":3,"route_color":"#FFFFFF","route_text_color":"#000000"},{"route_id":"19621","agency_id":"70006","route_short_name":"64","route_long_name":"Lucas-Hunt","route_type":3,"route_color":"#FFFFFF","route_text_color":"#000000"}],"agency_name":"Metro St. Louis"},"geometry":{"type":"Point","coordinates":[-90.29615,38.6811]}},{"type":"Feature","properties":{"stop_id":"13312","stop_code":"13312","stop_name":"DR ML KING @ WELLSTON PLACE WB","stop_desc":"FAR SIDE DR ML KING @ WELLSTON PLACE WB","wheelchair_boarding":1,"routes":[{"route_id":"19603","agency_id":"70006","route_short_name":"19","route_long_name":"St Louis Ave","route_type":3,"route_color":"#FFFFFF","route_text_color":"#000000"},{"route_id":"19607","agency_id":"70006","route_short_name":"32","route_long_name":"Dr ML King","route_type":3,"route_color":"#FFFFFF","route_text_color":"#000000"}],"agency_name":"Metro St. Louis"},"geometry":{"type":"Point","coordinates":[-90.28944,38.67754]}},{"type":"Feature","properties":{"stop_id":"13314","stop_code":"13314","stop_name":"DR ML KING @ OGDEN WB","stop_desc":"NEAR SIDE DR ML KING @ OGDEN WB","wheelchair_boarding":1,"routes":[{"route_id":"19603","agency_id":"70006","route_short_name":"19","route_long_name":"St Louis Ave","route_type":3,"route_color":"#FFFFFF","route_text_color":"#000000"},{"route_id":"19607","agency_id":"70006","route_short_name":"32","route_long_name":"Dr ML King","route_type":3,"route_color":"#FFFFFF","route_text_color":"#000000"}],"agency_name":"Metro St. Louis"},"geometry":{"type":"Point","coordinates":[-90.29186,38.67882]}},{"type":"Feature","properties":{"stop_id":"13520","stop_code":"13520","stop_name":"TUCKER @ ST. CHARLES NB","stop_desc":"FAR SIDE TUCKER @ ST. CHARLES NB","wheelchair_boarding":1,"routes":[{"route_id":"19603","agency_id":"70006","route_short_name":"19","route_long_name":"St Louis Ave","route_type":3,"route_color":"#FFFFFF","route_text_color":"#000000"},{"route_id":"19607","agency_id":"70006","route_short_name":"32","route_long_name":"Dr ML King","route_type":3,"route_color":"#FFFFFF","route_text_color":"#000000"}],"agency_name":"Metro St. Louis"},"geometry":{"type":"Point","coordinates":[-90.19672,38.63137]}},{"type":"Feature","properties":{"stop_id":"13713","stop_code":"13713","stop_name":"CASS @ GRAND WB","stop_desc":"FAR SIDE CASS @ GRAND WB","wheelchair_boarding":1,"routes":[{"route_id":"19607","agency_id":"70006","route_short_name":"32","route_long_name":"Dr ML King","route_type":3,"route_color":"#FFFFFF","route_text_color":"#000000"}],"agency_name":"Metro St. Louis"},"geometry":{"type":"Point","coordinates":[-90.22631,38.64838]}},{"type":"Feature","properties":{"stop_id":"13821","stop_code":"13821","stop_name":"CASS @ GLASGOW WB","stop_desc":"NEAR SIDE CASS @ GLASGOW WB","wheelchair_boarding":1,"routes":[{"route_id":"19607","agency_id":"70006","route_short_name":"32","route_long_name":"Dr ML King","route_type":3,"route_color":"#FFFFFF","route_text_color":"#000000"}],"agency_name":"Metro St. Louis"},"geometry":{"type":"Point","coordinates":[-90.2172,38.64607]}},{"type":"Feature","properties":{"stop_id":"13834","stop_code":"13834","stop_name":"9TH STREET @ OFALLON NB","stop_desc":"NEAR SIDE 9TH STREET @ OFALLON NB","wheelchair_boarding":1,"routes":[{"route_id":"19607","agency_id":"70006","route_short_name":"32","route_long_name":"Dr ML King","route_type":3,"route_color":"#FFFFFF","route_text_color":"#000000"}],"agency_name":"Metro St. Louis"},"geometry":{"type":"Point","coordinates":[-90.19072,38.63656]}},{"type":"Feature","properties":{"stop_id":"14102","stop_code":"14102","stop_name":"ST. CHARLES ROCK ROAD @ LULU WB","stop_desc":"FAR SIDE ST. CHARLES ROCK ROAD @ LULU WB","wheelchair_boarding":1,"routes":[{"route_id":"19603","agency_id":"70006","route_short_name":"19","route_long_name":"St Louis Ave","route_type":3,"route_color":"#FFFFFF","route_text_color":"#000000"},{"route_id":"19607","agency_id":"70006","route_short_name":"32","route_long_name":"Dr ML King","route_type":3,"route_color":"#FFFFFF","route_text_color":"#000000"},{"route_id":"19621","agency_id":"70006","route_short_name":"64","route_long_name":"Lucas-Hunt","route_type":3,"route_color":"#FFFFFF","route_text_color":"#000000"}],"agency_name":"Metro St. Louis"},"geometry":{"type":"Point","coordinates":[-90.29922,38.68273]}},{"type":"Feature","properties":{"stop_id":"14140","stop_code":"14140","stop_name":"CASS @ WEBSTER WB","stop_desc":"FAR SIDE CASS @ WEBSTER WB","wheelchair_boarding":2,"routes":[{"route_id":"19607","agency_id":"70006","route_short_name":"32","route_long_name":"Dr ML King","route_type":3,"route_color":"#FFFFFF","route_text_color":"#000000"}],"agency_name":"Metro St. Louis"},"geometry":{"type":"Point","coordinates":[-90.22305,38.64729]}},{"type":"Feature","properties":{"stop_id":"14496","stop_code":"14496","stop_name":"CIVIC CENTER TRANSIT CENTER","wheelchair_boarding":1,"routes":[{"route_id":"19598","agency_id":"70006","route_short_name":"10","route_long_name":"Gravois-Lindell","route_type":3,"route_color":"#FFFFFF","route_text_color":"#000000"},{"route_id":"19605","agency_id":"70006","route_short_name":"30","route_long_name":"Arsenal","route_type":3,"route_color":"#FFFFFF","route_text_color":"#000000"},{"route_id":"19606","agency_id":"70006","route_short_name":"31","route_long_name":"Chouteau","route_type":3,"route_color":"#FFFFFF","route_text_color":"#000000"},{"route_id":"19607","agency_id":"70006","route_short_name":"32","route_long_name":"Dr ML King","route_type":3,"route_color":"#FFFFFF","route_text_color":"#000000"}],"agency_name":"Metro St. Louis"},"geometry":{"type":"Point","coordinates":[-90.20298,38.6243]}},{"type":"Feature","properties":{"stop_id":"16064","stop_code":"16064","stop_name":"CASS @ SPRING WB","stop_desc":"FAR SIDE CASS @ SPRING WB","wheelchair_boarding":1,"routes":[{"route_id":"19607","agency_id":"70006","route_short_name":"32","route_long_name":"Dr ML King","route_type":3,"route_color":"#FFFFFF","route_text_color":"#000000"}],"agency_name":"Metro St. Louis"},"geometry":{"type":"Point","coordinates":[-90.22806,38.64915]}},{"type":"Feature","properties":{"stop_id":"16526","stop_code":"16526","stop_name":"9TH STREET @ COLE NB","stop_desc":"FAR SIDE 9TH STREET @ COLE NB","wheelchair_boarding":2,"routes":[{"route_id":"19607","agency_id":"70006","route_short_name":"32","route_long_name":"Dr ML King","route_type":3,"route_color":"#FFFFFF","route_text_color":"#000000"}],"agency_name":"Metro St. Louis"},"geometry":{"type":"Point","coordinates":[-90.19123,38.63482]}},{"type":"Feature","properties":{"stop_id":"7034","stop_code":"7034","stop_name":"DR ML KING @ VANDEVENTER WB","stop_desc":"FAR SIDE DR ML KING @ VANDEVENTER WB","wheelchair_boarding":1,"routes":[{"route_id":"19607","agency_id":"70006","route_short_name":"32","route_long_name":"Dr ML King","route_type":3,"route_color":"#FFFFFF","route_text_color":"#000000"}],"agency_name":"Metro St. Louis"},"geometry":{"type":"Point","coordinates":[-90.23298,38.65129]}},{"type":"Feature","properties":{"stop_id":"7036","stop_code":"7036","stop_name":"DR ML KING @ SARAH WB","stop_desc":"FAR SIDE DR ML KING @ SARAH WB","wheelchair_boarding":1,"routes":[{"route_id":"19607","agency_id":"70006","route_short_name":"32","route_long_name":"Dr ML King","route_type":3,"route_color":"#FFFFFF","route_text_color":"#000000"}],"agency_name":"Metro St. Louis"},"geometry":{"type":"Point","coordinates":[-90.23674,38.65295]}},{"type":"Feature","properties":{"stop_id":"7037","stop_code":"7037","stop_name":"DR ML KING @ WHITTIER WB","stop_desc":"FAR SIDE DR ML KING @ WHITTIER WB","wheelchair_boarding":1,"routes":[{"route_id":"19607","agency_id":"70006","route_short_name":"32","route_long_name":"Dr ML King","route_type":3,"route_color":"#FFFFFF","route_text_color":"#000000"}],"agency_name":"Metro St. Louis"},"geometry":{"type":"Point","coordinates":[-90.23897,38.65392]}},{"type":"Feature","properties":{"stop_id":"7038","stop_code":"7038","stop_name":"DR ML KING @ ANNIE MALONE WB","stop_desc":"FAR SIDE DR ML KING @ ANNIE MALONE WB","wheelchair_boarding":1,"routes":[{"route_id":"19607","agency_id":"70006","route_short_name":"32","route_long_name":"Dr ML King","route_type":3,"route_color":"#FFFFFF","route_text_color":"#000000"}],"agency_name":"Metro St. Louis"},"geometry":{"type":"Point","coordinates":[-90.24086,38.65475]}},{"type":"Feature","properties":{"stop_id":"7039","stop_code":"7039","stop_name":"DR ML KING @ BILLUPS WB","stop_desc":"NEAR SIDE DR ML KING @ BILLUPS WB","wheelchair_boarding":1,"routes":[{"route_id":"19607","agency_id":"70006","route_short_name":"32","route_long_name":"Dr ML King","route_type":3,"route_color":"#FFFFFF","route_text_color":"#000000"}],"agency_name":"Metro St. Louis"},"geometry":{"type":"Point","coordinates":[-90.24305,38.65572]}},{"type":"Feature","properties":{"stop_id":"7040","stop_code":"7040","stop_name":"DR ML KING @ NEWSTEAD WB","stop_desc":"NEAR SIDE DR ML KING @ NEWSTEAD WB","wheelchair_boarding":1,"routes":[{"route_id":"19607","agency_id":"70006","route_short_name":"32","route_long_name":"Dr ML King","route_type":3,"route_color":"#FFFFFF","route_text_color":"#000000"}],"agency_name":"Metro St. Louis"},"geometry":{"type":"Point","coordinates":[-90.24474,38.65646]}},{"type":"Feature","properties":{"stop_id":"7041","stop_code":"7041","stop_name":"DR ML KING @ TAYLOR WB","stop_desc":"FAR SIDE DR ML KING @ TAYLOR WB","wheelchair_boarding":1,"routes":[{"route_id":"19607","agency_id":"70006","route_short_name":"32","route_long_name":"Dr ML King","route_type":3,"route_color":"#FFFFFF","route_text_color":"#000000"}],"agency_name":"Metro St. Louis"},"geometry":{"type":"Point","coordinates":[-90.2482,38.65797]}},{"type":"Feature","properties":{"stop_id":"7043","stop_code":"7043","stop_name":"DR ML KING @ CORA WB","stop_desc":"FAR SIDE DR ML KING @ CORA WB","wheelchair_boarding":1,"routes":[{"route_id":"19607","agency_id":"70006","route_short_name":"32","route_long_name":"Dr ML King","route_type":3,"route_color":"#FFFFFF","route_text_color":"#000000"}],"agency_name":"Metro St. Louis"},"geometry":{"type":"Point","coordinates":[-90.25205,38.65967]}},{"type":"Feature","properties":{"stop_id":"7044","stop_code":"7044","stop_name":"DR ML KING @ MARCUS WB","stop_desc":"NEAR SIDE DR ML KING @ MARCUS WB","wheelchair_boarding":1,"routes":[{"route_id":"19607","agency_id":"70006","route_short_name":"32","route_long_name":"Dr ML King","route_type":3,"route_color":"#FFFFFF","route_text_color":"#000000"}],"agency_name":"Metro St. Louis"},"geometry":{"type":"Point","coordinates":[-90.25309,38.66012]}},{"type":"Feature","properties":{"stop_id":"7046","stop_code":"7046","stop_name":"DR ML KING @ EUCLID WB","stop_desc":"NEAR SIDE DR ML KING @ EUCLID WB","wheelchair_boarding":1,"routes":[{"route_id":"19607","agency_id":"70006","route_short_name":"32","route_long_name":"Dr ML King","route_type":3,"route_color":"#FFFFFF","route_text_color":"#000000"}],"agency_name":"Metro St. Louis"},"geometry":{"type":"Point","coordinates":[-90.2583,38.66204]}},{"type":"Feature","properties":{"stop_id":"7047","stop_code":"7047","stop_name":"DR ML KING @ KINGSHIGHWAY WB","stop_desc":"FAR SIDE DR ML KING @ KINGSHIGHWAY WB","wheelchair_boarding":1,"routes":[{"route_id":"19607","agency_id":"70006","route_short_name":"32","route_long_name":"Dr ML King","route_type":3,"route_color":"#FFFFFF","route_text_color":"#000000"}],"agency_name":"Metro St. Louis"},"geometry":{"type":"Point","coordinates":[-90.26226,38.66339]}},{"type":"Feature","properties":{"stop_id":"7048","stop_code":"7048","stop_name":"DR ML KING @ ACADEMY WB","stop_desc":"NEAR SIDE DR ML KING @ ACADEMY WB","wheelchair_boarding":2,"routes":[{"route_id":"19607","agency_id":"70006","route_short_name":"32","route_long_name":"Dr ML King","route_type":3,"route_color":"#FFFFFF","route_text_color":"#000000"}],"agency_name":"Metro St. Louis"},"geometry":{"type":"Point","coordinates":[-90.26539,38.66461]}},{"type":"Feature","properties":{"stop_id":"7049","stop_code":"7049","stop_name":"DR ML KING @ UNION WB","stop_desc":"FAR SIDE DR ML KING @ UNION WB","wheelchair_boarding":1,"routes":[{"route_id":"19607","agency_id":"70006","route_short_name":"32","route_long_name":"Dr ML King","route_type":3,"route_color":"#FFFFFF","route_text_color":"#000000"}],"agency_name":"Metro St. Louis"},"geometry":{"type":"Point","coordinates":[-90.26809,38.66606]}},{"type":"Feature","properties":{"stop_id":"7050","stop_code":"7050","stop_name":"DR ML KING @ ARLINGTON WB","stop_desc":"NEAR SIDE DR ML KING @ ARLINGTON WB","wheelchair_boarding":1,"routes":[{"route_id":"19607","agency_id":"70006","route_short_name":"32","route_long_name":"Dr ML King","route_type":3,"route_color":"#FFFFFF","route_text_color":"#000000"}],"agency_name":"Metro St. Louis"},"geometry":{"type":"Point","coordinates":[-90.27035,38.66727]}},{"type":"Feature","properties":{"stop_id":"7051","stop_code":"7051","stop_name":"DR ML KING @ BELT WB","stop_desc":"NEAR SIDE DR ML KING @ BELT WB","wheelchair_boarding":1,"routes":[{"route_id":"19607","agency_id":"70006","route_short_name":"32","route_long_name":"Dr ML King","route_type":3,"route_color":"#FFFFFF","route_text_color":"#000000"}],"agency_name":"Metro St. Louis"},"geometry":{"type":"Point","coordinates":[-90.27279,38.66857]}},{"type":"Feature","properties":{"stop_id":"7053","stop_code":"7053","stop_name":"DR ML KING @ CLARA WB","stop_desc":"FAR SIDE DR ML KING @ CLARA WB","wheelchair_boarding":1,"routes":[{"route_id":"19607","agency_id":"70006","route_short_name":"32","route_long_name":"Dr ML King","route_type":3,"route_color":"#FFFFFF","route_text_color":"#000000"}],"agency_name":"Metro St. Louis"},"geometry":{"type":"Point","coordinates":[-90.27596,38.6703]}},{"type":"Feature","properties":{"stop_id":"7055","stop_code":"7055","stop_name":"DR ML KING @ GOODFELLOW WB","stop_desc":"FAR SIDE DR ML KING @ GOODFELLOW WB","wheelchair_boarding":1,"routes":[{"route_id":"19607","agency_id":"70006","route_short_name":"32","route_long_name":"Dr ML King","route_type":3,"route_color":"#FFFFFF","route_text_color":"#000000"}],"agency_name":"Metro St. Louis"},"geometry":{"type":"Point","coordinates":[-90.27896,38.67195]}},{"type":"Feature","properties":{"stop_id":"7349","stop_code":"7349","stop_name":"9TH STREET @ CASS NB","stop_desc":"NEAR SIDE 9TH STREET @ CASS NB","wheelchair_boarding":2,"routes":[{"route_id":"19607","agency_id":"70006","route_short_name":"32","route_long_name":"Dr ML King","route_type":3,"route_color":"#FFFFFF","route_text_color":"#000000"}],"agency_name":"Metro St. Louis"},"geometry":{"type":"Point","coordinates":[-90.1897,38.6396]}},{"type":"Feature","properties":{"stop_id":"7351","stop_code":"7351","stop_name":"CASS @ 13TH STREET WB","stop_desc":"FAR SIDE CASS @ 13TH STREET WB","wheelchair_boarding":2,"routes":[{"route_id":"19607","agency_id":"70006","route_short_name":"32","route_long_name":"Dr ML King","route_type":3,"route_color":"#FFFFFF","route_text_color":"#000000"}],"agency_name":"Metro St. Louis"},"geometry":{"type":"Point","coordinates":[-90.19488,38.64137]}},{"type":"Feature","properties":{"stop_id":"7352","stop_code":"7352","stop_name":"CASS @ 14TH STREET WB","stop_desc":"FAR SIDE CASS @ 14TH STREET WB","wheelchair_boarding":2,"routes":[{"route_id":"19607","agency_id":"70006","route_short_name":"32","route_long_name":"Dr ML King","route_type":3,"route_color":"#FFFFFF","route_text_color":"#000000"}],"agency_name":"Metro St. Louis"},"geometry":{"type":"Point","coordinates":[-90.197,38.64182]}},{"type":"Feature","properties":{"stop_id":"7354","stop_code":"7354","stop_name":"CASS @ 16TH STREET WB","stop_desc":"FAR SIDE CASS @ 16TH STREET WB","wheelchair_boarding":2,"routes":[{"route_id":"19607","agency_id":"70006","route_short_name":"32","route_long_name":"Dr ML King","route_type":3,"route_color":"#FFFFFF","route_text_color":"#000000"}],"agency_name":"Metro St. Louis"},"geometry":{"type":"Point","coordinates":[-90.19879,38.64219]}},{"type":"Feature","properties":{"stop_id":"7355","stop_code":"7355","stop_name":"CASS @ 18TH STREET WB","stop_desc":"NEAR SIDE CASS @ 18TH STREET WB","wheelchair_boarding":2,"routes":[{"route_id":"19607","agency_id":"70006","route_short_name":"32","route_long_name":"Dr ML King","route_type":3,"route_color":"#FFFFFF","route_text_color":"#000000"}],"agency_name":"Metro St. Louis"},"geometry":{"type":"Point","coordinates":[-90.20033,38.6425]}},{"type":"Feature","properties":{"stop_id":"7358","stop_code":"7358","stop_name":"CASS @ 20TH STREET WB","stop_desc":"NEAR SIDE CASS @ 20TH STREET WB","wheelchair_boarding":1,"routes":[{"route_id":"19607","agency_id":"70006","route_short_name":"32","route_long_name":"Dr ML King","route_type":3,"route_color":"#FFFFFF","route_text_color":"#000000"}],"agency_name":"Metro St. Louis"},"geometry":{"type":"Point","coordinates":[-90.20493,38.64347]}},{"type":"Feature","properties":{"stop_id":"7359","stop_code":"7359","stop_name":"CASS @ 22ND STREET WB","stop_desc":"NEAR SIDE CASS @ 22ND STREET WB","wheelchair_boarding":1,"routes":[{"route_id":"19607","agency_id":"70006","route_short_name":"32","route_long_name":"Dr ML King","route_type":3,"route_color":"#FFFFFF","route_text_color":"#000000"}],"agency_name":"Metro St. Louis"},"geometry":{"type":"Point","coordinates":[-90.20752,38.64403]}},{"type":"Feature","properties":{"stop_id":"7362","stop_code":"7362","stop_name":"CASS @ JEFFERSON WB","stop_desc":"FAR SIDE CASS @ JEFFERSON WB","wheelchair_boarding":1,"routes":[{"route_id":"19607","agency_id":"70006","route_short_name":"32","route_long_name":"Dr ML King","route_type":3,"route_color":"#FFFFFF","route_text_color":"#000000"}],"agency_name":"Metro St. Louis"},"geometry":{"type":"Point","coordinates":[-90.21352,38.64529]}},{"type":"Feature","properties":{"stop_id":"7408","stop_code":"7408","stop_name":"DR ML KING @ HAMILTON WB","stop_desc":"NEAR SIDE DR ML KING @ HAMILTON WB","wheelchair_boarding":1,"routes":[{"route_id":"19603","agency_id":"70006","route_short_name":"19","route_long_name":"St Louis Ave","route_type":3,"route_color":"#FFFFFF","route_text_color":"#000000"},{"route_id":"19607","agency_id":"70006","route_short_name":"32","route_long_name":"Dr ML King","route_type":3,"route_color":"#FFFFFF","route_text_color":"#000000"}],"agency_name":"Metro St. Louis"},"geometry":{"type":"Point","coordinates":[-90.2829,38.674]}},{"type":"Feature","properties":{"stop_id":"7424","stop_code":"7424","stop_name":"ROCK ROAD TRANSIT CENTER","wheelchair_boarding":1,"routes":[{"route_id":"19593","agency_id":"70006","route_short_name":"2","route_long_name":"Red","route_type":3,"route_color":"#FFFFFF","route_text_color":"#000000"},{"route_id":"19603","agency_id":"70006","route_short_name":"19","route_long_name":"St Louis Ave","route_type":3,"route_color":"#FFFFFF","route_text_color":"#000000"},{"route_id":"19607","agency_id":"70006","route_short_name":"32","route_long_name":"Dr ML King","route_type":3,"route_color":"#FFFFFF","route_text_color":"#000000"},{"route_id":"19610","agency_id":"70006","route_short_name":"35","route_long_name":"Rock Road","route_type":3,"route_color":"#FFFFFF","route_text_color":"#000000"},{"route_id":"19621","agency_id":"70006","route_short_name":"64","route_long_name":"Lucas-Hunt","route_type":3,"route_color":"#FFFFFF","route_text_color":"#000000"}],"agency_name":"Metro St. Louis"},"geometry":{"type":"Point","coordinates":[-90.30164,38.68516]}},{"type":"Feature","properties":{"stop_id":"7651","stop_code":"7651","stop_name":"14TH STREET @ CHESTNUT NB","stop_desc":"NEAR SIDE 14TH STREET @ CHESTNUT NB","wheelchair_boarding":1,"routes":[{"route_id":"19598","agency_id":"70006","route_short_name":"10","route_long_name":"Gravois-Lindell","route_type":3,"route_color":"#FFFFFF","route_text_color":"#000000"},{"route_id":"19607","agency_id":"70006","route_short_name":"32","route_long_name":"Dr ML King","route_type":3,"route_color":"#FFFFFF","route_text_color":"#000000"},{"route_id":"19611","agency_id":"70006","route_short_name":"40","route_long_name":"Broadway-Halls Ferry","route_type":3,"route_color":"#FFFFFF","route_text_color":"#000000"},{"route_id":"19612","agency_id":"70006","route_short_name":"41","route_long_name":"Lee","route_type":3,"route_color":"#FFFFFF","route_text_color":"#000000"},{"route_id":"19624","agency_id":"70006","route_short_name":"74","route_long_name":"Florissant","route_type":3,"route_color":"#FFFFFF","route_text_color":"#000000"},{"route_id":"19633","agency_id":"70006","route_short_name":"97","route_long_name":"Delmar","route_type":3,"route_color":"#FFFFFF","route_text_color":"#000000"}],"agency_name":"Metro St. Louis"},"geometry":{"type":"Point","coordinates":[-90.20077,38.62859]}},{"type":"Feature","properties":{"stop_id":"8385","stop_code":"8385","stop_name":"DR ML KING @ KIENLEN WB","stop_desc":"NEAR SIDE DR ML KING @ KIENLEN WB","wheelchair_boarding":1,"routes":[{"route_id":"19603","agency_id":"70006","route_short_name":"19","route_long_name":"St Louis Ave","route_type":3,"route_color":"#FFFFFF","route_text_color":"#000000"},{"route_id":"19607","agency_id":"70006","route_short_name":"32","route_long_name":"Dr ML King","route_type":3,"route_color":"#FFFFFF","route_text_color":"#000000"}],"agency_name":"Metro St. Louis"},"geometry":{"type":"Point","coordinates":[-90.28674,38.67609]}}]}