{"type":"FeatureCollection","features":[{"type":"Feature","properties":{"agency_name":"Metro St. Louis","route_id":"19615","agency_id":"70006","route_short_name":"56","route_long_name":"Kirkwood-Webster","route_type":3,"route_color":"#FFFFFF","route_text_color":"#000000"},"geometry":{"type":"MultiLineString","coordinates":[[[-90.31876,38.59278],[-90.3194,38.59258],[-90.31876,38.59278],[-90.31856,38.59279],[-90.31842,38.59254],[-90.31844,38.59222],[-90.31924,38.59226],[-90.31992,38.59223],[-90.32026,38.59226],[-90.32095,38.59222],[-90.32101,38.59209],[-90.32113,38.59194],[-90.32135,38.59168],[-90.32158,38.59145],[-90.32251,38.59083],[-90.32283,38.59066],[-90.32324,38.59064],[-90.32407,38.59074],[-90.32613,38.59094],[-90.32715,38.59106],[-90.33005,38.59134],[-90.33038,38.59136],[-90.33149,38.5915],[-90.33204,38.59155],[-90.3322,38.59155],[-90.33242,38.59152],[-90.33405,38.59119],[-90.3346,38.59119],[-90.33486,38.59126],[-90.33515,38.59141],[-90.33539,38.59158],[-90.33556,38.59167],[-90.336,38.59199],[-90.33622,38.59211],[-90.33672,38.59244],[-90.3373,38.59236],[-90.33805,38.59187],[-90.33878,38.59147],[-90.33932,38.59121],[-90.33958,38.59113],[-90.34059,38.59092],[-90.34104,38.59105],[-90.34617,38.59159],[-90.3469,38.59168],[-90.34776,38.59176],[-90.35471,38.59251],[-90.35506,38.59256],[-90.36283,38.59339],[-90.36355,38.59344],[-90.36437,38.59346],[-90.36474,38.59344],[-90.36493,38.59348],[-90.3653,38.59348],[-90.36561,38.59344],[-90.36583,38.59338],[-90.36638,38.59314],[-90.36676,38.59293],[-90.36713,38.59268],[-90.3674,38.59247],[-90.36765,38.59224],[-90.36789,38.59199],[-90.36827,38.59149],[-90.36857,38.59095],[-90.3691,38.58981],[-90.3692,38.58956],[-90.36927,38.58937],[-90.36935,38.58908],[-90.36944,38.58868],[-90.36995,38.58683],[-90.37006,38.58652],[-90.37024,38.58615],[-90.37057,38.58538],[-90.37067,38.58522],[-90.37075,38.58514],[-90.37107,38.58497],[-90.37123,38.58493],[-90.3727,38.58476],[-90.37393,38.58464],[-90.37518,38.58471],[-90.37554,38.58467],[-90.37595,38.58456],[-90.37663,38.58433],[-90.37688,38.58422],[-90.37724,38.58398],[-90.37724,38.58082],[-90.37727,38.57916],[-90.37726,38.57821],[-90.37729,38.57549],[-90.37725,38.57355],[-90.3798,38.57283],[-90.38027,38.57272],[-90.38316,38.57225],[-90.3837,38.57214],[-90.38422,38.57186],[-90.38545,38.57113],[-90.38646,38.57069],[-90.38693,38.57044],[-90.38756,38.57009],[-90.38983,38.56874],[-90.39085,38.56816],[-90.39114,38.56803],[-90.39135,38.56797],[-90.39283,38.56787],[-90.39458,38.56782],[-90.399,38.56782],[-90.39977,38.56776],[-90.40065,38.56761],[-90.40129,38.56747],[-90.40209,38.56725],[-90.40308,38.56688],[-90.40343,38.56677],[-90.40363,38.56672],[-90.40403,38.56667],[-90.40677,38.5667],[-90.40968,38.56678],[-90.41243,38.56682],[-90.41633,38.56692],[-90.41738,38.56691],[-90.41737,38.5679]]]}},{"type":"Feature","properties":{"stop_id":"13343","stop_code":"13343","stop_name":"STLCC MERAMEC","stop_desc":"MID-BLOCK STLCC MERAMEC","wheelchair_boarding":1,"routes":[{"route_id":"19604","agency_id":"70006","route_short_name":"21","route_long_name":"Watson Rd","route_type":3,"route_color":"#FFFFFF","route_text_color":"#000000"},{"route_id":"19615","agency_id":"70006","route_short_name":"56","route_long_name":"Kirkwood-Webster","route_type":3,"route_color":"#FFFFFF","route_text_color":"#000000"}],"agency_name":"Metro St. Louis"},"geometry":{"type":"Point","coordinates":[-90.41737,38.56819]}},{"type":"Feature","properties":{"stop_id":"15000","stop_code":"15000","stop_name":"BIG BEND @ OAK HILL CEMETERY WB","stop_desc":"NEAR SIDE BIG BEND @ OAK HILL CEMETERY WB","wheelchair_boarding":2,"routes":[{"route_id":"19615","agency_id":"70006","route_short_name":"56","route_long_name":"Kirkwood-Webster","route_type":3,"route_color":"#FFFFFF","route_text_color":"#000000"}],"agency_name":"Metro St. Louis"},"geometry":{"type":"Point","coordinates":[-90.39742,38.56789]}},{"type":"Feature","properties":{"stop_id":"16303","stop_code":"16303","stop_name":"SHREWSBURY-LANSDOWNE I-44 TRANSIT CENTER","wheelchair_boarding":1,"routes":[{"route_id":"19597","agency_id":"70006","route_short_name":"9","route_long_name":"Oakville","route_type":3,"route_color":"#FFFFFF","route_text_color":"#000000"},{"route_id":"19615","agency_id":"70006","route_short_name":"56","route_long_name":"Kirkwood-Webster","route_type":3,"route_color":"#FFFFFF","route_text_color":"#000000"}],"agency_name":"Metro St. Louis"},"geometry":{"type":"Point","coordinates":[-90.31943,38.59258]}},{"type":"Feature","properties":{"stop_id":"2799","stop_code":"2799","stop_name":"MURDOCH CUT OFF @ DEVONSHIRE WB","stop_desc":"NEAR SIDE MURDOCH CUT OFF @ DEVONSHIRE WB","wheelchair_boarding":1,"routes":[{"route_id":"19615","agency_id":"70006","route_short_name":"56","route_long_name":"Kirkwood-Webster","route_type":3,"route_color":"#FFFFFF","route_text_color":"#000000"}],"agency_name":"Metro St. Louis"},"geometry":{"type":"Point","coordinates":[-90.32153,38.59156]}},{"type":"Feature","properties":{"stop_id":"2801","stop_code":"2801","stop_name":"MURDOCH @ SHREWSBURY WB","stop_desc":"NEAR SIDE MURDOCH @ SHREWSBURY WB","wheelchair_boarding":1,"routes":[{"route_id":"19615","agency_id":"70006","route_short_name":"56","route_long_name":"Kirkwood-Webster","route_type":3,"route_color":"#FFFFFF","route_text_color":"#000000"}],"agency_name":"Metro St. Louis"},"geometry":{"type":"Point","coordinates":[-90.32654,38.59101]}},{"type":"Feature","properties":{"stop_id":"2803","stop_code":"2803","stop_name":"MURDOCH @ WILSHUSEN WB","stop_desc":"FAR SIDE MURDOCH @ WILSHUSEN WB","wheelchair_boarding":2,"routes":[{"route_id":"19615","agency_id":"70006","route_short_name":"56","route_long_name":"Kirkwood-Webster","route_type":3,"route_color":"#FFFFFF","route_text_color":"#000000"}],"agency_name":"Metro St. Louis"},"geometry":{"type":"Point","coordinates":[-90.33328,38.5914]}},{"type":"Feature","properties":{"stop_id":"2805","stop_code":"2805","stop_name":"BIG BEND @ OLD ORCHARD WB","stop_desc":"FAR SIDE BIG BEND @ OLD ORCHARD WB","wheelchair_boarding":1,"routes":[{"route_id":"19615","agency_id":"70006","route_short_name":"56","route_long_name":"Kirkwood-Webster","route_type":3,"route_color":"#FFFFFF","route_text_color":"#000000"}],"agency_name":"Metro St. Louis"},"geometry":{"type":"Point","coordinates":[-90.33924,38.59134]}},{"type":"Feature","properties":{"stop_id":"2807","stop_code":"2807","stop_name":"LOCKWOOD @ BOMPART WB","stop_desc":"FAR SIDE LOCKWOOD @ BOMPART WB","wheelchair_boarding":2,"routes":[{"route_id":"19615","agency_id":"70006","route_short_name":"56","route_long_name":"Kirkwood-Webster","route_type":3,"route_color":"#FFFFFF","route_text_color":"#000000"}],"agency_name":"Metro St. Louis"},"geometry":{"type":"Point","coordinates":[-90.34373,38.5914]}},{"type":"Feature","properties":{"stop_id":"2808","stop_code":"2808","stop_name":"LOCKWOOD @ PLYMOUTH WB","stop_desc":"FAR SIDE LOCKWOOD @ PLYMOUTH WB","wheelchair_boarding":2,"routes":[{"route_id":"19615","agency_id":"70006","route_short_name":"56","route_long_name":"Kirkwood-Webster","route_type":3,"route_color":"#FFFFFF","route_text_color":"#000000"}],"agency_name":"Metro St. Louis"},"geometry":{"type":"Point","coordinates":[-90.34652,38.59167]}},{"type":"Feature","properties":{"stop_id":"2811","stop_code":"2811","stop_name":"LOCKWOOD @ ORCHARD WB","stop_desc":"FAR SIDE LOCKWOOD @ ORCHARD WB","wheelchair_boarding":2,"routes":[{"route_id":"19615","agency_id":"70006","route_short_name":"56","route_long_name":"Kirkwood-Webster","route_type":3,"route_color":"#FFFFFF","route_text_color":"#000000"}],"agency_name":"Metro St. Louis"},"geometry":{"type":"Point","coordinates":[-90.35103,38.59216]}},{"type":"Feature","properties":{"stop_id":"2812","stop_code":"2812","stop_name":"LOCKWOOD @ MAPLE WB","stop_desc":"FAR SIDE LOCKWOOD @ MAPLE WB","wheelchair_boarding":1,"routes":[{"route_id":"19615","agency_id":"70006","route_short_name":"56","route_long_name":"Kirkwood-Webster","route_type":3,"route_color":"#FFFFFF","route_text_color":"#000000"}],"agency_name":"Metro St. Louis"},"geometry":{"type":"Point","coordinates":[-90.35536,38.59263]}},{"type":"Feature","properties":{"stop_id":"2814","stop_code":"2814","stop_name":"45 W LOCKWOOD WB","stop_desc":"MID-BLOCK 45 W LOCKWOOD WB","wheelchair_boarding":1,"routes":[{"route_id":"19615","agency_id":"70006","route_short_name":"56","route_long_name":"Kirkwood-Webster","route_type":3,"route_color":"#FFFFFF","route_text_color":"#000000"}],"agency_name":"Metro St. Louis"},"geometry":{"type":"Point","coordinates":[-90.35902,38.59297]}},{"type":"Feature","properties":{"stop_id":"2815","stop_code":"2815","stop_name":"LOCKWOOD @ JEFFERSON WB","stop_desc":"NEAR SIDE LOCKWOOD @ JEFFERSON WB","wheelchair_boarding":1,"routes":[{"route_id":"19615","agency_id":"70006","route_short_name":"56","route_long_name":"Kirkwood-Webster","route_type":3,"route_color":"#FFFFFF","route_text_color":"#000000"}],"agency_name":"Metro St. Louis"},"geometry":{"type":"Point","coordinates":[-90.36255,38.5934]}},{"type":"Feature","properties":{"stop_id":"2821","stop_code":"2821","stop_name":"LOCKWOOD @ SHERWOOD WB","stop_desc":"NEAR SIDE LOCKWOOD @ SHERWOOD WB","wheelchair_boarding":2,"routes":[{"route_id":"19615","agency_id":"70006","route_short_name":"56","route_long_name":"Kirkwood-Webster","route_type":3,"route_color":"#FFFFFF","route_text_color":"#000000"}],"agency_name":"Metro St. Louis"},"geometry":{"type":"Point","coordinates":[-90.37058,38.5853]}},{"type":"Feature","properties":{"stop_id":"2824","stop_code":"2824","stop_name":"LOCKWOOD @ BERRY WB","stop_desc":"NEAR SIDE LOCKWOOD @ BERRY WB","wheelchair_boarding":2,"routes":[{"route_id":"19615","agency_id":"70006","route_short_name":"56","route_long_name":"Kirkwood-Webster","route_type":3,"route_color":"#FFFFFF","route_text_color":"#000000"}],"agency_name":"Metro St. Louis"},"geometry":{"type":"Point","coordinates":[-90.37588,38.58459]}},{"type":"Feature","properties":{"stop_id":"2908","stop_code":"2908","stop_name":"LOCKWOOD @ ROCK HILL TRANSIT CENTER WB","stop_desc":"FAR SIDE LOCKWOOD @ ROCK HILL TRANSIT CENTER WB","wheelchair_boarding":1,"routes":[{"route_id":"19615","agency_id":"70006","route_short_name":"56","route_long_name":"Kirkwood-Webster","route_type":3,"route_color":"#FFFFFF","route_text_color":"#000000"}],"agency_name":"Metro St. Louis"},"geometry":{"type":"Point","coordinates":[-90.36506,38.5935]}},{"type":"Feature","properties":{"stop_id":"4205","stop_code":"4205","stop_name":"BIG BEND @ MURDOCH SB","stop_desc":"FAR SIDE BIG BEND @ MURDOCH SB","wheelchair_boarding":1,"routes":[{"route_id":"19615","agency_id":"70006","route_short_name":"56","route_long_name":"Kirkwood-Webster","route_type":3,"route_color":"#FFFFFF","route_text_color":"#000000"}],"agency_name":"Metro St. Louis"},"geometry":{"type":"Point","coordinates":[-90.33716,38.59253]}},{"type":"Feature","properties":{"stop_id":"4485","stop_code":"4485","stop_name":"BIG BEND @ BERRY WB","stop_desc":"FAR SIDE BIG BEND @ BERRY WB","wheelchair_boarding":1,"routes":[{"route_id":"19615","agency_id":"70006","route_short_name":"56","route_long_name":"Kirkwood-Webster","route_type":3,"route_color":"#FFFFFF","route_text_color":"#000000"}],"agency_name":"Metro St. Louis"},"geometry":{"type":"Point","coordinates":[-90.37744,38.57357]}},{"type":"Feature","properties":{"stop_id":"4486","stop_code":"4486","stop_name":"BIG BEND @ DIVERSEY WB","stop_desc":"NEAR SIDE BIG BEND @ DIVERSEY WB","wheelchair_boarding":2,"routes":[{"route_id":"19615","agency_id":"70006","route_short_name":"56","route_long_name":"Kirkwood-Webster","route_type":3,"route_color":"#FFFFFF","route_text_color":"#000000"}],"agency_name":"Metro St. Louis"},"geometry":{"type":"Point","coordinates":[-90.3819,38.57254]}},{"type":"Feature","properties":{"stop_id":"4488","stop_code":"4488","stop_name":"BIG BEND @ SAPPINGTON WB","stop_desc":"FAR SIDE BIG BEND @ SAPPINGTON WB","wheelchair_boarding":1,"routes":[{"route_id":"19615","agency_id":"70006","route_short_name":"56","route_long_name":"Kirkwood-Webster","route_type":3,"route_color":"#FFFFFF","route_text_color":"#000000"}],"agency_name":"Metro St. Louis"},"geometry":{"type":"Point","coordinates":[-90.38612,38.57094]}},{"type":"Feature","properties":{"stop_id":"4490","stop_code":"4490","stop_name":"BIG BEND @ HOLMES WB","stop_desc":"NEAR SIDE BIG BEND @ HOLMES WB","wheelchair_boarding":2,"routes":[{"route_id":"19615","agency_id":"70006","route_short_name":"56","route_long_name":"Kirkwood-Webster","route_type":3,"route_color":"#FFFFFF","route_text_color":"#000000"}],"agency_name":"Metro St. Louis"},"geometry":{"type":"Point","coordinates":[-90.39091,38.56822]}},{"type":"Feature","properties":{"stop_id":"9780","stop_code":"9780","stop_name":"BIG BEND @ FILLMORE WB","stop_desc":"NEAR SIDE BIG BEND @ FILLMORE WB","wheelchair_boarding":1,"routes":[{"route_id":"19615","agency_id":"70006","route_short_name":"56","route_long_name":"Kirkwood-Webster","route_type":3,"route_color":"#FFFFFF","route_text_color":"#000000"}],"agency_name":"Metro St. Louis"},"geometry":{"type":"Point","coordinates":[-90.40186,38.56738]}},{"type":"Feature","properties":{"stop_id":"9781","stop_code":"9781","stop_name":"BIG BEND @ KIRKWOOD WB","stop_desc":"NEAR SIDE BIG BEND @ KIRKWOOD WB","wheelchair_boarding":2,"routes":[{"route_id":"19615","agency_id":"70006","route_short_name":"56","route_long_name":"Kirkwood-Webster","route_type":3,"route_color":"#FFFFFF","route_text_color":"#000000"}],"agency_name":"Metro St. Louis"},"geometry":{"type":"Point","coordinates":[-90.40545,38.56675]}},{"type":"Feature","properties":{"stop_id":"9782","stop_code":"9782","stop_name":"BIG BEND @ KIRKWOOD WB","stop_desc":"FAR SIDE BIG BEND @ KIRKWOOD WB","wheelchair_boarding":2,"routes":[{"route_id":"19604","agency_id":"70006","route_short_name":"21","route_long_name":"Watson Rd","route_type":3,"route_color":"#FFFFFF","route_text_color":"#000000"},{"route_id":"19615","agency_id":"70006","route_short_name":"56","route_long_name":"Kirkwood-Webster","route_type":3,"route_color":"#FFFFFF","route_text_color":"#000000"}],"agency_name":"Metro St. Louis"},"geometry":{"type":"Point","coordinates":[-90.40854,38.56679]}},{"type":"Feature","properties":{"stop_id":"9785","stop_code":"9785","stop_name":"BIG BEND @ MAEVILLE WB","stop_desc":"FAR SIDE BIG BEND @ MAEVILLE WB","wheelchair_boarding":2,"routes":[{"route_id":"19604","agency_id":"70006","route_short_name":"21","route_long_name":"Watson Rd","route_type":3,"route_color":"#FFFFFF","route_text_color":"#000000"},{"route_id":"19615","agency_id":"70006","route_short_name":"56","route_long_name":"Kirkwood-Webster","route_type":3,"route_color":"#FFFFFF","route_text_color":"#000000"}],"agency_name":"Metro St. Louis"},"geometry":{"type":"Point","coordinates":[-90.41416,38.5669]}},{"type":"Feature","properties":{"stop_id":"9786","stop_code":"9786","stop_name":"BIG BEND @ GEYER WB","stop_desc":"FAR SIDE BIG BEND @ GEYER WB","wheelchair_boarding":2,"routes":[{"route_id":"19604","agency_id":"70006","route_short_name":"21","route_long_name":"Watson Rd","route_type":3,"route_color":"#FFFFFF","route_text_color":"#000000"},{"route_id":"19615","agency_id":"70006","route_short_name":"56","route_long_name":"Kirkwood-Webster","route_type":3,"route_color":"#FFFFFF","route_text_color":"#000000"}],"agency_name":"Metro St. Louis"},"geometry":{"type":"Point","coordinates":[-90.4166,38.56698]}}]}