{"type":"FeatureCollection","features":[{"type":"Feature","properties":{"agency_name":"Metro St. Louis","route_id":"19598","agency_id":"70006","route_short_name":"10","route_long_name":"Gravois-Lindell","route_type":3,"route_color":"#FFFFFF","route_text_color":"#000000"},"geometry":{"type":"MultiLineString","coordinates":[[[-90.25991,38.63563],[-90.25992,38.63564],[-90.25989,38.63564],[-90.25986,38.63575],[-90.25987,38.63603],[-90.25984,38.63624],[-90.25961,38.63631],[-90.25966,38.63651],[-90.25973,38.63702],[-90.25971,38.6372],[-90.2593,38.63843],[-90.26201,38.639],[-90.26215,38.63902],[-90.26235,38.639],[-90.26258,38.63905],[-90.26272,38.63912],[-90.26321,38.63927],[-90.26552,38.63976],[-90.26507,38.64241],[-90.26486,38.64355],[-90.26433,38.64381],[-90.26259,38.64343],[-90.24577,38.63995],[-90.24451,38.63967],[-90.24088,38.63891],[-90.24044,38.63884],[-90.23979,38.63871],[-90.23861,38.63845],[-90.2299,38.63667],[-90.22682,38.63599],[-90.22557,38.63573],[-90.22418,38.63537],[-90.22354,38.63515],[-90.223,38.635],[-90.21868,38.6341],[-90.21423,38.6332],[-90.21193,38.63269],[-90.20743,38.63177],[-90.20027,38.63028],[-90.20056,38.62954],[-90.20104,38.62808],[-90.20188,38.62591],[-90.20235,38.62487],[-90.20249,38.62485],[-90.20257,38.62481],[-90.20271,38.62449],[-90.20278,38.6243],[-90.20284,38.62405],[-90.20283,38.62399],[-90.20284,38.62393],[-90.20279,38.62373],[-90.20306,38.62309],[-90.2033,38.62246],[-90.20337,38.62232],[-90.20371,38.62141],[-90.2042,38.6203],[-90.20455,38.61933],[-90.20168,38.61876],[-90.20227,38.61719],[-90.20243,38.61687],[-90.20256,38.61668],[-90.20384,38.61527],[-90.20664,38.61227],[-90.2077,38.6111],[-90.20806,38.61073],[-90.20816,38.6106],[-90.20864,38.61007],[-90.20894,38.60983],[-90.20909,38.60973],[-90.20933,38.60959],[-90.21038,38.60907],[-90.2118,38.60864],[-90.2123,38.60847],[-90.21285,38.60833],[-90.21424,38.60792],[-90.21537,38.60761],[-90.21794,38.60683],[-90.22002,38.60636],[-90.2205,38.60621],[-90.2227,38.60507],[-90.22568,38.60376],[-90.22995,38.60196],[-90.23199,38.60106],[-90.23238,38.60084],[-90.23392,38.59987],[-90.2347,38.59934],[-90.23615,38.5983],[-90.23663,38.5979],[-90.23751,38.59722],[-90.24111,38.59479],[-90.2415,38.59448],[-90.24238,38.59366],[-90.24323,38.5929],[-90.24341,38.59276],[-90.24382,38.5925],[-90.24442,38.59223],[-90.24519,38.5921],[-90.24553,38.59206],[-90.24787,38.5918],[-90.25028,38.59157],[-90.25119,38.59146],[-90.25138,38.59142],[-90.25158,38.59135],[-90.25297,38.59073],[-90.25465,38.59001],[-90.25566,38.58955],[-90.2574,38.58881],[-90.25797,38.5885],[-90.25888,38.5879],[-90.25973,38.58722],[-90.26191,38.58533],[-90.26223,38.58512],[-90.26448,38.58345],[-90.26732,38.58119],[-90.26777,38.58086],[-90.27075,38.57851],[-90.27149,38.57809],[-90.27204,38.57787],[-90.27248,38.57775],[-90.27386,38.57745],[-90.27443,38.5773],[-90.27472,38.5772],[-90.27505,38.57707],[-90.27546,38.57687],[-90.27623,38.57644],[-90.27888,38.57482],[-90.28048,38.57387],[-90.28197,38.57294],[-90.28238,38.57263],[-90.28272,38.57234],[-90.28585,38.56942],[-90.28624,38.56909],[-90.28654,38.56888],[-90.29076,38.56634],[-90.29259,38.56527],[-90.29417,38.56429],[-90.29435,38.56454],[-90.29414,38.56478],[-90.29406,38.5648],[-90.29395,38.56477]]]}},{"type":"Feature","properties":{"stop_id":"13432","stop_code":"13432","stop_name":"LINDELL @ TAYLOR EB","stop_desc":"FAR SIDE LINDELL @ TAYLOR EB","wheelchair_boarding":1,"routes":[{"route_id":"19598","agency_id":"70006","route_short_name":"10","route_long_name":"Gravois-Lindell","route_type":3,"route_color":"#FFFFFF","route_text_color":"#000000"}],"agency_name":"Metro St. Louis"},"geometry":{"type":"Point","coordinates":[-90.25756,38.64234]}},{"type":"Feature","properties":{"stop_id":"13434","stop_code":"13434","stop_name":"LINDELL @ BOYLE EB","stop_desc":"NEAR SIDE LINDELL @ BOYLE EB","wheelchair_boarding":1,"routes":[{"route_id":"19598","agency_id":"70006","route_short_name":"10","route_long_name":"Gravois-Lindell","route_type":3,"route_color":"#FFFFFF","route_text_color":"#000000"}],"agency_name":"Metro St. Louis"},"geometry":{"type":"Point","coordinates":[-90.25089,38.64094]}},{"type":"Feature","properties":{"stop_id":"13435","stop_code":"13435","stop_name":"LINDELL @ SARAH EB","stop_desc":"NEAR SIDE LINDELL @ SARAH EB","wheelchair_boarding":1,"routes":[{"route_id":"19598","agency_id":"70006","route_short_name":"10","route_long_name":"Gravois-Lindell","route_type":3,"route_color":"#FFFFFF","route_text_color":"#000000"}],"agency_name":"Metro St. Louis"},"geometry":{"type":"Point","coordinates":[-90.24604,38.63993]}},{"type":"Feature","properties":{"stop_id":"13436","stop_code":"13436","stop_name":"LINDELL @ VANDEVENTER EB","stop_desc":"FAR SIDE LINDELL @ VANDEVENTER EB","wheelchair_boarding":1,"routes":[{"route_id":"19598","agency_id":"70006","route_short_name":"10","route_long_name":"Gravois-Lindell","route_type":3,"route_color":"#FFFFFF","route_text_color":"#000000"}],"agency_name":"Metro St. Louis"},"geometry":{"type":"Point","coordinates":[-90.24061,38.63882]}},{"type":"Feature","properties":{"stop_id":"13437","stop_code":"13437","stop_name":"LINDELL @ SPRING EB","stop_desc":"FAR SIDE LINDELL @ SPRING EB","wheelchair_boarding":1,"routes":[{"route_id":"19598","agency_id":"70006","route_short_name":"10","route_long_name":"Gravois-Lindell","route_type":3,"route_color":"#FFFFFF","route_text_color":"#000000"}],"agency_name":"Metro St. Louis"},"geometry":{"type":"Point","coordinates":[-90.23599,38.63786]}},{"type":"Feature","properties":{"stop_id":"13438","stop_code":"13438","stop_name":"LINDELL @ GRAND EB","stop_desc":"FAR SIDE LINDELL @ GRAND EB","wheelchair_boarding":1,"routes":[{"route_id":"19598","agency_id":"70006","route_short_name":"10","route_long_name":"Gravois-Lindell","route_type":3,"route_color":"#FFFFFF","route_text_color":"#000000"}],"agency_name":"Metro St. Louis"},"geometry":{"type":"Point","coordinates":[-90.23223,38.63706]}},{"type":"Feature","properties":{"stop_id":"13439","stop_code":"13439","stop_name":"3450 LINDELL EB","stop_desc":"MID-BLOCK 3450 LINDELL EB","wheelchair_boarding":1,"routes":[{"route_id":"19598","agency_id":"70006","route_short_name":"10","route_long_name":"Gravois-Lindell","route_type":3,"route_color":"#FFFFFF","route_text_color":"#000000"}],"agency_name":"Metro St. Louis"},"geometry":{"type":"Point","coordinates":[-90.23049,38.63669]}},{"type":"Feature","properties":{"stop_id":"13441","stop_code":"13441","stop_name":"OLIVE @ COMPTON EB","stop_desc":"FAR SIDE OLIVE @ COMPTON EB","wheelchair_boarding":1,"routes":[{"route_id":"19598","agency_id":"70006","route_short_name":"10","route_long_name":"Gravois-Lindell","route_type":3,"route_color":"#FFFFFF","route_text_color":"#000000"}],"agency_name":"Metro St. Louis"},"geometry":{"type":"Point","coordinates":[-90.22505,38.63551]}},{"type":"Feature","properties":{"stop_id":"13443","stop_code":"13443","stop_name":"OLIVE @ GARRISON EB","stop_desc":"FAR SIDE OLIVE @ GARRISON EB","wheelchair_boarding":1,"routes":[{"route_id":"19598","agency_id":"70006","route_short_name":"10","route_long_name":"Gravois-Lindell","route_type":3,"route_color":"#FFFFFF","route_text_color":"#000000"}],"agency_name":"Metro St. Louis"},"geometry":{"type":"Point","coordinates":[-90.22167,38.63465]}},{"type":"Feature","properties":{"stop_id":"13519","stop_code":"13519","stop_name":"OLIVE @ JEFFERSON EB","stop_desc":"FAR SIDE OLIVE @ JEFFERSON EB","wheelchair_boarding":1,"routes":[{"route_id":"19598","agency_id":"70006","route_short_name":"10","route_long_name":"Gravois-Lindell","route_type":3,"route_color":"#FFFFFF","route_text_color":"#000000"}],"agency_name":"Metro St. Louis"},"geometry":{"type":"Point","coordinates":[-90.21379,38.633]}},{"type":"Feature","properties":{"stop_id":"14499","stop_code":"14499","stop_name":"14TH STREET @ PINE SB","stop_desc":"NEAR SIDE 14TH STREET @ PINE SB","wheelchair_boarding":1,"routes":[{"route_id":"19598","agency_id":"70006","route_short_name":"10","route_long_name":"Gravois-Lindell","route_type":3,"route_color":"#FFFFFF","route_text_color":"#000000"},{"route_id":"19607","agency_id":"70006","route_short_name":"32","route_long_name":"Dr ML King","route_type":3,"route_color":"#FFFFFF","route_text_color":"#000000"},{"route_id":"19611","agency_id":"70006","route_short_name":"40","route_long_name":"Broadway-Halls Ferry","route_type":3,"route_color":"#FFFFFF","route_text_color":"#000000"},{"route_id":"19612","agency_id":"70006","route_short_name":"41","route_long_name":"Lee","route_type":3,"route_color":"#FFFFFF","route_text_color":"#000000"},{"route_id":"19624","agency_id":"70006","route_short_name":"74","route_long_name":"Florissant","route_type":3,"route_color":"#FFFFFF","route_text_color":"#000000"},{"route_id":"19633","agency_id":"70006","route_short_name":"97","route_long_name":"Delmar","route_type":3,"route_color":"#FFFFFF","route_text_color":"#000000"}],"agency_name":"Metro St. Louis"},"geometry":{"type":"Point","coordinates":[-90.20057,38.62983]}},{"type":"Feature","properties":{"stop_id":"14792","stop_code":"14792","stop_name":"CENTRAL WEST END TRANSIT CENTER","wheelchair_boarding":1,"routes":[{"route_id":"19592","agency_id":"70006","route_short_name":"1","route_long_name":"Gold","route_type":3,"route_color":"#FFFFFF","route_text_color":"#000000"},{"route_id":"19596","agency_id":"70006","route_short_name":"8","route_long_name":"Shaw-Cherokee","route_type":3,"route_color":"#FFFFFF","route_text_color":"#000000"},{"route_id":"19598","agency_id":"70006","route_short_name":"10","route_long_name":"Gravois-Lindell","route_type":3,"route_color":"#FFFFFF","route_text_color":"#000000"},{"route_id":"19600","agency_id":"70006","route_short_name":"13","route_long_name":"Union","route_type":3,"route_color":"#FFFFFF","route_text_color":"#000000"},{"route_id":"19618","agency_id":"70006","route_short_name":"59","route_long_name":"Oakland","route_type":3,"route_color":"#FFFFFF","route_text_color":"#000000"},{"route_id":"19632","agency_id":"70006","route_short_name":"95","route_long_name":"Kingshighway","route_type":3,"route_color":"#FFFFFF","route_text_color":"#000000"}],"agency_name":"Metro St. Louis"},"geometry":{"type":"Point","coordinates":[-90.25999,38.63568]}},{"type":"Feature","properties":{"stop_id":"14807","stop_code":"14807","stop_name":"CHOUTEAU @ 14TH STREET EB","stop_desc":"FAR SIDE CHOUTEAU @ 14TH STREET EB","wheelchair_boarding":1,"routes":[{"route_id":"19598","agency_id":"70006","route_short_name":"10","route_long_name":"Gravois-Lindell","route_type":3,"route_color":"#FFFFFF","route_text_color":"#000000"},{"route_id":"19605","agency_id":"70006","route_short_name":"30","route_long_name":"Arsenal","route_type":3,"route_color":"#FFFFFF","route_text_color":"#000000"},{"route_id":"19623","agency_id":"70006","route_short_name":"73","route_long_name":"Carondelet","route_type":3,"route_color":"#FFFFFF","route_text_color":"#000000"}],"agency_name":"Metro St. Louis"},"geometry":{"type":"Point","coordinates":[-90.20396,38.61915]}},{"type":"Feature","properties":{"stop_id":"15142","stop_code":"15142","stop_name":"LINDELL @ NEWSTEAD EB","stop_desc":"FAR SIDE LINDELL @ NEWSTEAD EB","wheelchair_boarding":1,"routes":[{"route_id":"19598","agency_id":"70006","route_short_name":"10","route_long_name":"Gravois-Lindell","route_type":3,"route_color":"#FFFFFF","route_text_color":"#000000"}],"agency_name":"Metro St. Louis"},"geometry":{"type":"Point","coordinates":[-90.25376,38.64153]}},{"type":"Feature","properties":{"stop_id":"15143","stop_code":"15143","stop_name":"LINDELL @ WHITTIER EB","stop_desc":"FAR SIDE LINDELL @ WHITTIER EB","wheelchair_boarding":1,"routes":[{"route_id":"19598","agency_id":"70006","route_short_name":"10","route_long_name":"Gravois-Lindell","route_type":3,"route_color":"#FFFFFF","route_text_color":"#000000"}],"agency_name":"Metro St. Louis"},"geometry":{"type":"Point","coordinates":[-90.24781,38.6403]}},{"type":"Feature","properties":{"stop_id":"15145","stop_code":"15145","stop_name":"OLIVE @ LEFFINGWELL EB","stop_desc":"NEAR SIDE OLIVE @ LEFFINGWELL EB","wheelchair_boarding":1,"routes":[{"route_id":"19598","agency_id":"70006","route_short_name":"10","route_long_name":"Gravois-Lindell","route_type":3,"route_color":"#FFFFFF","route_text_color":"#000000"}],"agency_name":"Metro St. Louis"},"geometry":{"type":"Point","coordinates":[-90.21863,38.63401]}},{"type":"Feature","properties":{"stop_id":"15146","stop_code":"15146","stop_name":"OLIVE @ 16TH STREET EB","stop_desc":"NEAR SIDE OLIVE @ 16TH STREET EB","wheelchair_boarding":1,"routes":[{"route_id":"19598","agency_id":"70006","route_short_name":"10","route_long_name":"Gravois-Lindell","route_type":3,"route_color":"#FFFFFF","route_text_color":"#000000"}],"agency_name":"Metro St. Louis"},"geometry":{"type":"Point","coordinates":[-90.20327,38.63079]}},{"type":"Feature","properties":{"stop_id":"15149","stop_code":"15149","stop_name":"OLIVE @ 18TH STREET EB","stop_desc":"FAR SIDE OLIVE @ 18TH STREET EB","wheelchair_boarding":1,"routes":[{"route_id":"19598","agency_id":"70006","route_short_name":"10","route_long_name":"Gravois-Lindell","route_type":3,"route_color":"#FFFFFF","route_text_color":"#000000"}],"agency_name":"Metro St. Louis"},"geometry":{"type":"Point","coordinates":[-90.20546,38.63126]}},{"type":"Feature","properties":{"stop_id":"2347","stop_code":"2347","stop_name":"FOREST PARK @ EUCLID WB","stop_desc":"NEAR SIDE FOREST PARK @ EUCLID WB","wheelchair_boarding":1,"routes":[{"route_id":"19592","agency_id":"70006","route_short_name":"1","route_long_name":"Gold","route_type":3,"route_color":"#FFFFFF","route_text_color":"#000000"},{"route_id":"19598","agency_id":"70006","route_short_name":"10","route_long_name":"Gravois-Lindell","route_type":3,"route_color":"#FFFFFF","route_text_color":"#000000"},{"route_id":"19632","agency_id":"70006","route_short_name":"95","route_long_name":"Kingshighway","route_type":3,"route_color":"#FFFFFF","route_text_color":"#000000"}],"agency_name":"Metro St. Louis"},"geometry":{"type":"Point","coordinates":[-90.26194,38.63906]}},{"type":"Feature","properties":{"stop_id":"2348","stop_code":"2348","stop_name":"KINGSHIGHWAY @ LACLEDE NB","stop_desc":"NEAR SIDE KINGSHIGHWAY @ LACLEDE NB","wheelchair_boarding":1,"routes":[{"route_id":"19592","agency_id":"70006","route_short_name":"1","route_long_name":"Gold","route_type":3,"route_color":"#FFFFFF","route_text_color":"#000000"},{"route_id":"19598","agency_id":"70006","route_short_name":"10","route_long_name":"Gravois-Lindell","route_type":3,"route_color":"#FFFFFF","route_text_color":"#000000"},{"route_id":"19632","agency_id":"70006","route_short_name":"95","route_long_name":"Kingshighway","route_type":3,"route_color":"#FFFFFF","route_text_color":"#000000"}],"agency_name":"Metro St. Louis"},"geometry":{"type":"Point","coordinates":[-90.2653,38.64072]}},{"type":"Feature","properties":{"stop_id":"2349","stop_code":"2349","stop_name":"KINGSHIGHWAY @  LINDELL NB","stop_desc":"NEAR SIDE KINGSHIGHWAY @  LINDELL NB","wheelchair_boarding":1,"routes":[{"route_id":"19592","agency_id":"70006","route_short_name":"1","route_long_name":"Gold","route_type":3,"route_color":"#FFFFFF","route_text_color":"#000000"},{"route_id":"19598","agency_id":"70006","route_short_name":"10","route_long_name":"Gravois-Lindell","route_type":3,"route_color":"#FFFFFF","route_text_color":"#000000"},{"route_id":"19632","agency_id":"70006","route_short_name":"95","route_long_name":"Kingshighway","route_type":3,"route_color":"#FFFFFF","route_text_color":"#000000"}],"agency_name":"Metro St. Louis"},"geometry":{"type":"Point","coordinates":[-90.26481,38.64356]}},{"type":"Feature","properties":{"stop_id":"7582","stop_code":"7582","stop_name":"GRAVOIS @ BAMBERGER WB","stop_desc":"FAR SIDE GRAVOIS @ BAMBERGER WB","wheelchair_boarding":2,"routes":[{"route_id":"19598","agency_id":"70006","route_short_name":"10","route_long_name":"Gravois-Lindell","route_type":3,"route_color":"#FFFFFF","route_text_color":"#000000"}],"agency_name":"Metro St. Louis"},"geometry":{"type":"Point","coordinates":[-90.24959,38.59171]}},{"type":"Feature","properties":{"stop_id":"7583","stop_code":"7583","stop_name":"GRAVOIS @ WINNEBAGO WB","stop_desc":"FAR SIDE GRAVOIS @ WINNEBAGO WB","wheelchair_boarding":1,"routes":[{"route_id":"19598","agency_id":"70006","route_short_name":"10","route_long_name":"Gravois-Lindell","route_type":3,"route_color":"#FFFFFF","route_text_color":"#000000"}],"agency_name":"Metro St. Louis"},"geometry":{"type":"Point","coordinates":[-90.25504,38.58991]}},{"type":"Feature","properties":{"stop_id":"7585","stop_code":"7585","stop_name":"GRAVOIS @ TAFT WB","stop_desc":"FAR SIDE GRAVOIS @ TAFT WB","wheelchair_boarding":1,"routes":[{"route_id":"19598","agency_id":"70006","route_short_name":"10","route_long_name":"Gravois-Lindell","route_type":3,"route_color":"#FFFFFF","route_text_color":"#000000"}],"agency_name":"Metro St. Louis"},"geometry":{"type":"Point","coordinates":[-90.26264,38.58493]}},{"type":"Feature","properties":{"stop_id":"7588","stop_code":"7588","stop_name":"GRAVOIS @ WILCOX WB","stop_desc":"NEAR SIDE GRAVOIS @ WILCOX WB","wheelchair_boarding":1,"routes":[{"route_id":"19598","agency_id":"70006","route_short_name":"10","route_long_name":"Gravois-Lindell","route_type":3,"route_color":"#FFFFFF","route_text_color":"#000000"}],"agency_name":"Metro St. Louis"},"geometry":{"type":"Point","coordinates":[-90.2679,38.58082]}},{"type":"Feature","properties":{"stop_id":"7589","stop_code":"7589","stop_name":"GRAVOIS @ EICHELBERGER WB","stop_desc":"FAR SIDE GRAVOIS @ EICHELBERGER WB","wheelchair_boarding":1,"routes":[{"route_id":"19598","agency_id":"70006","route_short_name":"10","route_long_name":"Gravois-Lindell","route_type":3,"route_color":"#FFFFFF","route_text_color":"#000000"}],"agency_name":"Metro St. Louis"},"geometry":{"type":"Point","coordinates":[-90.27007,38.57914]}},{"type":"Feature","properties":{"stop_id":"7590","stop_code":"7590","stop_name":"GRAVOIS @ CHRISTY WB","stop_desc":"FAR SIDE GRAVOIS @ CHRISTY WB","wheelchair_boarding":1,"routes":[{"route_id":"19598","agency_id":"70006","route_short_name":"10","route_long_name":"Gravois-Lindell","route_type":3,"route_color":"#FFFFFF","route_text_color":"#000000"}],"agency_name":"Metro St. Louis"},"geometry":{"type":"Point","coordinates":[-90.27598,38.57664]}},{"type":"Feature","properties":{"stop_id":"7593","stop_code":"7593","stop_name":"GRAVOIS @ NAGEL WB","stop_desc":"FAR SIDE GRAVOIS @ NAGEL WB","wheelchair_boarding":1,"routes":[{"route_id":"19598","agency_id":"70006","route_short_name":"10","route_long_name":"Gravois-Lindell","route_type":3,"route_color":"#FFFFFF","route_text_color":"#000000"},{"route_id":"19632","agency_id":"70006","route_short_name":"95","route_long_name":"Kingshighway","route_type":3,"route_color":"#FFFFFF","route_text_color":"#000000"}],"agency_name":"Metro St. Louis"},"geometry":{"type":"Point","coordinates":[-90.28787,38.56816]}},{"type":"Feature","properties":{"stop_id":"7653","stop_code":"7653","stop_name":"CIVIC CENTER TRANSIT CENTER","wheelchair_boarding":1,"routes":[{"route_id":"19594","agency_id":"70006","route_short_name":"4","route_long_name":"Natural Bridge","route_type":3,"route_color":"#FFFFFF","route_text_color":"#000000"},{"route_id":"19598","agency_id":"70006","route_short_name":"10","route_long_name":"Gravois-Lindell","route_type":3,"route_color":"#FFFFFF","route_text_color":"#000000"},{"route_id":"19599","agency_id":"70006","route_short_name":"11","route_long_name":"Chippewa","route_type":3,"route_color":"#FFFFFF","route_text_color":"#000000"},{"route_id":"19603","agency_id":"70006","route_short_name":"19","route_long_name":"St Louis Ave","route_type":3,"route_color":"#FFFFFF","route_text_color":"#000000"}],"agency_name":"Metro St. Louis"},"geometry":{"type":"Point","coordinates":[-90.20281,38.62428]}},{"type":"Feature","properties":{"stop_id":"7669","stop_code":"7669","stop_name":"GRAVOIS @ GRAND WB","stop_desc":"FAR SIDE GRAVOIS @ GRAND WB","wheelchair_boarding":1,"routes":[{"route_id":"19598","agency_id":"70006","route_short_name":"10","route_long_name":"Gravois-Lindell","route_type":3,"route_color":"#FFFFFF","route_text_color":"#000000"}],"agency_name":"Metro St. Louis"},"geometry":{"type":"Point","coordinates":[-90.24444,38.59231]}},{"type":"Feature","properties":{"stop_id":"7672","stop_code":"7672","stop_name":"GRAVOIS @ GUSTINE WB","stop_desc":"FAR SIDE GRAVOIS @ GUSTINE WB","wheelchair_boarding":1,"routes":[{"route_id":"19598","agency_id":"70006","route_short_name":"10","route_long_name":"Gravois-Lindell","route_type":3,"route_color":"#FFFFFF","route_text_color":"#000000"}],"agency_name":"Metro St. Louis"},"geometry":{"type":"Point","coordinates":[-90.25188,38.59129]}},{"type":"Feature","properties":{"stop_id":"7673","stop_code":"7673","stop_name":"GRAVOIS @ CHIPPEWA WB","stop_desc":"FAR SIDE GRAVOIS @ CHIPPEWA WB","wheelchair_boarding":1,"routes":[{"route_id":"19598","agency_id":"70006","route_short_name":"10","route_long_name":"Gravois-Lindell","route_type":3,"route_color":"#FFFFFF","route_text_color":"#000000"}],"agency_name":"Metro St. Louis"},"geometry":{"type":"Point","coordinates":[-90.25635,38.58934]}},{"type":"Feature","properties":{"stop_id":"7674","stop_code":"7674","stop_name":"GRAVOIS @ ITASKA WB","stop_desc":"FAR SIDE GRAVOIS @ ITASKA WB","wheelchair_boarding":1,"routes":[{"route_id":"19598","agency_id":"70006","route_short_name":"10","route_long_name":"Gravois-Lindell","route_type":3,"route_color":"#FFFFFF","route_text_color":"#000000"}],"agency_name":"Metro St. Louis"},"geometry":{"type":"Point","coordinates":[-90.26618,38.58216]}},{"type":"Feature","properties":{"stop_id":"7675","stop_code":"7675","stop_name":"GRAVOIS @ BATES WB","stop_desc":"FAR SIDE GRAVOIS @ BATES WB","wheelchair_boarding":1,"routes":[{"route_id":"19598","agency_id":"70006","route_short_name":"10","route_long_name":"Gravois-Lindell","route_type":3,"route_color":"#FFFFFF","route_text_color":"#000000"}],"agency_name":"Metro St. Louis"},"geometry":{"type":"Point","coordinates":[-90.27238,38.57781]}},{"type":"Feature","properties":{"stop_id":"7678","stop_code":"7678","stop_name":"GRAVOIS @ KINGSHIGHWAY WB","stop_desc":"NEAR SIDE GRAVOIS @ KINGSHIGHWAY WB","wheelchair_boarding":1,"routes":[{"route_id":"19598","agency_id":"70006","route_short_name":"10","route_long_name":"Gravois-Lindell","route_type":3,"route_color":"#FFFFFF","route_text_color":"#000000"}],"agency_name":"Metro St. Louis"},"geometry":{"type":"Point","coordinates":[-90.28352,38.57169]}},{"type":"Feature","properties":{"stop_id":"7679","stop_code":"7679","stop_name":"GRAVOIS @ LOUGHBOROUGH WB","stop_desc":"FAR SIDE GRAVOIS @ LOUGHBOROUGH WB","wheelchair_boarding":1,"routes":[{"route_id":"19598","agency_id":"70006","route_short_name":"10","route_long_name":"Gravois-Lindell","route_type":3,"route_color":"#FFFFFF","route_text_color":"#000000"},{"route_id":"19632","agency_id":"70006","route_short_name":"95","route_long_name":"Kingshighway","route_type":3,"route_color":"#FFFFFF","route_text_color":"#000000"}],"agency_name":"Metro St. Louis"},"geometry":{"type":"Point","coordinates":[-90.28539,38.56996]}},{"type":"Feature","properties":{"stop_id":"768","stop_code":"768","stop_name":"GRAVOIS-HAMPTON TRANSIT CENTER","wheelchair_boarding":1,"routes":[{"route_id":"19598","agency_id":"70006","route_short_name":"10","route_long_name":"Gravois-Lindell","route_type":3,"route_color":"#FFFFFF","route_text_color":"#000000"},{"route_id":"19629","agency_id":"70006","route_short_name":"90","route_long_name":"Hampton","route_type":3,"route_color":"#FFFFFF","route_text_color":"#000000"},{"route_id":"19632","agency_id":"70006","route_short_name":"95","route_long_name":"Kingshighway","route_type":3,"route_color":"#FFFFFF","route_text_color":"#000000"}],"agency_name":"Metro St. Louis"},"geometry":{"type":"Point","coordinates":[-90.29389,38.56476]}},{"type":"Feature","properties":{"stop_id":"7681","stop_code":"7681","stop_name":"GRAVOIS @ ALLEMANIA WB","stop_desc":"NEAR SIDE GRAVOIS @ ALLEMANIA WB","wheelchair_boarding":1,"routes":[{"route_id":"19598","agency_id":"70006","route_short_name":"10","route_long_name":"Gravois-Lindell","route_type":3,"route_color":"#FFFFFF","route_text_color":"#000000"},{"route_id":"19632","agency_id":"70006","route_short_name":"95","route_long_name":"Kingshighway","route_type":3,"route_color":"#FFFFFF","route_text_color":"#000000"}],"agency_name":"Metro St. Louis"},"geometry":{"type":"Point","coordinates":[-90.29188,38.56574]}},{"type":"Feature","properties":{"stop_id":"7855","stop_code":"7855","stop_name":"14TH STREET @ MARKET SB","stop_desc":"MID-BLOCK 14TH STREET @ MARKET SB","wheelchair_boarding":1,"routes":[{"route_id":"19594","agency_id":"70006","route_short_name":"4","route_long_name":"Natural Bridge","route_type":3,"route_color":"#FFFFFF","route_text_color":"#000000"},{"route_id":"19598","agency_id":"70006","route_short_name":"10","route_long_name":"Gravois-Lindell","route_type":3,"route_color":"#FFFFFF","route_text_color":"#000000"},{"route_id":"19607","agency_id":"70006","route_short_name":"32","route_long_name":"Dr ML King","route_type":3,"route_color":"#FFFFFF","route_text_color":"#000000"},{"route_id":"19611","agency_id":"70006","route_short_name":"40","route_long_name":"Broadway-Halls Ferry","route_type":3,"route_color":"#FFFFFF","route_text_color":"#000000"},{"route_id":"19612","agency_id":"70006","route_short_name":"41","route_long_name":"Lee","route_type":3,"route_color":"#FFFFFF","route_text_color":"#000000"},{"route_id":"19624","agency_id":"70006","route_short_name":"74","route_long_name":"Florissant","route_type":3,"route_color":"#FFFFFF","route_text_color":"#000000"},{"route_id":"19631","agency_id":"70006","route_short_name":"94","route_long_name":"Page","route_type":3,"route_color":"#FFFFFF","route_text_color":"#000000"},{"route_id":"19633","agency_id":"70006","route_short_name":"97","route_long_name":"Delmar","route_type":3,"route_color":"#FFFFFF","route_text_color":"#000000"}],"agency_name":"Metro St. Louis"},"geometry":{"type":"Point","coordinates":[-90.20127,38.62775]}},{"type":"Feature","properties":{"stop_id":"8847","stop_code":"8847","stop_name":"TUCKER @ HICKORY SB","stop_desc":"NEAR SIDE TUCKER @ HICKORY SB","wheelchair_boarding":2,"routes":[{"route_id":"19598","agency_id":"70006","route_short_name":"10","route_long_name":"Gravois-Lindell","route_type":3,"route_color":"#FFFFFF","route_text_color":"#000000"},{"route_id":"19623","agency_id":"70006","route_short_name":"73","route_long_name":"Carondelet","route_type":3,"route_color":"#FFFFFF","route_text_color":"#000000"}],"agency_name":"Metro St. Louis"},"geometry":{"type":"Point","coordinates":[-90.20245,38.617]}},{"type":"Feature","properties":{"stop_id":"8848","stop_code":"8848","stop_name":"TUCKER @ PARK SB","stop_desc":"FAR SIDE TUCKER @ PARK SB","wheelchair_boarding":2,"routes":[{"route_id":"19598","agency_id":"70006","route_short_name":"10","route_long_name":"Gravois-Lindell","route_type":3,"route_color":"#FFFFFF","route_text_color":"#000000"},{"route_id":"19623","agency_id":"70006","route_short_name":"73","route_long_name":"Carondelet","route_type":3,"route_color":"#FFFFFF","route_text_color":"#000000"}],"agency_name":"Metro St. Louis"},"geometry":{"type":"Point","coordinates":[-90.20465,38.61456]}},{"type":"Feature","properties":{"stop_id":"8849","stop_code":"8849","stop_name":"TUCKER @ LAFAYETTE SB","stop_desc":"FAR SIDE TUCKER @ LAFAYETTE SB","wheelchair_boarding":2,"routes":[{"route_id":"19598","agency_id":"70006","route_short_name":"10","route_long_name":"Gravois-Lindell","route_type":3,"route_color":"#FFFFFF","route_text_color":"#000000"},{"route_id":"19623","agency_id":"70006","route_short_name":"73","route_long_name":"Carondelet","route_type":3,"route_color":"#FFFFFF","route_text_color":"#000000"}],"agency_name":"Metro St. Louis"},"geometry":{"type":"Point","coordinates":[-90.20651,38.61256]}},{"type":"Feature","properties":{"stop_id":"8851","stop_code":"8851","stop_name":"GRAVOIS @ 13TH STREET WB","stop_desc":"NEAR SIDE GRAVOIS @ 13TH STREET WB","wheelchair_boarding":1,"routes":[{"route_id":"19598","agency_id":"70006","route_short_name":"10","route_long_name":"Gravois-Lindell","route_type":3,"route_color":"#FFFFFF","route_text_color":"#000000"}],"agency_name":"Metro St. Louis"},"geometry":{"type":"Point","coordinates":[-90.21002,38.60938]}},{"type":"Feature","properties":{"stop_id":"8852","stop_code":"8852","stop_name":"GRAVOIS @ RUSSELL WB","stop_desc":"FAR SIDE GRAVOIS @ RUSSELL WB","wheelchair_boarding":1,"routes":[{"route_id":"19598","agency_id":"70006","route_short_name":"10","route_long_name":"Gravois-Lindell","route_type":3,"route_color":"#FFFFFF","route_text_color":"#000000"}],"agency_name":"Metro St. Louis"},"geometry":{"type":"Point","coordinates":[-90.21299,38.60836]}},{"type":"Feature","properties":{"stop_id":"8853","stop_code":"8853","stop_name":"GRAVOIS @ ANN WB","stop_desc":"FAR SIDE GRAVOIS @ ANN WB","wheelchair_boarding":1,"routes":[{"route_id":"19598","agency_id":"70006","route_short_name":"10","route_long_name":"Gravois-Lindell","route_type":3,"route_color":"#FFFFFF","route_text_color":"#000000"}],"agency_name":"Metro St. Louis"},"geometry":{"type":"Point","coordinates":[-90.21472,38.60786]}},{"type":"Feature","properties":{"stop_id":"8857","stop_code":"8857","stop_name":"GRAVOIS @ CALIFORNIA WB","stop_desc":"NEAR SIDE GRAVOIS @ CALIFORNIA WB","wheelchair_boarding":1,"routes":[{"route_id":"19598","agency_id":"70006","route_short_name":"10","route_long_name":"Gravois-Lindell","route_type":3,"route_color":"#FFFFFF","route_text_color":"#000000"}],"agency_name":"Metro St. Louis"},"geometry":{"type":"Point","coordinates":[-90.22746,38.6031]}},{"type":"Feature","properties":{"stop_id":"8859","stop_code":"8859","stop_name":"GRAVOIS @ MCNAIR WB","stop_desc":"FAR SIDE GRAVOIS @ MCNAIR WB","wheelchair_boarding":1,"routes":[{"route_id":"19598","agency_id":"70006","route_short_name":"10","route_long_name":"Gravois-Lindell","route_type":3,"route_color":"#FFFFFF","route_text_color":"#000000"}],"agency_name":"Metro St. Louis"},"geometry":{"type":"Point","coordinates":[-90.21837,38.60683]}},{"type":"Feature","properties":{"stop_id":"8860","stop_code":"8860","stop_name":"GRAVOIS @ JEFFERSON WB","stop_desc":"FAR SIDE GRAVOIS @ JEFFERSON WB","wheelchair_boarding":1,"routes":[{"route_id":"19598","agency_id":"70006","route_short_name":"10","route_long_name":"Gravois-Lindell","route_type":3,"route_color":"#FFFFFF","route_text_color":"#000000"}],"agency_name":"Metro St. Louis"},"geometry":{"type":"Point","coordinates":[-90.2233,38.60492]}},{"type":"Feature","properties":{"stop_id":"8863","stop_code":"8863","stop_name":"GRAVOIS @ NEBRASKA WB","stop_desc":"NEAR SIDE GRAVOIS @ NEBRASKA WB","wheelchair_boarding":1,"routes":[{"route_id":"19598","agency_id":"70006","route_short_name":"10","route_long_name":"Gravois-Lindell","route_type":3,"route_color":"#FFFFFF","route_text_color":"#000000"}],"agency_name":"Metro St. Louis"},"geometry":{"type":"Point","coordinates":[-90.23025,38.60192]}},{"type":"Feature","properties":{"stop_id":"8864","stop_code":"8864","stop_name":"GRAVOIS @ ARSENAL WB","stop_desc":"FAR SIDE GRAVOIS @ ARSENAL WB","wheelchair_boarding":1,"routes":[{"route_id":"19598","agency_id":"70006","route_short_name":"10","route_long_name":"Gravois-Lindell","route_type":3,"route_color":"#FFFFFF","route_text_color":"#000000"}],"agency_name":"Metro St. Louis"},"geometry":{"type":"Point","coordinates":[-90.2327,38.60076]}},{"type":"Feature","properties":{"stop_id":"8865","stop_code":"8865","stop_name":"GRAVOIS @ MICHIGAN WB","stop_desc":"NEAR SIDE GRAVOIS @ MICHIGAN WB","wheelchair_boarding":1,"routes":[{"route_id":"19598","agency_id":"70006","route_short_name":"10","route_long_name":"Gravois-Lindell","route_type":3,"route_color":"#FFFFFF","route_text_color":"#000000"}],"agency_name":"Metro St. Louis"},"geometry":{"type":"Point","coordinates":[-90.23439,38.59969]}},{"type":"Feature","properties":{"stop_id":"8867","stop_code":"8867","stop_name":"GRAVOIS @ UTAH WB","stop_desc":"FAR SIDE GRAVOIS @ UTAH WB","wheelchair_boarding":1,"routes":[{"route_id":"19598","agency_id":"70006","route_short_name":"10","route_long_name":"Gravois-Lindell","route_type":3,"route_color":"#FFFFFF","route_text_color":"#000000"}],"agency_name":"Metro St. Louis"},"geometry":{"type":"Point","coordinates":[-90.23865,38.59657]}},{"type":"Feature","properties":{"stop_id":"8868","stop_code":"8868","stop_name":"GRAVOIS @ CHEROKEE WB","stop_desc":"FAR SIDE GRAVOIS @ CHEROKEE WB","wheelchair_boarding":1,"routes":[{"route_id":"19596","agency_id":"70006","route_short_name":"8","route_long_name":"Shaw-Cherokee","route_type":3,"route_color":"#FFFFFF","route_text_color":"#000000"},{"route_id":"19598","agency_id":"70006","route_short_name":"10","route_long_name":"Gravois-Lindell","route_type":3,"route_color":"#FFFFFF","route_text_color":"#000000"}],"agency_name":"Metro St. Louis"},"geometry":{"type":"Point","coordinates":[-90.24106,38.595]}},{"type":"Feature","properties":{"stop_id":"8933","stop_code":"8933","stop_name":"GRAVOIS @ HOLLY HILLS WB","stop_desc":"FAR SIDE GRAVOIS @ HOLLY HILLS WB","wheelchair_boarding":1,"routes":[{"route_id":"19598","agency_id":"70006","route_short_name":"10","route_long_name":"Gravois-Lindell","route_type":3,"route_color":"#FFFFFF","route_text_color":"#000000"}],"agency_name":"Metro St. Louis"},"geometry":{"type":"Point","coordinates":[-90.28097,38.57365]}},{"type":"Feature","properties":{"stop_id":"9295","stop_code":"9295","stop_name":"OLIVE @ 22ND STREET EB","stop_desc":"FAR SIDE OLIVE @ 22ND STREET EB","wheelchair_boarding":1,"routes":[{"route_id":"19598","agency_id":"70006","route_short_name":"10","route_long_name":"Gravois-Lindell","route_type":3,"route_color":"#FFFFFF","route_text_color":"#000000"}],"agency_name":"Metro St. Louis"},"geometry":{"type":"Point","coordinates":[-90.21101,38.63241]}},{"type":"Feature","properties":{"stop_id":"9543","stop_code":"9543","stop_name":"LINDELL @ EUCLID EB","stop_desc":"NEAR SIDE LINDELL @ EUCLID EB","wheelchair_boarding":1,"routes":[{"route_id":"19598","agency_id":"70006","route_short_name":"10","route_long_name":"Gravois-Lindell","route_type":3,"route_color":"#FFFFFF","route_text_color":"#000000"},{"route_id":"19600","agency_id":"70006","route_short_name":"13","route_long_name":"Union","route_type":3,"route_color":"#FFFFFF","route_text_color":"#000000"}],"agency_name":"Metro St. Louis"},"geometry":{"type":"Point","coordinates":[-90.26211,38.64327]}}]}