{"type":"FeatureCollection","features":[{"type":"Feature","properties":{"agency_name":"Metro St. Louis","route_id":"19638","agency_id":"70006","route_short_name":"3","route_long_name":"Sauget - Water Street","route_type":3,"route_color":"#FFFFFF","route_text_color":"#000000"},"geometry":{"type":"MultiLineString","coordinates":[[[-90.19862,38.54754],[-90.19908,38.54724],[-90.19862,38.54754],[-90.19854,38.54763],[-90.19868,38.54766],[-90.19881,38.54772],[-90.19909,38.54792],[-90.19989,38.54843],[-90.20069,38.54954],[-90.2015,38.55074],[-90.20153,38.55082],[-90.20156,38.551],[-90.20154,38.55119],[-90.20142,38.55173],[-90.20083,38.55383],[-90.20076,38.55402],[-90.20053,38.55452],[-90.20024,38.55507],[-90.19928,38.55667],[-90.19851,38.55795],[-90.19792,38.55887],[-90.19704,38.55998],[-90.19546,38.56191],[-90.19396,38.56378],[-90.19309,38.56481],[-90.19139,38.56657],[-90.19127,38.56665],[-90.191,38.56674],[-90.1909,38.56675],[-90.19055,38.56829],[-90.19004,38.57036],[-90.18999,38.5705],[-90.18979,38.57088],[-90.18955,38.57122],[-90.18923,38.57155],[-90.18887,38.57184],[-90.18857,38.57204],[-90.18739,38.57266],[-90.18683,38.57299],[-90.18634,38.57336],[-90.18589,38.57383],[-90.18559,38.57419],[-90.18425,38.57614],[-90.18366,38.57709],[-90.1818,38.58026],[-90.18102,38.58086],[-90.18081,38.58073],[-90.17667,38.57734],[-90.17641,38.57703],[-90.17626,38.57674],[-90.1762,38.57652],[-90.17544,38.57718],[-90.1751,38.57753],[-90.17477,38.5779],[-90.1728,38.58029],[-90.17245,38.58077],[-90.17214,38.58124],[-90.17176,38.58192],[-90.17106,38.58336],[-90.17049,38.5846],[-90.16809,38.58553],[-90.16763,38.58541],[-90.16696,38.58511],[-90.16413,38.5836],[-90.16113,38.58208],[-90.16081,38.58187],[-90.16045,38.58154],[-90.16027,38.5814],[-90.15976,38.58176],[-90.15816,38.58298],[-90.15732,38.58278],[-90.15619,38.58184],[-90.15458,38.58041],[-90.15241,38.57861],[-90.15081,38.57722],[-90.15024,38.57676],[-90.15003,38.57666],[-90.14992,38.57663],[-90.1496,38.57659],[-90.14939,38.5766],[-90.14905,38.57669],[-90.14883,38.57681],[-90.14739,38.57785],[-90.15428,38.58375],[-90.15465,38.58394],[-90.15501,38.58407],[-90.15537,38.58416],[-90.15572,38.58418],[-90.15607,38.58415],[-90.15642,38.58407],[-90.15675,38.58394],[-90.15709,38.58375]],[[-90.16994,38.58586],[-90.16809,38.58553],[-90.16994,38.58586],[-90.16972,38.58644],[-90.16946,38.5877],[-90.16925,38.58921],[-90.17217,38.58973],[-90.17288,38.58962],[-90.17326,38.58959],[-90.17354,38.58958],[-90.17383,38.5896],[-90.1741,38.58963],[-90.17469,38.58973],[-90.17652,38.59007],[-90.17378,38.59801],[-90.17319,38.59967],[-90.1729,38.60055],[-90.17184,38.6042],[-90.17161,38.60512],[-90.17151,38.60576],[-90.17128,38.60642],[-90.17092,38.60714],[-90.17082,38.60757],[-90.17032,38.60919],[-90.16982,38.61091],[-90.16942,38.61238],[-90.16929,38.61278],[-90.16906,38.61331],[-90.1688,38.61379],[-90.1685,38.61418],[-90.16814,38.61454],[-90.16793,38.61472],[-90.16522,38.61674],[-90.1615,38.61942],[-90.1581,38.62192],[-90.15966,38.62323],[-90.15982,38.62339],[-90.15804,38.62469],[-90.15827,38.62486],[-90.15851,38.62496]]]}},{"type":"Feature","properties":{"stop_id":"12272","stop_code":"12272","stop_name":"ILLINOIS ROUTE 3 @ 2ND STREET NB","stop_desc":"FAR SIDE ILLINOIS ROUTE 3 @ 2ND STREET NB","wheelchair_boarding":2,"routes":[{"route_id":"19638","agency_id":"70006","route_short_name":"3","route_long_name":"Sauget - Water Street","route_type":3,"route_color":"#FFFFFF","route_text_color":"#000000"}],"agency_name":"Metro St. Louis"},"geometry":{"type":"Point","coordinates":[-90.19005,38.56997]}},{"type":"Feature","properties":{"stop_id":"12274","stop_code":"12274","stop_name":"ILLINOIS ROUTE 3 @ 4TH STREET NB","stop_desc":"NEAR SIDE ILLINOIS ROUTE 3 @ 4TH STREET NB","wheelchair_boarding":2,"routes":[{"route_id":"19638","agency_id":"70006","route_short_name":"3","route_long_name":"Sauget - Water Street","route_type":3,"route_color":"#FFFFFF","route_text_color":"#000000"}],"agency_name":"Metro St. Louis"},"geometry":{"type":"Point","coordinates":[-90.19058,38.56768]}},{"type":"Feature","properties":{"stop_id":"12385","stop_code":"12385","stop_name":"4076 ILLINOIS ROUTE 3 NB","stop_desc":"MID-BLOCK 4076 ILLINOIS ROUTE 3 NB","wheelchair_boarding":2,"routes":[{"route_id":"19638","agency_id":"70006","route_short_name":"3","route_long_name":"Sauget - Water Street","route_type":3,"route_color":"#FFFFFF","route_text_color":"#000000"}],"agency_name":"Metro St. Louis"},"geometry":{"type":"Point","coordinates":[-90.18704,38.57274]}},{"type":"Feature","properties":{"stop_id":"12386","stop_code":"12386","stop_name":"MISSISSIPPI @ CIRCLE CREEK NB","stop_desc":"NEAR SIDE MISSISSIPPI @ CIRCLE CREEK NB","wheelchair_boarding":2,"routes":[{"route_id":"19638","agency_id":"70006","route_short_name":"3","route_long_name":"Sauget - Water Street","route_type":3,"route_color":"#FFFFFF","route_text_color":"#000000"}],"agency_name":"Metro St. Louis"},"geometry":{"type":"Point","coordinates":[-90.18527,38.5745]}},{"type":"Feature","properties":{"stop_id":"12389","stop_code":"12389","stop_name":"MISSISSIPPI @ GLORIA NB","stop_desc":"NEAR SIDE MISSISSIPPI @ GLORIA NB","wheelchair_boarding":2,"routes":[{"route_id":"19638","agency_id":"70006","route_short_name":"3","route_long_name":"Sauget - Water Street","route_type":3,"route_color":"#FFFFFF","route_text_color":"#000000"}],"agency_name":"Metro St. Louis"},"geometry":{"type":"Point","coordinates":[-90.18277,38.57834]}},{"type":"Feature","properties":{"stop_id":"12696","stop_code":"12696","stop_name":"8TH STREET @ CONVERSE NB","stop_desc":"NEAR SIDE 8TH STREET @ CONVERSE NB","wheelchair_boarding":2,"routes":[{"route_id":"19637","agency_id":"70006","route_short_name":"2","route_long_name":"Cahokia Heights","route_type":3,"route_color":"#FFFFFF","route_text_color":"#000000"},{"route_id":"19638","agency_id":"70006","route_short_name":"3","route_long_name":"Sauget - Water Street","route_type":3,"route_color":"#FFFFFF","route_text_color":"#000000"}],"agency_name":"Metro St. Louis"},"geometry":{"type":"Point","coordinates":[-90.16165,38.61931]}},{"type":"Feature","properties":{"stop_id":"12697","stop_code":"12697","stop_name":"8TH STREET @ BRADY NB","stop_desc":"FAR SIDE 8TH STREET @ BRADY NB","wheelchair_boarding":2,"routes":[{"route_id":"19637","agency_id":"70006","route_short_name":"2","route_long_name":"Cahokia Heights","route_type":3,"route_color":"#FFFFFF","route_text_color":"#000000"},{"route_id":"19638","agency_id":"70006","route_short_name":"3","route_long_name":"Sauget - Water Street","route_type":3,"route_color":"#FFFFFF","route_text_color":"#000000"}],"agency_name":"Metro St. Louis"},"geometry":{"type":"Point","coordinates":[-90.16048,38.62016]}},{"type":"Feature","properties":{"stop_id":"12698","stop_code":"12698","stop_name":"8TH STREET @ WALNUT NB","stop_desc":"NEAR SIDE 8TH STREET @ WALNUT NB","wheelchair_boarding":2,"routes":[{"route_id":"19637","agency_id":"70006","route_short_name":"2","route_long_name":"Cahokia Heights","route_type":3,"route_color":"#FFFFFF","route_text_color":"#000000"},{"route_id":"19638","agency_id":"70006","route_short_name":"3","route_long_name":"Sauget - Water Street","route_type":3,"route_color":"#FFFFFF","route_text_color":"#000000"}],"agency_name":"Metro St. Louis"},"geometry":{"type":"Point","coordinates":[-90.15906,38.62121]}},{"type":"Feature","properties":{"stop_id":"12700","stop_code":"12700","stop_name":"BROADWAY @ 8TH STREET WB","stop_desc":"FAR SIDE BROADWAY @ 8TH STREET WB","wheelchair_boarding":2,"routes":[{"route_id":"19637","agency_id":"70006","route_short_name":"2","route_long_name":"Cahokia Heights","route_type":3,"route_color":"#FFFFFF","route_text_color":"#000000"},{"route_id":"19638","agency_id":"70006","route_short_name":"3","route_long_name":"Sauget - Water Street","route_type":3,"route_color":"#FFFFFF","route_text_color":"#000000"},{"route_id":"19639","agency_id":"70006","route_short_name":"4","route_long_name":"19th & Central","route_type":3,"route_color":"#FFFFFF","route_text_color":"#000000"}],"agency_name":"Metro St. Louis"},"geometry":{"type":"Point","coordinates":[-90.1584,38.62224]}},{"type":"Feature","properties":{"stop_id":"12701","stop_code":"12701","stop_name":"BROADWAY @ 6TH STREET WB","stop_desc":"NEAR SIDE BROADWAY @ 6TH STREET WB","wheelchair_boarding":2,"routes":[{"route_id":"19637","agency_id":"70006","route_short_name":"2","route_long_name":"Cahokia Heights","route_type":3,"route_color":"#FFFFFF","route_text_color":"#000000"},{"route_id":"19638","agency_id":"70006","route_short_name":"3","route_long_name":"Sauget - Water Street","route_type":3,"route_color":"#FFFFFF","route_text_color":"#000000"},{"route_id":"19639","agency_id":"70006","route_short_name":"4","route_long_name":"19th & Central","route_type":3,"route_color":"#FFFFFF","route_text_color":"#000000"}],"agency_name":"Metro St. Louis"},"geometry":{"type":"Point","coordinates":[-90.15962,38.62327]}},{"type":"Feature","properties":{"stop_id":"13008","stop_code":"13008","stop_name":"WATER @ 6TH STREET NB","stop_desc":"FAR SIDE WATER @ 6TH STREET NB","wheelchair_boarding":1,"routes":[{"route_id":"19638","agency_id":"70006","route_short_name":"3","route_long_name":"Sauget - Water Street","route_type":3,"route_color":"#FFFFFF","route_text_color":"#000000"}],"agency_name":"Metro St. Louis"},"geometry":{"type":"Point","coordinates":[-90.19187,38.5661]}},{"type":"Feature","properties":{"stop_id":"13055","stop_code":"13055","stop_name":"WATER @ GARDEN NB","stop_desc":"FAR SIDE WATER @ GARDEN NB","wheelchair_boarding":2,"routes":[{"route_id":"19638","agency_id":"70006","route_short_name":"3","route_long_name":"Sauget - Water Street","route_type":3,"route_color":"#FFFFFF","route_text_color":"#000000"}],"agency_name":"Metro St. Louis"},"geometry":{"type":"Point","coordinates":[-90.19916,38.55683]}},{"type":"Feature","properties":{"stop_id":"13059","stop_code":"13059","stop_name":"FALLING SPRINGS @ KINDER NB","stop_desc":"NEAR SIDE FALLING SPRINGS @ KINDER NB","wheelchair_boarding":2,"routes":[{"route_id":"19637","agency_id":"70006","route_short_name":"2","route_long_name":"Cahokia Heights","route_type":3,"route_color":"#FFFFFF","route_text_color":"#000000"},{"route_id":"19638","agency_id":"70006","route_short_name":"3","route_long_name":"Sauget - Water Street","route_type":3,"route_color":"#FFFFFF","route_text_color":"#000000"}],"agency_name":"Metro St. Louis"},"geometry":{"type":"Point","coordinates":[-90.17485,38.57779]}},{"type":"Feature","properties":{"stop_id":"13060","stop_code":"13060","stop_name":"FALLING SPRINGS @ JULIAN NB","stop_desc":"FAR SIDE FALLING SPRINGS @ JULIAN NB","wheelchair_boarding":2,"routes":[{"route_id":"19637","agency_id":"70006","route_short_name":"2","route_long_name":"Cahokia Heights","route_type":3,"route_color":"#FFFFFF","route_text_color":"#000000"},{"route_id":"19638","agency_id":"70006","route_short_name":"3","route_long_name":"Sauget - Water Street","route_type":3,"route_color":"#FFFFFF","route_text_color":"#000000"}],"agency_name":"Metro St. Louis"},"geometry":{"type":"Point","coordinates":[-90.17273,38.58033]}},{"type":"Feature","properties":{"stop_id":"13061","stop_code":"13061","stop_name":"FALLING SPRINGS @ JUDITH NB","stop_desc":"NEAR SIDE FALLING SPRINGS @ JUDITH NB","wheelchair_boarding":2,"routes":[{"route_id":"19637","agency_id":"70006","route_short_name":"2","route_long_name":"Cahokia Heights","route_type":3,"route_color":"#FFFFFF","route_text_color":"#000000"},{"route_id":"19638","agency_id":"70006","route_short_name":"3","route_long_name":"Sauget - Water Street","route_type":3,"route_color":"#FFFFFF","route_text_color":"#000000"}],"agency_name":"Metro St. Louis"},"geometry":{"type":"Point","coordinates":[-90.17155,38.58235]}},{"type":"Feature","properties":{"stop_id":"13062","stop_code":"13062","stop_name":"FALLING SPRINGS @ CURTIS STEINBERG NB","stop_desc":"FAR SIDE FALLING SPRINGS @ CURTIS STEINBERG NB","wheelchair_boarding":2,"routes":[{"route_id":"19637","agency_id":"70006","route_short_name":"2","route_long_name":"Cahokia Heights","route_type":3,"route_color":"#FFFFFF","route_text_color":"#000000"},{"route_id":"19638","agency_id":"70006","route_short_name":"3","route_long_name":"Sauget - Water Street","route_type":3,"route_color":"#FFFFFF","route_text_color":"#000000"}],"agency_name":"Metro St. Louis"},"geometry":{"type":"Point","coordinates":[-90.16981,38.58615]}},{"type":"Feature","properties":{"stop_id":"13065","stop_code":"13065","stop_name":"CURTIS STEINBERG @ SAUGET INDUSTRIAL WB","stop_desc":"FAR SIDE CURTIS STEINBERG @ SAUGET INDUSTRIAL WB","wheelchair_boarding":2,"routes":[{"route_id":"19638","agency_id":"70006","route_short_name":"3","route_long_name":"Sauget - Water Street","route_type":3,"route_color":"#FFFFFF","route_text_color":"#000000"}],"agency_name":"Metro St. Louis"},"geometry":{"type":"Point","coordinates":[-90.16059,38.58166]}},{"type":"Feature","properties":{"stop_id":"13067","stop_code":"13067","stop_name":"QUEENY @ ILLINOIS ROUTE 3 WB","stop_desc":"NEAR SIDE QUEENY @ ILLINOIS ROUTE 3 WB","wheelchair_boarding":2,"routes":[{"route_id":"19637","agency_id":"70006","route_short_name":"2","route_long_name":"Cahokia Heights","route_type":3,"route_color":"#FFFFFF","route_text_color":"#000000"},{"route_id":"19638","agency_id":"70006","route_short_name":"3","route_long_name":"Sauget - Water Street","route_type":3,"route_color":"#FFFFFF","route_text_color":"#000000"}],"agency_name":"Metro St. Louis"},"geometry":{"type":"Point","coordinates":[-90.17595,38.58996]}},{"type":"Feature","properties":{"stop_id":"13069","stop_code":"13069","stop_name":"ILLINOIS ROUTE 3 @ MONSANTO NB","stop_desc":"FAR SIDE ILLINOIS ROUTE 3 @ MONSANTO NB","wheelchair_boarding":1,"routes":[{"route_id":"19637","agency_id":"70006","route_short_name":"2","route_long_name":"Cahokia Heights","route_type":3,"route_color":"#FFFFFF","route_text_color":"#000000"},{"route_id":"19638","agency_id":"70006","route_short_name":"3","route_long_name":"Sauget - Water Street","route_type":3,"route_color":"#FFFFFF","route_text_color":"#000000"}],"agency_name":"Metro St. Louis"},"geometry":{"type":"Point","coordinates":[-90.17263,38.60105]}},{"type":"Feature","properties":{"stop_id":"13071","stop_code":"13071","stop_name":"MISSISSIPPI @ LIBERTY NB","stop_desc":"FAR SIDE MISSISSIPPI @ LIBERTY NB","wheelchair_boarding":2,"routes":[{"route_id":"19637","agency_id":"70006","route_short_name":"2","route_long_name":"Cahokia Heights","route_type":3,"route_color":"#FFFFFF","route_text_color":"#000000"},{"route_id":"19638","agency_id":"70006","route_short_name":"3","route_long_name":"Sauget - Water Street","route_type":3,"route_color":"#FFFFFF","route_text_color":"#000000"}],"agency_name":"Metro St. Louis"},"geometry":{"type":"Point","coordinates":[-90.17026,38.60929]}},{"type":"Feature","properties":{"stop_id":"13075","stop_code":"13075","stop_name":"8TH STREET @ MARKET NB","stop_desc":"NEAR SIDE 8TH STREET @ MARKET NB","wheelchair_boarding":2,"routes":[{"route_id":"19637","agency_id":"70006","route_short_name":"2","route_long_name":"Cahokia Heights","route_type":3,"route_color":"#FFFFFF","route_text_color":"#000000"},{"route_id":"19638","agency_id":"70006","route_short_name":"3","route_long_name":"Sauget - Water Street","route_type":3,"route_color":"#FFFFFF","route_text_color":"#000000"}],"agency_name":"Metro St. Louis"},"geometry":{"type":"Point","coordinates":[-90.16352,38.61795]}},{"type":"Feature","properties":{"stop_id":"14167","stop_code":"14167","stop_name":"WATER @ ADAMS NB","stop_desc":"FAR SIDE WATER @ ADAMS NB","wheelchair_boarding":2,"routes":[{"route_id":"19638","agency_id":"70006","route_short_name":"3","route_long_name":"Sauget - Water Street","route_type":3,"route_color":"#FFFFFF","route_text_color":"#000000"}],"agency_name":"Metro St. Louis"},"geometry":{"type":"Point","coordinates":[-90.20081,38.54974]}},{"type":"Feature","properties":{"stop_id":"14168","stop_code":"14168","stop_name":"WATER @ ST. GREGORY NB","stop_desc":"FAR SIDE WATER @ ST. GREGORY NB","wheelchair_boarding":2,"routes":[{"route_id":"19638","agency_id":"70006","route_short_name":"3","route_long_name":"Sauget - Water Street","route_type":3,"route_color":"#FFFFFF","route_text_color":"#000000"}],"agency_name":"Metro St. Louis"},"geometry":{"type":"Point","coordinates":[-90.20064,38.55422]}},{"type":"Feature","properties":{"stop_id":"14170","stop_code":"14170","stop_name":"WATER @ ISABELL NB","stop_desc":"FAR SIDE WATER @ ISABELL NB","wheelchair_boarding":2,"routes":[{"route_id":"19638","agency_id":"70006","route_short_name":"3","route_long_name":"Sauget - Water Street","route_type":3,"route_color":"#FFFFFF","route_text_color":"#000000"}],"agency_name":"Metro St. Louis"},"geometry":{"type":"Point","coordinates":[-90.1977,38.55912]}},{"type":"Feature","properties":{"stop_id":"14171","stop_code":"14171","stop_name":"WATER @ CARDINAL HEIGHTS NB","stop_desc":"FAR SIDE WATER @ CARDINAL HEIGHTS NB","wheelchair_boarding":2,"routes":[{"route_id":"19638","agency_id":"70006","route_short_name":"3","route_long_name":"Sauget - Water Street","route_type":3,"route_color":"#FFFFFF","route_text_color":"#000000"}],"agency_name":"Metro St. Louis"},"geometry":{"type":"Point","coordinates":[-90.19537,38.56202]}},{"type":"Feature","properties":{"stop_id":"14172","stop_code":"14172","stop_name":"WATER @ RUBY NB","stop_desc":"NEAR SIDE WATER @ RUBY NB","wheelchair_boarding":2,"routes":[{"route_id":"19638","agency_id":"70006","route_short_name":"3","route_long_name":"Sauget - Water Street","route_type":3,"route_color":"#FFFFFF","route_text_color":"#000000"}],"agency_name":"Metro St. Louis"},"geometry":{"type":"Point","coordinates":[-90.19403,38.56369]}},{"type":"Feature","properties":{"stop_id":"14173","stop_code":"14173","stop_name":"MISSISSIPPI @ SYCAMORE NB","stop_desc":"NEAR SIDE MISSISSIPPI @ SYCAMORE NB","wheelchair_boarding":2,"routes":[{"route_id":"19637","agency_id":"70006","route_short_name":"2","route_long_name":"Cahokia Heights","route_type":3,"route_color":"#FFFFFF","route_text_color":"#000000"},{"route_id":"19638","agency_id":"70006","route_short_name":"3","route_long_name":"Sauget - Water Street","route_type":3,"route_color":"#FFFFFF","route_text_color":"#000000"}],"agency_name":"Metro St. Louis"},"geometry":{"type":"Point","coordinates":[-90.1696,38.61152]}},{"type":"Feature","properties":{"stop_id":"14277","stop_code":"14277","stop_name":"1ST STREET @ WATER EB TP ONLY","stop_desc":"NEAR SIDE 1ST STREET @ WATER EB TP ONLY","wheelchair_boarding":2,"routes":[{"route_id":"19638","agency_id":"70006","route_short_name":"3","route_long_name":"Sauget - Water Street","route_type":3,"route_color":"#FFFFFF","route_text_color":"#000000"}],"agency_name":"Metro St. Louis"},"geometry":{"type":"Point","coordinates":[-90.19892,38.54735]}},{"type":"Feature","properties":{"stop_id":"14330","stop_code":"14330","stop_name":"5TH & MISSOURI TRANSIT CENTER","wheelchair_boarding":1,"routes":[{"route_id":"19636","agency_id":"70006","route_short_name":"1","route_long_name":"Main Street - State Street","route_type":3,"route_color":"#FFFFFF","route_text_color":"#000000"},{"route_id":"19637","agency_id":"70006","route_short_name":"2","route_long_name":"Cahokia Heights","route_type":3,"route_color":"#FFFFFF","route_text_color":"#000000"},{"route_id":"19638","agency_id":"70006","route_short_name":"3","route_long_name":"Sauget - Water Street","route_type":3,"route_color":"#FFFFFF","route_text_color":"#000000"},{"route_id":"19639","agency_id":"70006","route_short_name":"4","route_long_name":"19th & Central","route_type":3,"route_color":"#FFFFFF","route_text_color":"#000000"},{"route_id":"19640","agency_id":"70006","route_short_name":"5","route_long_name":"Missouri Ave - ML King","route_type":3,"route_color":"#FFFFFF","route_text_color":"#000000"}],"agency_name":"Metro St. Louis"},"geometry":{"type":"Point","coordinates":[-90.15906,38.62501]}},{"type":"Feature","properties":{"stop_id":"14880","stop_code":"14880","stop_name":"NICKELL @ FALLING SPRING NB","stop_desc":"FAR SIDE NICKELL @ FALLING SPRING NB","wheelchair_boarding":2,"routes":[{"route_id":"19637","agency_id":"70006","route_short_name":"2","route_long_name":"Cahokia Heights","route_type":3,"route_color":"#FFFFFF","route_text_color":"#000000"},{"route_id":"19638","agency_id":"70006","route_short_name":"3","route_long_name":"Sauget - Water Street","route_type":3,"route_color":"#FFFFFF","route_text_color":"#000000"}],"agency_name":"Metro St. Louis"},"geometry":{"type":"Point","coordinates":[-90.16949,38.58941]}},{"type":"Feature","properties":{"stop_id":"16309","stop_code":"16309","stop_name":"SAUGET BUSINESS @ SAUGET INDUSTRIAL PKWY WB","stop_desc":"FAR SIDE SAUGET BUSINESS @ SAUGET INDUSTRIAL PKWY WB","wheelchair_boarding":2,"routes":[{"route_id":"19638","agency_id":"70006","route_short_name":"3","route_long_name":"Sauget - Water Street","route_type":3,"route_color":"#FFFFFF","route_text_color":"#000000"}],"agency_name":"Metro St. Louis"},"geometry":{"type":"Point","coordinates":[-90.14868,38.57904]}},{"type":"Feature","properties":{"stop_id":"16319","stop_code":"16319","stop_name":"SAUGET INDUSTRIAL PKWY @ CURTIS STEINBERG NB","stop_desc":"FAR SIDE SAUGET INDUSTRIAL PKWY @ CURTIS STEINBERG NB","wheelchair_boarding":2,"routes":[{"route_id":"19638","agency_id":"70006","route_short_name":"3","route_long_name":"Sauget - Water Street","route_type":3,"route_color":"#FFFFFF","route_text_color":"#000000"}],"agency_name":"Metro St. Louis"},"geometry":{"type":"Point","coordinates":[-90.15995,38.58161]}},{"type":"Feature","properties":{"stop_id":"16320","stop_code":"16320","stop_name":"SAUGET INDUSTRIAL PKWY @ SAUGET INDUSTRIAL PKWY NB","stop_desc":"NEAR SIDE SAUGET INDUSTRIAL PKWY @ SAUGET INDUSTRIAL PKWY NB","wheelchair_boarding":2,"routes":[{"route_id":"19638","agency_id":"70006","route_short_name":"3","route_long_name":"Sauget - Water Street","route_type":3,"route_color":"#FFFFFF","route_text_color":"#000000"}],"agency_name":"Metro St. Louis"},"geometry":{"type":"Point","coordinates":[-90.15808,38.5829]}},{"type":"Feature","properties":{"stop_id":"16321","stop_code":"16321","stop_name":"1640 SAUGET INDUSTRIAL PKWY EB","stop_desc":"MID-BLOCK 1640 SAUGET INDUSTRIAL PKWY EB","wheelchair_boarding":2,"routes":[{"route_id":"19638","agency_id":"70006","route_short_name":"3","route_long_name":"Sauget - Water Street","route_type":3,"route_color":"#FFFFFF","route_text_color":"#000000"}],"agency_name":"Metro St. Louis"},"geometry":{"type":"Point","coordinates":[-90.15664,38.58213]}},{"type":"Feature","properties":{"stop_id":"16322","stop_code":"16322","stop_name":"SAUGET INDUSTRIAL PKWY @ ST. LOUIS DOWNTOWN AIRPORT EB","stop_desc":"MID-BLOCK SAUGET INDUSTRIAL PKWY @ ST. LOUIS DOWNTOWN AIRPORT EB","wheelchair_boarding":2,"routes":[{"route_id":"19638","agency_id":"70006","route_short_name":"3","route_long_name":"Sauget - Water Street","route_type":3,"route_color":"#FFFFFF","route_text_color":"#000000"}],"agency_name":"Metro St. Louis"},"geometry":{"type":"Point","coordinates":[-90.15238,38.57849]}},{"type":"Feature","properties":{"stop_id":"16324","stop_code":"16324","stop_name":"SAUGET BUSINESS @ STELLAR ENTRANCE WB","stop_desc":"MID-BLOCK SAUGET BUSINESS @ STELLAR ENTRANCE WB","wheelchair_boarding":2,"routes":[{"route_id":"19638","agency_id":"70006","route_short_name":"3","route_long_name":"Sauget - Water Street","route_type":3,"route_color":"#FFFFFF","route_text_color":"#000000"}],"agency_name":"Metro St. Louis"},"geometry":{"type":"Point","coordinates":[-90.15357,38.58319]}},{"type":"Feature","properties":{"stop_id":"16325","stop_code":"16325","stop_name":"SAUGET BUSINESS @ FEDEX SB","stop_desc":"MID-BLOCK SAUGET BUSINESS @ FEDEX SB","wheelchair_boarding":2,"routes":[{"route_id":"19638","agency_id":"70006","route_short_name":"3","route_long_name":"Sauget - Water Street","route_type":3,"route_color":"#FFFFFF","route_text_color":"#000000"}],"agency_name":"Metro St. Louis"},"geometry":{"type":"Point","coordinates":[-90.15532,38.58418]}},{"type":"Feature","properties":{"stop_id":"16326","stop_code":"16326","stop_name":"SAUGET BUSINESS @ SAUGET INDUSTRIAL SB","stop_desc":"NEAR SIDE SAUGET BUSINESS @ SAUGET INDUSTRIAL SB","wheelchair_boarding":2,"routes":[{"route_id":"19638","agency_id":"70006","route_short_name":"3","route_long_name":"Sauget - Water Street","route_type":3,"route_color":"#FFFFFF","route_text_color":"#000000"}],"agency_name":"Metro St. Louis"},"geometry":{"type":"Point","coordinates":[-90.15758,38.58348]}},{"type":"Feature","properties":{"stop_id":"16431","stop_code":"16431","stop_name":"JEROME @ LEE EB","stop_desc":"NEAR SIDE JEROME @ LEE EB","wheelchair_boarding":2,"routes":[{"route_id":"19638","agency_id":"70006","route_short_name":"3","route_long_name":"Sauget - Water Street","route_type":3,"route_color":"#FFFFFF","route_text_color":"#000000"}],"agency_name":"Metro St. Louis"},"geometry":{"type":"Point","coordinates":[-90.18006,38.58008]}},{"type":"Feature","properties":{"stop_id":"16432","stop_code":"16432","stop_name":"JEROME @ 210 JEROME EB","stop_desc":"MID-BLOCK JEROME @ 210 JEROME EB","wheelchair_boarding":2,"routes":[{"route_id":"19638","agency_id":"70006","route_short_name":"3","route_long_name":"Sauget - Water Street","route_type":3,"route_color":"#FFFFFF","route_text_color":"#000000"}],"agency_name":"Metro St. Louis"},"geometry":{"type":"Point","coordinates":[-90.1769,38.57746]}},{"type":"Feature","properties":{"stop_id":"16473","stop_code":"16473","stop_name":"4016 MISSISSIPPI NB","stop_desc":"MID-BLOCK 4016 MISSISSIPPI NB","wheelchair_boarding":2,"routes":[{"route_id":"19638","agency_id":"70006","route_short_name":"3","route_long_name":"Sauget - Water Street","route_type":3,"route_color":"#FFFFFF","route_text_color":"#000000"}],"agency_name":"Metro St. Louis"},"geometry":{"type":"Point","coordinates":[-90.18438,38.57577]}}]}