{"type":"FeatureCollection","features":[{"type":"Feature","properties":{"agency_name":"Metro St. Louis","route_id":"19606","agency_id":"70006","route_short_name":"31","route_long_name":"Chouteau","route_type":3,"route_color":"#FFFFFF","route_text_color":"#000000"},"geometry":{"type":"MultiLineString","coordinates":[[[-90.3378,38.6277],[-90.33782,38.62765],[-90.33778,38.62775],[-90.33776,38.62784],[-90.33773,38.62789],[-90.33767,38.62781],[-90.33742,38.6277],[-90.33728,38.62768],[-90.33643,38.62764],[-90.33604,38.62764],[-90.33586,38.62762],[-90.33547,38.62762],[-90.33518,38.62765],[-90.33492,38.62714],[-90.33498,38.62532],[-90.33502,38.62484],[-90.33498,38.62437],[-90.33491,38.62416],[-90.33478,38.6239],[-90.33456,38.62354],[-90.33444,38.62331],[-90.33436,38.62311],[-90.33433,38.62296],[-90.33432,38.62273],[-90.33312,38.62273],[-90.33313,38.62132],[-90.33429,38.6213],[-90.33432,38.62001],[-90.33431,38.61916],[-90.33432,38.61865],[-90.33437,38.61794],[-90.3345,38.61696],[-90.33448,38.6166],[-90.33379,38.61339],[-90.33365,38.61298],[-90.33357,38.6128],[-90.33302,38.61311],[-90.33237,38.61337],[-90.3321,38.61345],[-90.33132,38.61358],[-90.33096,38.61361],[-90.33004,38.61352],[-90.32243,38.61233],[-90.32198,38.61228],[-90.32163,38.61227],[-90.32096,38.61234],[-90.32013,38.61251],[-90.31906,38.61282],[-90.31391,38.61422],[-90.31362,38.61432],[-90.31336,38.61446],[-90.31257,38.61496],[-90.31168,38.61549],[-90.31121,38.61575],[-90.31031,38.61615],[-90.31003,38.61625],[-90.30841,38.61676],[-90.30693,38.6172],[-90.30594,38.61752],[-90.30551,38.61763],[-90.30474,38.61786],[-90.30204,38.61874],[-90.29736,38.62023],[-90.29423,38.62126],[-90.29268,38.62174],[-90.29213,38.62189],[-90.29157,38.62201],[-90.2904,38.62217],[-90.2806,38.62334],[-90.2725,38.62427],[-90.27162,38.62442],[-90.27092,38.6246],[-90.26827,38.62538],[-90.26813,38.62541],[-90.26675,38.62563],[-90.26435,38.62597],[-90.26162,38.62633],[-90.25522,38.62722],[-90.24785,38.62822],[-90.24706,38.62816],[-90.2459,38.62791],[-90.24484,38.62766],[-90.24328,38.62736],[-90.24266,38.62721],[-90.24048,38.62678],[-90.23401,38.62545],[-90.23249,38.62511],[-90.22995,38.6246],[-90.21897,38.62231],[-90.21721,38.62196],[-90.21224,38.6209],[-90.2054,38.61949],[-90.20455,38.61933],[-90.2042,38.6203],[-90.20371,38.62141],[-90.20337,38.62232],[-90.2033,38.62246],[-90.20306,38.62309],[-90.20279,38.62373],[-90.20284,38.62393],[-90.20302,38.624],[-90.20306,38.62405],[-90.20307,38.62409]]]}},{"type":"Feature","properties":{"stop_id":"13570","stop_code":"13570","stop_name":"MANCHESTER @ MCCAUSLAND EB","stop_desc":"FAR SIDE MANCHESTER @ MCCAUSLAND EB","wheelchair_boarding":1,"routes":[{"route_id":"19606","agency_id":"70006","route_short_name":"31","route_long_name":"Chouteau","route_type":3,"route_color":"#FFFFFF","route_text_color":"#000000"}],"agency_name":"Metro St. Louis"},"geometry":{"type":"Point","coordinates":[-90.30841,38.61672]}},{"type":"Feature","properties":{"stop_id":"13572","stop_code":"13572","stop_name":"MANCHESTER @ HAMPTON EB","stop_desc":"FAR SIDE MANCHESTER @ HAMPTON EB","wheelchair_boarding":1,"routes":[{"route_id":"19606","agency_id":"70006","route_short_name":"31","route_long_name":"Chouteau","route_type":3,"route_color":"#FFFFFF","route_text_color":"#000000"}],"agency_name":"Metro St. Louis"},"geometry":{"type":"Point","coordinates":[-90.28839,38.62239]}},{"type":"Feature","properties":{"stop_id":"14496","stop_code":"14496","stop_name":"CIVIC CENTER TRANSIT CENTER","wheelchair_boarding":1,"routes":[{"route_id":"19598","agency_id":"70006","route_short_name":"10","route_long_name":"Gravois-Lindell","route_type":3,"route_color":"#FFFFFF","route_text_color":"#000000"},{"route_id":"19605","agency_id":"70006","route_short_name":"30","route_long_name":"Arsenal","route_type":3,"route_color":"#FFFFFF","route_text_color":"#000000"},{"route_id":"19606","agency_id":"70006","route_short_name":"31","route_long_name":"Chouteau","route_type":3,"route_color":"#FFFFFF","route_text_color":"#000000"},{"route_id":"19607","agency_id":"70006","route_short_name":"32","route_long_name":"Dr ML King","route_type":3,"route_color":"#FFFFFF","route_text_color":"#000000"}],"agency_name":"Metro St. Louis"},"geometry":{"type":"Point","coordinates":[-90.20298,38.6243]}},{"type":"Feature","properties":{"stop_id":"14521","stop_code":"14521","stop_name":"CHOUTEAU @ VIRGINIA EB","stop_desc":"FAR SIDE CHOUTEAU @ VIRGINIA EB","wheelchair_boarding":1,"routes":[{"route_id":"19606","agency_id":"70006","route_short_name":"31","route_long_name":"Chouteau","route_type":3,"route_color":"#FFFFFF","route_text_color":"#000000"}],"agency_name":"Metro St. Louis"},"geometry":{"type":"Point","coordinates":[-90.23103,38.62475]}},{"type":"Feature","properties":{"stop_id":"14766","stop_code":"14766","stop_name":"MANCHESTER @ MAPLEWOOD METROLINK EB","stop_desc":"MID-BLOCK MANCHESTER @ MAPLEWOOD METROLINK EB","wheelchair_boarding":1,"routes":[{"route_id":"19606","agency_id":"70006","route_short_name":"31","route_long_name":"Chouteau","route_type":3,"route_color":"#FFFFFF","route_text_color":"#000000"},{"route_id":"19616","agency_id":"70006","route_short_name":"57","route_long_name":"Manchester","route_type":3,"route_color":"#FFFFFF","route_text_color":"#000000"}],"agency_name":"Metro St. Louis"},"geometry":{"type":"Point","coordinates":[-90.33216,38.61338]}},{"type":"Feature","properties":{"stop_id":"14779","stop_code":"14779","stop_name":"BRENTWOOD I-64 TRANSIT CENTER","wheelchair_boarding":1,"routes":[{"route_id":"19593","agency_id":"70006","route_short_name":"2","route_long_name":"Red","route_type":3,"route_color":"#FFFFFF","route_text_color":"#000000"},{"route_id":"19606","agency_id":"70006","route_short_name":"31","route_long_name":"Chouteau","route_type":3,"route_color":"#FFFFFF","route_text_color":"#000000"}],"agency_name":"Metro St. Louis"},"geometry":{"type":"Point","coordinates":[-90.33777,38.62757]}},{"type":"Feature","properties":{"stop_id":"14805","stop_code":"14805","stop_name":"14TH STREET @ PAPIN NB","stop_desc":"NEAR SIDE 14TH STREET @ PAPIN NB","wheelchair_boarding":2,"routes":[{"route_id":"19598","agency_id":"70006","route_short_name":"10","route_long_name":"Gravois-Lindell","route_type":3,"route_color":"#FFFFFF","route_text_color":"#000000"},{"route_id":"19605","agency_id":"70006","route_short_name":"30","route_long_name":"Arsenal","route_type":3,"route_color":"#FFFFFF","route_text_color":"#000000"},{"route_id":"19606","agency_id":"70006","route_short_name":"31","route_long_name":"Chouteau","route_type":3,"route_color":"#FFFFFF","route_text_color":"#000000"}],"agency_name":"Metro St. Louis"},"geometry":{"type":"Point","coordinates":[-90.20413,38.62022]}},{"type":"Feature","properties":{"stop_id":"14942","stop_code":"14942","stop_name":"MAPLEWOOD COMMONS @ CORCORAN SB","stop_desc":"NEAR SIDE MAPLEWOOD COMMONS @ CORCORAN SB","wheelchair_boarding":1,"routes":[{"route_id":"19593","agency_id":"70006","route_short_name":"2","route_long_name":"Red","route_type":3,"route_color":"#FFFFFF","route_text_color":"#000000"},{"route_id":"19606","agency_id":"70006","route_short_name":"31","route_long_name":"Chouteau","route_type":3,"route_color":"#FFFFFF","route_text_color":"#000000"}],"agency_name":"Metro St. Louis"},"geometry":{"type":"Point","coordinates":[-90.3332,38.62215]}},{"type":"Feature","properties":{"stop_id":"15120","stop_code":"15120","stop_name":"CHOUTEAU @ DILLON EB","stop_desc":"FAR SIDE CHOUTEAU @ DILLON EB","wheelchair_boarding":2,"routes":[{"route_id":"19606","agency_id":"70006","route_short_name":"31","route_long_name":"Chouteau","route_type":3,"route_color":"#FFFFFF","route_text_color":"#000000"}],"agency_name":"Metro St. Louis"},"geometry":{"type":"Point","coordinates":[-90.20621,38.6196]}},{"type":"Feature","properties":{"stop_id":"15769","stop_code":"15769","stop_name":"MANCHESTER @ KINGSHIGHWAY EB","stop_desc":"NEAR SIDE MANCHESTER @ KINGSHIGHWAY EB","wheelchair_boarding":1,"routes":[{"route_id":"19606","agency_id":"70006","route_short_name":"31","route_long_name":"Chouteau","route_type":3,"route_color":"#FFFFFF","route_text_color":"#000000"}],"agency_name":"Metro St. Louis"},"geometry":{"type":"Point","coordinates":[-90.26689,38.62554]}},{"type":"Feature","properties":{"stop_id":"1975","stop_code":"1975","stop_name":"MANCHESTER @ SUTTON EB","stop_desc":"FAR SIDE MANCHESTER @ SUTTON EB","wheelchair_boarding":1,"routes":[{"route_id":"19606","agency_id":"70006","route_short_name":"31","route_long_name":"Chouteau","route_type":3,"route_color":"#FFFFFF","route_text_color":"#000000"}],"agency_name":"Metro St. Louis"},"geometry":{"type":"Point","coordinates":[-90.31951,38.61263]}},{"type":"Feature","properties":{"stop_id":"1976","stop_code":"1976","stop_name":"MANCHESTER @ MARSHALL EB","stop_desc":"NEAR SIDE MANCHESTER @ MARSHALL EB","wheelchair_boarding":1,"routes":[{"route_id":"19606","agency_id":"70006","route_short_name":"31","route_long_name":"Chouteau","route_type":3,"route_color":"#FFFFFF","route_text_color":"#000000"}],"agency_name":"Metro St. Louis"},"geometry":{"type":"Point","coordinates":[-90.31736,38.61324]}},{"type":"Feature","properties":{"stop_id":"1980","stop_code":"1980","stop_name":"MANCHESTER @ YALE EB","stop_desc":"NEAR SIDE MANCHESTER @ YALE EB","wheelchair_boarding":1,"routes":[{"route_id":"19606","agency_id":"70006","route_short_name":"31","route_long_name":"Chouteau","route_type":3,"route_color":"#FFFFFF","route_text_color":"#000000"}],"agency_name":"Metro St. Louis"},"geometry":{"type":"Point","coordinates":[-90.31277,38.61477]}},{"type":"Feature","properties":{"stop_id":"3496","stop_code":"3496","stop_name":"CHOUTEAU @ DOLMAN EB","stop_desc":"NEAR SIDE CHOUTEAU @ DOLMAN EB","wheelchair_boarding":1,"routes":[{"route_id":"19599","agency_id":"70006","route_short_name":"11","route_long_name":"Chippewa","route_type":3,"route_color":"#FFFFFF","route_text_color":"#000000"},{"route_id":"19606","agency_id":"70006","route_short_name":"31","route_long_name":"Chouteau","route_type":3,"route_color":"#FFFFFF","route_text_color":"#000000"}],"agency_name":"Metro St. Louis"},"geometry":{"type":"Point","coordinates":[-90.20988,38.62036]}},{"type":"Feature","properties":{"stop_id":"5109","stop_code":"5109","stop_name":"MANCHESTER @ LACLEDE STATION ROAD EB","stop_desc":"MID-BLOCK MANCHESTER @ LACLEDE STATION ROAD EB","wheelchair_boarding":1,"routes":[{"route_id":"19606","agency_id":"70006","route_short_name":"31","route_long_name":"Chouteau","route_type":3,"route_color":"#FFFFFF","route_text_color":"#000000"}],"agency_name":"Metro St. Louis"},"geometry":{"type":"Point","coordinates":[-90.32718,38.61302]}},{"type":"Feature","properties":{"stop_id":"5111","stop_code":"5111","stop_name":"MANCHESTER @ BIG BEND EB","stop_desc":"FAR SIDE MANCHESTER @ BIG BEND EB","wheelchair_boarding":1,"routes":[{"route_id":"19606","agency_id":"70006","route_short_name":"31","route_long_name":"Chouteau","route_type":3,"route_color":"#FFFFFF","route_text_color":"#000000"}],"agency_name":"Metro St. Louis"},"geometry":{"type":"Point","coordinates":[-90.32263,38.6123]}},{"type":"Feature","properties":{"stop_id":"5113","stop_code":"5113","stop_name":"MANCHESTER @ WALDEMAR EB","stop_desc":"NEAR SIDE MANCHESTER @ WALDEMAR EB","wheelchair_boarding":2,"routes":[{"route_id":"19606","agency_id":"70006","route_short_name":"31","route_long_name":"Chouteau","route_type":3,"route_color":"#FFFFFF","route_text_color":"#000000"}],"agency_name":"Metro St. Louis"},"geometry":{"type":"Point","coordinates":[-90.30325,38.61829]}},{"type":"Feature","properties":{"stop_id":"5114","stop_code":"5114","stop_name":"MANCHESTER @ SCHAEFFER PLACE EB","stop_desc":"NEAR SIDE MANCHESTER @ SCHAEFFER PLACE EB","wheelchair_boarding":2,"routes":[{"route_id":"19606","agency_id":"70006","route_short_name":"31","route_long_name":"Chouteau","route_type":3,"route_color":"#FFFFFF","route_text_color":"#000000"}],"agency_name":"Metro St. Louis"},"geometry":{"type":"Point","coordinates":[-90.30073,38.6191]}},{"type":"Feature","properties":{"stop_id":"5115","stop_code":"5115","stop_name":"MANCHESTER @ MITCHELL EB","stop_desc":"NEAR SIDE MANCHESTER @ MITCHELL EB","wheelchair_boarding":2,"routes":[{"route_id":"19606","agency_id":"70006","route_short_name":"31","route_long_name":"Chouteau","route_type":3,"route_color":"#FFFFFF","route_text_color":"#000000"}],"agency_name":"Metro St. Louis"},"geometry":{"type":"Point","coordinates":[-90.29787,38.62002]}},{"type":"Feature","properties":{"stop_id":"5116","stop_code":"5116","stop_name":"MANCHESTER @ TAMM EB","stop_desc":"FAR SIDE MANCHESTER @ TAMM EB","wheelchair_boarding":1,"routes":[{"route_id":"19606","agency_id":"70006","route_short_name":"31","route_long_name":"Chouteau","route_type":3,"route_color":"#FFFFFF","route_text_color":"#000000"}],"agency_name":"Metro St. Louis"},"geometry":{"type":"Point","coordinates":[-90.29417,38.62126]}},{"type":"Feature","properties":{"stop_id":"5118","stop_code":"5118","stop_name":"MANCHESTER @ KNOX EB","stop_desc":"NEAR SIDE MANCHESTER @ KNOX EB","wheelchair_boarding":1,"routes":[{"route_id":"19606","agency_id":"70006","route_short_name":"31","route_long_name":"Chouteau","route_type":3,"route_color":"#FFFFFF","route_text_color":"#000000"}],"agency_name":"Metro St. Louis"},"geometry":{"type":"Point","coordinates":[-90.29031,38.62217]}},{"type":"Feature","properties":{"stop_id":"5120","stop_code":"5120","stop_name":"MANCHESTER @ SULPHUR EB","stop_desc":"FAR SIDE MANCHESTER @ SULPHUR EB","wheelchair_boarding":1,"routes":[{"route_id":"19606","agency_id":"70006","route_short_name":"31","route_long_name":"Chouteau","route_type":3,"route_color":"#FFFFFF","route_text_color":"#000000"}],"agency_name":"Metro St. Louis"},"geometry":{"type":"Point","coordinates":[-90.28607,38.62267]}},{"type":"Feature","properties":{"stop_id":"5122","stop_code":"5122","stop_name":"MANCHESTER @ SUBLETTE EB","stop_desc":"NEAR SIDE MANCHESTER @ SUBLETTE EB","wheelchair_boarding":1,"routes":[{"route_id":"19606","agency_id":"70006","route_short_name":"31","route_long_name":"Chouteau","route_type":3,"route_color":"#FFFFFF","route_text_color":"#000000"}],"agency_name":"Metro St. Louis"},"geometry":{"type":"Point","coordinates":[-90.28055,38.6233]}},{"type":"Feature","properties":{"stop_id":"5124","stop_code":"5124","stop_name":"MANCHESTER @ MACKLIND EB","stop_desc":"FAR SIDE MANCHESTER @ MACKLIND EB","wheelchair_boarding":2,"routes":[{"route_id":"19606","agency_id":"70006","route_short_name":"31","route_long_name":"Chouteau","route_type":3,"route_color":"#FFFFFF","route_text_color":"#000000"}],"agency_name":"Metro St. Louis"},"geometry":{"type":"Point","coordinates":[-90.27486,38.62399]}},{"type":"Feature","properties":{"stop_id":"5128","stop_code":"5128","stop_name":"MANCHESTER @ KINGSHIGHWAY EB","stop_desc":"FAR SIDE MANCHESTER @ KINGSHIGHWAY EB","wheelchair_boarding":1,"routes":[{"route_id":"19606","agency_id":"70006","route_short_name":"31","route_long_name":"Chouteau","route_type":3,"route_color":"#FFFFFF","route_text_color":"#000000"}],"agency_name":"Metro St. Louis"},"geometry":{"type":"Point","coordinates":[-90.26409,38.6259]}},{"type":"Feature","properties":{"stop_id":"5129","stop_code":"5129","stop_name":"MANCHESTER @ TAYLOR EB","stop_desc":"FAR SIDE MANCHESTER @ TAYLOR EB","wheelchair_boarding":1,"routes":[{"route_id":"19606","agency_id":"70006","route_short_name":"31","route_long_name":"Chouteau","route_type":3,"route_color":"#FFFFFF","route_text_color":"#000000"}],"agency_name":"Metro St. Louis"},"geometry":{"type":"Point","coordinates":[-90.26143,38.62636]}},{"type":"Feature","properties":{"stop_id":"5130","stop_code":"5130","stop_name":"MANCHESTER @ NEWSTEAD EB","stop_desc":"NEAR SIDE MANCHESTER @ NEWSTEAD EB","wheelchair_boarding":1,"routes":[{"route_id":"19606","agency_id":"70006","route_short_name":"31","route_long_name":"Chouteau","route_type":3,"route_color":"#FFFFFF","route_text_color":"#000000"}],"agency_name":"Metro St. Louis"},"geometry":{"type":"Point","coordinates":[-90.25993,38.62657]}},{"type":"Feature","properties":{"stop_id":"5131","stop_code":"5131","stop_name":"MANCHESTER @ TOWER GROVE EB","stop_desc":"NEAR SIDE MANCHESTER @ TOWER GROVE EB","wheelchair_boarding":1,"routes":[{"route_id":"19606","agency_id":"70006","route_short_name":"31","route_long_name":"Chouteau","route_type":3,"route_color":"#FFFFFF","route_text_color":"#000000"}],"agency_name":"Metro St. Louis"},"geometry":{"type":"Point","coordinates":[-90.25728,38.62691]}},{"type":"Feature","properties":{"stop_id":"5132","stop_code":"5132","stop_name":"MANCHESTER @ BOYLE EB","stop_desc":"FAR SIDE MANCHESTER @ BOYLE EB","wheelchair_boarding":1,"routes":[{"route_id":"19606","agency_id":"70006","route_short_name":"31","route_long_name":"Chouteau","route_type":3,"route_color":"#FFFFFF","route_text_color":"#000000"}],"agency_name":"Metro St. Louis"},"geometry":{"type":"Point","coordinates":[-90.25352,38.62741]}},{"type":"Feature","properties":{"stop_id":"5134","stop_code":"5134","stop_name":"MANCHESTER @ SARAH EB","stop_desc":"FAR SIDE MANCHESTER @ SARAH EB","wheelchair_boarding":1,"routes":[{"route_id":"19606","agency_id":"70006","route_short_name":"31","route_long_name":"Chouteau","route_type":3,"route_color":"#FFFFFF","route_text_color":"#000000"}],"agency_name":"Metro St. Louis"},"geometry":{"type":"Point","coordinates":[-90.24944,38.62794]}},{"type":"Feature","properties":{"stop_id":"5137","stop_code":"5137","stop_name":"CHOUTEAU @ SPRING EB","stop_desc":"NEAR SIDE CHOUTEAU @ SPRING EB","wheelchair_boarding":1,"routes":[{"route_id":"19606","agency_id":"70006","route_short_name":"31","route_long_name":"Chouteau","route_type":3,"route_color":"#FFFFFF","route_text_color":"#000000"}],"agency_name":"Metro St. Louis"},"geometry":{"type":"Point","coordinates":[-90.2409,38.62681]}},{"type":"Feature","properties":{"stop_id":"5138","stop_code":"5138","stop_name":"CHOUTEAU @ GRAND EB","stop_desc":"FAR SIDE CHOUTEAU @ GRAND EB","wheelchair_boarding":1,"routes":[{"route_id":"19606","agency_id":"70006","route_short_name":"31","route_long_name":"Chouteau","route_type":3,"route_color":"#FFFFFF","route_text_color":"#000000"}],"agency_name":"Metro St. Louis"},"geometry":{"type":"Point","coordinates":[-90.23636,38.62583]}},{"type":"Feature","properties":{"stop_id":"5141","stop_code":"5141","stop_name":"CHOUTEAU @ THERESA EB","stop_desc":"NEAR SIDE CHOUTEAU @ THERESA EB","wheelchair_boarding":2,"routes":[{"route_id":"19606","agency_id":"70006","route_short_name":"31","route_long_name":"Chouteau","route_type":3,"route_color":"#FFFFFF","route_text_color":"#000000"}],"agency_name":"Metro St. Louis"},"geometry":{"type":"Point","coordinates":[-90.23424,38.6254]}},{"type":"Feature","properties":{"stop_id":"5142","stop_code":"5142","stop_name":"CHOUTEAU @ CARDINAL EB","stop_desc":"NEAR SIDE CHOUTEAU @ CARDINAL EB","wheelchair_boarding":1,"routes":[{"route_id":"19606","agency_id":"70006","route_short_name":"31","route_long_name":"Chouteau","route_type":3,"route_color":"#FFFFFF","route_text_color":"#000000"}],"agency_name":"Metro St. Louis"},"geometry":{"type":"Point","coordinates":[-90.22818,38.62416]}},{"type":"Feature","properties":{"stop_id":"5145","stop_code":"5145","stop_name":"CHOUTEAU @ EWING EB","stop_desc":"FAR SIDE CHOUTEAU @ EWING EB","wheelchair_boarding":2,"routes":[{"route_id":"19606","agency_id":"70006","route_short_name":"31","route_long_name":"Chouteau","route_type":3,"route_color":"#FFFFFF","route_text_color":"#000000"}],"agency_name":"Metro St. Louis"},"geometry":{"type":"Point","coordinates":[-90.22463,38.62341]}},{"type":"Feature","properties":{"stop_id":"5148","stop_code":"5148","stop_name":"CHOUTEAU @ JEFFERSON EB","stop_desc":"NEAR SIDE CHOUTEAU @ JEFFERSON EB","wheelchair_boarding":1,"routes":[{"route_id":"19606","agency_id":"70006","route_short_name":"31","route_long_name":"Chouteau","route_type":3,"route_color":"#FFFFFF","route_text_color":"#000000"}],"agency_name":"Metro St. Louis"},"geometry":{"type":"Point","coordinates":[-90.21895,38.62225]}},{"type":"Feature","properties":{"stop_id":"5150","stop_code":"5150","stop_name":"CHOUTEAU @ 22ND STREET EB","stop_desc":"NEAR SIDE CHOUTEAU @ 22ND STREET EB","wheelchair_boarding":1,"routes":[{"route_id":"19599","agency_id":"70006","route_short_name":"11","route_long_name":"Chippewa","route_type":3,"route_color":"#FFFFFF","route_text_color":"#000000"},{"route_id":"19606","agency_id":"70006","route_short_name":"31","route_long_name":"Chouteau","route_type":3,"route_color":"#FFFFFF","route_text_color":"#000000"}],"agency_name":"Metro St. Louis"},"geometry":{"type":"Point","coordinates":[-90.2156,38.62153]}},{"type":"Feature","properties":{"stop_id":"5151","stop_code":"5151","stop_name":"CHOUTEAU @ MISSISSIPPI EB","stop_desc":"NEAR SIDE CHOUTEAU @ MISSISSIPPI EB","wheelchair_boarding":1,"routes":[{"route_id":"19599","agency_id":"70006","route_short_name":"11","route_long_name":"Chippewa","route_type":3,"route_color":"#FFFFFF","route_text_color":"#000000"},{"route_id":"19606","agency_id":"70006","route_short_name":"31","route_long_name":"Chouteau","route_type":3,"route_color":"#FFFFFF","route_text_color":"#000000"}],"agency_name":"Metro St. Louis"},"geometry":{"type":"Point","coordinates":[-90.21206,38.62081]}},{"type":"Feature","properties":{"stop_id":"5933","stop_code":"5933","stop_name":"HANLEY @ ELINOR SB","stop_desc":"FAR SIDE HANLEY @ ELINOR SB","wheelchair_boarding":2,"routes":[{"route_id":"19593","agency_id":"70006","route_short_name":"2","route_long_name":"Red","route_type":3,"route_color":"#FFFFFF","route_text_color":"#000000"},{"route_id":"19606","agency_id":"70006","route_short_name":"31","route_long_name":"Chouteau","route_type":3,"route_color":"#FFFFFF","route_text_color":"#000000"}],"agency_name":"Metro St. Louis"},"geometry":{"type":"Point","coordinates":[-90.33511,38.62481]}},{"type":"Feature","properties":{"stop_id":"5936","stop_code":"5936","stop_name":"HANLEY @ CORCORAN SB","stop_desc":"FAR SIDE HANLEY @ CORCORAN SB","wheelchair_boarding":2,"routes":[{"route_id":"19606","agency_id":"70006","route_short_name":"31","route_long_name":"Chouteau","route_type":3,"route_color":"#FFFFFF","route_text_color":"#000000"}],"agency_name":"Metro St. Louis"},"geometry":{"type":"Point","coordinates":[-90.33447,38.62068]}},{"type":"Feature","properties":{"stop_id":"5938","stop_code":"5938","stop_name":"HANLEY @ LITZSINGER SB","stop_desc":"FAR SIDE HANLEY @ LITZSINGER SB","wheelchair_boarding":2,"routes":[{"route_id":"19606","agency_id":"70006","route_short_name":"31","route_long_name":"Chouteau","route_type":3,"route_color":"#FFFFFF","route_text_color":"#000000"}],"agency_name":"Metro St. Louis"},"geometry":{"type":"Point","coordinates":[-90.33449,38.61643]}}]}