{"type":"FeatureCollection","features":[{"type":"Feature","properties":{"agency_name":"Metro St. Louis","route_id":"19643","agency_id":"70006","route_short_name":"9","route_long_name":"Washington Park","route_type":3,"route_color":"#FFFFFF","route_text_color":"#000000"},"geometry":{"type":"MultiLineString","coordinates":[[[-90.13763,38.62876],[-90.13808,38.62847],[-90.13763,38.62876],[-90.13753,38.62888],[-90.13751,38.62904],[-90.13759,38.62918],[-90.1381,38.62959],[-90.13848,38.62978],[-90.13885,38.62988],[-90.13929,38.62992],[-90.13953,38.62991],[-90.13982,38.62981],[-90.13999,38.63004],[-90.14011,38.63062],[-90.14021,38.63077],[-90.14046,38.631],[-90.13885,38.63219],[-90.13722,38.63149],[-90.1361,38.63049],[-90.13487,38.62949],[-90.13357,38.63043],[-90.13175,38.63089],[-90.13078,38.63002],[-90.13308,38.62758],[-90.13355,38.62705],[-90.13401,38.62625],[-90.13447,38.62551],[-90.13454,38.62552],[-90.13461,38.62551],[-90.1347,38.62542],[-90.13475,38.62512],[-90.13483,38.62493],[-90.13511,38.62454],[-90.13552,38.62467],[-90.13698,38.6252],[-90.13716,38.62529],[-90.13735,38.62543],[-90.13776,38.62578],[-90.13706,38.62588],[-90.13642,38.62573],[-90.13615,38.62561],[-90.13568,38.62534],[-90.13529,38.62517],[-90.13483,38.62493],[-90.13381,38.62445],[-90.13263,38.62402],[-90.13145,38.6237],[-90.12939,38.62321],[-90.12913,38.62316],[-90.12882,38.62307],[-90.12741,38.62272],[-90.12353,38.62179],[-90.12332,38.62165],[-90.12291,38.62147],[-90.12271,38.62134],[-90.12261,38.6212],[-90.12254,38.62106],[-90.12251,38.62087],[-90.1226,38.62062],[-90.1227,38.62047],[-90.12286,38.62032],[-90.12308,38.62016],[-90.12341,38.62005],[-90.12367,38.62],[-90.12395,38.62001],[-90.12413,38.62004],[-90.125,38.62032],[-90.12442,38.62128],[-90.12401,38.6219],[-90.12353,38.6228],[-90.12281,38.62401],[-90.12256,38.62438],[-90.12255,38.6245],[-90.12233,38.62476],[-90.12254,38.62484],[-90.12269,38.62483],[-90.12315,38.62418],[-90.12323,38.62409],[-90.12333,38.62402],[-90.12422,38.62368],[-90.1242,38.62363],[-90.12413,38.62351],[-90.12407,38.62348],[-90.12399,38.62346],[-90.12361,38.62371],[-90.12337,38.62394]],[[-90.12233,38.62476],[-90.12196,38.62527],[-90.12151,38.62584],[-90.12152,38.62631],[-90.12147,38.62772],[-90.12144,38.63085],[-90.12139,38.63263],[-90.12137,38.63529],[-90.11785,38.63529],[-90.11452,38.63533],[-90.1086,38.63537],[-90.10861,38.63677],[-90.10631,38.6368],[-90.1041,38.6368],[-90.09544,38.63685],[-90.09226,38.63685],[-90.0879,38.63689],[-90.08353,38.6369],[-90.08346,38.63682],[-90.08335,38.63679],[-90.08291,38.6368],[-90.08283,38.63683],[-90.08277,38.63689],[-90.08311,38.63691]],[[-90.09313,38.63637],[-90.09313,38.63685],[-90.09311,38.63062],[-90.09305,38.6267],[-90.09304,38.6248],[-90.09302,38.62411],[-90.093,38.62393],[-90.09308,38.62375],[-90.09308,38.62249],[-90.09305,38.62095],[-90.09306,38.62051],[-90.09303,38.61938],[-90.09304,38.61912],[-90.09301,38.61726],[-90.09295,38.61467],[-90.09294,38.61441],[-90.09291,38.61435],[-90.09285,38.61431],[-90.09315,38.61431],[-90.09338,38.61433],[-90.09483,38.61502],[-90.09489,38.61491]],[[-90.13824,38.62846],[-90.13834,38.62851]],[[-90.09313,38.63637],[-90.09427,38.63685]]]}},{"type":"Feature","properties":{"stop_id":"12396","stop_code":"12396","stop_name":"FOREST @ 60TH STREET WB","stop_desc":"NEAR SIDE FOREST @ 60TH STREET WB","wheelchair_boarding":2,"routes":[{"route_id":"19643","agency_id":"70006","route_short_name":"9","route_long_name":"Washington Park","route_type":3,"route_color":"#FFFFFF","route_text_color":"#000000"}],"agency_name":"Metro St. Louis"},"geometry":{"type":"Point","coordinates":[-90.08605,38.63694]}},{"type":"Feature","properties":{"stop_id":"12397","stop_code":"12397","stop_name":"FOREST @ 58TH STREET WB","stop_desc":"FAR SIDE FOREST @ 58TH STREET WB","wheelchair_boarding":2,"routes":[{"route_id":"19643","agency_id":"70006","route_short_name":"9","route_long_name":"Washington Park","route_type":3,"route_color":"#FFFFFF","route_text_color":"#000000"}],"agency_name":"Metro St. Louis"},"geometry":{"type":"Point","coordinates":[-90.0888,38.63694]}},{"type":"Feature","properties":{"stop_id":"12399","stop_code":"12399","stop_name":"FOREST @ 56TH STREET WB","stop_desc":"NEAR SIDE FOREST @ 56TH STREET WB","wheelchair_boarding":2,"routes":[{"route_id":"19643","agency_id":"70006","route_short_name":"9","route_long_name":"Washington Park","route_type":3,"route_color":"#FFFFFF","route_text_color":"#000000"}],"agency_name":"Metro St. Louis"},"geometry":{"type":"Point","coordinates":[-90.09062,38.63694]}},{"type":"Feature","properties":{"stop_id":"12415","stop_code":"12415","stop_name":"WAVERLY @ 30TH STREET EB","stop_desc":"FAR SIDE WAVERLY @ 30TH STREET EB","wheelchair_boarding":2,"routes":[{"route_id":"19643","agency_id":"70006","route_short_name":"9","route_long_name":"Washington Park","route_type":3,"route_color":"#FFFFFF","route_text_color":"#000000"}],"agency_name":"Metro St. Louis"},"geometry":{"type":"Point","coordinates":[-90.11696,38.63521]}},{"type":"Feature","properties":{"stop_id":"12449","stop_code":"12449","stop_name":"KINGSHIGHWAY @ CASEYVILLE SB","stop_desc":"FAR SIDE KINGSHIGHWAY @ CASEYVILLE SB","wheelchair_boarding":2,"routes":[{"route_id":"19641","agency_id":"70006","route_short_name":"6","route_long_name":"Rosemont","route_type":3,"route_color":"#FFFFFF","route_text_color":"#000000"},{"route_id":"19643","agency_id":"70006","route_short_name":"9","route_long_name":"Washington Park","route_type":3,"route_color":"#FFFFFF","route_text_color":"#000000"}],"agency_name":"Metro St. Louis"},"geometry":{"type":"Point","coordinates":[-90.09312,38.62978]}},{"type":"Feature","properties":{"stop_id":"12450","stop_code":"12450","stop_name":"KINGSHIGHWAY @ WARREN SB","stop_desc":"NEAR SIDE KINGSHIGHWAY @ WARREN SB","wheelchair_boarding":2,"routes":[{"route_id":"19641","agency_id":"70006","route_short_name":"6","route_long_name":"Rosemont","route_type":3,"route_color":"#FFFFFF","route_text_color":"#000000"},{"route_id":"19643","agency_id":"70006","route_short_name":"9","route_long_name":"Washington Park","route_type":3,"route_color":"#FFFFFF","route_text_color":"#000000"}],"agency_name":"Metro St. Louis"},"geometry":{"type":"Point","coordinates":[-90.09314,38.62862]}},{"type":"Feature","properties":{"stop_id":"12451","stop_code":"12451","stop_name":"KINGSHIGHWAY @ HALLOWS SB","stop_desc":"NEAR SIDE KINGSHIGHWAY @ HALLOWS SB","wheelchair_boarding":2,"routes":[{"route_id":"19641","agency_id":"70006","route_short_name":"6","route_long_name":"Rosemont","route_type":3,"route_color":"#FFFFFF","route_text_color":"#000000"},{"route_id":"19643","agency_id":"70006","route_short_name":"9","route_long_name":"Washington Park","route_type":3,"route_color":"#FFFFFF","route_text_color":"#000000"}],"agency_name":"Metro St. Louis"},"geometry":{"type":"Point","coordinates":[-90.09311,38.62683]}},{"type":"Feature","properties":{"stop_id":"12452","stop_code":"12452","stop_name":"KINGSHIGHWAY @ AVON PLACE SB","stop_desc":"NEAR SIDE KINGSHIGHWAY @ AVON PLACE SB","wheelchair_boarding":2,"routes":[{"route_id":"19641","agency_id":"70006","route_short_name":"6","route_long_name":"Rosemont","route_type":3,"route_color":"#FFFFFF","route_text_color":"#000000"},{"route_id":"19643","agency_id":"70006","route_short_name":"9","route_long_name":"Washington Park","route_type":3,"route_color":"#FFFFFF","route_text_color":"#000000"}],"agency_name":"Metro St. Louis"},"geometry":{"type":"Point","coordinates":[-90.0931,38.62586]}},{"type":"Feature","properties":{"stop_id":"12453","stop_code":"12453","stop_name":"KINGSHIGHWAY @ ADELAIDE SB","stop_desc":"FAR SIDE KINGSHIGHWAY @ ADELAIDE SB","wheelchair_boarding":2,"routes":[{"route_id":"19641","agency_id":"70006","route_short_name":"6","route_long_name":"Rosemont","route_type":3,"route_color":"#FFFFFF","route_text_color":"#000000"},{"route_id":"19643","agency_id":"70006","route_short_name":"9","route_long_name":"Washington Park","route_type":3,"route_color":"#FFFFFF","route_text_color":"#000000"}],"agency_name":"Metro St. Louis"},"geometry":{"type":"Point","coordinates":[-90.09314,38.62375]}},{"type":"Feature","properties":{"stop_id":"12525","stop_code":"12525","stop_name":"25TH STREET @ ARGONNE NB","stop_desc":"FAR SIDE 25TH STREET @ ARGONNE NB","wheelchair_boarding":2,"routes":[{"route_id":"19641","agency_id":"70006","route_short_name":"6","route_long_name":"Rosemont","route_type":3,"route_color":"#FFFFFF","route_text_color":"#000000"},{"route_id":"19643","agency_id":"70006","route_short_name":"9","route_long_name":"Washington Park","route_type":3,"route_color":"#FFFFFF","route_text_color":"#000000"}],"agency_name":"Metro St. Louis"},"geometry":{"type":"Point","coordinates":[-90.12204,38.62511]}},{"type":"Feature","properties":{"stop_id":"12526","stop_code":"12526","stop_name":"25TH STREET @ LYNCH NB","stop_desc":"FAR SIDE 25TH STREET @ LYNCH NB","wheelchair_boarding":2,"routes":[{"route_id":"19643","agency_id":"70006","route_short_name":"9","route_long_name":"Washington Park","route_type":3,"route_color":"#FFFFFF","route_text_color":"#000000"}],"agency_name":"Metro St. Louis"},"geometry":{"type":"Point","coordinates":[-90.12146,38.62658]}},{"type":"Feature","properties":{"stop_id":"12527","stop_code":"12527","stop_name":"25TH STREET @ CASEYVILLE NB","stop_desc":"FAR SIDE 25TH STREET @ CASEYVILLE NB","wheelchair_boarding":2,"routes":[{"route_id":"19643","agency_id":"70006","route_short_name":"9","route_long_name":"Washington Park","route_type":3,"route_color":"#FFFFFF","route_text_color":"#000000"}],"agency_name":"Metro St. Louis"},"geometry":{"type":"Point","coordinates":[-90.12145,38.62782]}},{"type":"Feature","properties":{"stop_id":"12528","stop_code":"12528","stop_name":"25TH STREET @ NATALIE NB","stop_desc":"NEAR SIDE 25TH STREET @ NATALIE NB","wheelchair_boarding":2,"routes":[{"route_id":"19643","agency_id":"70006","route_short_name":"9","route_long_name":"Washington Park","route_type":3,"route_color":"#FFFFFF","route_text_color":"#000000"}],"agency_name":"Metro St. Louis"},"geometry":{"type":"Point","coordinates":[-90.12142,38.62861]}},{"type":"Feature","properties":{"stop_id":"12529","stop_code":"12529","stop_name":"25TH STREET @ DOUGLAS NB","stop_desc":"FAR SIDE 25TH STREET @ DOUGLAS NB","wheelchair_boarding":2,"routes":[{"route_id":"19643","agency_id":"70006","route_short_name":"9","route_long_name":"Washington Park","route_type":3,"route_color":"#FFFFFF","route_text_color":"#000000"}],"agency_name":"Metro St. Louis"},"geometry":{"type":"Point","coordinates":[-90.12139,38.62985]}},{"type":"Feature","properties":{"stop_id":"12530","stop_code":"12530","stop_name":"25TH STREET @ GROSS NB","stop_desc":"FAR SIDE 25TH STREET @ GROSS NB","wheelchair_boarding":2,"routes":[{"route_id":"19643","agency_id":"70006","route_short_name":"9","route_long_name":"Washington Park","route_type":3,"route_color":"#FFFFFF","route_text_color":"#000000"}],"agency_name":"Metro St. Louis"},"geometry":{"type":"Point","coordinates":[-90.12141,38.63095]}},{"type":"Feature","properties":{"stop_id":"12531","stop_code":"12531","stop_name":"25TH STREET @ AUDUBON NB","stop_desc":"NEAR SIDE 25TH STREET @ AUDUBON NB","wheelchair_boarding":2,"routes":[{"route_id":"19643","agency_id":"70006","route_short_name":"9","route_long_name":"Washington Park","route_type":3,"route_color":"#FFFFFF","route_text_color":"#000000"}],"agency_name":"Metro St. Louis"},"geometry":{"type":"Point","coordinates":[-90.12138,38.63252]}},{"type":"Feature","properties":{"stop_id":"12532","stop_code":"12532","stop_name":"25TH STREET @ LINCOLIN NB","stop_desc":"NEAR SIDE 25TH STREET @ LINCOLIN NB","wheelchair_boarding":2,"routes":[{"route_id":"19643","agency_id":"70006","route_short_name":"9","route_long_name":"Washington Park","route_type":3,"route_color":"#FFFFFF","route_text_color":"#000000"}],"agency_name":"Metro St. Louis"},"geometry":{"type":"Point","coordinates":[-90.12136,38.6342]}},{"type":"Feature","properties":{"stop_id":"12533","stop_code":"12533","stop_name":"WAVERLY @ 25TH STREET EB","stop_desc":"FAR SIDE WAVERLY @ 25TH STREET EB","wheelchair_boarding":2,"routes":[{"route_id":"19643","agency_id":"70006","route_short_name":"9","route_long_name":"Washington Park","route_type":3,"route_color":"#FFFFFF","route_text_color":"#000000"}],"agency_name":"Metro St. Louis"},"geometry":{"type":"Point","coordinates":[-90.12106,38.63527]}},{"type":"Feature","properties":{"stop_id":"12534","stop_code":"12534","stop_name":"2550 WAVERLY EB","stop_desc":"MID-BLOCK 2550 WAVERLY EB","wheelchair_boarding":2,"routes":[{"route_id":"19643","agency_id":"70006","route_short_name":"9","route_long_name":"Washington Park","route_type":3,"route_color":"#FFFFFF","route_text_color":"#000000"}],"agency_name":"Metro St. Louis"},"geometry":{"type":"Point","coordinates":[-90.11894,38.6353]}},{"type":"Feature","properties":{"stop_id":"12535","stop_code":"12535","stop_name":"WAVERLY @ 29TH STREET EB","stop_desc":"FAR SIDE WAVERLY @ 29TH STREET EB","wheelchair_boarding":2,"routes":[{"route_id":"19643","agency_id":"70006","route_short_name":"9","route_long_name":"Washington Park","route_type":3,"route_color":"#FFFFFF","route_text_color":"#000000"}],"agency_name":"Metro St. Louis"},"geometry":{"type":"Point","coordinates":[-90.11776,38.63521]}},{"type":"Feature","properties":{"stop_id":"12541","stop_code":"12541","stop_name":"WAVERLY @ 32ND STREET EB","stop_desc":"FAR SIDE WAVERLY @ 32ND STREET EB","wheelchair_boarding":2,"routes":[{"route_id":"19643","agency_id":"70006","route_short_name":"9","route_long_name":"Washington Park","route_type":3,"route_color":"#FFFFFF","route_text_color":"#000000"}],"agency_name":"Metro St. Louis"},"geometry":{"type":"Point","coordinates":[-90.11438,38.63532]}},{"type":"Feature","properties":{"stop_id":"12542","stop_code":"12542","stop_name":"WAVERLY @ 36TH STREET EB","stop_desc":"FAR SIDE WAVERLY @ 36TH STREET EB","wheelchair_boarding":2,"routes":[{"route_id":"19643","agency_id":"70006","route_short_name":"9","route_long_name":"Washington Park","route_type":3,"route_color":"#FFFFFF","route_text_color":"#000000"}],"agency_name":"Metro St. Louis"},"geometry":{"type":"Point","coordinates":[-90.1118,38.63534]}},{"type":"Feature","properties":{"stop_id":"12543","stop_code":"12543","stop_name":"WAVERLY @ 38TH STREET EB","stop_desc":"NEAR SIDE WAVERLY @ 38TH STREET EB","wheelchair_boarding":2,"routes":[{"route_id":"19643","agency_id":"70006","route_short_name":"9","route_long_name":"Washington Park","route_type":3,"route_color":"#FFFFFF","route_text_color":"#000000"}],"agency_name":"Metro St. Louis"},"geometry":{"type":"Point","coordinates":[-90.11098,38.63534]}},{"type":"Feature","properties":{"stop_id":"12544","stop_code":"12544","stop_name":"WAVERLY @ 39TH STREET EB","stop_desc":"NEAR SIDE WAVERLY @ 39TH STREET EB","wheelchair_boarding":2,"routes":[{"route_id":"19643","agency_id":"70006","route_short_name":"9","route_long_name":"Washington Park","route_type":3,"route_color":"#FFFFFF","route_text_color":"#000000"}],"agency_name":"Metro St. Louis"},"geometry":{"type":"Point","coordinates":[-90.1099,38.63535]}},{"type":"Feature","properties":{"stop_id":"12545","stop_code":"12545","stop_name":"WAVERLY @ 40TH STREET EB","stop_desc":"NEAR SIDE WAVERLY @ 40TH STREET EB","wheelchair_boarding":2,"routes":[{"route_id":"19643","agency_id":"70006","route_short_name":"9","route_long_name":"Washington Park","route_type":3,"route_color":"#FFFFFF","route_text_color":"#000000"}],"agency_name":"Metro St. Louis"},"geometry":{"type":"Point","coordinates":[-90.10888,38.63535]}},{"type":"Feature","properties":{"stop_id":"12546","stop_code":"12546","stop_name":"40TH STREET @ FOREST NB","stop_desc":"NEAR SIDE 40TH STREET @ FOREST NB","wheelchair_boarding":2,"routes":[{"route_id":"19643","agency_id":"70006","route_short_name":"9","route_long_name":"Washington Park","route_type":3,"route_color":"#FFFFFF","route_text_color":"#000000"}],"agency_name":"Metro St. Louis"},"geometry":{"type":"Point","coordinates":[-90.10857,38.63657]}},{"type":"Feature","properties":{"stop_id":"12547","stop_code":"12547","stop_name":"FOREST @ 42ND STREET EB","stop_desc":"FAR SIDE FOREST @ 42ND STREET EB","wheelchair_boarding":2,"routes":[{"route_id":"19643","agency_id":"70006","route_short_name":"9","route_long_name":"Washington Park","route_type":3,"route_color":"#FFFFFF","route_text_color":"#000000"}],"agency_name":"Metro St. Louis"},"geometry":{"type":"Point","coordinates":[-90.10619,38.63674]}},{"type":"Feature","properties":{"stop_id":"12548","stop_code":"12548","stop_name":"FOREST @ 43RD STREET EB","stop_desc":"FAR SIDE FOREST @ 43RD STREET EB","wheelchair_boarding":2,"routes":[{"route_id":"19643","agency_id":"70006","route_short_name":"9","route_long_name":"Washington Park","route_type":3,"route_color":"#FFFFFF","route_text_color":"#000000"}],"agency_name":"Metro St. Louis"},"geometry":{"type":"Point","coordinates":[-90.10506,38.63676]}},{"type":"Feature","properties":{"stop_id":"12549","stop_code":"12549","stop_name":"FOREST @ 46TH STREET EB","stop_desc":"NEAR SIDE FOREST @ 46TH STREET EB","wheelchair_boarding":2,"routes":[{"route_id":"19643","agency_id":"70006","route_short_name":"9","route_long_name":"Washington Park","route_type":3,"route_color":"#FFFFFF","route_text_color":"#000000"}],"agency_name":"Metro St. Louis"},"geometry":{"type":"Point","coordinates":[-90.10187,38.63676]}},{"type":"Feature","properties":{"stop_id":"12551","stop_code":"12551","stop_name":"FOREST @ WASHINGTON PARK EB","stop_desc":"NEAR SIDE FOREST @ WASHINGTON PARK EB","wheelchair_boarding":2,"routes":[{"route_id":"19643","agency_id":"70006","route_short_name":"9","route_long_name":"Washington Park","route_type":3,"route_color":"#FFFFFF","route_text_color":"#000000"}],"agency_name":"Metro St. Louis"},"geometry":{"type":"Point","coordinates":[-90.10025,38.63677]}},{"type":"Feature","properties":{"stop_id":"12552","stop_code":"12552","stop_name":"FOREST @ 49TH STREET EB","stop_desc":"NEAR SIDE FOREST @ 49TH STREET EB","wheelchair_boarding":2,"routes":[{"route_id":"19643","agency_id":"70006","route_short_name":"9","route_long_name":"Washington Park","route_type":3,"route_color":"#FFFFFF","route_text_color":"#000000"}],"agency_name":"Metro St. Louis"},"geometry":{"type":"Point","coordinates":[-90.09906,38.63678]}},{"type":"Feature","properties":{"stop_id":"12553","stop_code":"12553","stop_name":"4998 FOREST EB","stop_desc":"MID-BLOCK 4998 FOREST EB","wheelchair_boarding":2,"routes":[{"route_id":"19643","agency_id":"70006","route_short_name":"9","route_long_name":"Washington Park","route_type":3,"route_color":"#FFFFFF","route_text_color":"#000000"}],"agency_name":"Metro St. Louis"},"geometry":{"type":"Point","coordinates":[-90.09783,38.63679]}},{"type":"Feature","properties":{"stop_id":"12554","stop_code":"12554","stop_name":"FOREST @ KINGSHIGHWAY EB","stop_desc":"NEAR SIDE FOREST @ KINGSHIGHWAY EB","wheelchair_boarding":2,"routes":[{"route_id":"19643","agency_id":"70006","route_short_name":"9","route_long_name":"Washington Park","route_type":3,"route_color":"#FFFFFF","route_text_color":"#000000"}],"agency_name":"Metro St. Louis"},"geometry":{"type":"Point","coordinates":[-90.09381,38.63681]}},{"type":"Feature","properties":{"stop_id":"12555","stop_code":"12555","stop_name":"FOREST @ 55TH STREET EB","stop_desc":"NEAR SIDE FOREST @ 55TH STREET EB","wheelchair_boarding":2,"routes":[{"route_id":"19643","agency_id":"70006","route_short_name":"9","route_long_name":"Washington Park","route_type":3,"route_color":"#FFFFFF","route_text_color":"#000000"}],"agency_name":"Metro St. Louis"},"geometry":{"type":"Point","coordinates":[-90.09211,38.63683]}},{"type":"Feature","properties":{"stop_id":"12556","stop_code":"12556","stop_name":"FOREST @ 57TH STREET EB","stop_desc":"NEAR SIDE FOREST @ 57TH STREET EB","wheelchair_boarding":2,"routes":[{"route_id":"19643","agency_id":"70006","route_short_name":"9","route_long_name":"Washington Park","route_type":3,"route_color":"#FFFFFF","route_text_color":"#000000"}],"agency_name":"Metro St. Louis"},"geometry":{"type":"Point","coordinates":[-90.0898,38.63687]}},{"type":"Feature","properties":{"stop_id":"12557","stop_code":"12557","stop_name":"FOREST @ 59TH STREET EB","stop_desc":"NEAR SIDE FOREST @ 59TH STREET EB","wheelchair_boarding":2,"routes":[{"route_id":"19643","agency_id":"70006","route_short_name":"9","route_long_name":"Washington Park","route_type":3,"route_color":"#FFFFFF","route_text_color":"#000000"}],"agency_name":"Metro St. Louis"},"geometry":{"type":"Point","coordinates":[-90.08757,38.63686]}},{"type":"Feature","properties":{"stop_id":"12559","stop_code":"12559","stop_name":"SANITATION DISTRICT LOOP @ 62ND STREET EB","stop_desc":"NEAR SIDE SANITATION DISTRICT LOOP @ 62ND STREET EB","wheelchair_boarding":2,"routes":[{"route_id":"19643","agency_id":"70006","route_short_name":"9","route_long_name":"Washington Park","route_type":3,"route_color":"#FFFFFF","route_text_color":"#000000"}],"agency_name":"Metro St. Louis"},"geometry":{"type":"Point","coordinates":[-90.08335,38.6368]}},{"type":"Feature","properties":{"stop_id":"12702","stop_code":"12702","stop_name":"EMERSON PARK TRANSIT CENTER","wheelchair_boarding":1,"routes":[{"route_id":"19641","agency_id":"70006","route_short_name":"6","route_long_name":"Rosemont","route_type":3,"route_color":"#FFFFFF","route_text_color":"#000000"},{"route_id":"19642","agency_id":"70006","route_short_name":"8","route_long_name":"Alta Sita","route_type":3,"route_color":"#FFFFFF","route_text_color":"#000000"},{"route_id":"19643","agency_id":"70006","route_short_name":"9","route_long_name":"Washington Park","route_type":3,"route_color":"#FFFFFF","route_text_color":"#000000"}],"agency_name":"Metro St. Louis"},"geometry":{"type":"Point","coordinates":[-90.13787,38.6285]}},{"type":"Feature","properties":{"stop_id":"12741","stop_code":"12741","stop_name":"11TH STREET @ BOWMAN NB","stop_desc":"NEAR SIDE 11TH STREET @ BOWMAN NB","wheelchair_boarding":2,"routes":[{"route_id":"19641","agency_id":"70006","route_short_name":"6","route_long_name":"Rosemont","route_type":3,"route_color":"#FFFFFF","route_text_color":"#000000"},{"route_id":"19643","agency_id":"70006","route_short_name":"9","route_long_name":"Washington Park","route_type":3,"route_color":"#FFFFFF","route_text_color":"#000000"}],"agency_name":"Metro St. Louis"},"geometry":{"type":"Point","coordinates":[-90.1399,38.63139]}},{"type":"Feature","properties":{"stop_id":"12823","stop_code":"12823","stop_name":"25TH STREET @ ST. CLAIR NB","stop_desc":"NEAR SIDE 25TH STREET @ ST. CLAIR NB","wheelchair_boarding":2,"routes":[{"route_id":"19641","agency_id":"70006","route_short_name":"6","route_long_name":"Rosemont","route_type":3,"route_color":"#FFFFFF","route_text_color":"#000000"},{"route_id":"19642","agency_id":"70006","route_short_name":"8","route_long_name":"Alta Sita","route_type":3,"route_color":"#FFFFFF","route_text_color":"#000000"},{"route_id":"19643","agency_id":"70006","route_short_name":"9","route_long_name":"Washington Park","route_type":3,"route_color":"#FFFFFF","route_text_color":"#000000"}],"agency_name":"Metro St. Louis"},"geometry":{"type":"Point","coordinates":[-90.1247,38.62071]}},{"type":"Feature","properties":{"stop_id":"14125","stop_code":"14125","stop_name":"WASHINGTON PARK TRANSIT CENTER","wheelchair_boarding":1,"routes":[{"route_id":"19641","agency_id":"70006","route_short_name":"6","route_long_name":"Rosemont","route_type":3,"route_color":"#FFFFFF","route_text_color":"#000000"},{"route_id":"19643","agency_id":"70006","route_short_name":"9","route_long_name":"Washington Park","route_type":3,"route_color":"#FFFFFF","route_text_color":"#000000"}],"agency_name":"Metro St. Louis"},"geometry":{"type":"Point","coordinates":[-90.09501,38.61409]}},{"type":"Feature","properties":{"stop_id":"14197","stop_code":"14197","stop_name":"EXCHANGE @ 13TH STREET EB","stop_desc":"NEAR SIDE EXCHANGE @ 13TH STREET EB","wheelchair_boarding":2,"routes":[{"route_id":"19641","agency_id":"70006","route_short_name":"6","route_long_name":"Rosemont","route_type":3,"route_color":"#FFFFFF","route_text_color":"#000000"},{"route_id":"19643","agency_id":"70006","route_short_name":"9","route_long_name":"Washington Park","route_type":3,"route_color":"#FFFFFF","route_text_color":"#000000"}],"agency_name":"Metro St. Louis"},"geometry":{"type":"Point","coordinates":[-90.13747,38.63155]}},{"type":"Feature","properties":{"stop_id":"14280","stop_code":"14280","stop_name":"JJK CENTER TRANSIT CENTER","wheelchair_boarding":1,"routes":[{"route_id":"19641","agency_id":"70006","route_short_name":"6","route_long_name":"Rosemont","route_type":3,"route_color":"#FFFFFF","route_text_color":"#000000"},{"route_id":"19643","agency_id":"70006","route_short_name":"9","route_long_name":"Washington Park","route_type":3,"route_color":"#FFFFFF","route_text_color":"#000000"}],"agency_name":"Metro St. Louis"},"geometry":{"type":"Point","coordinates":[-90.12413,38.62369]}},{"type":"Feature","properties":{"stop_id":"14556","stop_code":"14556","stop_name":"EXCHANGE @ 15TH STREET EB","stop_desc":"NEAR SIDE EXCHANGE @ 15TH STREET EB","wheelchair_boarding":2,"routes":[{"route_id":"19641","agency_id":"70006","route_short_name":"6","route_long_name":"Rosemont","route_type":3,"route_color":"#FFFFFF","route_text_color":"#000000"},{"route_id":"19643","agency_id":"70006","route_short_name":"9","route_long_name":"Washington Park","route_type":3,"route_color":"#FFFFFF","route_text_color":"#000000"}],"agency_name":"Metro St. Louis"},"geometry":{"type":"Point","coordinates":[-90.13511,38.62964]}},{"type":"Feature","properties":{"stop_id":"15245","stop_code":"15245","stop_name":"KINGSHIGHWAY @ WESTMORELAND SB","stop_desc":"NEAR SIDE KINGSHIGHWAY @ WESTMORELAND SB","wheelchair_boarding":2,"routes":[{"route_id":"19641","agency_id":"70006","route_short_name":"6","route_long_name":"Rosemont","route_type":3,"route_color":"#FFFFFF","route_text_color":"#000000"},{"route_id":"19643","agency_id":"70006","route_short_name":"9","route_long_name":"Washington Park","route_type":3,"route_color":"#FFFFFF","route_text_color":"#000000"}],"agency_name":"Metro St. Louis"},"geometry":{"type":"Point","coordinates":[-90.09312,38.62761]}},{"type":"Feature","properties":{"stop_id":"15253","stop_code":"15253","stop_name":"FOREST @ 44TH STREET EB","stop_desc":"NEAR SIDE FOREST @ 44TH STREET EB","wheelchair_boarding":2,"routes":[{"route_id":"19643","agency_id":"70006","route_short_name":"9","route_long_name":"Washington Park","route_type":3,"route_color":"#FFFFFF","route_text_color":"#000000"}],"agency_name":"Metro St. Louis"},"geometry":{"type":"Point","coordinates":[-90.10426,38.63676]}},{"type":"Feature","properties":{"stop_id":"15254","stop_code":"15254","stop_name":"FOREST @ 53RD STREET EB","stop_desc":"NEAR SIDE FOREST @ 53RD STREET EB","wheelchair_boarding":2,"routes":[{"route_id":"19643","agency_id":"70006","route_short_name":"9","route_long_name":"Washington Park","route_type":3,"route_color":"#FFFFFF","route_text_color":"#000000"}],"agency_name":"Metro St. Louis"},"geometry":{"type":"Point","coordinates":[-90.09445,38.63684]}},{"type":"Feature","properties":{"stop_id":"15572","stop_code":"15572","stop_name":"LYNCH @ 15TH STREET EB","stop_desc":"NEAR SIDE LYNCH @ 15TH STREET EB","wheelchair_boarding":2,"routes":[{"route_id":"19641","agency_id":"70006","route_short_name":"6","route_long_name":"Rosemont","route_type":3,"route_color":"#FFFFFF","route_text_color":"#000000"},{"route_id":"19643","agency_id":"70006","route_short_name":"9","route_long_name":"Washington Park","route_type":3,"route_color":"#FFFFFF","route_text_color":"#000000"}],"agency_name":"Metro St. Louis"},"geometry":{"type":"Point","coordinates":[-90.13209,38.63113]}},{"type":"Feature","properties":{"stop_id":"16176","stop_code":"16176","stop_name":"FOREST @ 51ST STREET EB","stop_desc":"NEAR SIDE FOREST @ 51ST STREET EB","wheelchair_boarding":2,"routes":[{"route_id":"19643","agency_id":"70006","route_short_name":"9","route_long_name":"Washington Park","route_type":3,"route_color":"#FFFFFF","route_text_color":"#000000"}],"agency_name":"Metro St. Louis"},"geometry":{"type":"Point","coordinates":[-90.09679,38.63681]}},{"type":"Feature","properties":{"stop_id":"16177","stop_code":"16177","stop_name":"FOREST @ 52ND STREET EB","stop_desc":"NEAR SIDE FOREST @ 52ND STREET EB","wheelchair_boarding":2,"routes":[{"route_id":"19643","agency_id":"70006","route_short_name":"9","route_long_name":"Washington Park","route_type":3,"route_color":"#FFFFFF","route_text_color":"#000000"}],"agency_name":"Metro St. Louis"},"geometry":{"type":"Point","coordinates":[-90.09558,38.6368]}},{"type":"Feature","properties":{"stop_id":"16327","stop_code":"16327","stop_name":"18TH STREET @ LYNCH SB","stop_desc":"FAR SIDE 18TH STREET @ LYNCH SB","wheelchair_boarding":2,"routes":[{"route_id":"19641","agency_id":"70006","route_short_name":"6","route_long_name":"Rosemont","route_type":3,"route_color":"#FFFFFF","route_text_color":"#000000"},{"route_id":"19643","agency_id":"70006","route_short_name":"9","route_long_name":"Washington Park","route_type":3,"route_color":"#FFFFFF","route_text_color":"#000000"}],"agency_name":"Metro St. Louis"},"geometry":{"type":"Point","coordinates":[-90.13104,38.62983]}},{"type":"Feature","properties":{"stop_id":"16328","stop_code":"16328","stop_name":"18TH STREET @ WINSTANLEY SB","stop_desc":"FAR SIDE 18TH STREET @ WINSTANLEY SB","wheelchair_boarding":2,"routes":[{"route_id":"19641","agency_id":"70006","route_short_name":"6","route_long_name":"Rosemont","route_type":3,"route_color":"#FFFFFF","route_text_color":"#000000"},{"route_id":"19643","agency_id":"70006","route_short_name":"9","route_long_name":"Washington Park","route_type":3,"route_color":"#FFFFFF","route_text_color":"#000000"}],"agency_name":"Metro St. Louis"},"geometry":{"type":"Point","coordinates":[-90.13194,38.62888]}},{"type":"Feature","properties":{"stop_id":"16329","stop_code":"16329","stop_name":"18TH STREET @ EXCHANGE SB","stop_desc":"FAR SIDE 18TH STREET @ EXCHANGE SB","wheelchair_boarding":2,"routes":[{"route_id":"19641","agency_id":"70006","route_short_name":"6","route_long_name":"Rosemont","route_type":3,"route_color":"#FFFFFF","route_text_color":"#000000"},{"route_id":"19643","agency_id":"70006","route_short_name":"9","route_long_name":"Washington Park","route_type":3,"route_color":"#FFFFFF","route_text_color":"#000000"}],"agency_name":"Metro St. Louis"},"geometry":{"type":"Point","coordinates":[-90.13263,38.62813]}},{"type":"Feature","properties":{"stop_id":"16330","stop_code":"16330","stop_name":"18TH STREET @ WEIMAN SB","stop_desc":"FAR SIDE 18TH STREET @ WEIMAN SB","wheelchair_boarding":2,"routes":[{"route_id":"19641","agency_id":"70006","route_short_name":"6","route_long_name":"Rosemont","route_type":3,"route_color":"#FFFFFF","route_text_color":"#000000"},{"route_id":"19643","agency_id":"70006","route_short_name":"9","route_long_name":"Washington Park","route_type":3,"route_color":"#FFFFFF","route_text_color":"#000000"}],"agency_name":"Metro St. Louis"},"geometry":{"type":"Point","coordinates":[-90.13332,38.62746]}},{"type":"Feature","properties":{"stop_id":"16331","stop_code":"16331","stop_name":"18TH STREET @ BAUGH SB","stop_desc":"NEAR SIDE 18TH STREET @ BAUGH SB","wheelchair_boarding":2,"routes":[{"route_id":"19641","agency_id":"70006","route_short_name":"6","route_long_name":"Rosemont","route_type":3,"route_color":"#FFFFFF","route_text_color":"#000000"},{"route_id":"19643","agency_id":"70006","route_short_name":"9","route_long_name":"Washington Park","route_type":3,"route_color":"#FFFFFF","route_text_color":"#000000"}],"agency_name":"Metro St. Louis"},"geometry":{"type":"Point","coordinates":[-90.13441,38.62578]}},{"type":"Feature","properties":{"stop_id":"16442","stop_code":"16442","stop_name":"KINGSHIGHWAY @ NORTH PARK SB","stop_desc":"FAR SIDE KINGSHIGHWAY @ NORTH PARK SB","wheelchair_boarding":2,"routes":[{"route_id":"19643","agency_id":"70006","route_short_name":"9","route_long_name":"Washington Park","route_type":3,"route_color":"#FFFFFF","route_text_color":"#000000"}],"agency_name":"Metro St. Louis"},"geometry":{"type":"Point","coordinates":[-90.09316,38.63486]}},{"type":"Feature","properties":{"stop_id":"16447","stop_code":"16447","stop_name":"KINGSHIGHWAY @ AUDUBON SB","stop_desc":"NEAR SIDE KINGSHIGHWAY @ AUDUBON SB","wheelchair_boarding":2,"routes":[{"route_id":"19643","agency_id":"70006","route_short_name":"9","route_long_name":"Washington Park","route_type":3,"route_color":"#FFFFFF","route_text_color":"#000000"}],"agency_name":"Metro St. Louis"},"geometry":{"type":"Point","coordinates":[-90.09315,38.63249]}},{"type":"Feature","properties":{"stop_id":"16468","stop_code":"16468","stop_name":"15TH STREET @ WINSTANLEY NB","stop_desc":"NEAR SIDE 15TH STREET @ WINSTANLEY NB","wheelchair_boarding":1,"routes":[{"route_id":"19641","agency_id":"70006","route_short_name":"6","route_long_name":"Rosemont","route_type":3,"route_color":"#FFFFFF","route_text_color":"#000000"},{"route_id":"19643","agency_id":"70006","route_short_name":"9","route_long_name":"Washington Park","route_type":3,"route_color":"#FFFFFF","route_text_color":"#000000"}],"agency_name":"Metro St. Louis"},"geometry":{"type":"Point","coordinates":[-90.13362,38.63029]}}]}