{"type":"FeatureCollection","features":[{"type":"Feature","properties":{"agency_name":"Metro St. Louis","route_id":"19613","agency_id":"70006","route_short_name":"42","route_long_name":"Sarah","route_type":3,"route_color":"#FFFFFF","route_text_color":"#000000"},"geometry":{"type":"MultiLineString","coordinates":[[[-90.22471,38.68073],[-90.22522,38.6807],[-90.22471,38.68073],[-90.224,38.67937],[-90.22391,38.67922],[-90.22376,38.67902],[-90.22207,38.67713],[-90.22082,38.6757],[-90.2231,38.67445],[-90.22316,38.67441],[-90.22326,38.6743],[-90.22366,38.67372],[-90.22372,38.67366],[-90.22435,38.6728],[-90.22572,38.67085],[-90.22628,38.67005],[-90.22673,38.66936],[-90.22725,38.6687],[-90.22778,38.66791],[-90.22965,38.66536],[-90.23042,38.66434],[-90.22904,38.66376],[-90.22651,38.66265],[-90.22771,38.66099],[-90.22834,38.66008],[-90.23174,38.66157],[-90.23344,38.66115],[-90.23646,38.6569],[-90.23701,38.65609],[-90.23815,38.6545],[-90.23873,38.65373],[-90.23956,38.65256],[-90.23787,38.65182],[-90.24094,38.64745],[-90.24131,38.64696],[-90.24244,38.64539],[-90.24308,38.64444],[-90.24391,38.6433],[-90.2452,38.64148],[-90.24533,38.64117],[-90.24577,38.63995],[-90.24623,38.63851],[-90.24672,38.63711],[-90.24712,38.6359],[-90.25525,38.63759],[-90.25935,38.63828],[-90.25971,38.6372],[-90.25973,38.63702],[-90.25966,38.63651],[-90.25961,38.63631],[-90.25977,38.63625],[-90.26009,38.6362],[-90.26049,38.63618],[-90.26058,38.6358],[-90.26054,38.63577],[-90.25992,38.63564],[-90.25989,38.63564]]]}},{"type":"Feature","properties":{"stop_id":"13810","stop_code":"13810","stop_name":"WHITTIER @ KENNERLY SB","stop_desc":"FAR SIDE WHITTIER @ KENNERLY SB","wheelchair_boarding":1,"routes":[{"route_id":"19613","agency_id":"70006","route_short_name":"42","route_long_name":"Sarah","route_type":3,"route_color":"#FFFFFF","route_text_color":"#000000"}],"agency_name":"Metro St. Louis"},"geometry":{"type":"Point","coordinates":[-90.235,38.6591]}},{"type":"Feature","properties":{"stop_id":"13814","stop_code":"13814","stop_name":"WHITTIER @ ST. LOUIS SB","stop_desc":"FAR SIDE WHITTIER @ ST. LOUIS SB","wheelchair_boarding":1,"routes":[{"route_id":"19613","agency_id":"70006","route_short_name":"42","route_long_name":"Sarah","route_type":3,"route_color":"#FFFFFF","route_text_color":"#000000"}],"agency_name":"Metro St. Louis"},"geometry":{"type":"Point","coordinates":[-90.23341,38.66125]}},{"type":"Feature","properties":{"stop_id":"15968","stop_code":"15968","stop_name":"WHITTIER @ LABADIE SB","stop_desc":"FAR SIDE WHITTIER @ LABADIE SB","wheelchair_boarding":2,"routes":[{"route_id":"19613","agency_id":"70006","route_short_name":"42","route_long_name":"Sarah","route_type":3,"route_color":"#FFFFFF","route_text_color":"#000000"}],"agency_name":"Metro St. Louis"},"geometry":{"type":"Point","coordinates":[-90.23306,38.66188]}},{"type":"Feature","properties":{"stop_id":"16089","stop_code":"16089","stop_name":"CENTRAL WEST END TRANSIT CENTER","wheelchair_boarding":1,"routes":[{"route_id":"19602","agency_id":"70006","route_short_name":"18","route_long_name":"Taylor","route_type":3,"route_color":"#FFFFFF","route_text_color":"#000000"},{"route_id":"19613","agency_id":"70006","route_short_name":"42","route_long_name":"Sarah","route_type":3,"route_color":"#FFFFFF","route_text_color":"#000000"}],"agency_name":"Metro St. Louis"},"geometry":{"type":"Point","coordinates":[-90.26025,38.63592]}},{"type":"Feature","properties":{"stop_id":"16109","stop_code":"16109","stop_name":"WHITTIER @ GARFIELD SB","stop_desc":"NEAR SIDE WHITTIER @ GARFIELD SB","wheelchair_boarding":2,"routes":[{"route_id":"19613","agency_id":"70006","route_short_name":"42","route_long_name":"Sarah","route_type":3,"route_color":"#FFFFFF","route_text_color":"#000000"}],"agency_name":"Metro St. Louis"},"geometry":{"type":"Point","coordinates":[-90.23686,38.65639]}},{"type":"Feature","properties":{"stop_id":"16532","stop_code":"16532","stop_name":"ASHLAND @ FAIR EB","stop_desc":"FAR SIDE ASHLAND @ FAIR EB","wheelchair_boarding":2,"routes":[{"route_id":"19613","agency_id":"70006","route_short_name":"42","route_long_name":"Sarah","route_type":3,"route_color":"#FFFFFF","route_text_color":"#000000"}],"agency_name":"Metro St. Louis"},"geometry":{"type":"Point","coordinates":[-90.2303,38.66419]}},{"type":"Feature","properties":{"stop_id":"16533","stop_code":"16533","stop_name":"ASHLAND @ CLAY EB","stop_desc":"FAR SIDE ASHLAND @ CLAY EB","wheelchair_boarding":2,"routes":[{"route_id":"19613","agency_id":"70006","route_short_name":"42","route_long_name":"Sarah","route_type":3,"route_color":"#FFFFFF","route_text_color":"#000000"}],"agency_name":"Metro St. Louis"},"geometry":{"type":"Point","coordinates":[-90.22804,38.66322]}},{"type":"Feature","properties":{"stop_id":"16534","stop_code":"16534","stop_name":"WARNE @ ASHLAND SB","stop_desc":"FAR SIDE WARNE @ ASHLAND SB","wheelchair_boarding":2,"routes":[{"route_id":"19613","agency_id":"70006","route_short_name":"42","route_long_name":"Sarah","route_type":3,"route_color":"#FFFFFF","route_text_color":"#000000"}],"agency_name":"Metro St. Louis"},"geometry":{"type":"Point","coordinates":[-90.2267,38.66256]}},{"type":"Feature","properties":{"stop_id":"16535","stop_code":"16535","stop_name":"BISHOP SCOTT @ LABADIE SB","stop_desc":"NEAR SIDE BISHOP SCOTT @ LABADIE SB","wheelchair_boarding":2,"routes":[{"route_id":"19613","agency_id":"70006","route_short_name":"42","route_long_name":"Sarah","route_type":3,"route_color":"#FFFFFF","route_text_color":"#000000"}],"agency_name":"Metro St. Louis"},"geometry":{"type":"Point","coordinates":[-90.22835,38.66023]}},{"type":"Feature","properties":{"stop_id":"3776","stop_code":"3776","stop_name":"WEST FLORISSANT  @ POPE SB","stop_desc":"FAR SIDE WEST FLORISSANT  @ POPE SB","wheelchair_boarding":2,"routes":[{"route_id":"19613","agency_id":"70006","route_short_name":"42","route_long_name":"Sarah","route_type":3,"route_color":"#FFFFFF","route_text_color":"#000000"},{"route_id":"19624","agency_id":"70006","route_short_name":"74","route_long_name":"Florissant","route_type":3,"route_color":"#FFFFFF","route_text_color":"#000000"}],"agency_name":"Metro St. Louis"},"geometry":{"type":"Point","coordinates":[-90.22465,38.6806]}},{"type":"Feature","properties":{"stop_id":"3778","stop_code":"3778","stop_name":"WEST FLORISSANT @ ATHLONE SB","stop_desc":"NEAR SIDE WEST FLORISSANT @ ATHLONE SB","wheelchair_boarding":1,"routes":[{"route_id":"19613","agency_id":"70006","route_short_name":"42","route_long_name":"Sarah","route_type":3,"route_color":"#FFFFFF","route_text_color":"#000000"},{"route_id":"19624","agency_id":"70006","route_short_name":"74","route_long_name":"Florissant","route_type":3,"route_color":"#FFFFFF","route_text_color":"#000000"}],"agency_name":"Metro St. Louis"},"geometry":{"type":"Point","coordinates":[-90.22313,38.67826]}},{"type":"Feature","properties":{"stop_id":"3780","stop_code":"3780","stop_name":"WEST FLORISSANT @ FAIR SB","stop_desc":"NEAR SIDE WEST FLORISSANT @ FAIR SB","wheelchair_boarding":1,"routes":[{"route_id":"19613","agency_id":"70006","route_short_name":"42","route_long_name":"Sarah","route_type":3,"route_color":"#FFFFFF","route_text_color":"#000000"},{"route_id":"19624","agency_id":"70006","route_short_name":"74","route_long_name":"Florissant","route_type":3,"route_color":"#FFFFFF","route_text_color":"#000000"}],"agency_name":"Metro St. Louis"},"geometry":{"type":"Point","coordinates":[-90.22109,38.67594]}},{"type":"Feature","properties":{"stop_id":"5328","stop_code":"5328","stop_name":"4199 FOREST PARK WB","stop_desc":"MID-BLOCK 4199 FOREST PARK WB","wheelchair_boarding":1,"routes":[{"route_id":"19613","agency_id":"70006","route_short_name":"42","route_long_name":"Sarah","route_type":3,"route_color":"#FFFFFF","route_text_color":"#000000"}],"agency_name":"Metro St. Louis"},"geometry":{"type":"Point","coordinates":[-90.24917,38.63639]}},{"type":"Feature","properties":{"stop_id":"5329","stop_code":"5329","stop_name":"FOREST PARK @ BOYLE WB","stop_desc":"FAR SIDE FOREST PARK @ BOYLE WB","wheelchair_boarding":1,"routes":[{"route_id":"19613","agency_id":"70006","route_short_name":"42","route_long_name":"Sarah","route_type":3,"route_color":"#FFFFFF","route_text_color":"#000000"}],"agency_name":"Metro St. Louis"},"geometry":{"type":"Point","coordinates":[-90.25224,38.63698]}},{"type":"Feature","properties":{"stop_id":"5330","stop_code":"5330","stop_name":"FOREST PARK @ NEWSTEAD WB","stop_desc":"NEAR SIDE FOREST PARK @ NEWSTEAD WB","wheelchair_boarding":1,"routes":[{"route_id":"19613","agency_id":"70006","route_short_name":"42","route_long_name":"Sarah","route_type":3,"route_color":"#FFFFFF","route_text_color":"#000000"}],"agency_name":"Metro St. Louis"},"geometry":{"type":"Point","coordinates":[-90.25524,38.63764]}},{"type":"Feature","properties":{"stop_id":"5331","stop_code":"5331","stop_name":"4451 FOREST PARK  WB","stop_desc":"MID-BLOCK 4451 FOREST PARK  WB","wheelchair_boarding":2,"routes":[{"route_id":"19613","agency_id":"70006","route_short_name":"42","route_long_name":"Sarah","route_type":3,"route_color":"#FFFFFF","route_text_color":"#000000"}],"agency_name":"Metro St. Louis"},"geometry":{"type":"Point","coordinates":[-90.25766,38.63814]}},{"type":"Feature","properties":{"stop_id":"5332","stop_code":"5332","stop_name":"TAYLOR @ PARKVIEW PLACE SB","stop_desc":"NEAR SIDE TAYLOR @ PARKVIEW PLACE SB","wheelchair_boarding":1,"routes":[{"route_id":"19592","agency_id":"70006","route_short_name":"1","route_long_name":"Gold","route_type":3,"route_color":"#FFFFFF","route_text_color":"#000000"},{"route_id":"19598","agency_id":"70006","route_short_name":"10","route_long_name":"Gravois-Lindell","route_type":3,"route_color":"#FFFFFF","route_text_color":"#000000"},{"route_id":"19600","agency_id":"70006","route_short_name":"13","route_long_name":"Union","route_type":3,"route_color":"#FFFFFF","route_text_color":"#000000"},{"route_id":"19602","agency_id":"70006","route_short_name":"18","route_long_name":"Taylor","route_type":3,"route_color":"#FFFFFF","route_text_color":"#000000"},{"route_id":"19613","agency_id":"70006","route_short_name":"42","route_long_name":"Sarah","route_type":3,"route_color":"#FFFFFF","route_text_color":"#000000"},{"route_id":"19632","agency_id":"70006","route_short_name":"95","route_long_name":"Kingshighway","route_type":3,"route_color":"#FFFFFF","route_text_color":"#000000"}],"agency_name":"Metro St. Louis"},"geometry":{"type":"Point","coordinates":[-90.25974,38.6373]}},{"type":"Feature","properties":{"stop_id":"6126","stop_code":"6126","stop_name":"FAIR @ WEST FLORISSANT SB","stop_desc":"FAR SIDE FAIR @ WEST FLORISSANT SB","wheelchair_boarding":1,"routes":[{"route_id":"19613","agency_id":"70006","route_short_name":"42","route_long_name":"Sarah","route_type":3,"route_color":"#FFFFFF","route_text_color":"#000000"}],"agency_name":"Metro St. Louis"},"geometry":{"type":"Point","coordinates":[-90.22104,38.67562]}},{"type":"Feature","properties":{"stop_id":"6127","stop_code":"6127","stop_name":"FAIR @ ROSALIE SB","stop_desc":"FAR SIDE FAIR @ ROSALIE SB","wheelchair_boarding":1,"routes":[{"route_id":"19613","agency_id":"70006","route_short_name":"42","route_long_name":"Sarah","route_type":3,"route_color":"#FFFFFF","route_text_color":"#000000"}],"agency_name":"Metro St. Louis"},"geometry":{"type":"Point","coordinates":[-90.22337,38.67415]}},{"type":"Feature","properties":{"stop_id":"6129","stop_code":"6129","stop_name":"FAIR @ GREEN LEA PLACE SB","stop_desc":"FAR SIDE FAIR @ GREEN LEA PLACE SB","wheelchair_boarding":2,"routes":[{"route_id":"19613","agency_id":"70006","route_short_name":"42","route_long_name":"Sarah","route_type":3,"route_color":"#FFFFFF","route_text_color":"#000000"}],"agency_name":"Metro St. Louis"},"geometry":{"type":"Point","coordinates":[-90.2245,38.67258]}},{"type":"Feature","properties":{"stop_id":"6131","stop_code":"6131","stop_name":"FAIR @ LEE SB","stop_desc":"FAR SIDE FAIR @ LEE SB","wheelchair_boarding":1,"routes":[{"route_id":"19613","agency_id":"70006","route_short_name":"42","route_long_name":"Sarah","route_type":3,"route_color":"#FFFFFF","route_text_color":"#000000"}],"agency_name":"Metro St. Louis"},"geometry":{"type":"Point","coordinates":[-90.22569,38.67101]}},{"type":"Feature","properties":{"stop_id":"6133","stop_code":"6133","stop_name":"FAIR @ MARGARETTA SB","stop_desc":"FAR SIDE FAIR @ MARGARETTA SB","wheelchair_boarding":2,"routes":[{"route_id":"19613","agency_id":"70006","route_short_name":"42","route_long_name":"Sarah","route_type":3,"route_color":"#FFFFFF","route_text_color":"#000000"}],"agency_name":"Metro St. Louis"},"geometry":{"type":"Point","coordinates":[-90.22743,38.66854]}},{"type":"Feature","properties":{"stop_id":"6135","stop_code":"6135","stop_name":"FAIR @ NATURAL BRIDGE SB","stop_desc":"NEAR SIDE FAIR @ NATURAL BRIDGE SB","wheelchair_boarding":1,"routes":[{"route_id":"19613","agency_id":"70006","route_short_name":"42","route_long_name":"Sarah","route_type":3,"route_color":"#FFFFFF","route_text_color":"#000000"}],"agency_name":"Metro St. Louis"},"geometry":{"type":"Point","coordinates":[-90.2286,38.66685]}},{"type":"Feature","properties":{"stop_id":"6136","stop_code":"6136","stop_name":"FAIR @ LEXINGTON SB","stop_desc":"NEAR SIDE FAIR @ LEXINGTON SB","wheelchair_boarding":2,"routes":[{"route_id":"19613","agency_id":"70006","route_short_name":"42","route_long_name":"Sarah","route_type":3,"route_color":"#FFFFFF","route_text_color":"#000000"}],"agency_name":"Metro St. Louis"},"geometry":{"type":"Point","coordinates":[-90.22962,38.66545]}},{"type":"Feature","properties":{"stop_id":"6149","stop_code":"6149","stop_name":"SARAH @ PAGE SB","stop_desc":"NEAR SIDE SARAH @ PAGE SB","wheelchair_boarding":1,"routes":[{"route_id":"19613","agency_id":"70006","route_short_name":"42","route_long_name":"Sarah","route_type":3,"route_color":"#FFFFFF","route_text_color":"#000000"}],"agency_name":"Metro St. Louis"},"geometry":{"type":"Point","coordinates":[-90.23838,38.65117]}},{"type":"Feature","properties":{"stop_id":"6150","stop_code":"6150","stop_name":"SARAH @ COOK SB","stop_desc":"NEAR SIDE SARAH @ COOK SB","wheelchair_boarding":1,"routes":[{"route_id":"19613","agency_id":"70006","route_short_name":"42","route_long_name":"Sarah","route_type":3,"route_color":"#FFFFFF","route_text_color":"#000000"}],"agency_name":"Metro St. Louis"},"geometry":{"type":"Point","coordinates":[-90.2391,38.65013]}},{"type":"Feature","properties":{"stop_id":"6152","stop_code":"6152","stop_name":"SARAH @ CD BANKS SB","stop_desc":"NEAR SIDE SARAH @ CD BANKS SB","wheelchair_boarding":1,"routes":[{"route_id":"19613","agency_id":"70006","route_short_name":"42","route_long_name":"Sarah","route_type":3,"route_color":"#FFFFFF","route_text_color":"#000000"}],"agency_name":"Metro St. Louis"},"geometry":{"type":"Point","coordinates":[-90.24032,38.64849]}},{"type":"Feature","properties":{"stop_id":"6153","stop_code":"6153","stop_name":"SARAH @ WEST BELLE PLACE SB","stop_desc":"NEAR SIDE SARAH @ WEST BELLE PLACE SB","wheelchair_boarding":1,"routes":[{"route_id":"19613","agency_id":"70006","route_short_name":"42","route_long_name":"Sarah","route_type":3,"route_color":"#FFFFFF","route_text_color":"#000000"}],"agency_name":"Metro St. Louis"},"geometry":{"type":"Point","coordinates":[-90.24076,38.64779]}},{"type":"Feature","properties":{"stop_id":"6155","stop_code":"6155","stop_name":"SARAH @ ENRIGHT SB","stop_desc":"NEAR SIDE SARAH @ ENRIGHT SB","wheelchair_boarding":1,"routes":[{"route_id":"19613","agency_id":"70006","route_short_name":"42","route_long_name":"Sarah","route_type":3,"route_color":"#FFFFFF","route_text_color":"#000000"}],"agency_name":"Metro St. Louis"},"geometry":{"type":"Point","coordinates":[-90.2417,38.64649]}},{"type":"Feature","properties":{"stop_id":"6156","stop_code":"6156","stop_name":"SARAH @ DELMAR SB","stop_desc":"NEAR SIDE SARAH @ DELMAR SB","wheelchair_boarding":1,"routes":[{"route_id":"19613","agency_id":"70006","route_short_name":"42","route_long_name":"Sarah","route_type":3,"route_color":"#FFFFFF","route_text_color":"#000000"}],"agency_name":"Metro St. Louis"},"geometry":{"type":"Point","coordinates":[-90.24233,38.64563]}},{"type":"Feature","properties":{"stop_id":"6158","stop_code":"6158","stop_name":"SARAH @ OLIVE SB","stop_desc":"FAR SIDE SARAH @ OLIVE SB","wheelchair_boarding":2,"routes":[{"route_id":"19613","agency_id":"70006","route_short_name":"42","route_long_name":"Sarah","route_type":3,"route_color":"#FFFFFF","route_text_color":"#000000"}],"agency_name":"Metro St. Louis"},"geometry":{"type":"Point","coordinates":[-90.24404,38.64314]}},{"type":"Feature","properties":{"stop_id":"6160","stop_code":"6160","stop_name":"SARAH @ MCPHERSON SB","stop_desc":"NEAR SIDE SARAH @ MCPHERSON SB","wheelchair_boarding":2,"routes":[{"route_id":"19613","agency_id":"70006","route_short_name":"42","route_long_name":"Sarah","route_type":3,"route_color":"#FFFFFF","route_text_color":"#000000"}],"agency_name":"Metro St. Louis"},"geometry":{"type":"Point","coordinates":[-90.24514,38.64168]}},{"type":"Feature","properties":{"stop_id":"6161","stop_code":"6161","stop_name":"SARAH @ LINDELL SB","stop_desc":"NEAR SIDE SARAH @ LINDELL SB","wheelchair_boarding":1,"routes":[{"route_id":"19613","agency_id":"70006","route_short_name":"42","route_long_name":"Sarah","route_type":3,"route_color":"#FFFFFF","route_text_color":"#000000"}],"agency_name":"Metro St. Louis"},"geometry":{"type":"Point","coordinates":[-90.24568,38.64029]}},{"type":"Feature","properties":{"stop_id":"6162","stop_code":"6162","stop_name":"SARAH @ WEST PINE SB","stop_desc":"NEAR SIDE SARAH @ WEST PINE SB","wheelchair_boarding":1,"routes":[{"route_id":"19613","agency_id":"70006","route_short_name":"42","route_long_name":"Sarah","route_type":3,"route_color":"#FFFFFF","route_text_color":"#000000"}],"agency_name":"Metro St. Louis"},"geometry":{"type":"Point","coordinates":[-90.24621,38.63867]}},{"type":"Feature","properties":{"stop_id":"6164","stop_code":"6164","stop_name":"SARAH @ FOREST PARK SB","stop_desc":"NEAR SIDE SARAH @ FOREST PARK SB","wheelchair_boarding":2,"routes":[{"route_id":"19613","agency_id":"70006","route_short_name":"42","route_long_name":"Sarah","route_type":3,"route_color":"#FFFFFF","route_text_color":"#000000"}],"agency_name":"Metro St. Louis"},"geometry":{"type":"Point","coordinates":[-90.24711,38.63615]}},{"type":"Feature","properties":{"stop_id":"7121","stop_code":"7121","stop_name":"WHITTIER @ DR. ML KING SB","stop_desc":"FAR SIDE WHITTIER @ DR. ML KING SB","wheelchair_boarding":2,"routes":[{"route_id":"19613","agency_id":"70006","route_short_name":"42","route_long_name":"Sarah","route_type":3,"route_color":"#FFFFFF","route_text_color":"#000000"}],"agency_name":"Metro St. Louis"},"geometry":{"type":"Point","coordinates":[-90.23907,38.65337]}},{"type":"Feature","properties":{"stop_id":"7919","stop_code":"7919","stop_name":"WHITTIER @ ST. FERDINAND SB","stop_desc":"NEAR SIDE WHITTIER @ ST. FERDINAND SB","wheelchair_boarding":2,"routes":[{"route_id":"19613","agency_id":"70006","route_short_name":"42","route_long_name":"Sarah","route_type":3,"route_color":"#FFFFFF","route_text_color":"#000000"}],"agency_name":"Metro St. Louis"},"geometry":{"type":"Point","coordinates":[-90.23582,38.65784]}},{"type":"Feature","properties":{"stop_id":"8055","stop_code":"8055","stop_name":"POPE @ WEST FLORISSANT NB","stop_desc":"NEAR SIDE POPE @ WEST FLORISSANT NB","wheelchair_boarding":2,"routes":[{"route_id":"19602","agency_id":"70006","route_short_name":"18","route_long_name":"Taylor","route_type":3,"route_color":"#FFFFFF","route_text_color":"#000000"},{"route_id":"19613","agency_id":"70006","route_short_name":"42","route_long_name":"Sarah","route_type":3,"route_color":"#FFFFFF","route_text_color":"#000000"}],"agency_name":"Metro St. Louis"},"geometry":{"type":"Point","coordinates":[-90.22504,38.68077]}}]}