{"type":"FeatureCollection","features":[{"type":"Feature","properties":{"agency_name":"Metro St. Louis","route_id":"19597","agency_id":"70006","route_short_name":"9","route_long_name":"Oakville","route_type":3,"route_color":"#FFFFFF","route_text_color":"#000000"},"geometry":{"type":"MultiLineString","coordinates":[[[-90.30485,38.47068],[-90.30495,38.4703],[-90.30466,38.47135],[-90.30456,38.47181],[-90.30447,38.4723],[-90.30442,38.47305],[-90.30439,38.47583],[-90.30441,38.4777],[-90.3045,38.48171],[-90.30448,38.48264],[-90.30435,38.48443],[-90.30423,38.48571],[-90.30395,38.48951],[-90.30387,38.49045],[-90.30381,38.49093],[-90.30377,38.49115],[-90.30361,38.49167],[-90.30323,38.49215],[-90.30293,38.49215],[-90.30286,38.49223],[-90.30272,38.49253],[-90.3025,38.49277],[-90.3024,38.49282],[-90.30211,38.49289],[-90.3019,38.4929],[-90.30124,38.49284],[-90.30081,38.49284],[-90.30038,38.4929],[-90.2995,38.49313],[-90.29917,38.49318],[-90.29884,38.49319],[-90.29839,38.49316],[-90.29796,38.49305],[-90.29417,38.49172],[-90.29289,38.49129],[-90.28813,38.48993],[-90.28792,38.48986],[-90.28763,38.48973],[-90.28727,38.48948],[-90.28696,38.48918],[-90.28683,38.489],[-90.28672,38.4888],[-90.28646,38.48806],[-90.28635,38.48787],[-90.2862,38.48771],[-90.28592,38.48754],[-90.28561,38.48744],[-90.28539,38.48741],[-90.28401,38.48752],[-90.28426,38.48837],[-90.28439,38.48913],[-90.28441,38.48935],[-90.28487,38.49165],[-90.28483,38.49215],[-90.28463,38.49229],[-90.28393,38.49316],[-90.28167,38.49221],[-90.28162,38.4919],[-90.28161,38.49169],[-90.28173,38.49146],[-90.28193,38.49127],[-90.28211,38.49119],[-90.28243,38.49114],[-90.28274,38.49119],[-90.28421,38.4917],[-90.28442,38.49172],[-90.2847,38.49167]],[[-90.28587,38.49004],[-90.28457,38.49016],[-90.28587,38.49004],[-90.28621,38.49004],[-90.28673,38.49008],[-90.28701,38.49007],[-90.29177,38.49138],[-90.29299,38.49177],[-90.29686,38.49312],[-90.29801,38.49363],[-90.29841,38.49389],[-90.29855,38.494],[-90.29882,38.49426],[-90.29896,38.49445],[-90.29916,38.49477],[-90.29934,38.4951],[-90.29955,38.49539],[-90.29968,38.49552],[-90.29998,38.49576],[-90.30026,38.49591],[-90.3005,38.49601],[-90.30115,38.49621],[-90.30079,38.49684],[-90.30062,38.49719],[-90.30059,38.49727],[-90.30061,38.49742],[-90.29894,38.50038],[-90.29854,38.50112],[-90.2978,38.50237],[-90.29737,38.50318],[-90.29518,38.50698],[-90.29422,38.50858],[-90.29404,38.50882],[-90.29383,38.50905],[-90.29349,38.50938],[-90.29202,38.51078],[-90.29032,38.51237],[-90.29001,38.51265],[-90.2896,38.51294],[-90.28907,38.51318],[-90.28871,38.5133],[-90.28843,38.51337],[-90.28812,38.51343],[-90.28693,38.5136],[-90.28668,38.51367],[-90.28642,38.51376],[-90.28611,38.5139],[-90.28566,38.51417],[-90.28546,38.51432],[-90.28524,38.51451],[-90.28019,38.51983],[-90.27777,38.52233],[-90.27758,38.52257],[-90.2774,38.52286],[-90.27734,38.52302],[-90.27729,38.52328],[-90.27729,38.52473],[-90.27719,38.52813],[-90.27712,38.53173],[-90.2771,38.53189],[-90.27706,38.53203],[-90.277,38.53215],[-90.27676,38.5325],[-90.27667,38.53261],[-90.27644,38.53279],[-90.27533,38.53339],[-90.27445,38.53392],[-90.27126,38.53573],[-90.27105,38.53589],[-90.26637,38.54002],[-90.266,38.53978],[-90.26592,38.53977],[-90.26584,38.53981],[-90.26581,38.53986],[-90.26581,38.5399],[-90.26584,38.53998],[-90.26617,38.54019],[-90.26437,38.54178],[-90.26534,38.54238],[-90.2663,38.54302],[-90.26736,38.5438],[-90.27012,38.54556],[-90.27031,38.54572],[-90.27044,38.54586],[-90.27054,38.54602],[-90.27075,38.54649],[-90.27085,38.54682],[-90.27088,38.54702],[-90.27087,38.54873],[-90.27083,38.54916],[-90.27016,38.5527],[-90.27015,38.5531],[-90.27022,38.55368],[-90.27033,38.55411],[-90.27049,38.55445],[-90.27068,38.55478],[-90.27092,38.55511],[-90.27111,38.55532],[-90.27138,38.55557],[-90.27173,38.55585],[-90.272,38.55603],[-90.27231,38.5562],[-90.27276,38.5564],[-90.27307,38.55651],[-90.27358,38.55665],[-90.27383,38.5567],[-90.27439,38.55678],[-90.27476,38.5568],[-90.27676,38.5568],[-90.27743,38.55682],[-90.27785,38.55689],[-90.27806,38.55695],[-90.27839,38.55707],[-90.27866,38.55721],[-90.27892,38.55739],[-90.28262,38.56015],[-90.28314,38.56048],[-90.28345,38.56066],[-90.28371,38.56079],[-90.28423,38.56101],[-90.2849,38.56124],[-90.28517,38.56132],[-90.28616,38.56152],[-90.2867,38.56159],[-90.29032,38.56179],[-90.29112,38.5619],[-90.29167,38.56204],[-90.29191,38.56212],[-90.29216,38.56226],[-90.29236,38.56241],[-90.29406,38.56418],[-90.29491,38.56381],[-90.29589,38.56312],[-90.29656,38.56381],[-90.30155,38.56794],[-90.30228,38.56864],[-90.30363,38.56978],[-90.30483,38.5709],[-90.30508,38.57109],[-90.30599,38.57169],[-90.30615,38.57182],[-90.30629,38.57196],[-90.3082,38.57415],[-90.30836,38.57437],[-90.30849,38.57461],[-90.30854,38.57481],[-90.30859,38.57525],[-90.30869,38.57568],[-90.30958,38.57731],[-90.31026,38.57828],[-90.31039,38.5786],[-90.3111,38.58072],[-90.3111,38.58087],[-90.3113,38.58246],[-90.31137,38.5829],[-90.31142,38.58312],[-90.31155,38.5835],[-90.31166,38.58367],[-90.31236,38.58448],[-90.31257,38.58464],[-90.31402,38.58629],[-90.31616,38.58866],[-90.31643,38.58913],[-90.31668,38.58986],[-90.31684,38.59018],[-90.31701,38.59043],[-90.31713,38.59059],[-90.31735,38.59082],[-90.31764,38.59105],[-90.31804,38.59132],[-90.31823,38.59148],[-90.31844,38.59174],[-90.31846,38.59199],[-90.31842,38.59254],[-90.31856,38.59279],[-90.3186,38.59282],[-90.31878,38.59286],[-90.31943,38.5928],[-90.31982,38.59272],[-90.31989,38.59267],[-90.31991,38.59259],[-90.31987,38.59252],[-90.31979,38.59249]],[[-90.30495,38.4703],[-90.30595,38.47037],[-90.30752,38.4704],[-90.30861,38.4696],[-90.30859,38.46933],[-90.30853,38.46912],[-90.30836,38.46887],[-90.30821,38.46872],[-90.30802,38.46858],[-90.30774,38.46843],[-90.30738,38.46831],[-90.30704,38.46824],[-90.30681,38.46821],[-90.30659,38.46822],[-90.30556,38.4682],[-90.30524,38.46929],[-90.30508,38.46989]]]}},{"type":"Feature","properties":{"stop_id":"10492","stop_code":"10492","stop_name":"TELEGRAPH @ KINGSTON NB","stop_desc":"NEAR SIDE TELEGRAPH @ KINGSTON NB","wheelchair_boarding":1,"routes":[{"route_id":"19597","agency_id":"70006","route_short_name":"9","route_long_name":"Oakville","route_type":3,"route_color":"#FFFFFF","route_text_color":"#000000"}],"agency_name":"Metro St. Louis"},"geometry":{"type":"Point","coordinates":[-90.29053,38.51205]}},{"type":"Feature","properties":{"stop_id":"10494","stop_code":"10494","stop_name":"KINGSTON @ SHETLAND NB","stop_desc":"NEAR SIDE KINGSTON @ SHETLAND NB","wheelchair_boarding":2,"routes":[{"route_id":"19597","agency_id":"70006","route_short_name":"9","route_long_name":"Oakville","route_type":3,"route_color":"#FFFFFF","route_text_color":"#000000"}],"agency_name":"Metro St. Louis"},"geometry":{"type":"Point","coordinates":[-90.28798,38.51338]}},{"type":"Feature","properties":{"stop_id":"10496","stop_code":"10496","stop_name":"KINGSTON @ EARLSFIELD NB","stop_desc":"NEAR SIDE KINGSTON @ EARLSFIELD NB","wheelchair_boarding":2,"routes":[{"route_id":"19597","agency_id":"70006","route_short_name":"9","route_long_name":"Oakville","route_type":3,"route_color":"#FFFFFF","route_text_color":"#000000"}],"agency_name":"Metro St. Louis"},"geometry":{"type":"Point","coordinates":[-90.28435,38.51534]}},{"type":"Feature","properties":{"stop_id":"10498","stop_code":"10498","stop_name":"KINGSTON @ PENTONVILLE NB","stop_desc":"NEAR SIDE KINGSTON @ PENTONVILLE NB","wheelchair_boarding":2,"routes":[{"route_id":"19597","agency_id":"70006","route_short_name":"9","route_long_name":"Oakville","route_type":3,"route_color":"#FFFFFF","route_text_color":"#000000"}],"agency_name":"Metro St. Louis"},"geometry":{"type":"Point","coordinates":[-90.28251,38.51725]}},{"type":"Feature","properties":{"stop_id":"10500","stop_code":"10500","stop_name":"KINGSTON @ CARRINGTON NB","stop_desc":"FAR SIDE KINGSTON @ CARRINGTON NB","wheelchair_boarding":2,"routes":[{"route_id":"19597","agency_id":"70006","route_short_name":"9","route_long_name":"Oakville","route_type":3,"route_color":"#FFFFFF","route_text_color":"#000000"}],"agency_name":"Metro St. Louis"},"geometry":{"type":"Point","coordinates":[-90.2806,38.51927]}},{"type":"Feature","properties":{"stop_id":"10501","stop_code":"10501","stop_name":"120 KINGSTON NB","stop_desc":"MID-BLOCK 120 KINGSTON NB","wheelchair_boarding":2,"routes":[{"route_id":"19597","agency_id":"70006","route_short_name":"9","route_long_name":"Oakville","route_type":3,"route_color":"#FFFFFF","route_text_color":"#000000"}],"agency_name":"Metro St. Louis"},"geometry":{"type":"Point","coordinates":[-90.27906,38.52086]}},{"type":"Feature","properties":{"stop_id":"10502","stop_code":"10502","stop_name":"BROADWAY @ RIPA NB","stop_desc":"FAR SIDE BROADWAY @ RIPA NB","wheelchair_boarding":1,"routes":[{"route_id":"19597","agency_id":"70006","route_short_name":"9","route_long_name":"Oakville","route_type":3,"route_color":"#FFFFFF","route_text_color":"#000000"}],"agency_name":"Metro St. Louis"},"geometry":{"type":"Point","coordinates":[-90.27721,38.52469]}},{"type":"Feature","properties":{"stop_id":"10504","stop_code":"10504","stop_name":"BROADWAY @ HOLDEN NB","stop_desc":"FAR SIDE BROADWAY @ HOLDEN NB","wheelchair_boarding":2,"routes":[{"route_id":"19597","agency_id":"70006","route_short_name":"9","route_long_name":"Oakville","route_type":3,"route_color":"#FFFFFF","route_text_color":"#000000"}],"agency_name":"Metro St. Louis"},"geometry":{"type":"Point","coordinates":[-90.27708,38.52902]}},{"type":"Feature","properties":{"stop_id":"10508","stop_code":"10508","stop_name":"BROADWAY @ HOFFMEISTER NB","stop_desc":"FAR SIDE BROADWAY @ HOFFMEISTER NB","wheelchair_boarding":1,"routes":[{"route_id":"19597","agency_id":"70006","route_short_name":"9","route_long_name":"Oakville","route_type":3,"route_color":"#FFFFFF","route_text_color":"#000000"}],"agency_name":"Metro St. Louis"},"geometry":{"type":"Point","coordinates":[-90.27497,38.53354]}},{"type":"Feature","properties":{"stop_id":"10509","stop_code":"10509","stop_name":"BROADWAY @ WEISS NB","stop_desc":"FAR SIDE BROADWAY @ WEISS NB","wheelchair_boarding":2,"routes":[{"route_id":"19597","agency_id":"70006","route_short_name":"9","route_long_name":"Oakville","route_type":3,"route_color":"#FFFFFF","route_text_color":"#000000"}],"agency_name":"Metro St. Louis"},"geometry":{"type":"Point","coordinates":[-90.27282,38.53481]}},{"type":"Feature","properties":{"stop_id":"10511","stop_code":"10511","stop_name":"BROADWAY @ RIVER CITY CASINO NB","stop_desc":"NEAR SIDE BROADWAY @ RIVER CITY CASINO NB","wheelchair_boarding":1,"routes":[{"route_id":"19597","agency_id":"70006","route_short_name":"9","route_long_name":"Oakville","route_type":3,"route_color":"#FFFFFF","route_text_color":"#000000"}],"agency_name":"Metro St. Louis"},"geometry":{"type":"Point","coordinates":[-90.26919,38.53745]}},{"type":"Feature","properties":{"stop_id":"10513","stop_code":"10513","stop_name":"MARCEAU @ BROADWAY WB","stop_desc":"FAR SIDE MARCEAU @ BROADWAY WB","wheelchair_boarding":2,"routes":[{"route_id":"19597","agency_id":"70006","route_short_name":"9","route_long_name":"Oakville","route_type":3,"route_color":"#FFFFFF","route_text_color":"#000000"}],"agency_name":"Metro St. Louis"},"geometry":{"type":"Point","coordinates":[-90.26466,38.54198]}},{"type":"Feature","properties":{"stop_id":"10514","stop_code":"10514","stop_name":"MARCEAU @ MINNESOTA NB","stop_desc":"NEAR SIDE MARCEAU @ MINNESOTA NB","wheelchair_boarding":2,"routes":[{"route_id":"19597","agency_id":"70006","route_short_name":"9","route_long_name":"Oakville","route_type":3,"route_color":"#FFFFFF","route_text_color":"#000000"}],"agency_name":"Metro St. Louis"},"geometry":{"type":"Point","coordinates":[-90.26608,38.54297]}},{"type":"Feature","properties":{"stop_id":"10516","stop_code":"10516","stop_name":"GERMANIA @ ALABAMA NB","stop_desc":"FAR SIDE GERMANIA @ ALABAMA NB","wheelchair_boarding":1,"routes":[{"route_id":"19597","agency_id":"70006","route_short_name":"9","route_long_name":"Oakville","route_type":3,"route_color":"#FFFFFF","route_text_color":"#000000"}],"agency_name":"Metro St. Louis"},"geometry":{"type":"Point","coordinates":[-90.27062,38.54632]}},{"type":"Feature","properties":{"stop_id":"10517","stop_code":"10517","stop_name":"GERMANIA @ ON-RAMP I-55 N NB","stop_desc":"NEAR SIDE GERMANIA @ ON-RAMP I-55 N NB","wheelchair_boarding":1,"routes":[{"route_id":"19597","agency_id":"70006","route_short_name":"9","route_long_name":"Oakville","route_type":3,"route_color":"#FFFFFF","route_text_color":"#000000"}],"agency_name":"Metro St. Louis"},"geometry":{"type":"Point","coordinates":[-90.27036,38.55135]}},{"type":"Feature","properties":{"stop_id":"15614","stop_code":"15614","stop_name":"GEBHARDT @ DELOAK SB","stop_desc":"NEAR SIDE GEBHARDT @ DELOAK SB","wheelchair_boarding":1,"routes":[{"route_id":"19597","agency_id":"70006","route_short_name":"9","route_long_name":"Oakville","route_type":3,"route_color":"#FFFFFF","route_text_color":"#000000"}],"agency_name":"Metro St. Louis"},"geometry":{"type":"Point","coordinates":[-90.30865,38.46975]}},{"type":"Feature","properties":{"stop_id":"16303","stop_code":"16303","stop_name":"SHREWSBURY-LANSDOWNE I-44 TRANSIT CENTER","wheelchair_boarding":1,"routes":[{"route_id":"19597","agency_id":"70006","route_short_name":"9","route_long_name":"Oakville","route_type":3,"route_color":"#FFFFFF","route_text_color":"#000000"},{"route_id":"19615","agency_id":"70006","route_short_name":"56","route_long_name":"Kirkwood-Webster","route_type":3,"route_color":"#FFFFFF","route_text_color":"#000000"}],"agency_name":"Metro St. Louis"},"geometry":{"type":"Point","coordinates":[-90.31943,38.59258]}},{"type":"Feature","properties":{"stop_id":"16374","stop_code":"16374","stop_name":"RIVER DES PERES @ LOUGHBOROUGH NB","stop_desc":"NEAR SIDE RIVER DES PERES @ LOUGHBOROUGH NB","wheelchair_boarding":2,"routes":[{"route_id":"19597","agency_id":"70006","route_short_name":"9","route_long_name":"Oakville","route_type":3,"route_color":"#FFFFFF","route_text_color":"#000000"}],"agency_name":"Metro St. Louis"},"geometry":{"type":"Point","coordinates":[-90.30853,38.57521]}},{"type":"Feature","properties":{"stop_id":"16375","stop_code":"16375","stop_name":"RIVER DES PERES @ OLDE ENGLISH NB","stop_desc":"NEAR SIDE RIVER DES PERES @ OLDE ENGLISH NB","wheelchair_boarding":2,"routes":[{"route_id":"19597","agency_id":"70006","route_short_name":"9","route_long_name":"Oakville","route_type":3,"route_color":"#FFFFFF","route_text_color":"#000000"}],"agency_name":"Metro St. Louis"},"geometry":{"type":"Point","coordinates":[-90.3016,38.56808]}},{"type":"Feature","properties":{"stop_id":"3266","stop_code":"3266","stop_name":"GERMANIA @ EUGENE NB","stop_desc":"FAR SIDE GERMANIA @ EUGENE NB","wheelchair_boarding":2,"routes":[{"route_id":"19597","agency_id":"70006","route_short_name":"9","route_long_name":"Oakville","route_type":3,"route_color":"#FFFFFF","route_text_color":"#000000"}],"agency_name":"Metro St. Louis"},"geometry":{"type":"Point","coordinates":[-90.27058,38.55472]}},{"type":"Feature","properties":{"stop_id":"3269","stop_code":"3269","stop_name":"GERMANIA @ SHARP NB","stop_desc":"FAR SIDE GERMANIA @ SHARP NB","wheelchair_boarding":1,"routes":[{"route_id":"19597","agency_id":"70006","route_short_name":"9","route_long_name":"Oakville","route_type":3,"route_color":"#FFFFFF","route_text_color":"#000000"}],"agency_name":"Metro St. Louis"},"geometry":{"type":"Point","coordinates":[-90.27847,38.55717]}},{"type":"Feature","properties":{"stop_id":"3271","stop_code":"3271","stop_name":"GERMANIA @ MORGANFORD NB","stop_desc":"FAR SIDE GERMANIA @ MORGANFORD NB","wheelchair_boarding":2,"routes":[{"route_id":"19597","agency_id":"70006","route_short_name":"9","route_long_name":"Oakville","route_type":3,"route_color":"#FFFFFF","route_text_color":"#000000"}],"agency_name":"Metro St. Louis"},"geometry":{"type":"Point","coordinates":[-90.28292,38.56045]}},{"type":"Feature","properties":{"stop_id":"3272","stop_code":"3272","stop_name":"GERMANIA @ PRIMM NB","stop_desc":"FAR SIDE GERMANIA @ PRIMM NB","wheelchair_boarding":1,"routes":[{"route_id":"19597","agency_id":"70006","route_short_name":"9","route_long_name":"Oakville","route_type":3,"route_color":"#FFFFFF","route_text_color":"#000000"}],"agency_name":"Metro St. Louis"},"geometry":{"type":"Point","coordinates":[-90.287,38.56168]}},{"type":"Feature","properties":{"stop_id":"3274","stop_code":"3274","stop_name":"GERMANIA @ STOLLE NB","stop_desc":"NEAR SIDE GERMANIA @ STOLLE NB","wheelchair_boarding":1,"routes":[{"route_id":"19597","agency_id":"70006","route_short_name":"9","route_long_name":"Oakville","route_type":3,"route_color":"#FFFFFF","route_text_color":"#000000"}],"agency_name":"Metro St. Louis"},"geometry":{"type":"Point","coordinates":[-90.29214,38.56237]}},{"type":"Feature","properties":{"stop_id":"3928","stop_code":"3928","stop_name":"TELEGRAPH @ SAPPINGTON BARRACKS EB","stop_desc":"FAR SIDE TELEGRAPH @ SAPPINGTON BARRACKS EB","wheelchair_boarding":1,"routes":[{"route_id":"19597","agency_id":"70006","route_short_name":"9","route_long_name":"Oakville","route_type":3,"route_color":"#FFFFFF","route_text_color":"#000000"}],"agency_name":"Metro St. Louis"},"geometry":{"type":"Point","coordinates":[-90.29733,38.50298]}},{"type":"Feature","properties":{"stop_id":"3929","stop_code":"3929","stop_name":"TELEGRAPH @ FRANVIEW PLAZA EB","stop_desc":"MID-BLOCK TELEGRAPH @ FRANVIEW PLAZA EB","wheelchair_boarding":2,"routes":[{"route_id":"19597","agency_id":"70006","route_short_name":"9","route_long_name":"Oakville","route_type":3,"route_color":"#FFFFFF","route_text_color":"#000000"}],"agency_name":"Metro St. Louis"},"geometry":{"type":"Point","coordinates":[-90.29676,38.50404]}},{"type":"Feature","properties":{"stop_id":"393","stop_code":"393","stop_name":"CATALAN TRANSIT CENTER","wheelchair_boarding":1,"routes":[{"route_id":"19597","agency_id":"70006","route_short_name":"9","route_long_name":"Oakville","route_type":3,"route_color":"#FFFFFF","route_text_color":"#000000"}],"agency_name":"Metro St. Louis"},"geometry":{"type":"Point","coordinates":[-90.26596,38.54006]}},{"type":"Feature","properties":{"stop_id":"3932","stop_code":"3932","stop_name":"TELEGRAPH @ BRILLIANT NB","stop_desc":"FAR SIDE TELEGRAPH @ BRILLIANT NB","wheelchair_boarding":2,"routes":[{"route_id":"19597","agency_id":"70006","route_short_name":"9","route_long_name":"Oakville","route_type":3,"route_color":"#FFFFFF","route_text_color":"#000000"}],"agency_name":"Metro St. Louis"},"geometry":{"type":"Point","coordinates":[-90.2942,38.50841]}},{"type":"Feature","properties":{"stop_id":"5624","stop_code":"5624","stop_name":"KINSWOOD @ SUNRISE HEIGHTS EB","stop_desc":"NEAR SIDE KINSWOOD @ SUNRISE HEIGHTS EB","wheelchair_boarding":2,"routes":[{"route_id":"19597","agency_id":"70006","route_short_name":"9","route_long_name":"Oakville","route_type":3,"route_color":"#FFFFFF","route_text_color":"#000000"}],"agency_name":"Metro St. Louis"},"geometry":{"type":"Point","coordinates":[-90.29328,38.49136]}},{"type":"Feature","properties":{"stop_id":"5637","stop_code":"5637","stop_name":"JEFFERSON @ VETERANS HOSPITAL BUILDING 51","stop_desc":"NEAR SIDE JEFFERSON @ VETERANS HOSPITAL BUILDING 51","wheelchair_boarding":1,"routes":[{"route_id":"19597","agency_id":"70006","route_short_name":"9","route_long_name":"Oakville","route_type":3,"route_color":"#FFFFFF","route_text_color":"#000000"}],"agency_name":"Metro St. Louis"},"geometry":{"type":"Point","coordinates":[-90.28202,38.49234]}},{"type":"Feature","properties":{"stop_id":"5638","stop_code":"5638","stop_name":"KOCH @ KINSWOOD NB","stop_desc":"FAR SIDE KOCH @ KINSWOOD NB","wheelchair_boarding":2,"routes":[{"route_id":"19597","agency_id":"70006","route_short_name":"9","route_long_name":"Oakville","route_type":3,"route_color":"#FFFFFF","route_text_color":"#000000"}],"agency_name":"Metro St. Louis"},"geometry":{"type":"Point","coordinates":[-90.28408,38.48825]}},{"type":"Feature","properties":{"stop_id":"5639","stop_code":"5639","stop_name":"KINSWOOD @ GATEWAY ACCESSIBLE HOUSING EB","stop_desc":"NEAR SIDE KINSWOOD @ GATEWAY ACCESSIBLE HOUSING EB","wheelchair_boarding":1,"routes":[{"route_id":"19597","agency_id":"70006","route_short_name":"9","route_long_name":"Oakville","route_type":3,"route_color":"#FFFFFF","route_text_color":"#000000"}],"agency_name":"Metro St. Louis"},"geometry":{"type":"Point","coordinates":[-90.28665,38.48857]}},{"type":"Feature","properties":{"stop_id":"5643","stop_code":"5643","stop_name":"KINSWOOD @ MARTIGNEY NB","stop_desc":"FAR SIDE KINSWOOD @ MARTIGNEY NB","wheelchair_boarding":2,"routes":[{"route_id":"19597","agency_id":"70006","route_short_name":"9","route_long_name":"Oakville","route_type":3,"route_color":"#FFFFFF","route_text_color":"#000000"}],"agency_name":"Metro St. Louis"},"geometry":{"type":"Point","coordinates":[-90.30271,38.49249]}},{"type":"Feature","properties":{"stop_id":"791","stop_code":"791","stop_name":"GRAVOIS @ HAMPTON WB","stop_desc":"FAR SIDE GRAVOIS @ HAMPTON WB","wheelchair_boarding":2,"routes":[{"route_id":"19597","agency_id":"70006","route_short_name":"9","route_long_name":"Oakville","route_type":3,"route_color":"#FFFFFF","route_text_color":"#000000"}],"agency_name":"Metro St. Louis"},"geometry":{"type":"Point","coordinates":[-90.2948,38.56404]}},{"type":"Feature","properties":{"stop_id":"8155","stop_code":"8155","stop_name":"TELEGRAPH @ BAUMGARTNER NB","stop_desc":"FAR SIDE TELEGRAPH @ BAUMGARTNER NB","wheelchair_boarding":1,"routes":[{"route_id":"19597","agency_id":"70006","route_short_name":"9","route_long_name":"Oakville","route_type":3,"route_color":"#FFFFFF","route_text_color":"#000000"}],"agency_name":"Metro St. Louis"},"geometry":{"type":"Point","coordinates":[-90.30459,38.47118]}},{"type":"Feature","properties":{"stop_id":"8179","stop_code":"8179","stop_name":"TELEGRAPH @ BAUMGARTNER SB","stop_desc":"NEAR SIDE TELEGRAPH @ BAUMGARTNER SB","wheelchair_boarding":2,"routes":[{"route_id":"19597","agency_id":"70006","route_short_name":"9","route_long_name":"Oakville","route_type":3,"route_color":"#FFFFFF","route_text_color":"#000000"}],"agency_name":"Metro St. Louis"},"geometry":{"type":"Point","coordinates":[-90.30495,38.47079]}},{"type":"Feature","properties":{"stop_id":"8180","stop_code":"8180","stop_name":"5500 TELEGRAPH NB","stop_desc":"MID-BLOCK 5500 TELEGRAPH NB","wheelchair_boarding":2,"routes":[{"route_id":"19597","agency_id":"70006","route_short_name":"9","route_long_name":"Oakville","route_type":3,"route_color":"#FFFFFF","route_text_color":"#000000"}],"agency_name":"Metro St. Louis"},"geometry":{"type":"Point","coordinates":[-90.30432,38.47281]}},{"type":"Feature","properties":{"stop_id":"8182","stop_code":"8182","stop_name":"TELEGRAPH @ CRESTLINE NB","stop_desc":"FAR SIDE TELEGRAPH @ CRESTLINE NB","wheelchair_boarding":2,"routes":[{"route_id":"19597","agency_id":"70006","route_short_name":"9","route_long_name":"Oakville","route_type":3,"route_color":"#FFFFFF","route_text_color":"#000000"}],"agency_name":"Metro St. Louis"},"geometry":{"type":"Point","coordinates":[-90.30431,38.47827]}},{"type":"Feature","properties":{"stop_id":"8185","stop_code":"8185","stop_name":"TELEGRAPH @ BURNCOATE NB","stop_desc":"FAR SIDE TELEGRAPH @ BURNCOATE NB","wheelchair_boarding":2,"routes":[{"route_id":"19597","agency_id":"70006","route_short_name":"9","route_long_name":"Oakville","route_type":3,"route_color":"#FFFFFF","route_text_color":"#000000"}],"agency_name":"Metro St. Louis"},"geometry":{"type":"Point","coordinates":[-90.30433,38.48295]}},{"type":"Feature","properties":{"stop_id":"8186","stop_code":"8186","stop_name":"TELEGRAPH @ POTTLE NB","stop_desc":"FAR SIDE TELEGRAPH @ POTTLE NB","wheelchair_boarding":2,"routes":[{"route_id":"19597","agency_id":"70006","route_short_name":"9","route_long_name":"Oakville","route_type":3,"route_color":"#FFFFFF","route_text_color":"#000000"}],"agency_name":"Metro St. Louis"},"geometry":{"type":"Point","coordinates":[-90.30411,38.48576]}},{"type":"Feature","properties":{"stop_id":"8187","stop_code":"8187","stop_name":"TELEGRAPH @ GOLDEN VALLEY NB","stop_desc":"FAR SIDE TELEGRAPH @ GOLDEN VALLEY NB","wheelchair_boarding":2,"routes":[{"route_id":"19597","agency_id":"70006","route_short_name":"9","route_long_name":"Oakville","route_type":3,"route_color":"#FFFFFF","route_text_color":"#000000"}],"agency_name":"Metro St. Louis"},"geometry":{"type":"Point","coordinates":[-90.30387,38.48875]}},{"type":"Feature","properties":{"stop_id":"8189","stop_code":"8189","stop_name":"TELEGRAPH @ BARRACKSVIEW NB","stop_desc":"FAR SIDE TELEGRAPH @ BARRACKSVIEW NB","wheelchair_boarding":1,"routes":[{"route_id":"19597","agency_id":"70006","route_short_name":"9","route_long_name":"Oakville","route_type":3,"route_color":"#FFFFFF","route_text_color":"#000000"}],"agency_name":"Metro St. Louis"},"geometry":{"type":"Point","coordinates":[-90.30013,38.49789]}},{"type":"Feature","properties":{"stop_id":"8191","stop_code":"8191","stop_name":"TELEGRAPH @ LIN-TEL NB","stop_desc":"FAR SIDE TELEGRAPH @ LIN-TEL NB","wheelchair_boarding":2,"routes":[{"route_id":"19597","agency_id":"70006","route_short_name":"9","route_long_name":"Oakville","route_type":3,"route_color":"#FFFFFF","route_text_color":"#000000"}],"agency_name":"Metro St. Louis"},"geometry":{"type":"Point","coordinates":[-90.29876,38.5005]}}]}