{"type":"FeatureCollection","features":[{"type":"Feature","properties":{"agency_name":"Metro St. Louis","route_id":"19625","agency_id":"70006","route_short_name":"76","route_long_name":"N Hanley Shuttle","route_type":3,"route_color":"#FFFFFF","route_text_color":"#000000"},"geometry":{"type":"MultiLineString","coordinates":[[[-90.31561,38.71975],[-90.315,38.71977],[-90.31561,38.71975],[-90.31577,38.71967],[-90.31586,38.7195],[-90.31606,38.71875],[-90.3161,38.71825],[-90.31606,38.71782],[-90.31624,38.71782],[-90.31782,38.71823],[-90.31762,38.71869],[-90.31721,38.71952],[-90.31716,38.71967],[-90.3171,38.72013],[-90.31713,38.72098],[-90.31719,38.72146],[-90.31718,38.72166],[-90.31708,38.7221],[-90.31685,38.7229],[-90.31677,38.72334],[-90.31679,38.72365],[-90.31687,38.72395],[-90.31696,38.72414],[-90.31723,38.72455],[-90.31906,38.72665],[-90.31928,38.72689],[-90.31953,38.72712],[-90.3198,38.72732],[-90.32011,38.7275],[-90.32373,38.72935],[-90.32411,38.72958],[-90.32439,38.72978],[-90.32519,38.73046],[-90.32658,38.73149],[-90.32729,38.73206],[-90.33078,38.73469],[-90.33102,38.73493],[-90.33123,38.73519],[-90.33162,38.73574],[-90.33447,38.74017],[-90.33456,38.74036],[-90.33465,38.74067],[-90.33469,38.74089],[-90.33417,38.7411],[-90.33368,38.74105],[-90.33329,38.74097],[-90.33288,38.74075],[-90.3326,38.74039],[-90.33258,38.7384],[-90.33232,38.73789],[-90.3318,38.73748],[-90.32974,38.73676]],[[-90.3347,38.74116],[-90.33417,38.7411],[-90.3347,38.74116],[-90.33469,38.7432],[-90.33471,38.74461],[-90.33491,38.74773],[-90.335,38.7489],[-90.33508,38.74955],[-90.33516,38.75003],[-90.33532,38.75078],[-90.33535,38.75109],[-90.33533,38.75141],[-90.33529,38.75167],[-90.33488,38.75347],[-90.33456,38.75506],[-90.3345,38.75547],[-90.33443,38.75572],[-90.33438,38.75601],[-90.33439,38.75634],[-90.33443,38.75655],[-90.33451,38.75675],[-90.33462,38.75693],[-90.33475,38.75709],[-90.3349,38.75723],[-90.33507,38.75736],[-90.33537,38.75752],[-90.33666,38.75801],[-90.33682,38.75809],[-90.33701,38.75822],[-90.33719,38.75837],[-90.33742,38.75868],[-90.3375,38.75886],[-90.33758,38.75913],[-90.33761,38.75935],[-90.33758,38.75961],[-90.33749,38.7601],[-90.33726,38.76109],[-90.33694,38.76264],[-90.33877,38.76282],[-90.33959,38.76292],[-90.33949,38.76365],[-90.3395,38.76383],[-90.33958,38.76406],[-90.34012,38.76518],[-90.34158,38.76805],[-90.34195,38.76884],[-90.34317,38.77127],[-90.34355,38.7721],[-90.34367,38.77242],[-90.34376,38.77279],[-90.34384,38.77319],[-90.34387,38.77362],[-90.34385,38.77396],[-90.34373,38.77455],[-90.34357,38.77518],[-90.34347,38.77534],[-90.34195,38.77466],[-90.34163,38.77444],[-90.34101,38.77421],[-90.34076,38.77417],[-90.34047,38.77417],[-90.33999,38.77422],[-90.33966,38.77431],[-90.33852,38.77481],[-90.3381,38.77492],[-90.33733,38.77489],[-90.33698,38.77478],[-90.33624,38.77449],[-90.33553,38.77428],[-90.33505,38.7743],[-90.33498,38.77509],[-90.33493,38.77594],[-90.33591,38.77602],[-90.33766,38.7762],[-90.33783,38.77623],[-90.33892,38.77633],[-90.34566,38.77703],[-90.34754,38.77718],[-90.35076,38.77752],[-90.35137,38.77757],[-90.35394,38.77785],[-90.35604,38.77814],[-90.35861,38.77955],[-90.36047,38.77986],[-90.36066,38.77963],[-90.36082,38.77928],[-90.36085,38.77902],[-90.36114,38.77789],[-90.36095,38.77609],[-90.361,38.77573],[-90.36157,38.77476],[-90.36195,38.77431],[-90.36238,38.77384],[-90.36288,38.77326],[-90.363,38.77309],[-90.36391,38.77195],[-90.36449,38.7713],[-90.36526,38.77035],[-90.3659,38.7696],[-90.36605,38.76941],[-90.3662,38.76912],[-90.36627,38.76903],[-90.36744,38.76767],[-90.36787,38.7672],[-90.36846,38.76646],[-90.37129,38.76309],[-90.3731,38.76119],[-90.37248,38.76084],[-90.37234,38.76104],[-90.37235,38.76154]],[[-90.3347,38.74116],[-90.33469,38.74089]],[[-90.33493,38.77624],[-90.33493,38.77594],[-90.33493,38.7766],[-90.33498,38.77874],[-90.33497,38.78045],[-90.33499,38.78242],[-90.335,38.79022],[-90.33497,38.79067],[-90.33493,38.79081],[-90.33474,38.79112],[-90.33298,38.79331],[-90.33254,38.79389],[-90.33188,38.7947],[-90.32919,38.79809],[-90.32861,38.79881],[-90.32738,38.79907],[-90.32226,38.79808],[-90.32169,38.79802],[-90.32136,38.79801],[-90.3209,38.79802],[-90.32029,38.79809],[-90.31972,38.79822],[-90.31937,38.79832],[-90.31906,38.79843],[-90.31847,38.7987],[-90.31738,38.79932],[-90.3167,38.79968],[-90.31616,38.79988],[-90.31605,38.79983],[-90.31593,38.79969],[-90.31594,38.79818],[-90.31597,38.79792],[-90.31607,38.79757],[-90.31616,38.79737],[-90.31638,38.79701],[-90.31932,38.7933],[-90.32003,38.79244],[-90.32139,38.79073],[-90.32246,38.79126]]]}},{"type":"Feature","properties":{"stop_id":"13330","stop_code":"13330","stop_name":"NORTH HANLEY TRANSIT CENTER","wheelchair_boarding":1,"routes":[{"route_id":"19594","agency_id":"70006","route_short_name":"4","route_long_name":"Natural Bridge","route_type":3,"route_color":"#FFFFFF","route_text_color":"#000000"},{"route_id":"19609","agency_id":"70006","route_short_name":"34","route_long_name":"Earth City","route_type":3,"route_color":"#FFFFFF","route_text_color":"#000000"},{"route_id":"19614","agency_id":"70006","route_short_name":"49","route_long_name":"Lindbergh","route_type":3,"route_color":"#FFFFFF","route_text_color":"#000000"},{"route_id":"19620","agency_id":"70006","route_short_name":"61","route_long_name":"Chambers Rd","route_type":3,"route_color":"#FFFFFF","route_text_color":"#000000"},{"route_id":"19625","agency_id":"70006","route_short_name":"76","route_long_name":"N Hanley Shuttle","route_type":3,"route_color":"#FFFFFF","route_text_color":"#000000"},{"route_id":"19626","agency_id":"70006","route_short_name":"77","route_long_name":"Village Square","route_type":3,"route_color":"#FFFFFF","route_text_color":"#000000"},{"route_id":"19628","agency_id":"70006","route_short_name":"79","route_long_name":"Ferguson-Clayton","route_type":3,"route_color":"#FFFFFF","route_text_color":"#000000"}],"agency_name":"Metro St. Louis"},"geometry":{"type":"Point","coordinates":[-90.31495,38.71976]}},{"type":"Feature","properties":{"stop_id":"13567","stop_code":"13567","stop_name":"NORTH HANLEY @ AIRPORT NB","stop_desc":"NEAR SIDE NORTH HANLEY @ AIRPORT NB","wheelchair_boarding":1,"routes":[{"route_id":"19620","agency_id":"70006","route_short_name":"61","route_long_name":"Chambers Rd","route_type":3,"route_color":"#FFFFFF","route_text_color":"#000000"},{"route_id":"19625","agency_id":"70006","route_short_name":"76","route_long_name":"N Hanley Shuttle","route_type":3,"route_color":"#FFFFFF","route_text_color":"#000000"},{"route_id":"19626","agency_id":"70006","route_short_name":"77","route_long_name":"Village Square","route_type":3,"route_color":"#FFFFFF","route_text_color":"#000000"}],"agency_name":"Metro St. Louis"},"geometry":{"type":"Point","coordinates":[-90.33493,38.74927]}},{"type":"Feature","properties":{"stop_id":"14654","stop_code":"14654","stop_name":"NORTH HANLEY @ MADISON NB","stop_desc":"FAR SIDE NORTH HANLEY @ MADISON NB","wheelchair_boarding":1,"routes":[{"route_id":"19620","agency_id":"70006","route_short_name":"61","route_long_name":"Chambers Rd","route_type":3,"route_color":"#FFFFFF","route_text_color":"#000000"},{"route_id":"19625","agency_id":"70006","route_short_name":"76","route_long_name":"N Hanley Shuttle","route_type":3,"route_color":"#FFFFFF","route_text_color":"#000000"},{"route_id":"19626","agency_id":"70006","route_short_name":"77","route_long_name":"Village Square","route_type":3,"route_color":"#FFFFFF","route_text_color":"#000000"},{"route_id":"19635","agency_id":"70006","route_short_name":"100","route_long_name":"Hazelwood","route_type":3,"route_color":"#FFFFFF","route_text_color":"#000000"}],"agency_name":"Metro St. Louis"},"geometry":{"type":"Point","coordinates":[-90.33479,38.74691]}},{"type":"Feature","properties":{"stop_id":"16271","stop_code":"16271","stop_name":"HAZELWOOD @ SEEGER INDUSTRIAL NB","stop_desc":"FAR SIDE HAZELWOOD @ SEEGER INDUSTRIAL NB","wheelchair_boarding":2,"routes":[{"route_id":"19625","agency_id":"70006","route_short_name":"76","route_long_name":"N Hanley Shuttle","route_type":3,"route_color":"#FFFFFF","route_text_color":"#000000"}],"agency_name":"Metro St. Louis"},"geometry":{"type":"Point","coordinates":[-90.33955,38.76424]}},{"type":"Feature","properties":{"stop_id":"16272","stop_code":"16272","stop_name":"HAZELWOOD @ HAZELWOOD TECH NB","stop_desc":"NEAR SIDE HAZELWOOD @ HAZELWOOD TECH NB","wheelchair_boarding":2,"routes":[{"route_id":"19625","agency_id":"70006","route_short_name":"76","route_long_name":"N Hanley Shuttle","route_type":3,"route_color":"#FFFFFF","route_text_color":"#000000"}],"agency_name":"Metro St. Louis"},"geometry":{"type":"Point","coordinates":[-90.34378,38.77375]}},{"type":"Feature","properties":{"stop_id":"16310","stop_code":"16310","stop_name":"HAZELWOOD @ LATTY NB","stop_desc":"FAR SIDE HAZELWOOD @ LATTY NB","wheelchair_boarding":2,"routes":[{"route_id":"19625","agency_id":"70006","route_short_name":"76","route_long_name":"N Hanley Shuttle","route_type":3,"route_color":"#FFFFFF","route_text_color":"#000000"}],"agency_name":"Metro St. Louis"},"geometry":{"type":"Point","coordinates":[-90.34161,38.76835]}},{"type":"Feature","properties":{"stop_id":"16393","stop_code":"16393","stop_name":"DUNN @ HAZELCREST WB","stop_desc":"NEAR SIDE DUNN @ HAZELCREST WB","wheelchair_boarding":2,"routes":[{"route_id":"19625","agency_id":"70006","route_short_name":"76","route_long_name":"N Hanley Shuttle","route_type":3,"route_color":"#FFFFFF","route_text_color":"#000000"}],"agency_name":"Metro St. Louis"},"geometry":{"type":"Point","coordinates":[-90.34051,38.77657]}},{"type":"Feature","properties":{"stop_id":"16394","stop_code":"16394","stop_name":"DUNN @ NORMANDIE WB","stop_desc":"NEAR SIDE DUNN @ NORMANDIE WB","wheelchair_boarding":2,"routes":[{"route_id":"19625","agency_id":"70006","route_short_name":"76","route_long_name":"N Hanley Shuttle","route_type":3,"route_color":"#FFFFFF","route_text_color":"#000000"}],"agency_name":"Metro St. Louis"},"geometry":{"type":"Point","coordinates":[-90.34548,38.77707]}},{"type":"Feature","properties":{"stop_id":"16398","stop_code":"16398","stop_name":"55 DUNN WB","stop_desc":"MID-BLOCK 55 DUNN WB","wheelchair_boarding":2,"routes":[{"route_id":"19625","agency_id":"70006","route_short_name":"76","route_long_name":"N Hanley Shuttle","route_type":3,"route_color":"#FFFFFF","route_text_color":"#000000"}],"agency_name":"Metro St. Louis"},"geometry":{"type":"Point","coordinates":[-90.33639,38.77615]}},{"type":"Feature","properties":{"stop_id":"16404","stop_code":"16404","stop_name":"NORTH HANLEY @ IRVINGTON NB","stop_desc":"FAR SIDE NORTH HANLEY @ IRVINGTON NB","wheelchair_boarding":2,"routes":[{"route_id":"19620","agency_id":"70006","route_short_name":"61","route_long_name":"Chambers Rd","route_type":3,"route_color":"#FFFFFF","route_text_color":"#000000"},{"route_id":"19625","agency_id":"70006","route_short_name":"76","route_long_name":"N Hanley Shuttle","route_type":3,"route_color":"#FFFFFF","route_text_color":"#000000"},{"route_id":"19626","agency_id":"70006","route_short_name":"77","route_long_name":"Village Square","route_type":3,"route_color":"#FFFFFF","route_text_color":"#000000"},{"route_id":"19635","agency_id":"70006","route_short_name":"100","route_long_name":"Hazelwood","route_type":3,"route_color":"#FFFFFF","route_text_color":"#000000"}],"agency_name":"Metro St. Louis"},"geometry":{"type":"Point","coordinates":[-90.33064,38.73465]}},{"type":"Feature","properties":{"stop_id":"16410","stop_code":"16410","stop_name":"SCHNUCKS DISTRIBUTION LOOP","stop_desc":"FAR SIDE SCHNUCKS DISTRIBUTION LOOP","wheelchair_boarding":1,"routes":[{"route_id":"19625","agency_id":"70006","route_short_name":"76","route_long_name":"N Hanley Shuttle","route_type":3,"route_color":"#FFFFFF","route_text_color":"#000000"}],"agency_name":"Metro St. Louis"},"geometry":{"type":"Point","coordinates":[-90.33264,38.73858]}},{"type":"Feature","properties":{"stop_id":"16418","stop_code":"16418","stop_name":"PERSHALL @ NORTH HANLEY EB","stop_desc":"NEAR SIDE PERSHALL @ NORTH HANLEY EB","wheelchair_boarding":2,"routes":[{"route_id":"19625","agency_id":"70006","route_short_name":"76","route_long_name":"N Hanley Shuttle","route_type":3,"route_color":"#FFFFFF","route_text_color":"#000000"},{"route_id":"19626","agency_id":"70006","route_short_name":"77","route_long_name":"Village Square","route_type":3,"route_color":"#FFFFFF","route_text_color":"#000000"}],"agency_name":"Metro St. Louis"},"geometry":{"type":"Point","coordinates":[-90.33709,38.77478]}},{"type":"Feature","properties":{"stop_id":"16500","stop_code":"16500","stop_name":"NEW FLORISSANT @ PARKER SB","stop_desc":"NEAR SIDE NEW FLORISSANT @ PARKER SB","wheelchair_boarding":2,"routes":[{"route_id":"19625","agency_id":"70006","route_short_name":"76","route_long_name":"N Hanley Shuttle","route_type":3,"route_color":"#FFFFFF","route_text_color":"#000000"}],"agency_name":"Metro St. Louis"},"geometry":{"type":"Point","coordinates":[-90.31731,38.79601]}},{"type":"Feature","properties":{"stop_id":"16545","stop_code":"16545","stop_name":"NEW FLORISSANT @ SAINT LOUIS SB","stop_desc":"NEAR SIDE NEW FLORISSANT @ SAINT LOUIS SB","wheelchair_boarding":2,"routes":[{"route_id":"19625","agency_id":"70006","route_short_name":"76","route_long_name":"N Hanley Shuttle","route_type":3,"route_color":"#FFFFFF","route_text_color":"#000000"}],"agency_name":"Metro St. Louis"},"geometry":{"type":"Point","coordinates":[-90.32074,38.7917]}},{"type":"Feature","properties":{"stop_id":"16548","stop_code":"16548","stop_name":"DUNN @ TAYLOR WB","stop_desc":"FAR SIDE DUNN @ TAYLOR WB","wheelchair_boarding":2,"routes":[{"route_id":"19625","agency_id":"70006","route_short_name":"76","route_long_name":"N Hanley Shuttle","route_type":3,"route_color":"#FFFFFF","route_text_color":"#000000"}],"agency_name":"Metro St. Louis"},"geometry":{"type":"Point","coordinates":[-90.35116,38.77763]}},{"type":"Feature","properties":{"stop_id":"4610","stop_code":"4610","stop_name":"LINDBERGH @ MCDONNELL SB","stop_desc":"NEAR SIDE LINDBERGH @ MCDONNELL SB","wheelchair_boarding":2,"routes":[{"route_id":"19625","agency_id":"70006","route_short_name":"76","route_long_name":"N Hanley Shuttle","route_type":3,"route_color":"#FFFFFF","route_text_color":"#000000"}],"agency_name":"Metro St. Louis"},"geometry":{"type":"Point","coordinates":[-90.36998,38.76481]}},{"type":"Feature","properties":{"stop_id":"5550","stop_code":"5550","stop_name":"LINDBERGH @ UTZ SB","stop_desc":"NEAR SIDE LINDBERGH @ UTZ SB","wheelchair_boarding":1,"routes":[{"route_id":"19625","agency_id":"70006","route_short_name":"76","route_long_name":"N Hanley Shuttle","route_type":3,"route_color":"#FFFFFF","route_text_color":"#000000"}],"agency_name":"Metro St. Louis"},"geometry":{"type":"Point","coordinates":[-90.36353,38.77261]}},{"type":"Feature","properties":{"stop_id":"5551","stop_code":"5551","stop_name":"LINDBERGH @ FEE FEE HILLS SB","stop_desc":"FAR SIDE LINDBERGH @ FEE FEE HILLS SB","wheelchair_boarding":1,"routes":[{"route_id":"19625","agency_id":"70006","route_short_name":"76","route_long_name":"N Hanley Shuttle","route_type":3,"route_color":"#FFFFFF","route_text_color":"#000000"}],"agency_name":"Metro St. Louis"},"geometry":{"type":"Point","coordinates":[-90.36517,38.77069]}},{"type":"Feature","properties":{"stop_id":"5552","stop_code":"5552","stop_name":"LINDBERGH @ CHAPEL RIDGE SB","stop_desc":"NEAR SIDE LINDBERGH @ CHAPEL RIDGE SB","wheelchair_boarding":1,"routes":[{"route_id":"19625","agency_id":"70006","route_short_name":"76","route_long_name":"N Hanley Shuttle","route_type":3,"route_color":"#FFFFFF","route_text_color":"#000000"}],"agency_name":"Metro St. Louis"},"geometry":{"type":"Point","coordinates":[-90.36615,38.76947]}},{"type":"Feature","properties":{"stop_id":"5553","stop_code":"5553","stop_name":"LINDBERGH @ MCDONNELL SB","stop_desc":"NEAR SIDE LINDBERGH @ MCDONNELL SB","wheelchair_boarding":2,"routes":[{"route_id":"19625","agency_id":"70006","route_short_name":"76","route_long_name":"N Hanley Shuttle","route_type":3,"route_color":"#FFFFFF","route_text_color":"#000000"}],"agency_name":"Metro St. Louis"},"geometry":{"type":"Point","coordinates":[-90.36967,38.76531]}},{"type":"Feature","properties":{"stop_id":"5733","stop_code":"5733","stop_name":"LINDBERGH @ HAZELWOOD LOGISTICS NB","stop_desc":"MID-BLOCK LINDBERGH @ HAZELWOOD LOGISTICS NB","wheelchair_boarding":1,"routes":[{"route_id":"19625","agency_id":"70006","route_short_name":"76","route_long_name":"N Hanley Shuttle","route_type":3,"route_color":"#FFFFFF","route_text_color":"#000000"}],"agency_name":"Metro St. Louis"},"geometry":{"type":"Point","coordinates":[-90.37212,38.76207]}},{"type":"Feature","properties":{"stop_id":"5749","stop_code":"5749","stop_name":"LINDBERGH @ SAINT JEAN EB","stop_desc":"FAR SIDE LINDBERGH @ SAINT JEAN EB","wheelchair_boarding":1,"routes":[{"route_id":"19625","agency_id":"70006","route_short_name":"76","route_long_name":"N Hanley Shuttle","route_type":3,"route_color":"#FFFFFF","route_text_color":"#000000"},{"route_id":"19626","agency_id":"70006","route_short_name":"77","route_long_name":"Village Square","route_type":3,"route_color":"#FFFFFF","route_text_color":"#000000"}],"agency_name":"Metro St. Louis"},"geometry":{"type":"Point","coordinates":[-90.32531,38.79863]}},{"type":"Feature","properties":{"stop_id":"5751","stop_code":"5751","stop_name":"LINDBERGH @ LAFAYETTE EB","stop_desc":"NEAR SIDE LINDBERGH @ LAFAYETTE EB","wheelchair_boarding":2,"routes":[{"route_id":"19625","agency_id":"70006","route_short_name":"76","route_long_name":"N Hanley Shuttle","route_type":3,"route_color":"#FFFFFF","route_text_color":"#000000"},{"route_id":"19626","agency_id":"70006","route_short_name":"77","route_long_name":"Village Square","route_type":3,"route_color":"#FFFFFF","route_text_color":"#000000"}],"agency_name":"Metro St. Louis"},"geometry":{"type":"Point","coordinates":[-90.32185,38.798]}},{"type":"Feature","properties":{"stop_id":"5752","stop_code":"5752","stop_name":"LINDBERGH @ BRIGHTWELL COURT EB","stop_desc":"FAR SIDE LINDBERGH @ BRIGHTWELL COURT EB","wheelchair_boarding":2,"routes":[{"route_id":"19625","agency_id":"70006","route_short_name":"76","route_long_name":"N Hanley Shuttle","route_type":3,"route_color":"#FFFFFF","route_text_color":"#000000"},{"route_id":"19626","agency_id":"70006","route_short_name":"77","route_long_name":"Village Square","route_type":3,"route_color":"#FFFFFF","route_text_color":"#000000"}],"agency_name":"Metro St. Louis"},"geometry":{"type":"Point","coordinates":[-90.31882,38.79847]}},{"type":"Feature","properties":{"stop_id":"5753","stop_code":"5753","stop_name":"LINDBERGH @ NEW FLORISSANT EB","stop_desc":"NEAR SIDE LINDBERGH @ NEW FLORISSANT EB","wheelchair_boarding":1,"routes":[{"route_id":"19625","agency_id":"70006","route_short_name":"76","route_long_name":"N Hanley Shuttle","route_type":3,"route_color":"#FFFFFF","route_text_color":"#000000"},{"route_id":"19626","agency_id":"70006","route_short_name":"77","route_long_name":"Village Square","route_type":3,"route_color":"#FFFFFF","route_text_color":"#000000"}],"agency_name":"Metro St. Louis"},"geometry":{"type":"Point","coordinates":[-90.31627,38.79982]}},{"type":"Feature","properties":{"stop_id":"6049","stop_code":"6049","stop_name":"SAINT FRANCOIS @ BOONE WB","stop_desc":"FAR SIDE SAINT FRANCOIS @ BOONE WB","wheelchair_boarding":2,"routes":[{"route_id":"19625","agency_id":"70006","route_short_name":"76","route_long_name":"N Hanley Shuttle","route_type":3,"route_color":"#FFFFFF","route_text_color":"#000000"}],"agency_name":"Metro St. Louis"},"geometry":{"type":"Point","coordinates":[-90.32343,38.79182]}},{"type":"Feature","properties":{"stop_id":"6055","stop_code":"6055","stop_name":"SAINT FERDINAND @ SAINT CATHERINE NB","stop_desc":"NEAR SIDE SAINT FERDINAND @ SAINT CATHERINE NB","wheelchair_boarding":1,"routes":[{"route_id":"19625","agency_id":"70006","route_short_name":"76","route_long_name":"N Hanley Shuttle","route_type":3,"route_color":"#FFFFFF","route_text_color":"#000000"}],"agency_name":"Metro St. Louis"},"geometry":{"type":"Point","coordinates":[-90.33188,38.79451]}},{"type":"Feature","properties":{"stop_id":"6064","stop_code":"6064","stop_name":"NORTH HANLEY @ EVANS NB","stop_desc":"NEAR SIDE NORTH HANLEY @ EVANS NB","wheelchair_boarding":1,"routes":[{"route_id":"19620","agency_id":"70006","route_short_name":"61","route_long_name":"Chambers Rd","route_type":3,"route_color":"#FFFFFF","route_text_color":"#000000"},{"route_id":"19625","agency_id":"70006","route_short_name":"76","route_long_name":"N Hanley Shuttle","route_type":3,"route_color":"#FFFFFF","route_text_color":"#000000"},{"route_id":"19626","agency_id":"70006","route_short_name":"77","route_long_name":"Village Square","route_type":3,"route_color":"#FFFFFF","route_text_color":"#000000"},{"route_id":"19635","agency_id":"70006","route_short_name":"100","route_long_name":"Hazelwood","route_type":3,"route_color":"#FFFFFF","route_text_color":"#000000"}],"agency_name":"Metro St. Louis"},"geometry":{"type":"Point","coordinates":[-90.3168,38.72282]}},{"type":"Feature","properties":{"stop_id":"6067","stop_code":"6067","stop_name":"NORTH HANLEY @ ZEV NB","stop_desc":"FAR SIDE NORTH HANLEY @ ZEV NB","wheelchair_boarding":1,"routes":[{"route_id":"19620","agency_id":"70006","route_short_name":"61","route_long_name":"Chambers Rd","route_type":3,"route_color":"#FFFFFF","route_text_color":"#000000"},{"route_id":"19625","agency_id":"70006","route_short_name":"76","route_long_name":"N Hanley Shuttle","route_type":3,"route_color":"#FFFFFF","route_text_color":"#000000"},{"route_id":"19626","agency_id":"70006","route_short_name":"77","route_long_name":"Village Square","route_type":3,"route_color":"#FFFFFF","route_text_color":"#000000"},{"route_id":"19635","agency_id":"70006","route_short_name":"100","route_long_name":"Hazelwood","route_type":3,"route_color":"#FFFFFF","route_text_color":"#000000"}],"agency_name":"Metro St. Louis"},"geometry":{"type":"Point","coordinates":[-90.3216,38.72835]}},{"type":"Feature","properties":{"stop_id":"6068","stop_code":"6068","stop_name":"NORTH HANLEY @ REV JOHN MITCHELL NB","stop_desc":"NEAR SIDE NORTH HANLEY @ REV JOHN MITCHELL NB","wheelchair_boarding":1,"routes":[{"route_id":"19620","agency_id":"70006","route_short_name":"61","route_long_name":"Chambers Rd","route_type":3,"route_color":"#FFFFFF","route_text_color":"#000000"},{"route_id":"19625","agency_id":"70006","route_short_name":"76","route_long_name":"N Hanley Shuttle","route_type":3,"route_color":"#FFFFFF","route_text_color":"#000000"},{"route_id":"19626","agency_id":"70006","route_short_name":"77","route_long_name":"Village Square","route_type":3,"route_color":"#FFFFFF","route_text_color":"#000000"},{"route_id":"19635","agency_id":"70006","route_short_name":"100","route_long_name":"Hazelwood","route_type":3,"route_color":"#FFFFFF","route_text_color":"#000000"}],"agency_name":"Metro St. Louis"},"geometry":{"type":"Point","coordinates":[-90.32493,38.73034]}},{"type":"Feature","properties":{"stop_id":"6078","stop_code":"6078","stop_name":"NORTH HANLEY @ SCUDDER NB","stop_desc":"NEAR SIDE NORTH HANLEY @ SCUDDER NB","wheelchair_boarding":1,"routes":[{"route_id":"19620","agency_id":"70006","route_short_name":"61","route_long_name":"Chambers Rd","route_type":3,"route_color":"#FFFFFF","route_text_color":"#000000"},{"route_id":"19625","agency_id":"70006","route_short_name":"76","route_long_name":"N Hanley Shuttle","route_type":3,"route_color":"#FFFFFF","route_text_color":"#000000"},{"route_id":"19626","agency_id":"70006","route_short_name":"77","route_long_name":"Village Square","route_type":3,"route_color":"#FFFFFF","route_text_color":"#000000"},{"route_id":"19635","agency_id":"70006","route_short_name":"100","route_long_name":"Hazelwood","route_type":3,"route_color":"#FFFFFF","route_text_color":"#000000"}],"agency_name":"Metro St. Louis"},"geometry":{"type":"Point","coordinates":[-90.3346,38.74079]}},{"type":"Feature","properties":{"stop_id":"6079","stop_code":"6079","stop_name":"5860 NORTH HANLEY NB","stop_desc":"MID-BLOCK 5860 NORTH HANLEY NB","wheelchair_boarding":1,"routes":[{"route_id":"19620","agency_id":"70006","route_short_name":"61","route_long_name":"Chambers Rd","route_type":3,"route_color":"#FFFFFF","route_text_color":"#000000"},{"route_id":"19625","agency_id":"70006","route_short_name":"76","route_long_name":"N Hanley Shuttle","route_type":3,"route_color":"#FFFFFF","route_text_color":"#000000"},{"route_id":"19626","agency_id":"70006","route_short_name":"77","route_long_name":"Village Square","route_type":3,"route_color":"#FFFFFF","route_text_color":"#000000"},{"route_id":"19635","agency_id":"70006","route_short_name":"100","route_long_name":"Hazelwood","route_type":3,"route_color":"#FFFFFF","route_text_color":"#000000"}],"agency_name":"Metro St. Louis"},"geometry":{"type":"Point","coordinates":[-90.33463,38.74285]}},{"type":"Feature","properties":{"stop_id":"6080","stop_code":"6080","stop_name":"NORTH HANLEY @ 5TH AVENUE NB","stop_desc":"FAR SIDE NORTH HANLEY @ 5TH AVENUE NB","wheelchair_boarding":1,"routes":[{"route_id":"19620","agency_id":"70006","route_short_name":"61","route_long_name":"Chambers Rd","route_type":3,"route_color":"#FFFFFF","route_text_color":"#000000"},{"route_id":"19625","agency_id":"70006","route_short_name":"76","route_long_name":"N Hanley Shuttle","route_type":3,"route_color":"#FFFFFF","route_text_color":"#000000"},{"route_id":"19626","agency_id":"70006","route_short_name":"77","route_long_name":"Village Square","route_type":3,"route_color":"#FFFFFF","route_text_color":"#000000"},{"route_id":"19635","agency_id":"70006","route_short_name":"100","route_long_name":"Hazelwood","route_type":3,"route_color":"#FFFFFF","route_text_color":"#000000"}],"agency_name":"Metro St. Louis"},"geometry":{"type":"Point","coordinates":[-90.33468,38.74538]}},{"type":"Feature","properties":{"stop_id":"6082","stop_code":"6082","stop_name":"NORTH HANLEY @ JO COURT NB","stop_desc":"FAR SIDE NORTH HANLEY @ JO COURT NB","wheelchair_boarding":2,"routes":[{"route_id":"19625","agency_id":"70006","route_short_name":"76","route_long_name":"N Hanley Shuttle","route_type":3,"route_color":"#FFFFFF","route_text_color":"#000000"},{"route_id":"19626","agency_id":"70006","route_short_name":"77","route_long_name":"Village Square","route_type":3,"route_color":"#FFFFFF","route_text_color":"#000000"}],"agency_name":"Metro St. Louis"},"geometry":{"type":"Point","coordinates":[-90.33481,38.75325]}},{"type":"Feature","properties":{"stop_id":"6085","stop_code":"6085","stop_name":"NORTH HANLEY @ FRANCIOLA NB","stop_desc":"NEAR SIDE NORTH HANLEY @ FRANCIOLA NB","wheelchair_boarding":1,"routes":[{"route_id":"19625","agency_id":"70006","route_short_name":"76","route_long_name":"N Hanley Shuttle","route_type":3,"route_color":"#FFFFFF","route_text_color":"#000000"},{"route_id":"19626","agency_id":"70006","route_short_name":"77","route_long_name":"Village Square","route_type":3,"route_color":"#FFFFFF","route_text_color":"#000000"}],"agency_name":"Metro St. Louis"},"geometry":{"type":"Point","coordinates":[-90.33721,38.76086]}},{"type":"Feature","properties":{"stop_id":"6093","stop_code":"6093","stop_name":"GRAHAM @ DUNN NB","stop_desc":"FAR SIDE GRAHAM @ DUNN NB","wheelchair_boarding":1,"routes":[{"route_id":"19625","agency_id":"70006","route_short_name":"76","route_long_name":"N Hanley Shuttle","route_type":3,"route_color":"#FFFFFF","route_text_color":"#000000"}],"agency_name":"Metro St. Louis"},"geometry":{"type":"Point","coordinates":[-90.3348,38.77671]}},{"type":"Feature","properties":{"stop_id":"6094","stop_code":"6094","stop_name":"1200 GRAHAM NB","stop_desc":"MID-BLOCK 1200 GRAHAM NB","wheelchair_boarding":2,"routes":[{"route_id":"19625","agency_id":"70006","route_short_name":"76","route_long_name":"N Hanley Shuttle","route_type":3,"route_color":"#FFFFFF","route_text_color":"#000000"}],"agency_name":"Metro St. Louis"},"geometry":{"type":"Point","coordinates":[-90.33486,38.77921]}},{"type":"Feature","properties":{"stop_id":"6096","stop_code":"6096","stop_name":"GRAHAM @ ST. ANTHONY NB","stop_desc":"FAR SIDE GRAHAM @ ST. ANTHONY NB","wheelchair_boarding":1,"routes":[{"route_id":"19625","agency_id":"70006","route_short_name":"76","route_long_name":"N Hanley Shuttle","route_type":3,"route_color":"#FFFFFF","route_text_color":"#000000"}],"agency_name":"Metro St. Louis"},"geometry":{"type":"Point","coordinates":[-90.3349,38.78323]}},{"type":"Feature","properties":{"stop_id":"6097","stop_code":"6097","stop_name":"GRAHAM @ ST. VIRGIL NB","stop_desc":"FAR SIDE GRAHAM @ ST. VIRGIL NB","wheelchair_boarding":1,"routes":[{"route_id":"19625","agency_id":"70006","route_short_name":"76","route_long_name":"N Hanley Shuttle","route_type":3,"route_color":"#FFFFFF","route_text_color":"#000000"}],"agency_name":"Metro St. Louis"},"geometry":{"type":"Point","coordinates":[-90.33488,38.78574]}},{"type":"Feature","properties":{"stop_id":"6098","stop_code":"6098","stop_name":"GRAHAM @ 360 GRAHAM NB","stop_desc":"MID-BLOCK GRAHAM @ 360 GRAHAM NB","wheelchair_boarding":1,"routes":[{"route_id":"19625","agency_id":"70006","route_short_name":"76","route_long_name":"N Hanley Shuttle","route_type":3,"route_color":"#FFFFFF","route_text_color":"#000000"}],"agency_name":"Metro St. Louis"},"geometry":{"type":"Point","coordinates":[-90.3349,38.78782]}},{"type":"Feature","properties":{"stop_id":"6099","stop_code":"6099","stop_name":"GRAHAM @ WESTCOTT NB","stop_desc":"FAR SIDE GRAHAM @ WESTCOTT NB","wheelchair_boarding":1,"routes":[{"route_id":"19625","agency_id":"70006","route_short_name":"76","route_long_name":"N Hanley Shuttle","route_type":3,"route_color":"#FFFFFF","route_text_color":"#000000"}],"agency_name":"Metro St. Louis"},"geometry":{"type":"Point","coordinates":[-90.33491,38.78988]}},{"type":"Feature","properties":{"stop_id":"6100","stop_code":"6100","stop_name":"SAINT FERDINAND @ SAINT MARIE NB","stop_desc":"NEAR SIDE SAINT FERDINAND @ SAINT MARIE NB","wheelchair_boarding":1,"routes":[{"route_id":"19625","agency_id":"70006","route_short_name":"76","route_long_name":"N Hanley Shuttle","route_type":3,"route_color":"#FFFFFF","route_text_color":"#000000"}],"agency_name":"Metro St. Louis"},"geometry":{"type":"Point","coordinates":[-90.33394,38.79198]}}]}