{"type":"FeatureCollection","features":[{"type":"Feature","properties":{"agency_name":"Metro St. Louis","route_id":"19600","agency_id":"70006","route_short_name":"13","route_long_name":"Union","route_type":3,"route_color":"#FFFFFF","route_text_color":"#000000"},"geometry":{"type":"MultiLineString","coordinates":[[[-90.25985,38.63585],[-90.25986,38.63575],[-90.25987,38.63603],[-90.25984,38.63624],[-90.25961,38.63631],[-90.25966,38.63651],[-90.25973,38.63702],[-90.25971,38.6372],[-90.25793,38.64247],[-90.26259,38.64343],[-90.26416,38.64377],[-90.26516,38.64402],[-90.26579,38.64414],[-90.26723,38.6443],[-90.27464,38.64502],[-90.27443,38.6464],[-90.27324,38.65351],[-90.27224,38.65957],[-90.27208,38.66062],[-90.27201,38.66092],[-90.27191,38.66111],[-90.27161,38.66146],[-90.26775,38.66577],[-90.26665,38.6673],[-90.26231,38.67348],[-90.26118,38.67512],[-90.25943,38.67761],[-90.25922,38.67794],[-90.25773,38.67999],[-90.25498,38.68392],[-90.25486,38.68403],[-90.25473,38.68412],[-90.25431,38.68437],[-90.25408,38.68458],[-90.25377,38.68498],[-90.25158,38.68816],[-90.25147,38.68824],[-90.25081,38.68861],[-90.25035,38.68886],[-90.24997,38.68904],[-90.24782,38.69021],[-90.2412,38.69385]]]}},{"type":"Feature","properties":{"stop_id":"14792","stop_code":"14792","stop_name":"CENTRAL WEST END TRANSIT CENTER","wheelchair_boarding":1,"routes":[{"route_id":"19592","agency_id":"70006","route_short_name":"1","route_long_name":"Gold","route_type":3,"route_color":"#FFFFFF","route_text_color":"#000000"},{"route_id":"19596","agency_id":"70006","route_short_name":"8","route_long_name":"Shaw-Cherokee","route_type":3,"route_color":"#FFFFFF","route_text_color":"#000000"},{"route_id":"19598","agency_id":"70006","route_short_name":"10","route_long_name":"Gravois-Lindell","route_type":3,"route_color":"#FFFFFF","route_text_color":"#000000"},{"route_id":"19600","agency_id":"70006","route_short_name":"13","route_long_name":"Union","route_type":3,"route_color":"#FFFFFF","route_text_color":"#000000"},{"route_id":"19618","agency_id":"70006","route_short_name":"59","route_long_name":"Oakland","route_type":3,"route_color":"#FFFFFF","route_text_color":"#000000"},{"route_id":"19632","agency_id":"70006","route_short_name":"95","route_long_name":"Kingshighway","route_type":3,"route_color":"#FFFFFF","route_text_color":"#000000"}],"agency_name":"Metro St. Louis"},"geometry":{"type":"Point","coordinates":[-90.25999,38.63568]}},{"type":"Feature","properties":{"stop_id":"15072","stop_code":"15072","stop_name":"UNION @ PERSHING NB","stop_desc":"FAR SIDE UNION @ PERSHING NB","wheelchair_boarding":1,"routes":[{"route_id":"19592","agency_id":"70006","route_short_name":"1","route_long_name":"Gold","route_type":3,"route_color":"#FFFFFF","route_text_color":"#000000"},{"route_id":"19600","agency_id":"70006","route_short_name":"13","route_long_name":"Union","route_type":3,"route_color":"#FFFFFF","route_text_color":"#000000"}],"agency_name":"Metro St. Louis"},"geometry":{"type":"Point","coordinates":[-90.27404,38.64794]}},{"type":"Feature","properties":{"stop_id":"16201","stop_code":"16201","stop_name":"UNION @ MARGARETTA NB","stop_desc":"MID-BLOCK UNION @ MARGARETTA NB","wheelchair_boarding":1,"routes":[{"route_id":"19600","agency_id":"70006","route_short_name":"13","route_long_name":"Union","route_type":3,"route_color":"#FFFFFF","route_text_color":"#000000"}],"agency_name":"Metro St. Louis"},"geometry":{"type":"Point","coordinates":[-90.25588,38.68243]}},{"type":"Feature","properties":{"stop_id":"2624","stop_code":"2624","stop_name":"LINDELL @ EUCLID WB","stop_desc":"FAR SIDE LINDELL @ EUCLID WB","wheelchair_boarding":1,"routes":[{"route_id":"19598","agency_id":"70006","route_short_name":"10","route_long_name":"Gravois-Lindell","route_type":3,"route_color":"#FFFFFF","route_text_color":"#000000"},{"route_id":"19600","agency_id":"70006","route_short_name":"13","route_long_name":"Union","route_type":3,"route_color":"#FFFFFF","route_text_color":"#000000"}],"agency_name":"Metro St. Louis"},"geometry":{"type":"Point","coordinates":[-90.26226,38.64346]}},{"type":"Feature","properties":{"stop_id":"2625","stop_code":"2625","stop_name":"LINDELL @ KINGSHIGHWAY WB","stop_desc":"NEAR SIDE LINDELL @ KINGSHIGHWAY WB","wheelchair_boarding":1,"routes":[{"route_id":"19600","agency_id":"70006","route_short_name":"13","route_long_name":"Union","route_type":3,"route_color":"#FFFFFF","route_text_color":"#000000"}],"agency_name":"Metro St. Louis"},"geometry":{"type":"Point","coordinates":[-90.26401,38.64381]}},{"type":"Feature","properties":{"stop_id":"2626","stop_code":"2626","stop_name":"LINDELL @ LAKE WB","stop_desc":"FAR SIDE LINDELL @ LAKE WB","wheelchair_boarding":1,"routes":[{"route_id":"19600","agency_id":"70006","route_short_name":"13","route_long_name":"Union","route_type":3,"route_color":"#FFFFFF","route_text_color":"#000000"}],"agency_name":"Metro St. Louis"},"geometry":{"type":"Point","coordinates":[-90.27125,38.64475]}},{"type":"Feature","properties":{"stop_id":"3772","stop_code":"3772","stop_name":"WEST FLORISSANT @ UNION SB","stop_desc":"FAR SIDE WEST FLORISSANT @ UNION SB","wheelchair_boarding":1,"routes":[{"route_id":"19600","agency_id":"70006","route_short_name":"13","route_long_name":"Union","route_type":3,"route_color":"#FFFFFF","route_text_color":"#000000"},{"route_id":"19624","agency_id":"70006","route_short_name":"74","route_long_name":"Florissant","route_type":3,"route_color":"#FFFFFF","route_text_color":"#000000"}],"agency_name":"Metro St. Louis"},"geometry":{"type":"Point","coordinates":[-90.23901,38.69459]}},{"type":"Feature","properties":{"stop_id":"8018","stop_code":"8018","stop_name":"TAYLOR @ FOREST PARK NB","stop_desc":"FAR SIDE TAYLOR @ FOREST PARK NB","wheelchair_boarding":1,"routes":[{"route_id":"19600","agency_id":"70006","route_short_name":"13","route_long_name":"Union","route_type":3,"route_color":"#FFFFFF","route_text_color":"#000000"},{"route_id":"19602","agency_id":"70006","route_short_name":"18","route_long_name":"Taylor","route_type":3,"route_color":"#FFFFFF","route_text_color":"#000000"}],"agency_name":"Metro St. Louis"},"geometry":{"type":"Point","coordinates":[-90.25922,38.63855]}},{"type":"Feature","properties":{"stop_id":"8019","stop_code":"8019","stop_name":"TAYLOR @ LACLEDE NB","stop_desc":"FAR SIDE TAYLOR @ LACLEDE NB","wheelchair_boarding":2,"routes":[{"route_id":"19600","agency_id":"70006","route_short_name":"13","route_long_name":"Union","route_type":3,"route_color":"#FFFFFF","route_text_color":"#000000"},{"route_id":"19602","agency_id":"70006","route_short_name":"18","route_long_name":"Taylor","route_type":3,"route_color":"#FFFFFF","route_text_color":"#000000"}],"agency_name":"Metro St. Louis"},"geometry":{"type":"Point","coordinates":[-90.25877,38.6399]}},{"type":"Feature","properties":{"stop_id":"8020","stop_code":"8020","stop_name":"TAYLOR @ WEST PINE NB","stop_desc":"NEAR SIDE TAYLOR @ WEST PINE NB","wheelchair_boarding":2,"routes":[{"route_id":"19600","agency_id":"70006","route_short_name":"13","route_long_name":"Union","route_type":3,"route_color":"#FFFFFF","route_text_color":"#000000"},{"route_id":"19602","agency_id":"70006","route_short_name":"18","route_long_name":"Taylor","route_type":3,"route_color":"#FFFFFF","route_text_color":"#000000"}],"agency_name":"Metro St. Louis"},"geometry":{"type":"Point","coordinates":[-90.25844,38.64079]}},{"type":"Feature","properties":{"stop_id":"8021","stop_code":"8021","stop_name":"TAYLOR @ LINDELL NB","stop_desc":"NEAR SIDE TAYLOR @ LINDELL NB","wheelchair_boarding":1,"routes":[{"route_id":"19600","agency_id":"70006","route_short_name":"13","route_long_name":"Union","route_type":3,"route_color":"#FFFFFF","route_text_color":"#000000"},{"route_id":"19602","agency_id":"70006","route_short_name":"18","route_long_name":"Taylor","route_type":3,"route_color":"#FFFFFF","route_text_color":"#000000"}],"agency_name":"Metro St. Louis"},"geometry":{"type":"Point","coordinates":[-90.25798,38.64223]}},{"type":"Feature","properties":{"stop_id":"8608","stop_code":"8608","stop_name":"UNION @ WATERMAN NB","stop_desc":"FAR SIDE UNION @ WATERMAN NB","wheelchair_boarding":2,"routes":[{"route_id":"19600","agency_id":"70006","route_short_name":"13","route_long_name":"Union","route_type":3,"route_color":"#FFFFFF","route_text_color":"#000000"}],"agency_name":"Metro St. Louis"},"geometry":{"type":"Point","coordinates":[-90.27379,38.6495]}},{"type":"Feature","properties":{"stop_id":"8610","stop_code":"8610","stop_name":"UNION @ DELMAR NB","stop_desc":"NEAR SIDE UNION @ DELMAR NB","wheelchair_boarding":1,"routes":[{"route_id":"19600","agency_id":"70006","route_short_name":"13","route_long_name":"Union","route_type":3,"route_color":"#FFFFFF","route_text_color":"#000000"}],"agency_name":"Metro St. Louis"},"geometry":{"type":"Point","coordinates":[-90.27332,38.65232]}},{"type":"Feature","properties":{"stop_id":"8612","stop_code":"8612","stop_name":"UNION @ CATES NB","stop_desc":"NEAR SIDE UNION @ CATES NB","wheelchair_boarding":2,"routes":[{"route_id":"19600","agency_id":"70006","route_short_name":"13","route_long_name":"Union","route_type":3,"route_color":"#FFFFFF","route_text_color":"#000000"}],"agency_name":"Metro St. Louis"},"geometry":{"type":"Point","coordinates":[-90.27277,38.65584]}},{"type":"Feature","properties":{"stop_id":"8613","stop_code":"8613","stop_name":"UNION @ CABANNE NB","stop_desc":"NEAR SIDE UNION @ CABANNE NB","wheelchair_boarding":1,"routes":[{"route_id":"19600","agency_id":"70006","route_short_name":"13","route_long_name":"Union","route_type":3,"route_color":"#FFFFFF","route_text_color":"#000000"}],"agency_name":"Metro St. Louis"},"geometry":{"type":"Point","coordinates":[-90.2725,38.65748]}},{"type":"Feature","properties":{"stop_id":"8614","stop_code":"8614","stop_name":"UNION @ MAPLE NB","stop_desc":"FAR SIDE UNION @ MAPLE NB","wheelchair_boarding":2,"routes":[{"route_id":"19600","agency_id":"70006","route_short_name":"13","route_long_name":"Union","route_type":3,"route_color":"#FFFFFF","route_text_color":"#000000"}],"agency_name":"Metro St. Louis"},"geometry":{"type":"Point","coordinates":[-90.27208,38.65978]}},{"type":"Feature","properties":{"stop_id":"8615","stop_code":"8615","stop_name":"UNION @ PAGE NB","stop_desc":"FAR SIDE UNION @ PAGE NB","wheelchair_boarding":1,"routes":[{"route_id":"19600","agency_id":"70006","route_short_name":"13","route_long_name":"Union","route_type":3,"route_color":"#FFFFFF","route_text_color":"#000000"}],"agency_name":"Metro St. Louis"},"geometry":{"type":"Point","coordinates":[-90.2717,38.66125]}},{"type":"Feature","properties":{"stop_id":"8618","stop_code":"8618","stop_name":"UNION @ WELLS NB","stop_desc":"NEAR SIDE UNION @ WELLS NB","wheelchair_boarding":1,"routes":[{"route_id":"19600","agency_id":"70006","route_short_name":"13","route_long_name":"Union","route_type":3,"route_color":"#FFFFFF","route_text_color":"#000000"}],"agency_name":"Metro St. Louis"},"geometry":{"type":"Point","coordinates":[-90.2689,38.66438]}},{"type":"Feature","properties":{"stop_id":"8619","stop_code":"8619","stop_name":"UNION @ DR ML KING NB","stop_desc":"NEAR SIDE UNION @ DR ML KING NB","wheelchair_boarding":2,"routes":[{"route_id":"19600","agency_id":"70006","route_short_name":"13","route_long_name":"Union","route_type":3,"route_color":"#FFFFFF","route_text_color":"#000000"}],"agency_name":"Metro St. Louis"},"geometry":{"type":"Point","coordinates":[-90.26811,38.66519]}},{"type":"Feature","properties":{"stop_id":"8620","stop_code":"8620","stop_name":"UNION @ THEODOSIA NB","stop_desc":"NEAR SIDE UNION @ THEODOSIA NB","wheelchair_boarding":2,"routes":[{"route_id":"19600","agency_id":"70006","route_short_name":"13","route_long_name":"Union","route_type":3,"route_color":"#FFFFFF","route_text_color":"#000000"}],"agency_name":"Metro St. Louis"},"geometry":{"type":"Point","coordinates":[-90.26687,38.66677]}},{"type":"Feature","properties":{"stop_id":"8621","stop_code":"8621","stop_name":"UNION @ COTE BRILLIANTE NB","stop_desc":"NEAR SIDE UNION @ COTE BRILLIANTE NB","wheelchair_boarding":1,"routes":[{"route_id":"19600","agency_id":"70006","route_short_name":"13","route_long_name":"Union","route_type":3,"route_color":"#FFFFFF","route_text_color":"#000000"}],"agency_name":"Metro St. Louis"},"geometry":{"type":"Point","coordinates":[-90.26549,38.66879]}},{"type":"Feature","properties":{"stop_id":"8622","stop_code":"8622","stop_name":"UNION @ WABADA NB","stop_desc":"FAR SIDE UNION @ WABADA NB","wheelchair_boarding":1,"routes":[{"route_id":"19600","agency_id":"70006","route_short_name":"13","route_long_name":"Union","route_type":3,"route_color":"#FFFFFF","route_text_color":"#000000"}],"agency_name":"Metro St. Louis"},"geometry":{"type":"Point","coordinates":[-90.26457,38.67015]}},{"type":"Feature","properties":{"stop_id":"8624","stop_code":"8624","stop_name":"UNION @ NORTHLAND NB","stop_desc":"NEAR SIDE UNION @ NORTHLAND NB","wheelchair_boarding":2,"routes":[{"route_id":"19600","agency_id":"70006","route_short_name":"13","route_long_name":"Union","route_type":3,"route_color":"#FFFFFF","route_text_color":"#000000"}],"agency_name":"Metro St. Louis"},"geometry":{"type":"Point","coordinates":[-90.26331,38.67187]}},{"type":"Feature","properties":{"stop_id":"8625","stop_code":"8625","stop_name":"UNION @ ST. LOUIS NB","stop_desc":"NEAR SIDE UNION @ ST. LOUIS NB","wheelchair_boarding":2,"routes":[{"route_id":"19600","agency_id":"70006","route_short_name":"13","route_long_name":"Union","route_type":3,"route_color":"#FFFFFF","route_text_color":"#000000"}],"agency_name":"Metro St. Louis"},"geometry":{"type":"Point","coordinates":[-90.26175,38.67409]}},{"type":"Feature","properties":{"stop_id":"8626","stop_code":"8626","stop_name":"UNION @ ASHLAND NB","stop_desc":"NEAR SIDE UNION @ ASHLAND NB","wheelchair_boarding":2,"routes":[{"route_id":"19600","agency_id":"70006","route_short_name":"13","route_long_name":"Union","route_type":3,"route_color":"#FFFFFF","route_text_color":"#000000"}],"agency_name":"Metro St. Louis"},"geometry":{"type":"Point","coordinates":[-90.26019,38.67639]}},{"type":"Feature","properties":{"stop_id":"8627","stop_code":"8627","stop_name":"UNION @ LEXINGTON NB","stop_desc":"FAR SIDE UNION @ LEXINGTON NB","wheelchair_boarding":2,"routes":[{"route_id":"19600","agency_id":"70006","route_short_name":"13","route_long_name":"Union","route_type":3,"route_color":"#FFFFFF","route_text_color":"#000000"}],"agency_name":"Metro St. Louis"},"geometry":{"type":"Point","coordinates":[-90.2591,38.67786]}},{"type":"Feature","properties":{"stop_id":"8628","stop_code":"8628","stop_name":"UNION @ NATURAL BRIDGE NB","stop_desc":"NEAR SIDE UNION @ NATURAL BRIDGE NB","wheelchair_boarding":1,"routes":[{"route_id":"19600","agency_id":"70006","route_short_name":"13","route_long_name":"Union","route_type":3,"route_color":"#FFFFFF","route_text_color":"#000000"}],"agency_name":"Metro St. Louis"},"geometry":{"type":"Point","coordinates":[-90.25849,38.67871]}},{"type":"Feature","properties":{"stop_id":"8630","stop_code":"8630","stop_name":"UNION @ SACRAMENTO NB","stop_desc":"FAR SIDE UNION @ SACRAMENTO NB","wheelchair_boarding":2,"routes":[{"route_id":"19600","agency_id":"70006","route_short_name":"13","route_long_name":"Union","route_type":3,"route_color":"#FFFFFF","route_text_color":"#000000"}],"agency_name":"Metro St. Louis"},"geometry":{"type":"Point","coordinates":[-90.25747,38.68021]}},{"type":"Feature","properties":{"stop_id":"8631","stop_code":"8631","stop_name":"UNION @ BROWN NB","stop_desc":"FAR SIDE UNION @ BROWN NB","wheelchair_boarding":2,"routes":[{"route_id":"19600","agency_id":"70006","route_short_name":"13","route_long_name":"Union","route_type":3,"route_color":"#FFFFFF","route_text_color":"#000000"}],"agency_name":"Metro St. Louis"},"geometry":{"type":"Point","coordinates":[-90.25474,38.684]}},{"type":"Feature","properties":{"stop_id":"8632","stop_code":"8632","stop_name":"UNION @ BIRCHER NB","stop_desc":"NEAR SIDE UNION @ BIRCHER NB","wheelchair_boarding":2,"routes":[{"route_id":"19600","agency_id":"70006","route_short_name":"13","route_long_name":"Union","route_type":3,"route_color":"#FFFFFF","route_text_color":"#000000"}],"agency_name":"Metro St. Louis"},"geometry":{"type":"Point","coordinates":[-90.25188,38.6876]}},{"type":"Feature","properties":{"stop_id":"8633","stop_code":"8633","stop_name":"UNION @ BIRCHER NB","stop_desc":"FAR SIDE UNION @ BIRCHER NB","wheelchair_boarding":2,"routes":[{"route_id":"19600","agency_id":"70006","route_short_name":"13","route_long_name":"Union","route_type":3,"route_color":"#FFFFFF","route_text_color":"#000000"}],"agency_name":"Metro St. Louis"},"geometry":{"type":"Point","coordinates":[-90.24981,38.68909]}},{"type":"Feature","properties":{"stop_id":"8634","stop_code":"8634","stop_name":"UNION @ LILLIAN NB","stop_desc":"FAR SIDE UNION @ LILLIAN NB","wheelchair_boarding":1,"routes":[{"route_id":"19600","agency_id":"70006","route_short_name":"13","route_long_name":"Union","route_type":3,"route_color":"#FFFFFF","route_text_color":"#000000"}],"agency_name":"Metro St. Louis"},"geometry":{"type":"Point","coordinates":[-90.24734,38.69042]}},{"type":"Feature","properties":{"stop_id":"8635","stop_code":"8635","stop_name":"UNION @ THEKLA NB","stop_desc":"FAR SIDE UNION @ THEKLA NB","wheelchair_boarding":2,"routes":[{"route_id":"19600","agency_id":"70006","route_short_name":"13","route_long_name":"Union","route_type":3,"route_color":"#FFFFFF","route_text_color":"#000000"}],"agency_name":"Metro St. Louis"},"geometry":{"type":"Point","coordinates":[-90.24448,38.69203]}},{"type":"Feature","properties":{"stop_id":"8636","stop_code":"8636","stop_name":"UNION @ HARNEY NB","stop_desc":"NEAR SIDE UNION @ HARNEY NB","wheelchair_boarding":1,"routes":[{"route_id":"19600","agency_id":"70006","route_short_name":"13","route_long_name":"Union","route_type":3,"route_color":"#FFFFFF","route_text_color":"#000000"}],"agency_name":"Metro St. Louis"},"geometry":{"type":"Point","coordinates":[-90.24203,38.69335]}}]}