{"type":"FeatureCollection","features":[{"type":"Feature","properties":{"agency_name":"Metro St. Louis","route_id":"19646","agency_id":"70006","route_short_name":"14","route_long_name":"Memorial Hosp-Westfield Plaza","route_type":3,"route_color":"#FFFFFF","route_text_color":"#000000"},"geometry":{"type":"MultiLineString","coordinates":[[[-90.01536,38.55827],[-90.01536,38.55834],[-90.01536,38.55827],[-90.0152,38.55807],[-90.0154,38.55786],[-90.01853,38.55617],[-90.01949,38.55559],[-90.02235,38.55397],[-90.02638,38.5516],[-90.02708,38.55121],[-90.02771,38.5509],[-90.02726,38.55052],[-90.02705,38.5504],[-90.02685,38.55031],[-90.02664,38.55026],[-90.0264,38.55023],[-90.02571,38.55022],[-90.02525,38.55025],[-90.02522,38.55045],[-90.0251,38.55061],[-90.02481,38.55074],[-90.02458,38.55064],[-90.02373,38.55061],[-90.02255,38.5506],[-90.02208,38.55053],[-90.02054,38.55052],[-90.02055,38.54888],[-90.0203,38.54886],[-90.01116,38.54879],[-90.01115,38.54695],[-90.01116,38.54151],[-90.021,38.54155],[-90.02372,38.54161],[-90.02627,38.54158],[-90.02751,38.54153],[-90.02926,38.54154],[-90.02967,38.54156],[-90.03114,38.54157],[-90.03307,38.54162],[-90.03613,38.54172],[-90.03687,38.5416],[-90.03688,38.54065],[-90.03695,38.53857],[-90.03691,38.53795],[-90.03681,38.5374],[-90.03663,38.53671],[-90.03639,38.53602],[-90.03613,38.53511],[-90.03608,38.53488],[-90.03606,38.53445],[-90.03607,38.53275],[-90.03605,38.5303],[-90.03543,38.53025],[-90.0353,38.53022],[-90.03523,38.53012],[-90.03522,38.52942],[-90.03518,38.52926],[-90.03508,38.52912],[-90.03489,38.52892],[-90.03478,38.52878],[-90.03475,38.52862],[-90.03476,38.52843],[-90.03472,38.52817],[-90.03497,38.52823],[-90.03557,38.52826],[-90.03866,38.52828],[-90.03916,38.52837],[-90.03941,38.52845],[-90.04038,38.52887],[-90.04213,38.53014],[-90.04587,38.5328],[-90.05437,38.5389],[-90.0543,38.53927],[-90.05424,38.54033],[-90.05428,38.5419],[-90.05277,38.5419],[-90.0522,38.54193],[-90.05204,38.54199],[-90.05186,38.54211],[-90.05179,38.54219],[-90.05175,38.54232],[-90.05184,38.5425],[-90.05109,38.54321],[-90.05096,38.54337],[-90.05101,38.54358],[-90.05108,38.5437],[-90.05123,38.54382],[-90.05192,38.54426],[-90.05214,38.54445],[-90.05224,38.54461],[-90.05241,38.54495],[-90.05263,38.54509],[-90.05286,38.54522],[-90.05318,38.54529],[-90.05428,38.54533],[-90.05423,38.54553],[-90.05429,38.54576],[-90.05455,38.54622],[-90.05461,38.54646],[-90.0546,38.54658],[-90.05443,38.54696],[-90.05479,38.54715],[-90.05498,38.54722],[-90.05513,38.54732],[-90.05545,38.54743],[-90.05597,38.54753],[-90.05664,38.54761],[-90.05754,38.54764],[-90.05641,38.54821],[-90.05592,38.54815],[-90.05533,38.54805]],[[-90.05427,38.54431],[-90.05329,38.54529],[-90.05427,38.54431],[-90.05427,38.54387],[-90.05792,38.54388],[-90.05838,38.54393],[-90.05892,38.54405],[-90.05916,38.54419],[-90.05941,38.54441],[-90.05957,38.54467]],[[-90.05428,38.54533],[-90.05427,38.54431]],[[-90.05428,38.53936],[-90.0543,38.53927],[-90.05428,38.53936],[-90.05406,38.53935],[-90.05397,38.53931],[-90.05393,38.53927],[-90.05377,38.53897],[-90.05372,38.5389],[-90.05331,38.53863],[-90.05319,38.5386],[-90.05296,38.53845],[-90.05289,38.53845],[-90.05265,38.53867],[-90.05265,38.53871],[-90.05267,38.53875],[-90.0534,38.53927],[-90.05348,38.5393],[-90.05357,38.5393],[-90.05389,38.5392]],[[-90.05429,38.53936],[-90.05428,38.53936]]]}},{"type":"Feature","properties":{"stop_id":"11427","stop_code":"11427","stop_name":"MEMORIAL HOSPITAL TRANSIT CENTER","stop_desc":"FAR SIDE MEMORIAL HOSPITAL TRANSIT CENTER","wheelchair_boarding":1,"routes":[{"route_id":"19646","agency_id":"70006","route_short_name":"14","route_long_name":"Memorial Hosp-Westfield Plaza","route_type":3,"route_color":"#FFFFFF","route_text_color":"#000000"}],"agency_name":"Metro St. Louis"},"geometry":{"type":"Point","coordinates":[-90.01537,38.55832]}},{"type":"Feature","properties":{"stop_id":"11428","stop_code":"11428","stop_name":"FRANK SCOTT @ IDA SB","stop_desc":"FAR SIDE FRANK SCOTT @ IDA SB","wheelchair_boarding":2,"routes":[{"route_id":"19646","agency_id":"70006","route_short_name":"14","route_long_name":"Memorial Hosp-Westfield Plaza","route_type":3,"route_color":"#FFFFFF","route_text_color":"#000000"}],"agency_name":"Metro St. Louis"},"geometry":{"type":"Point","coordinates":[-90.01787,38.55667]}},{"type":"Feature","properties":{"stop_id":"11429","stop_code":"11429","stop_name":"FRANK SCOTT PARKWAY @ MOUNT PLEASANT SB","stop_desc":"FAR SIDE FRANK SCOTT PARKWAY @ MOUNT PLEASANT SB","wheelchair_boarding":2,"routes":[{"route_id":"19646","agency_id":"70006","route_short_name":"14","route_long_name":"Memorial Hosp-Westfield Plaza","route_type":3,"route_color":"#FFFFFF","route_text_color":"#000000"}],"agency_name":"Metro St. Louis"},"geometry":{"type":"Point","coordinates":[-90.0202,38.55533]}},{"type":"Feature","properties":{"stop_id":"11430","stop_code":"11430","stop_name":"DAPRON @ FRANK SCOTT PARKWAY EB","stop_desc":"FAR SIDE DAPRON @ FRANK SCOTT PARKWAY EB","wheelchair_boarding":2,"routes":[{"route_id":"19646","agency_id":"70006","route_short_name":"14","route_long_name":"Memorial Hosp-Westfield Plaza","route_type":3,"route_color":"#FFFFFF","route_text_color":"#000000"}],"agency_name":"Metro St. Louis"},"geometry":{"type":"Point","coordinates":[-90.02738,38.55052]}},{"type":"Feature","properties":{"stop_id":"11438","stop_code":"11438","stop_name":"MEMORIAL @ MEMORIAL HOSPITAL MAIN ENTRANCE EB","stop_desc":"MID-BLOCK MEMORIAL @ MEMORIAL HOSPITAL MAIN ENTRANCE EB","wheelchair_boarding":2,"routes":[{"route_id":"19646","agency_id":"70006","route_short_name":"14","route_long_name":"Memorial Hosp-Westfield Plaza","route_type":3,"route_color":"#FFFFFF","route_text_color":"#000000"}],"agency_name":"Metro St. Louis"},"geometry":{"type":"Point","coordinates":[-90.0212,38.55052]}},{"type":"Feature","properties":{"stop_id":"11457","stop_code":"11457","stop_name":"WESTFIELD PLAZA @ WESTFIELD PLAZA WB","stop_desc":"NEAR SIDE WESTFIELD PLAZA @ WESTFIELD PLAZA WB","wheelchair_boarding":2,"routes":[{"route_id":"19646","agency_id":"70006","route_short_name":"14","route_long_name":"Memorial Hosp-Westfield Plaza","route_type":3,"route_color":"#FFFFFF","route_text_color":"#000000"}],"agency_name":"Metro St. Louis"},"geometry":{"type":"Point","coordinates":[-90.05134,38.54401]}},{"type":"Feature","properties":{"stop_id":"11492","stop_code":"11492","stop_name":"NORTH BELT WEST @ 38TH STREET WB","stop_desc":"NEAR SIDE NORTH BELT WEST @ 38TH STREET WB","wheelchair_boarding":2,"routes":[{"route_id":"19646","agency_id":"70006","route_short_name":"14","route_long_name":"Memorial Hosp-Westfield Plaza","route_type":3,"route_color":"#FFFFFF","route_text_color":"#000000"}],"agency_name":"Metro St. Louis"},"geometry":{"type":"Point","coordinates":[-90.01218,38.54158]}},{"type":"Feature","properties":{"stop_id":"11493","stop_code":"11493","stop_name":"NORTH BELT WEST @ 40TH STREET WB","stop_desc":"NEAR SIDE NORTH BELT WEST @ 40TH STREET WB","wheelchair_boarding":2,"routes":[{"route_id":"19646","agency_id":"70006","route_short_name":"14","route_long_name":"Memorial Hosp-Westfield Plaza","route_type":3,"route_color":"#FFFFFF","route_text_color":"#000000"}],"agency_name":"Metro St. Louis"},"geometry":{"type":"Point","coordinates":[-90.01428,38.54162]}},{"type":"Feature","properties":{"stop_id":"11494","stop_code":"11494","stop_name":"NORTH BELT WEST @ 42ND STREET WB","stop_desc":"NEAR SIDE NORTH BELT WEST @ 42ND STREET WB","wheelchair_boarding":2,"routes":[{"route_id":"19646","agency_id":"70006","route_short_name":"14","route_long_name":"Memorial Hosp-Westfield Plaza","route_type":3,"route_color":"#FFFFFF","route_text_color":"#000000"}],"agency_name":"Metro St. Louis"},"geometry":{"type":"Point","coordinates":[-90.01664,38.54163]}},{"type":"Feature","properties":{"stop_id":"11496","stop_code":"11496","stop_name":"NORTH BELT WEST @ 44TH STREET WB","stop_desc":"NEAR SIDE NORTH BELT WEST @ 44TH STREET WB","wheelchair_boarding":2,"routes":[{"route_id":"19646","agency_id":"70006","route_short_name":"14","route_long_name":"Memorial Hosp-Westfield Plaza","route_type":3,"route_color":"#FFFFFF","route_text_color":"#000000"}],"agency_name":"Metro St. Louis"},"geometry":{"type":"Point","coordinates":[-90.01946,38.54167]}},{"type":"Feature","properties":{"stop_id":"11497","stop_code":"11497","stop_name":"NORTH BELT WEST @ 45TH STREET WB","stop_desc":"NEAR SIDE NORTH BELT WEST @ 45TH STREET WB","wheelchair_boarding":2,"routes":[{"route_id":"19646","agency_id":"70006","route_short_name":"14","route_long_name":"Memorial Hosp-Westfield Plaza","route_type":3,"route_color":"#FFFFFF","route_text_color":"#000000"}],"agency_name":"Metro St. Louis"},"geometry":{"type":"Point","coordinates":[-90.02082,38.54168]}},{"type":"Feature","properties":{"stop_id":"11501","stop_code":"11501","stop_name":"5411 NORTH BELT WEST WB","stop_desc":"MID-BLOCK 5411 NORTH BELT WEST WB","wheelchair_boarding":2,"routes":[{"route_id":"19646","agency_id":"70006","route_short_name":"14","route_long_name":"Memorial Hosp-Westfield Plaza","route_type":3,"route_color":"#FFFFFF","route_text_color":"#000000"}],"agency_name":"Metro St. Louis"},"geometry":{"type":"Point","coordinates":[-90.02896,38.54164]}},{"type":"Feature","properties":{"stop_id":"11502","stop_code":"11502","stop_name":"5611 NORTH BELT WEST WB","stop_desc":"MID-BLOCK 5611 NORTH BELT WEST WB","wheelchair_boarding":2,"routes":[{"route_id":"19646","agency_id":"70006","route_short_name":"14","route_long_name":"Memorial Hosp-Westfield Plaza","route_type":3,"route_color":"#FFFFFF","route_text_color":"#000000"}],"agency_name":"Metro St. Louis"},"geometry":{"type":"Point","coordinates":[-90.03204,38.54171]}},{"type":"Feature","properties":{"stop_id":"11503","stop_code":"11503","stop_name":"NORTH BELT WEST @ 47TH STREET WB","stop_desc":"NEAR SIDE NORTH BELT WEST @ 47TH STREET WB","wheelchair_boarding":2,"routes":[{"route_id":"19646","agency_id":"70006","route_short_name":"14","route_long_name":"Memorial Hosp-Westfield Plaza","route_type":3,"route_color":"#FFFFFF","route_text_color":"#000000"}],"agency_name":"Metro St. Louis"},"geometry":{"type":"Point","coordinates":[-90.03474,38.54178]}},{"type":"Feature","properties":{"stop_id":"11504","stop_code":"11504","stop_name":"FRANK SCOTT PARKWAY @ WILSON SB","stop_desc":"NEAR SIDE FRANK SCOTT PARKWAY @ WILSON SB","wheelchair_boarding":2,"routes":[{"route_id":"19646","agency_id":"70006","route_short_name":"14","route_long_name":"Memorial Hosp-Westfield Plaza","route_type":3,"route_color":"#FFFFFF","route_text_color":"#000000"}],"agency_name":"Metro St. Louis"},"geometry":{"type":"Point","coordinates":[-90.03696,38.54079]}},{"type":"Feature","properties":{"stop_id":"11505","stop_code":"11505","stop_name":"FRANK SCOTT PARKWAY @ MEMORY SB","stop_desc":"FAR SIDE FRANK SCOTT PARKWAY @ MEMORY SB","wheelchair_boarding":2,"routes":[{"route_id":"19646","agency_id":"70006","route_short_name":"14","route_long_name":"Memorial Hosp-Westfield Plaza","route_type":3,"route_color":"#FFFFFF","route_text_color":"#000000"}],"agency_name":"Metro St. Louis"},"geometry":{"type":"Point","coordinates":[-90.037,38.53912]}},{"type":"Feature","properties":{"stop_id":"11506","stop_code":"11506","stop_name":"FRANK SCOTT PARKWAY @ ELIZABETH SB","stop_desc":"NEAR SIDE FRANK SCOTT PARKWAY @ ELIZABETH SB","wheelchair_boarding":2,"routes":[{"route_id":"19646","agency_id":"70006","route_short_name":"14","route_long_name":"Memorial Hosp-Westfield Plaza","route_type":3,"route_color":"#FFFFFF","route_text_color":"#000000"}],"agency_name":"Metro St. Louis"},"geometry":{"type":"Point","coordinates":[-90.03688,38.53751]}},{"type":"Feature","properties":{"stop_id":"11507","stop_code":"11507","stop_name":"FRANK SCOTT PARKWAY @ SOUTH BELT WEST SB","stop_desc":"NEAR SIDE FRANK SCOTT PARKWAY @ SOUTH BELT WEST SB","wheelchair_boarding":2,"routes":[{"route_id":"19646","agency_id":"70006","route_short_name":"14","route_long_name":"Memorial Hosp-Westfield Plaza","route_type":3,"route_color":"#FFFFFF","route_text_color":"#000000"}],"agency_name":"Metro St. Louis"},"geometry":{"type":"Point","coordinates":[-90.03626,38.53537]}},{"type":"Feature","properties":{"stop_id":"11514","stop_code":"11514","stop_name":"WESTFIELD PLAZA @ WESTFIELD PLAZA ENTRANCE NB","stop_desc":"FAR SIDE WESTFIELD PLAZA @ WESTFIELD PLAZA ENTRANCE NB","wheelchair_boarding":2,"routes":[{"route_id":"19646","agency_id":"70006","route_short_name":"14","route_long_name":"Memorial Hosp-Westfield Plaza","route_type":3,"route_color":"#FFFFFF","route_text_color":"#000000"}],"agency_name":"Metro St. Louis"},"geometry":{"type":"Point","coordinates":[-90.05164,38.5426]}},{"type":"Feature","properties":{"stop_id":"11517","stop_code":"11517","stop_name":"7245 WESTFIELD PLAZA EB","stop_desc":"NEAR SIDE 7245 WESTFIELD PLAZA EB","wheelchair_boarding":2,"routes":[{"route_id":"19646","agency_id":"70006","route_short_name":"14","route_long_name":"Memorial Hosp-Westfield Plaza","route_type":3,"route_color":"#FFFFFF","route_text_color":"#000000"}],"agency_name":"Metro St. Louis"},"geometry":{"type":"Point","coordinates":[-90.05253,38.54183]}},{"type":"Feature","properties":{"stop_id":"11522","stop_code":"11522","stop_name":"WESTCHESTER @ 74TH STREET EB","stop_desc":"NEAR SIDE WESTCHESTER @ 74TH STREET EB","wheelchair_boarding":2,"routes":[{"route_id":"19646","agency_id":"70006","route_short_name":"14","route_long_name":"Memorial Hosp-Westfield Plaza","route_type":3,"route_color":"#FFFFFF","route_text_color":"#000000"}],"agency_name":"Metro St. Louis"},"geometry":{"type":"Point","coordinates":[-90.05443,38.54775]}},{"type":"Feature","properties":{"stop_id":"11526","stop_code":"11526","stop_name":"7404 WESTCHESTER EB","stop_desc":"MID-BLOCK 7404 WESTCHESTER EB","wheelchair_boarding":2,"routes":[{"route_id":"19646","agency_id":"70006","route_short_name":"14","route_long_name":"Memorial Hosp-Westfield Plaza","route_type":3,"route_color":"#FFFFFF","route_text_color":"#000000"}],"agency_name":"Metro St. Louis"},"geometry":{"type":"Point","coordinates":[-90.05533,38.54801]}},{"type":"Feature","properties":{"stop_id":"11537","stop_code":"11537","stop_name":"MEMORIAL @ ADMISSION TESTING CENTER EB","stop_desc":"MID-BLOCK MEMORIAL @ ADMISSION TESTING CENTER EB","wheelchair_boarding":2,"routes":[{"route_id":"19646","agency_id":"70006","route_short_name":"14","route_long_name":"Memorial Hosp-Westfield Plaza","route_type":3,"route_color":"#FFFFFF","route_text_color":"#000000"}],"agency_name":"Metro St. Louis"},"geometry":{"type":"Point","coordinates":[-90.02229,38.55057]}},{"type":"Feature","properties":{"stop_id":"11539","stop_code":"11539","stop_name":"MEMORIAL @ PARK EB","stop_desc":"FAR SIDE MEMORIAL @ PARK EB","wheelchair_boarding":2,"routes":[{"route_id":"19646","agency_id":"70006","route_short_name":"14","route_long_name":"Memorial Hosp-Westfield Plaza","route_type":3,"route_color":"#FFFFFF","route_text_color":"#000000"}],"agency_name":"Metro St. Louis"},"geometry":{"type":"Point","coordinates":[-90.02007,38.54886]}},{"type":"Feature","properties":{"stop_id":"11540","stop_code":"11540","stop_name":"MEMORIAL @ 43RD STREET EB","stop_desc":"FAR SIDE MEMORIAL @ 43RD STREET EB","wheelchair_boarding":2,"routes":[{"route_id":"19646","agency_id":"70006","route_short_name":"14","route_long_name":"Memorial Hosp-Westfield Plaza","route_type":3,"route_color":"#FFFFFF","route_text_color":"#000000"}],"agency_name":"Metro St. Louis"},"geometry":{"type":"Point","coordinates":[-90.01792,38.54886]}},{"type":"Feature","properties":{"stop_id":"11541","stop_code":"11541","stop_name":"MEMORIAL @ 39TH STREET EB","stop_desc":"NEAR SIDE MEMORIAL @ 39TH STREET EB","wheelchair_boarding":2,"routes":[{"route_id":"19646","agency_id":"70006","route_short_name":"14","route_long_name":"Memorial Hosp-Westfield Plaza","route_type":3,"route_color":"#FFFFFF","route_text_color":"#000000"}],"agency_name":"Metro St. Louis"},"geometry":{"type":"Point","coordinates":[-90.01415,38.54882]}},{"type":"Feature","properties":{"stop_id":"11543","stop_code":"11543","stop_name":"MEMORIAL @ ROYAL HEIGHTS EB","stop_desc":"NEAR SIDE MEMORIAL @ ROYAL HEIGHTS EB","wheelchair_boarding":2,"routes":[{"route_id":"19646","agency_id":"70006","route_short_name":"14","route_long_name":"Memorial Hosp-Westfield Plaza","route_type":3,"route_color":"#FFFFFF","route_text_color":"#000000"}],"agency_name":"Metro St. Louis"},"geometry":{"type":"Point","coordinates":[-90.01205,38.54881]}},{"type":"Feature","properties":{"stop_id":"14390","stop_code":"14390","stop_name":"MAGNA @ MAGNA BANK WB","stop_desc":"MID-BLOCK MAGNA @ MAGNA BANK WB","wheelchair_boarding":2,"routes":[{"route_id":"19646","agency_id":"70006","route_short_name":"14","route_long_name":"Memorial Hosp-Westfield Plaza","route_type":3,"route_color":"#FFFFFF","route_text_color":"#000000"}],"agency_name":"Metro St. Louis"},"geometry":{"type":"Point","coordinates":[-90.05972,38.54469]}},{"type":"Feature","properties":{"stop_id":"14535","stop_code":"14535","stop_name":"ST. CLAIR HOUSING","stop_desc":"MID-BLOCK ST. CLAIR HOUSING","wheelchair_boarding":2,"routes":[{"route_id":"19646","agency_id":"70006","route_short_name":"14","route_long_name":"Memorial Hosp-Westfield Plaza","route_type":3,"route_color":"#FFFFFF","route_text_color":"#000000"}],"agency_name":"Metro St. Louis"},"geometry":{"type":"Point","coordinates":[-90.05266,38.53853]}},{"type":"Feature","properties":{"stop_id":"15348","stop_code":"15348","stop_name":"DAPRON @ HOPE CHURCH EB","stop_desc":"NEAR SIDE DAPRON @ HOPE CHURCH EB","wheelchair_boarding":2,"routes":[{"route_id":"19646","agency_id":"70006","route_short_name":"14","route_long_name":"Memorial Hosp-Westfield Plaza","route_type":3,"route_color":"#FFFFFF","route_text_color":"#000000"}],"agency_name":"Metro St. Louis"},"geometry":{"type":"Point","coordinates":[-90.02537,38.55018]}},{"type":"Feature","properties":{"stop_id":"15349","stop_code":"15349","stop_name":"ROYAL HEIGHTS @ PARK SB","stop_desc":"NEAR SIDE ROYAL HEIGHTS @ PARK SB","wheelchair_boarding":2,"routes":[{"route_id":"19646","agency_id":"70006","route_short_name":"14","route_long_name":"Memorial Hosp-Westfield Plaza","route_type":3,"route_color":"#FFFFFF","route_text_color":"#000000"}],"agency_name":"Metro St. Louis"},"geometry":{"type":"Point","coordinates":[-90.01121,38.54718]}},{"type":"Feature","properties":{"stop_id":"15350","stop_code":"15350","stop_name":"ROYAL HEIGHTS @ NORTH SB","stop_desc":"NEAR SIDE ROYAL HEIGHTS @ NORTH SB","wheelchair_boarding":2,"routes":[{"route_id":"19646","agency_id":"70006","route_short_name":"14","route_long_name":"Memorial Hosp-Westfield Plaza","route_type":3,"route_color":"#FFFFFF","route_text_color":"#000000"}],"agency_name":"Metro St. Louis"},"geometry":{"type":"Point","coordinates":[-90.01122,38.5453]}},{"type":"Feature","properties":{"stop_id":"15351","stop_code":"15351","stop_name":"ROYAL HEIGHTS @ MARIKNOLL SB","stop_desc":"FAR SIDE ROYAL HEIGHTS @ MARIKNOLL SB","wheelchair_boarding":2,"routes":[{"route_id":"19646","agency_id":"70006","route_short_name":"14","route_long_name":"Memorial Hosp-Westfield Plaza","route_type":3,"route_color":"#FFFFFF","route_text_color":"#000000"}],"agency_name":"Metro St. Louis"},"geometry":{"type":"Point","coordinates":[-90.01122,38.54391]}},{"type":"Feature","properties":{"stop_id":"15352","stop_code":"15352","stop_name":"ROYAL HEIGHTS @ NORTH BELT SB","stop_desc":"NEAR SIDE ROYAL HEIGHTS @ NORTH BELT SB","wheelchair_boarding":2,"routes":[{"route_id":"19646","agency_id":"70006","route_short_name":"14","route_long_name":"Memorial Hosp-Westfield Plaza","route_type":3,"route_color":"#FFFFFF","route_text_color":"#000000"}],"agency_name":"Metro St. Louis"},"geometry":{"type":"Point","coordinates":[-90.01123,38.54203]}},{"type":"Feature","properties":{"stop_id":"15353","stop_code":"15353","stop_name":"NORTH BELT WEST @ MAIN WB","stop_desc":"NEAR SIDE NORTH BELT WEST @ MAIN WB","wheelchair_boarding":2,"routes":[{"route_id":"19646","agency_id":"70006","route_short_name":"14","route_long_name":"Memorial Hosp-Westfield Plaza","route_type":3,"route_color":"#FFFFFF","route_text_color":"#000000"}],"agency_name":"Metro St. Louis"},"geometry":{"type":"Point","coordinates":[-90.0238,38.54171]}},{"type":"Feature","properties":{"stop_id":"15354","stop_code":"15354","stop_name":"NORTH BELT WEST @ MAIN WB","stop_desc":"FAR SIDE NORTH BELT WEST @ MAIN WB","wheelchair_boarding":2,"routes":[{"route_id":"19646","agency_id":"70006","route_short_name":"14","route_long_name":"Memorial Hosp-Westfield Plaza","route_type":3,"route_color":"#FFFFFF","route_text_color":"#000000"}],"agency_name":"Metro St. Louis"},"geometry":{"type":"Point","coordinates":[-90.02591,38.54169]}},{"type":"Feature","properties":{"stop_id":"15356","stop_code":"15356","stop_name":"ILLINOIS ROUTE 13 @ 74TH STREET WB","stop_desc":"FAR SIDE ILLINOIS ROUTE 13 @ 74TH STREET WB","wheelchair_boarding":2,"routes":[{"route_id":"19646","agency_id":"70006","route_short_name":"14","route_long_name":"Memorial Hosp-Westfield Plaza","route_type":3,"route_color":"#FFFFFF","route_text_color":"#000000"}],"agency_name":"Metro St. Louis"},"geometry":{"type":"Point","coordinates":[-90.05534,38.54741]}},{"type":"Feature","properties":{"stop_id":"15357","stop_code":"15357","stop_name":"SHEFFIELD @ WESTCHESTER NB","stop_desc":"NEAR SIDE SHEFFIELD @ WESTCHESTER NB","wheelchair_boarding":2,"routes":[{"route_id":"19646","agency_id":"70006","route_short_name":"14","route_long_name":"Memorial Hosp-Westfield Plaza","route_type":3,"route_color":"#FFFFFF","route_text_color":"#000000"}],"agency_name":"Metro St. Louis"},"geometry":{"type":"Point","coordinates":[-90.05745,38.54811]}},{"type":"Feature","properties":{"stop_id":"16346","stop_code":"16346","stop_name":"FRANK SCOTT @ HICKORY BEND SB","stop_desc":"FAR SIDE FRANK SCOTT @ HICKORY BEND SB","wheelchair_boarding":2,"routes":[{"route_id":"19646","agency_id":"70006","route_short_name":"14","route_long_name":"Memorial Hosp-Westfield Plaza","route_type":3,"route_color":"#FFFFFF","route_text_color":"#000000"}],"agency_name":"Metro St. Louis"},"geometry":{"type":"Point","coordinates":[-90.03612,38.53355]}},{"type":"Feature","properties":{"stop_id":"16347","stop_code":"16347","stop_name":"FRANK SCOTT @ HICKORY MANOR SB","stop_desc":"FAR SIDE FRANK SCOTT @ HICKORY MANOR SB","wheelchair_boarding":2,"routes":[{"route_id":"19646","agency_id":"70006","route_short_name":"14","route_long_name":"Memorial Hosp-Westfield Plaza","route_type":3,"route_color":"#FFFFFF","route_text_color":"#000000"}],"agency_name":"Metro St. Louis"},"geometry":{"type":"Point","coordinates":[-90.03612,38.53183]}},{"type":"Feature","properties":{"stop_id":"16348","stop_code":"16348","stop_name":"BELLEVILLE CROSSING @ SHOPPING CENTER SB","stop_desc":"MID-BLOCK BELLEVILLE CROSSING @ SHOPPING CENTER SB","wheelchair_boarding":2,"routes":[{"route_id":"19646","agency_id":"70006","route_short_name":"14","route_long_name":"Memorial Hosp-Westfield Plaza","route_type":3,"route_color":"#FFFFFF","route_text_color":"#000000"}],"agency_name":"Metro St. Louis"},"geometry":{"type":"Point","coordinates":[-90.03483,38.52884]}},{"type":"Feature","properties":{"stop_id":"16515","stop_code":"16515","stop_name":"WESTFIELD PLAZA @ 74TH STREET WB","stop_desc":"NEAR SIDE WESTFIELD PLAZA @ 74TH STREET WB","wheelchair_boarding":2,"routes":[{"route_id":"19646","agency_id":"70006","route_short_name":"14","route_long_name":"Memorial Hosp-Westfield Plaza","route_type":3,"route_color":"#FFFFFF","route_text_color":"#000000"}],"agency_name":"Metro St. Louis"},"geometry":{"type":"Point","coordinates":[-90.054,38.54538]}}]}