{"type":"FeatureCollection","features":[{"type":"Feature","properties":{"agency_name":"Metro St. Louis","route_id":"19595","agency_id":"70006","route_short_name":"5","route_long_name":"Green","route_type":3,"route_color":"#FFFFFF","route_text_color":"#000000"},"geometry":{"type":"MultiLineString","coordinates":[[[-90.30814,38.64688],[-90.30889,38.64696],[-90.30814,38.64688],[-90.3076,38.64684],[-90.30764,38.64661],[-90.31197,38.64702],[-90.3125,38.64709],[-90.31581,38.64738],[-90.31559,38.64842],[-90.31541,38.64946],[-90.31491,38.6516],[-90.31469,38.65321],[-90.31456,38.654],[-90.31449,38.6542],[-90.31428,38.65468],[-90.31421,38.65494],[-90.31415,38.65558],[-90.31402,38.65647],[-90.31366,38.65681],[-90.31152,38.65661],[-90.31098,38.65645],[-90.31094,38.6564],[-90.31099,38.65607],[-90.31116,38.6559],[-90.31132,38.65531],[-90.30926,38.65511],[-90.30914,38.65567],[-90.30907,38.65573],[-90.30883,38.65572],[-90.30875,38.65636],[-90.30856,38.65748],[-90.30813,38.65936],[-90.30806,38.65933],[-90.30733,38.65922],[-90.30562,38.65906],[-90.30543,38.65912],[-90.30528,38.66],[-90.30528,38.66008],[-90.30537,38.66023],[-90.30525,38.66105],[-90.30516,38.66133],[-90.3044,38.66123],[-90.30373,38.66081],[-90.30395,38.66033],[-90.30405,38.65997],[-90.30409,38.65975],[-90.30417,38.65874],[-90.30424,38.65831],[-90.30454,38.65719],[-90.30456,38.65698],[-90.30443,38.65675],[-90.3043,38.65682],[-90.3042,38.65685],[-90.304,38.65687],[-90.30329,38.65674],[-90.30249,38.65664]],[[-90.30121,38.65655],[-90.30193,38.65661],[-90.30121,38.65655],[-90.30083,38.65642],[-90.30072,38.65688],[-90.3007,38.65719],[-90.30072,38.65734],[-90.30061,38.65784],[-90.30053,38.65851],[-90.30046,38.65871],[-90.29955,38.65862],[-90.299,38.65839],[-90.29926,38.6578],[-90.29941,38.65719],[-90.29949,38.65661],[-90.29977,38.65507],[-90.29985,38.65453],[-90.30062,38.65006],[-90.3007,38.64932],[-90.30103,38.64735],[-90.30122,38.64598],[-90.30318,38.64618],[-90.3053,38.64637],[-90.30701,38.64655]],[[-90.31018,38.64714],[-90.31094,38.64693],[-90.31018,38.64714]]]}},{"type":"Feature","properties":{"stop_id":"14447","stop_code":"14447","stop_name":"FORSYTH @ WALLACE CIRCLE WB","stop_desc":"FAR SIDE FORSYTH @ WALLACE CIRCLE WB","wheelchair_boarding":2,"routes":[{"route_id":"19593","agency_id":"70006","route_short_name":"2","route_long_name":"Red","route_type":3,"route_color":"#FFFFFF","route_text_color":"#000000"},{"route_id":"19595","agency_id":"70006","route_short_name":"5","route_long_name":"Green","route_type":3,"route_color":"#FFFFFF","route_text_color":"#000000"}],"agency_name":"Metro St. Louis"},"geometry":{"type":"Point","coordinates":[-90.3113,38.64702]}},{"type":"Feature","properties":{"stop_id":"14818","stop_code":"14818","stop_name":"MALLINCKRODT CENTER","wheelchair_boarding":1,"routes":[{"route_id":"19592","agency_id":"70006","route_short_name":"1","route_long_name":"Gold","route_type":3,"route_color":"#FFFFFF","route_text_color":"#000000"},{"route_id":"19593","agency_id":"70006","route_short_name":"2","route_long_name":"Red","route_type":3,"route_color":"#FFFFFF","route_text_color":"#000000"},{"route_id":"19595","agency_id":"70006","route_short_name":"5","route_long_name":"Green","route_type":3,"route_color":"#FFFFFF","route_text_color":"#000000"}],"agency_name":"Metro St. Louis"},"geometry":{"type":"Point","coordinates":[-90.30886,38.64695]}},{"type":"Feature","properties":{"stop_id":"15040","stop_code":"15040","stop_name":"VERNON @ WESTGATE EB","stop_desc":"NEAR SIDE VERNON @ WESTGATE EB","wheelchair_boarding":2,"routes":[{"route_id":"19593","agency_id":"70006","route_short_name":"2","route_long_name":"Red","route_type":3,"route_color":"#FFFFFF","route_text_color":"#000000"},{"route_id":"19595","agency_id":"70006","route_short_name":"5","route_long_name":"Green","route_type":3,"route_color":"#FFFFFF","route_text_color":"#000000"}],"agency_name":"Metro St. Louis"},"geometry":{"type":"Point","coordinates":[-90.30449,38.66125]}},{"type":"Feature","properties":{"stop_id":"15047","stop_code":"15047","stop_name":"EASTGATE @ CATES NB","stop_desc":"NEAR SIDE EASTGATE @ CATES NB","wheelchair_boarding":1,"routes":[{"route_id":"19595","agency_id":"70006","route_short_name":"5","route_long_name":"Green","route_type":3,"route_color":"#FFFFFF","route_text_color":"#000000"}],"agency_name":"Metro St. Louis"},"geometry":{"type":"Point","coordinates":[-90.3005,38.65845]}},{"type":"Feature","properties":{"stop_id":"15139","stop_code":"15139","stop_name":"BIG BEND @ KINGSBURY NB","stop_desc":"NEAR SIDE BIG BEND @ KINGSBURY NB","wheelchair_boarding":2,"routes":[{"route_id":"19595","agency_id":"70006","route_short_name":"5","route_long_name":"Green","route_type":3,"route_color":"#FFFFFF","route_text_color":"#000000"}],"agency_name":"Metro St. Louis"},"geometry":{"type":"Point","coordinates":[-90.31457,38.65353]}},{"type":"Feature","properties":{"stop_id":"15644","stop_code":"15644","stop_name":"WASHINGTON @ KINGSLAND EB","stop_desc":"NEAR SIDE WASHINGTON @ KINGSLAND EB","wheelchair_boarding":2,"routes":[{"route_id":"19595","agency_id":"70006","route_short_name":"5","route_long_name":"Green","route_type":3,"route_color":"#FFFFFF","route_text_color":"#000000"}],"agency_name":"Metro St. Louis"},"geometry":{"type":"Point","coordinates":[-90.30957,38.6551]}},{"type":"Feature","properties":{"stop_id":"15646","stop_code":"15646","stop_name":"CLEMENS @ SYRACUSE EB","stop_desc":"FAR SIDE CLEMENS @ SYRACUSE EB","wheelchair_boarding":2,"routes":[{"route_id":"19595","agency_id":"70006","route_short_name":"5","route_long_name":"Green","route_type":3,"route_color":"#FFFFFF","route_text_color":"#000000"}],"agency_name":"Metro St. Louis"},"geometry":{"type":"Point","coordinates":[-90.30717,38.6592]}},{"type":"Feature","properties":{"stop_id":"15647","stop_code":"15647","stop_name":"CLEMENS @ LELAND EB","stop_desc":"NEAR SIDE CLEMENS @ LELAND EB","wheelchair_boarding":1,"routes":[{"route_id":"19595","agency_id":"70006","route_short_name":"5","route_long_name":"Green","route_type":3,"route_color":"#FFFFFF","route_text_color":"#000000"}],"agency_name":"Metro St. Louis"},"geometry":{"type":"Point","coordinates":[-90.30571,38.65908]}},{"type":"Feature","properties":{"stop_id":"15648","stop_code":"15648","stop_name":"LELAND @ VERNON NB","stop_desc":"NEAR SIDE LELAND @ VERNON NB","wheelchair_boarding":1,"routes":[{"route_id":"19595","agency_id":"70006","route_short_name":"5","route_long_name":"Green","route_type":3,"route_color":"#FFFFFF","route_text_color":"#000000"}],"agency_name":"Metro St. Louis"},"geometry":{"type":"Point","coordinates":[-90.3051,38.6614]}},{"type":"Feature","properties":{"stop_id":"15656","stop_code":"15656","stop_name":"WASHINGTON @ TRINITY EB","stop_desc":"FAR SIDE WASHINGTON @ TRINITY EB","wheelchair_boarding":1,"routes":[{"route_id":"19595","agency_id":"70006","route_short_name":"5","route_long_name":"Green","route_type":3,"route_color":"#FFFFFF","route_text_color":"#000000"}],"agency_name":"Metro St. Louis"},"geometry":{"type":"Point","coordinates":[-90.31082,38.65524]}},{"type":"Feature","properties":{"stop_id":"15661","stop_code":"15661","stop_name":"FORSYTH @ HOYT WB","stop_desc":"NEAR SIDE FORSYTH @ HOYT WB","wheelchair_boarding":1,"routes":[{"route_id":"19592","agency_id":"70006","route_short_name":"1","route_long_name":"Gold","route_type":3,"route_color":"#FFFFFF","route_text_color":"#000000"},{"route_id":"19593","agency_id":"70006","route_short_name":"2","route_long_name":"Red","route_type":3,"route_color":"#FFFFFF","route_text_color":"#000000"},{"route_id":"19595","agency_id":"70006","route_short_name":"5","route_long_name":"Green","route_type":3,"route_color":"#FFFFFF","route_text_color":"#000000"}],"agency_name":"Metro St. Louis"},"geometry":{"type":"Point","coordinates":[-90.30412,38.64631]}},{"type":"Feature","properties":{"stop_id":"15830","stop_code":"15830","stop_name":"WESTGATE @ CLEMENS SB","stop_desc":"FAR SIDE WESTGATE @ CLEMENS SB","wheelchair_boarding":1,"routes":[{"route_id":"19595","agency_id":"70006","route_short_name":"5","route_long_name":"Green","route_type":3,"route_color":"#FFFFFF","route_text_color":"#000000"}],"agency_name":"Metro St. Louis"},"geometry":{"type":"Point","coordinates":[-90.30418,38.65903]}},{"type":"Feature","properties":{"stop_id":"15833","stop_code":"15833","stop_name":"EASTGATE @ ENRIGHT NB","stop_desc":"FAR SIDE EASTGATE @ ENRIGHT NB","wheelchair_boarding":1,"routes":[{"route_id":"19595","agency_id":"70006","route_short_name":"5","route_long_name":"Green","route_type":3,"route_color":"#FFFFFF","route_text_color":"#000000"}],"agency_name":"Metro St. Louis"},"geometry":{"type":"Point","coordinates":[-90.30074,38.65676]}},{"type":"Feature","properties":{"stop_id":"15946","stop_code":"15946","stop_name":"WESTGATE @ ENRIGHT SB","stop_desc":"NEAR SIDE WESTGATE @ ENRIGHT SB","wheelchair_boarding":1,"routes":[{"route_id":"19595","agency_id":"70006","route_short_name":"5","route_long_name":"Green","route_type":3,"route_color":"#FFFFFF","route_text_color":"#000000"}],"agency_name":"Metro St. Louis"},"geometry":{"type":"Point","coordinates":[-90.30458,38.65726]}},{"type":"Feature","properties":{"stop_id":"16226","stop_code":"16226","stop_name":"ENRIGHT @ LIMIT EB","stop_desc":"FAR SIDE ENRIGHT @ LIMIT EB","wheelchair_boarding":2,"routes":[{"route_id":"19595","agency_id":"70006","route_short_name":"5","route_long_name":"Green","route_type":3,"route_color":"#FFFFFF","route_text_color":"#000000"}],"agency_name":"Metro St. Louis"},"geometry":{"type":"Point","coordinates":[-90.30174,38.65658]}},{"type":"Feature","properties":{"stop_id":"172","stop_code":"172","stop_name":"SKINKER @ FOREST PARK PARKWAY SB","stop_desc":"NEAR SIDE SKINKER @ FOREST PARK PARKWAY SB","wheelchair_boarding":1,"routes":[{"route_id":"19592","agency_id":"70006","route_short_name":"1","route_long_name":"Gold","route_type":3,"route_color":"#FFFFFF","route_text_color":"#000000"},{"route_id":"19593","agency_id":"70006","route_short_name":"2","route_long_name":"Red","route_type":3,"route_color":"#FFFFFF","route_text_color":"#000000"},{"route_id":"19595","agency_id":"70006","route_short_name":"5","route_long_name":"Green","route_type":3,"route_color":"#FFFFFF","route_text_color":"#000000"},{"route_id":"19601","agency_id":"70006","route_short_name":"16","route_long_name":"City Limits","route_type":3,"route_color":"#FFFFFF","route_text_color":"#000000"}],"agency_name":"Metro St. Louis"},"geometry":{"type":"Point","coordinates":[-90.30074,38.64962]}},{"type":"Feature","properties":{"stop_id":"2085","stop_code":"2085","stop_name":"BIG BEND @ SNOW WAY NB","stop_desc":"NEAR SIDE BIG BEND @ SNOW WAY NB","wheelchair_boarding":2,"routes":[{"route_id":"19595","agency_id":"70006","route_short_name":"5","route_long_name":"Green","route_type":3,"route_color":"#FFFFFF","route_text_color":"#000000"}],"agency_name":"Metro St. Louis"},"geometry":{"type":"Point","coordinates":[-90.31518,38.65011]}},{"type":"Feature","properties":{"stop_id":"2087","stop_code":"2087","stop_name":"BIG BEND METROLINK @ FOREST PARK PARKWAY NB","stop_desc":"NEAR SIDE BIG BEND METROLINK @ FOREST PARK PARKWAY NB","wheelchair_boarding":1,"routes":[{"route_id":"19595","agency_id":"70006","route_short_name":"5","route_long_name":"Green","route_type":3,"route_color":"#FFFFFF","route_text_color":"#000000"}],"agency_name":"Metro St. Louis"},"geometry":{"type":"Point","coordinates":[-90.31492,38.65122]}},{"type":"Feature","properties":{"stop_id":"2090","stop_code":"2090","stop_name":"DELMAR @ BIG BEND EB","stop_desc":"FAR SIDE DELMAR @ BIG BEND EB","wheelchair_boarding":2,"routes":[{"route_id":"19595","agency_id":"70006","route_short_name":"5","route_long_name":"Green","route_type":3,"route_color":"#FFFFFF","route_text_color":"#000000"},{"route_id":"19633","agency_id":"70006","route_short_name":"97","route_long_name":"Delmar","route_type":3,"route_color":"#FFFFFF","route_text_color":"#000000"}],"agency_name":"Metro St. Louis"},"geometry":{"type":"Point","coordinates":[-90.31348,38.65673]}},{"type":"Feature","properties":{"stop_id":"2639","stop_code":"2639","stop_name":"SKINKER METROLINK @ FOREST PARK PARKWAY SB","stop_desc":"FAR SIDE SKINKER METROLINK @ FOREST PARK PARKWAY SB","wheelchair_boarding":1,"routes":[{"route_id":"19592","agency_id":"70006","route_short_name":"1","route_long_name":"Gold","route_type":3,"route_color":"#FFFFFF","route_text_color":"#000000"},{"route_id":"19593","agency_id":"70006","route_short_name":"2","route_long_name":"Red","route_type":3,"route_color":"#FFFFFF","route_text_color":"#000000"},{"route_id":"19595","agency_id":"70006","route_short_name":"5","route_long_name":"Green","route_type":3,"route_color":"#FFFFFF","route_text_color":"#000000"},{"route_id":"19601","agency_id":"70006","route_short_name":"16","route_long_name":"City Limits","route_type":3,"route_color":"#FFFFFF","route_text_color":"#000000"}],"agency_name":"Metro St. Louis"},"geometry":{"type":"Point","coordinates":[-90.30082,38.64859]}},{"type":"Feature","properties":{"stop_id":"2640","stop_code":"2640","stop_name":"SKINKER @ BROOKINGS SB","stop_desc":"FAR SIDE SKINKER @ BROOKINGS SB","wheelchair_boarding":2,"routes":[{"route_id":"19592","agency_id":"70006","route_short_name":"1","route_long_name":"Gold","route_type":3,"route_color":"#FFFFFF","route_text_color":"#000000"},{"route_id":"19593","agency_id":"70006","route_short_name":"2","route_long_name":"Red","route_type":3,"route_color":"#FFFFFF","route_text_color":"#000000"},{"route_id":"19595","agency_id":"70006","route_short_name":"5","route_long_name":"Green","route_type":3,"route_color":"#FFFFFF","route_text_color":"#000000"},{"route_id":"19601","agency_id":"70006","route_short_name":"16","route_long_name":"City Limits","route_type":3,"route_color":"#FFFFFF","route_text_color":"#000000"}],"agency_name":"Metro St. Louis"},"geometry":{"type":"Point","coordinates":[-90.30113,38.64719]}},{"type":"Feature","properties":{"stop_id":"4349","stop_code":"4349","stop_name":"KINGSLAND @ LOOP NORTH NB","stop_desc":"FAR SIDE KINGSLAND @ LOOP NORTH NB","wheelchair_boarding":1,"routes":[{"route_id":"19595","agency_id":"70006","route_short_name":"5","route_long_name":"Green","route_type":3,"route_color":"#FFFFFF","route_text_color":"#000000"}],"agency_name":"Metro St. Louis"},"geometry":{"type":"Point","coordinates":[-90.30846,38.65782]}},{"type":"Feature","properties":{"stop_id":"8332","stop_code":"8332","stop_name":"SKINKER @ DELMAR SB","stop_desc":"FAR SIDE SKINKER @ DELMAR SB","wheelchair_boarding":1,"routes":[{"route_id":"19593","agency_id":"70006","route_short_name":"2","route_long_name":"Red","route_type":3,"route_color":"#FFFFFF","route_text_color":"#000000"},{"route_id":"19595","agency_id":"70006","route_short_name":"5","route_long_name":"Green","route_type":3,"route_color":"#FFFFFF","route_text_color":"#000000"},{"route_id":"19601","agency_id":"70006","route_short_name":"16","route_long_name":"City Limits","route_type":3,"route_color":"#FFFFFF","route_text_color":"#000000"}],"agency_name":"Metro St. Louis"},"geometry":{"type":"Point","coordinates":[-90.29983,38.65512]}},{"type":"Feature","properties":{"stop_id":"8334","stop_code":"8334","stop_name":"SKINKER @ WESTMINSTER PLACE SB","stop_desc":"FAR SIDE SKINKER @ WESTMINSTER PLACE SB","wheelchair_boarding":1,"routes":[{"route_id":"19593","agency_id":"70006","route_short_name":"2","route_long_name":"Red","route_type":3,"route_color":"#FFFFFF","route_text_color":"#000000"},{"route_id":"19595","agency_id":"70006","route_short_name":"5","route_long_name":"Green","route_type":3,"route_color":"#FFFFFF","route_text_color":"#000000"},{"route_id":"19601","agency_id":"70006","route_short_name":"16","route_long_name":"City Limits","route_type":3,"route_color":"#FFFFFF","route_text_color":"#000000"}],"agency_name":"Metro St. Louis"},"geometry":{"type":"Point","coordinates":[-90.30019,38.65324]}},{"type":"Feature","properties":{"stop_id":"8336","stop_code":"8336","stop_name":"SKINKER @ WATERMAN SB","stop_desc":"NEAR SIDE SKINKER @ WATERMAN SB","wheelchair_boarding":1,"routes":[{"route_id":"19593","agency_id":"70006","route_short_name":"2","route_long_name":"Red","route_type":3,"route_color":"#FFFFFF","route_text_color":"#000000"},{"route_id":"19595","agency_id":"70006","route_short_name":"5","route_long_name":"Green","route_type":3,"route_color":"#FFFFFF","route_text_color":"#000000"},{"route_id":"19601","agency_id":"70006","route_short_name":"16","route_long_name":"City Limits","route_type":3,"route_color":"#FFFFFF","route_text_color":"#000000"}],"agency_name":"Metro St. Louis"},"geometry":{"type":"Point","coordinates":[-90.3005,38.65112]}}]}