{"type":"FeatureCollection","features":[{"type":"Feature","properties":{"agency_name":"Metro St. Louis","route_id":"19623","agency_id":"70006","route_short_name":"73","route_long_name":"Carondelet","route_type":3,"route_color":"#FFFFFF","route_text_color":"#000000"},"geometry":{"type":"MultiLineString","coordinates":[[[-90.33326,38.50585],[-90.33305,38.50578],[-90.33326,38.50585],[-90.33367,38.50587],[-90.33398,38.50477],[-90.33359,38.50457],[-90.33322,38.50441],[-90.33213,38.50397],[-90.3318,38.50389],[-90.33154,38.50389],[-90.33119,38.50393],[-90.33006,38.50502],[-90.32932,38.50522],[-90.32929,38.5051],[-90.32884,38.50464],[-90.32828,38.5041],[-90.32677,38.5053],[-90.32505,38.5068],[-90.32466,38.50709],[-90.32102,38.51021],[-90.32035,38.51075],[-90.32,38.51099],[-90.31945,38.51131],[-90.31843,38.51195],[-90.31678,38.51295],[-90.31358,38.51486],[-90.31283,38.51533],[-90.30742,38.51861],[-90.3066,38.51913],[-90.30386,38.52075],[-90.30262,38.52152],[-90.29992,38.52314],[-90.29758,38.52459],[-90.29555,38.52578],[-90.29335,38.52713],[-90.29287,38.52753],[-90.28874,38.5318],[-90.28842,38.53215],[-90.28783,38.53272],[-90.28713,38.53345],[-90.28655,38.53409],[-90.28533,38.53534],[-90.28362,38.53713],[-90.2834,38.53735],[-90.28314,38.53757],[-90.28262,38.53814],[-90.2823,38.53845],[-90.28187,38.53894],[-90.28058,38.54029],[-90.28031,38.54056],[-90.27988,38.54095],[-90.27965,38.54107],[-90.27909,38.54131],[-90.27635,38.54233],[-90.27482,38.54294],[-90.27422,38.54316],[-90.27329,38.54354],[-90.27298,38.5437],[-90.27282,38.5438],[-90.27089,38.54527],[-90.27031,38.54572],[-90.26972,38.54621],[-90.26848,38.54715],[-90.26813,38.5474],[-90.26781,38.54757],[-90.26739,38.54773],[-90.26675,38.54792],[-90.26628,38.54804],[-90.26486,38.54835],[-90.26374,38.54862],[-90.26225,38.54902],[-90.26102,38.54932],[-90.26082,38.54938],[-90.26075,38.54942],[-90.25753,38.55225],[-90.25503,38.55442],[-90.25422,38.55516],[-90.25102,38.55797],[-90.24913,38.5595],[-90.24724,38.56106],[-90.24619,38.5619],[-90.24617,38.56213],[-90.2462,38.5623],[-90.24635,38.56268],[-90.24654,38.56309],[-90.24657,38.5632],[-90.24659,38.56331],[-90.24655,38.5636],[-90.24453,38.56973],[-90.24268,38.57523],[-90.24109,38.58008],[-90.23983,38.5804],[-90.23297,38.57952],[-90.22994,38.57915],[-90.22822,38.58077],[-90.22809,38.58091],[-90.228,38.58109],[-90.22794,38.5813],[-90.22713,38.58524],[-90.22656,38.58607],[-90.22645,38.5862],[-90.22624,38.58653],[-90.22596,38.58684],[-90.22572,38.58706],[-90.22536,38.5873],[-90.22415,38.58801],[-90.22299,38.58873],[-90.22245,38.58902],[-90.22223,38.58911],[-90.22123,38.58936],[-90.21919,38.58966],[-90.21868,38.58976],[-90.2181,38.58994],[-90.21639,38.59061],[-90.21512,38.59128],[-90.21478,38.59139],[-90.21442,38.59156],[-90.21377,38.59196],[-90.21253,38.5929],[-90.21251,38.59297],[-90.21241,38.59306],[-90.21166,38.59402],[-90.21151,38.59417],[-90.21076,38.59513],[-90.20898,38.59731],[-90.20879,38.59745],[-90.20845,38.59789],[-90.20832,38.59808],[-90.20816,38.59837],[-90.208,38.59875],[-90.21018,38.59933],[-90.21349,38.60027],[-90.21219,38.60211],[-90.20937,38.60835],[-90.20882,38.60963],[-90.2085,38.61023],[-90.20816,38.6106],[-90.20806,38.61073],[-90.2077,38.6111],[-90.20664,38.61227],[-90.20593,38.61302],[-90.20292,38.61627],[-90.20256,38.61668],[-90.20243,38.61687],[-90.20227,38.61719],[-90.20168,38.61876],[-90.20098,38.62073],[-90.20042,38.62214],[-90.20038,38.62228],[-90.1999,38.62346],[-90.19914,38.62524],[-90.20061,38.62563],[-90.20122,38.62577],[-90.20197,38.62571]]]}},{"type":"Feature","properties":{"stop_id":"16337","stop_code":"16337","stop_name":"LYNCH @ 12TH STREET WB","stop_desc":"NEAR SIDE LYNCH @ 12TH STREET WB","wheelchair_boarding":1,"routes":[{"route_id":"19623","agency_id":"70006","route_short_name":"73","route_long_name":"Carondelet","route_type":3,"route_color":"#FFFFFF","route_text_color":"#000000"}],"agency_name":"Metro St. Louis"},"geometry":{"type":"Point","coordinates":[-90.21335,38.60026]}},{"type":"Feature","properties":{"stop_id":"16338","stop_code":"16338","stop_name":"LYNCH @ 7TH STREET WB","stop_desc":"FAR SIDE LYNCH @ 7TH STREET WB","wheelchair_boarding":2,"routes":[{"route_id":"19623","agency_id":"70006","route_short_name":"73","route_long_name":"Carondelet","route_type":3,"route_color":"#FFFFFF","route_text_color":"#000000"}],"agency_name":"Metro St. Louis"},"geometry":{"type":"Point","coordinates":[-90.2095,38.59919]}},{"type":"Feature","properties":{"stop_id":"1649","stop_code":"1649","stop_name":"TUCKER @ CHOUTEAU NB","stop_desc":"FAR SIDE TUCKER @ CHOUTEAU NB","wheelchair_boarding":2,"routes":[{"route_id":"19623","agency_id":"70006","route_short_name":"73","route_long_name":"Carondelet","route_type":3,"route_color":"#FFFFFF","route_text_color":"#000000"}],"agency_name":"Metro St. Louis"},"geometry":{"type":"Point","coordinates":[-90.20137,38.61934]}},{"type":"Feature","properties":{"stop_id":"249","stop_code":"249","stop_name":"CIVIC CENTER TRANSIT CENTER","wheelchair_boarding":1,"routes":[{"route_id":"19623","agency_id":"70006","route_short_name":"73","route_long_name":"Carondelet","route_type":3,"route_color":"#FFFFFF","route_text_color":"#000000"}],"agency_name":"Metro St. Louis"},"geometry":{"type":"Point","coordinates":[-90.20234,38.62545]}},{"type":"Feature","properties":{"stop_id":"3810","stop_code":"3810","stop_name":"12TH STREET @ ALLEN NB","stop_desc":"NEAR SIDE 12TH STREET @ ALLEN NB","wheelchair_boarding":1,"routes":[{"route_id":"19623","agency_id":"70006","route_short_name":"73","route_long_name":"Carondelet","route_type":3,"route_color":"#FFFFFF","route_text_color":"#000000"}],"agency_name":"Metro St. Louis"},"geometry":{"type":"Point","coordinates":[-90.20927,38.60847]}},{"type":"Feature","properties":{"stop_id":"3913","stop_code":"3913","stop_name":"SOUTH COUNTY CENTER","stop_desc":"MID-BLOCK SOUTH COUNTY CENTER","wheelchair_boarding":1,"routes":[{"route_id":"19614","agency_id":"70006","route_short_name":"49","route_long_name":"Lindbergh","route_type":3,"route_color":"#FFFFFF","route_text_color":"#000000"},{"route_id":"19623","agency_id":"70006","route_short_name":"73","route_long_name":"Carondelet","route_type":3,"route_color":"#FFFFFF","route_text_color":"#000000"}],"agency_name":"Metro St. Louis"},"geometry":{"type":"Point","coordinates":[-90.33308,38.50581]}},{"type":"Feature","properties":{"stop_id":"394","stop_code":"394","stop_name":"BROADWAY @ GASCONADE NB","stop_desc":"NEAR SIDE BROADWAY @ GASCONADE NB","wheelchair_boarding":2,"routes":[{"route_id":"19596","agency_id":"70006","route_short_name":"8","route_long_name":"Shaw-Cherokee","route_type":3,"route_color":"#FFFFFF","route_text_color":"#000000"},{"route_id":"19623","agency_id":"70006","route_short_name":"73","route_long_name":"Carondelet","route_type":3,"route_color":"#FFFFFF","route_text_color":"#000000"}],"agency_name":"Metro St. Louis"},"geometry":{"type":"Point","coordinates":[-90.22897,38.57998]}},{"type":"Feature","properties":{"stop_id":"3946","stop_code":"3946","stop_name":"3900 LEMAY FERRY NB","stop_desc":"MID-BLOCK 3900 LEMAY FERRY NB","wheelchair_boarding":2,"routes":[{"route_id":"19623","agency_id":"70006","route_short_name":"73","route_long_name":"Carondelet","route_type":3,"route_color":"#FFFFFF","route_text_color":"#000000"}],"agency_name":"Metro St. Louis"},"geometry":{"type":"Point","coordinates":[-90.3237,38.50779]}},{"type":"Feature","properties":{"stop_id":"3949","stop_code":"3949","stop_name":"LEMAY FERRY @ VICTORY NB","stop_desc":"FAR SIDE LEMAY FERRY @ VICTORY NB","wheelchair_boarding":2,"routes":[{"route_id":"19623","agency_id":"70006","route_short_name":"73","route_long_name":"Carondelet","route_type":3,"route_color":"#FFFFFF","route_text_color":"#000000"}],"agency_name":"Metro St. Louis"},"geometry":{"type":"Point","coordinates":[-90.31947,38.51122]}},{"type":"Feature","properties":{"stop_id":"3952","stop_code":"3952","stop_name":"LEMAY FERRY @ WILL NB","stop_desc":"FAR SIDE LEMAY FERRY @ WILL NB","wheelchair_boarding":2,"routes":[{"route_id":"19623","agency_id":"70006","route_short_name":"73","route_long_name":"Carondelet","route_type":3,"route_color":"#FFFFFF","route_text_color":"#000000"}],"agency_name":"Metro St. Louis"},"geometry":{"type":"Point","coordinates":[-90.31303,38.51511]}},{"type":"Feature","properties":{"stop_id":"3953","stop_code":"3953","stop_name":"LEMAY FERRY @ HALLMARK NB","stop_desc":"NEAR SIDE LEMAY FERRY @ HALLMARK NB","wheelchair_boarding":2,"routes":[{"route_id":"19623","agency_id":"70006","route_short_name":"73","route_long_name":"Carondelet","route_type":3,"route_color":"#FFFFFF","route_text_color":"#000000"}],"agency_name":"Metro St. Louis"},"geometry":{"type":"Point","coordinates":[-90.31129,38.51618]}},{"type":"Feature","properties":{"stop_id":"3954","stop_code":"3954","stop_name":"LEMAY FERRY @ BUCKLEY NB","stop_desc":"NEAR SIDE LEMAY FERRY @ BUCKLEY NB","wheelchair_boarding":2,"routes":[{"route_id":"19623","agency_id":"70006","route_short_name":"73","route_long_name":"Carondelet","route_type":3,"route_color":"#FFFFFF","route_text_color":"#000000"}],"agency_name":"Metro St. Louis"},"geometry":{"type":"Point","coordinates":[-90.3073,38.51859]}},{"type":"Feature","properties":{"stop_id":"3955","stop_code":"3955","stop_name":"LEMAY FERRY @ LEMAY PLAZA NB","stop_desc":"MID-BLOCK LEMAY FERRY @ LEMAY PLAZA NB","wheelchair_boarding":1,"routes":[{"route_id":"19623","agency_id":"70006","route_short_name":"73","route_long_name":"Carondelet","route_type":3,"route_color":"#FFFFFF","route_text_color":"#000000"}],"agency_name":"Metro St. Louis"},"geometry":{"type":"Point","coordinates":[-90.30396,38.52061]}},{"type":"Feature","properties":{"stop_id":"3956","stop_code":"3956","stop_name":"2310 LEMAY FERRY NB","stop_desc":"NEAR SIDE 2310 LEMAY FERRY NB","wheelchair_boarding":2,"routes":[{"route_id":"19623","agency_id":"70006","route_short_name":"73","route_long_name":"Carondelet","route_type":3,"route_color":"#FFFFFF","route_text_color":"#000000"}],"agency_name":"Metro St. Louis"},"geometry":{"type":"Point","coordinates":[-90.30061,38.52261]}},{"type":"Feature","properties":{"stop_id":"3957","stop_code":"3957","stop_name":"LEMAY FERRY @ REAVIS BARRACKS NB","stop_desc":"FAR SIDE LEMAY FERRY @ REAVIS BARRACKS NB","wheelchair_boarding":2,"routes":[{"route_id":"19623","agency_id":"70006","route_short_name":"73","route_long_name":"Carondelet","route_type":3,"route_color":"#FFFFFF","route_text_color":"#000000"}],"agency_name":"Metro St. Louis"},"geometry":{"type":"Point","coordinates":[-90.29871,38.52375]}},{"type":"Feature","properties":{"stop_id":"3959","stop_code":"3959","stop_name":"LEMAY FERRY @ VESCOVO NB","stop_desc":"FAR SIDE LEMAY FERRY @ VESCOVO NB","wheelchair_boarding":2,"routes":[{"route_id":"19623","agency_id":"70006","route_short_name":"73","route_long_name":"Carondelet","route_type":3,"route_color":"#FFFFFF","route_text_color":"#000000"}],"agency_name":"Metro St. Louis"},"geometry":{"type":"Point","coordinates":[-90.2945,38.52633]}},{"type":"Feature","properties":{"stop_id":"3962","stop_code":"3962","stop_name":"LEMAY FERRY @ DUMONT PLACE NB","stop_desc":"NEAR SIDE LEMAY FERRY @ DUMONT PLACE NB","wheelchair_boarding":2,"routes":[{"route_id":"19623","agency_id":"70006","route_short_name":"73","route_long_name":"Carondelet","route_type":3,"route_color":"#FFFFFF","route_text_color":"#000000"}],"agency_name":"Metro St. Louis"},"geometry":{"type":"Point","coordinates":[-90.29198,38.52835]}},{"type":"Feature","properties":{"stop_id":"3966","stop_code":"3966","stop_name":"LEMAY FERRY @ POINT NB","stop_desc":"FAR SIDE LEMAY FERRY @ POINT NB","wheelchair_boarding":2,"routes":[{"route_id":"19623","agency_id":"70006","route_short_name":"73","route_long_name":"Carondelet","route_type":3,"route_color":"#FFFFFF","route_text_color":"#000000"}],"agency_name":"Metro St. Louis"},"geometry":{"type":"Point","coordinates":[-90.28787,38.53257]}},{"type":"Feature","properties":{"stop_id":"3968","stop_code":"3968","stop_name":"LEMAY FERRY @ TELEGRAPH NB","stop_desc":"FAR SIDE LEMAY FERRY @ TELEGRAPH NB","wheelchair_boarding":1,"routes":[{"route_id":"19623","agency_id":"70006","route_short_name":"73","route_long_name":"Carondelet","route_type":3,"route_color":"#FFFFFF","route_text_color":"#000000"}],"agency_name":"Metro St. Louis"},"geometry":{"type":"Point","coordinates":[-90.28602,38.53452]}},{"type":"Feature","properties":{"stop_id":"3971","stop_code":"3971","stop_name":"LEMAY FERRY @ HOFFMEISTER NB","stop_desc":"FAR SIDE LEMAY FERRY @ HOFFMEISTER NB","wheelchair_boarding":1,"routes":[{"route_id":"19623","agency_id":"70006","route_short_name":"73","route_long_name":"Carondelet","route_type":3,"route_color":"#FFFFFF","route_text_color":"#000000"}],"agency_name":"Metro St. Louis"},"geometry":{"type":"Point","coordinates":[-90.2824,38.53828]}},{"type":"Feature","properties":{"stop_id":"3973","stop_code":"3973","stop_name":"LEMAY FERRY @ BAYLESS NB","stop_desc":"NEAR SIDE LEMAY FERRY @ BAYLESS NB","wheelchair_boarding":1,"routes":[{"route_id":"19623","agency_id":"70006","route_short_name":"73","route_long_name":"Carondelet","route_type":3,"route_color":"#FFFFFF","route_text_color":"#000000"}],"agency_name":"Metro St. Louis"},"geometry":{"type":"Point","coordinates":[-90.27992,38.54079]}},{"type":"Feature","properties":{"stop_id":"3975","stop_code":"3975","stop_name":"LEMAY FERRY @ FANNIE NB","stop_desc":"NEAR SIDE LEMAY FERRY @ FANNIE NB","wheelchair_boarding":2,"routes":[{"route_id":"19623","agency_id":"70006","route_short_name":"73","route_long_name":"Carondelet","route_type":3,"route_color":"#FFFFFF","route_text_color":"#000000"}],"agency_name":"Metro St. Louis"},"geometry":{"type":"Point","coordinates":[-90.27692,38.54207]}},{"type":"Feature","properties":{"stop_id":"3977","stop_code":"3977","stop_name":"LEMAY FERRY @ MILITARY NB","stop_desc":"NEAR SIDE LEMAY FERRY @ MILITARY NB","wheelchair_boarding":1,"routes":[{"route_id":"19623","agency_id":"70006","route_short_name":"73","route_long_name":"Carondelet","route_type":3,"route_color":"#FFFFFF","route_text_color":"#000000"}],"agency_name":"Metro St. Louis"},"geometry":{"type":"Point","coordinates":[-90.2748,38.54291]}},{"type":"Feature","properties":{"stop_id":"3978","stop_code":"3978","stop_name":"LEMAY FERRY @ RIVER CITY CASINO NB","stop_desc":"NEAR SIDE LEMAY FERRY @ RIVER CITY CASINO NB","wheelchair_boarding":1,"routes":[{"route_id":"19623","agency_id":"70006","route_short_name":"73","route_long_name":"Carondelet","route_type":3,"route_color":"#FFFFFF","route_text_color":"#000000"}],"agency_name":"Metro St. Louis"},"geometry":{"type":"Point","coordinates":[-90.27199,38.54438]}},{"type":"Feature","properties":{"stop_id":"3979","stop_code":"3979","stop_name":"ALABAMA @ MARCEAU NB","stop_desc":"FAR SIDE ALABAMA @ MARCEAU NB","wheelchair_boarding":2,"routes":[{"route_id":"19623","agency_id":"70006","route_short_name":"73","route_long_name":"Carondelet","route_type":3,"route_color":"#FFFFFF","route_text_color":"#000000"}],"agency_name":"Metro St. Louis"},"geometry":{"type":"Point","coordinates":[-90.26986,38.54594]}},{"type":"Feature","properties":{"stop_id":"3981","stop_code":"3981","stop_name":"ALABAMA @ DAVIS NB","stop_desc":"FAR SIDE ALABAMA @ DAVIS NB","wheelchair_boarding":1,"routes":[{"route_id":"19623","agency_id":"70006","route_short_name":"73","route_long_name":"Carondelet","route_type":3,"route_color":"#FFFFFF","route_text_color":"#000000"}],"agency_name":"Metro St. Louis"},"geometry":{"type":"Point","coordinates":[-90.26831,38.5471]}},{"type":"Feature","properties":{"stop_id":"3983","stop_code":"3983","stop_name":"IVORY @ VIRGINIA EB","stop_desc":"NEAR SIDE IVORY @ VIRGINIA EB","wheelchair_boarding":1,"routes":[{"route_id":"19623","agency_id":"70006","route_short_name":"73","route_long_name":"Carondelet","route_type":3,"route_color":"#FFFFFF","route_text_color":"#000000"}],"agency_name":"Metro St. Louis"},"geometry":{"type":"Point","coordinates":[-90.26374,38.54857]}},{"type":"Feature","properties":{"stop_id":"3985","stop_code":"3985","stop_name":"IVORY @ STEINS EB","stop_desc":"NEAR SIDE IVORY @ STEINS EB","wheelchair_boarding":2,"routes":[{"route_id":"19623","agency_id":"70006","route_short_name":"73","route_long_name":"Carondelet","route_type":3,"route_color":"#FFFFFF","route_text_color":"#000000"}],"agency_name":"Metro St. Louis"},"geometry":{"type":"Point","coordinates":[-90.2612,38.54922]}},{"type":"Feature","properties":{"stop_id":"3988","stop_code":"3988","stop_name":"MICHIGAN @ NAGEL NB","stop_desc":"NEAR SIDE MICHIGAN @ NAGEL NB","wheelchair_boarding":1,"routes":[{"route_id":"19623","agency_id":"70006","route_short_name":"73","route_long_name":"Carondelet","route_type":3,"route_color":"#FFFFFF","route_text_color":"#000000"}],"agency_name":"Metro St. Louis"},"geometry":{"type":"Point","coordinates":[-90.25758,38.55214]}},{"type":"Feature","properties":{"stop_id":"3990","stop_code":"3990","stop_name":"MICHIGAN @ LOUGHBOROUGH NB","stop_desc":"FAR SIDE MICHIGAN @ LOUGHBOROUGH NB","wheelchair_boarding":1,"routes":[{"route_id":"19623","agency_id":"70006","route_short_name":"73","route_long_name":"Carondelet","route_type":3,"route_color":"#FFFFFF","route_text_color":"#000000"}],"agency_name":"Metro St. Louis"},"geometry":{"type":"Point","coordinates":[-90.25483,38.5545]}},{"type":"Feature","properties":{"stop_id":"3993","stop_code":"3993","stop_name":"MICHIGAN @ MOTT NB","stop_desc":"FAR SIDE MICHIGAN @ MOTT NB","wheelchair_boarding":1,"routes":[{"route_id":"19623","agency_id":"70006","route_short_name":"73","route_long_name":"Carondelet","route_type":3,"route_color":"#FFFFFF","route_text_color":"#000000"}],"agency_name":"Metro St. Louis"},"geometry":{"type":"Point","coordinates":[-90.25232,38.55676]}},{"type":"Feature","properties":{"stop_id":"3994","stop_code":"3994","stop_name":"MICHIGAN @ HOLLY HILLS NB","stop_desc":"FAR SIDE MICHIGAN @ HOLLY HILLS NB","wheelchair_boarding":1,"routes":[{"route_id":"19623","agency_id":"70006","route_short_name":"73","route_long_name":"Carondelet","route_type":3,"route_color":"#FFFFFF","route_text_color":"#000000"}],"agency_name":"Metro St. Louis"},"geometry":{"type":"Point","coordinates":[-90.2511,38.55781]}},{"type":"Feature","properties":{"stop_id":"3995","stop_code":"3995","stop_name":"MICHIGAN @ BOWEN NB","stop_desc":"FAR SIDE MICHIGAN @ BOWEN NB","wheelchair_boarding":1,"routes":[{"route_id":"19623","agency_id":"70006","route_short_name":"73","route_long_name":"Carondelet","route_type":3,"route_color":"#FFFFFF","route_text_color":"#000000"}],"agency_name":"Metro St. Louis"},"geometry":{"type":"Point","coordinates":[-90.24893,38.55957]}},{"type":"Feature","properties":{"stop_id":"3996","stop_code":"3996","stop_name":"MICHIGAN @ FILLMORE NB","stop_desc":"FAR SIDE MICHIGAN @ FILLMORE NB","wheelchair_boarding":2,"routes":[{"route_id":"19623","agency_id":"70006","route_short_name":"73","route_long_name":"Carondelet","route_type":3,"route_color":"#FFFFFF","route_text_color":"#000000"}],"agency_name":"Metro St. Louis"},"geometry":{"type":"Point","coordinates":[-90.24734,38.56089]}},{"type":"Feature","properties":{"stop_id":"4001","stop_code":"4001","stop_name":"VIRGINIA @ EICHELBERGER NB","stop_desc":"NEAR SIDE VIRGINIA @ EICHELBERGER NB","wheelchair_boarding":1,"routes":[{"route_id":"19623","agency_id":"70006","route_short_name":"73","route_long_name":"Carondelet","route_type":3,"route_color":"#FFFFFF","route_text_color":"#000000"}],"agency_name":"Metro St. Louis"},"geometry":{"type":"Point","coordinates":[-90.24538,38.56689]}},{"type":"Feature","properties":{"stop_id":"4005","stop_code":"4005","stop_name":"VIRGINIA @ LIBERTY NB","stop_desc":"NEAR SIDE VIRGINIA @ LIBERTY NB","wheelchair_boarding":2,"routes":[{"route_id":"19623","agency_id":"70006","route_short_name":"73","route_long_name":"Carondelet","route_type":3,"route_color":"#FFFFFF","route_text_color":"#000000"}],"agency_name":"Metro St. Louis"},"geometry":{"type":"Point","coordinates":[-90.24419,38.57061]}},{"type":"Feature","properties":{"stop_id":"4006","stop_code":"4006","stop_name":"VIRGINIA @ MOUNT PLEASANT NB","stop_desc":"NEAR SIDE VIRGINIA @ MOUNT PLEASANT NB","wheelchair_boarding":1,"routes":[{"route_id":"19623","agency_id":"70006","route_short_name":"73","route_long_name":"Carondelet","route_type":3,"route_color":"#FFFFFF","route_text_color":"#000000"}],"agency_name":"Metro St. Louis"},"geometry":{"type":"Point","coordinates":[-90.2433,38.57329]}},{"type":"Feature","properties":{"stop_id":"4007","stop_code":"4007","stop_name":"VIRGINIA @ TAFT NB","stop_desc":"NEAR SIDE VIRGINIA @ TAFT NB","wheelchair_boarding":1,"routes":[{"route_id":"19623","agency_id":"70006","route_short_name":"73","route_long_name":"Carondelet","route_type":3,"route_color":"#FFFFFF","route_text_color":"#000000"}],"agency_name":"Metro St. Louis"},"geometry":{"type":"Point","coordinates":[-90.24298,38.57423]}},{"type":"Feature","properties":{"stop_id":"4009","stop_code":"4009","stop_name":"VIRGINIA @ OSCEOLA NB","stop_desc":"NEAR SIDE VIRGINIA @ OSCEOLA NB","wheelchair_boarding":2,"routes":[{"route_id":"19623","agency_id":"70006","route_short_name":"73","route_long_name":"Carondelet","route_type":3,"route_color":"#FFFFFF","route_text_color":"#000000"}],"agency_name":"Metro St. Louis"},"geometry":{"type":"Point","coordinates":[-90.24216,38.57668]}},{"type":"Feature","properties":{"stop_id":"4010","stop_code":"4010","stop_name":"MERAMEC @ COMPTON EB","stop_desc":"FAR SIDE MERAMEC @ COMPTON EB","wheelchair_boarding":1,"routes":[{"route_id":"19623","agency_id":"70006","route_short_name":"73","route_long_name":"Carondelet","route_type":3,"route_color":"#FFFFFF","route_text_color":"#000000"}],"agency_name":"Metro St. Louis"},"geometry":{"type":"Point","coordinates":[-90.2391,38.58024]}},{"type":"Feature","properties":{"stop_id":"4012","stop_code":"4012","stop_name":"MERAMEC @ MINNESOTA EB","stop_desc":"NEAR SIDE MERAMEC @ MINNESOTA EB","wheelchair_boarding":1,"routes":[{"route_id":"19623","agency_id":"70006","route_short_name":"73","route_long_name":"Carondelet","route_type":3,"route_color":"#FFFFFF","route_text_color":"#000000"}],"agency_name":"Metro St. Louis"},"geometry":{"type":"Point","coordinates":[-90.23791,38.58015]}},{"type":"Feature","properties":{"stop_id":"4013","stop_code":"4013","stop_name":"MERAMEC @ NEBRASKA EB","stop_desc":"NEAR SIDE MERAMEC @ NEBRASKA EB","wheelchair_boarding":1,"routes":[{"route_id":"19623","agency_id":"70006","route_short_name":"73","route_long_name":"Carondelet","route_type":3,"route_color":"#FFFFFF","route_text_color":"#000000"}],"agency_name":"Metro St. Louis"},"geometry":{"type":"Point","coordinates":[-90.23564,38.57986]}},{"type":"Feature","properties":{"stop_id":"4038","stop_code":"4038","stop_name":"12TH STREET @ SIDNEY NB","stop_desc":"FAR SIDE 12TH STREET @ SIDNEY NB","wheelchair_boarding":1,"routes":[{"route_id":"19623","agency_id":"70006","route_short_name":"73","route_long_name":"Carondelet","route_type":3,"route_color":"#FFFFFF","route_text_color":"#000000"}],"agency_name":"Metro St. Louis"},"geometry":{"type":"Point","coordinates":[-90.21199,38.60249]}},{"type":"Feature","properties":{"stop_id":"4039","stop_code":"4039","stop_name":"12TH STREET @ BARTON NB","stop_desc":"NEAR SIDE 12TH STREET @ BARTON NB","wheelchair_boarding":1,"routes":[{"route_id":"19623","agency_id":"70006","route_short_name":"73","route_long_name":"Carondelet","route_type":3,"route_color":"#FFFFFF","route_text_color":"#000000"}],"agency_name":"Metro St. Louis"},"geometry":{"type":"Point","coordinates":[-90.21139,38.60378]}},{"type":"Feature","properties":{"stop_id":"4042","stop_code":"4042","stop_name":"12TH STREET @ RUSSELL NB","stop_desc":"NEAR SIDE 12TH STREET @ RUSSELL NB","wheelchair_boarding":1,"routes":[{"route_id":"19623","agency_id":"70006","route_short_name":"73","route_long_name":"Carondelet","route_type":3,"route_color":"#FFFFFF","route_text_color":"#000000"}],"agency_name":"Metro St. Louis"},"geometry":{"type":"Point","coordinates":[-90.20969,38.60748]}},{"type":"Feature","properties":{"stop_id":"4100","stop_code":"4100","stop_name":"MERAMEC @ CALIFORNIA EB","stop_desc":"NEAR SIDE MERAMEC @ CALIFORNIA EB","wheelchair_boarding":1,"routes":[{"route_id":"19623","agency_id":"70006","route_short_name":"73","route_long_name":"Carondelet","route_type":3,"route_color":"#FFFFFF","route_text_color":"#000000"}],"agency_name":"Metro St. Louis"},"geometry":{"type":"Point","coordinates":[-90.23306,38.57949]}},{"type":"Feature","properties":{"stop_id":"4108","stop_code":"4108","stop_name":"MERAMEC @ OHIO EB","stop_desc":"NEAR SIDE MERAMEC @ OHIO EB","wheelchair_boarding":2,"routes":[{"route_id":"19623","agency_id":"70006","route_short_name":"73","route_long_name":"Carondelet","route_type":3,"route_color":"#FFFFFF","route_text_color":"#000000"}],"agency_name":"Metro St. Louis"},"geometry":{"type":"Point","coordinates":[-90.23085,38.57924]}},{"type":"Feature","properties":{"stop_id":"6576","stop_code":"6576","stop_name":"BROADWAY @ KEOKUK NB","stop_desc":"NEAR SIDE BROADWAY @ KEOKUK NB","wheelchair_boarding":1,"routes":[{"route_id":"19596","agency_id":"70006","route_short_name":"8","route_long_name":"Shaw-Cherokee","route_type":3,"route_color":"#FFFFFF","route_text_color":"#000000"},{"route_id":"19623","agency_id":"70006","route_short_name":"73","route_long_name":"Carondelet","route_type":3,"route_color":"#FFFFFF","route_text_color":"#000000"}],"agency_name":"Metro St. Louis"},"geometry":{"type":"Point","coordinates":[-90.22725,38.58416]}},{"type":"Feature","properties":{"stop_id":"6577","stop_code":"6577","stop_name":"BROADWAY @ CHIPPEWA NB","stop_desc":"FAR SIDE BROADWAY @ CHIPPEWA NB","wheelchair_boarding":1,"routes":[{"route_id":"19623","agency_id":"70006","route_short_name":"73","route_long_name":"Carondelet","route_type":3,"route_color":"#FFFFFF","route_text_color":"#000000"}],"agency_name":"Metro St. Louis"},"geometry":{"type":"Point","coordinates":[-90.22639,38.58618]}},{"type":"Feature","properties":{"stop_id":"6579","stop_code":"6579","stop_name":"BROADWAY @ MIAMI NB","stop_desc":"NEAR SIDE BROADWAY @ MIAMI NB","wheelchair_boarding":1,"routes":[{"route_id":"19623","agency_id":"70006","route_short_name":"73","route_long_name":"Carondelet","route_type":3,"route_color":"#FFFFFF","route_text_color":"#000000"}],"agency_name":"Metro St. Louis"},"geometry":{"type":"Point","coordinates":[-90.22208,38.58909]}},{"type":"Feature","properties":{"stop_id":"6581","stop_code":"6581","stop_name":"BROADWAY @ LEMP NB","stop_desc":"FAR SIDE BROADWAY @ LEMP NB","wheelchair_boarding":1,"routes":[{"route_id":"19623","agency_id":"70006","route_short_name":"73","route_long_name":"Carondelet","route_type":3,"route_color":"#FFFFFF","route_text_color":"#000000"}],"agency_name":"Metro St. Louis"},"geometry":{"type":"Point","coordinates":[-90.21901,38.58963]}},{"type":"Feature","properties":{"stop_id":"6582","stop_code":"6582","stop_name":"BROADWAY @ POTOMAC NB","stop_desc":"FAR SIDE BROADWAY @ POTOMAC NB","wheelchair_boarding":1,"routes":[{"route_id":"19623","agency_id":"70006","route_short_name":"73","route_long_name":"Carondelet","route_type":3,"route_color":"#FFFFFF","route_text_color":"#000000"}],"agency_name":"Metro St. Louis"},"geometry":{"type":"Point","coordinates":[-90.2162,38.59063]}},{"type":"Feature","properties":{"stop_id":"6584","stop_code":"6584","stop_name":"BROADWAY @ UTAH NB","stop_desc":"FAR SIDE BROADWAY @ UTAH NB","wheelchair_boarding":2,"routes":[{"route_id":"19605","agency_id":"70006","route_short_name":"30","route_long_name":"Arsenal","route_type":3,"route_color":"#FFFFFF","route_text_color":"#000000"},{"route_id":"19623","agency_id":"70006","route_short_name":"73","route_long_name":"Carondelet","route_type":3,"route_color":"#FFFFFF","route_text_color":"#000000"}],"agency_name":"Metro St. Louis"},"geometry":{"type":"Point","coordinates":[-90.21184,38.59362]}},{"type":"Feature","properties":{"stop_id":"714","stop_code":"714","stop_name":"VIRGINIA @ BATES NB","stop_desc":"FAR SIDE VIRGINIA @ BATES NB","wheelchair_boarding":1,"routes":[{"route_id":"19623","agency_id":"70006","route_short_name":"73","route_long_name":"Carondelet","route_type":3,"route_color":"#FFFFFF","route_text_color":"#000000"}],"agency_name":"Metro St. Louis"},"geometry":{"type":"Point","coordinates":[-90.24637,38.56393]}},{"type":"Feature","properties":{"stop_id":"9047","stop_code":"9047","stop_name":"TUCKER @ LAFAYETTE NB","stop_desc":"NEAR SIDE TUCKER @ LAFAYETTE NB","wheelchair_boarding":2,"routes":[{"route_id":"19598","agency_id":"70006","route_short_name":"10","route_long_name":"Gravois-Lindell","route_type":3,"route_color":"#FFFFFF","route_text_color":"#000000"},{"route_id":"19623","agency_id":"70006","route_short_name":"73","route_long_name":"Carondelet","route_type":3,"route_color":"#FFFFFF","route_text_color":"#000000"}],"agency_name":"Metro St. Louis"},"geometry":{"type":"Point","coordinates":[-90.20631,38.6125]}},{"type":"Feature","properties":{"stop_id":"9049","stop_code":"9049","stop_name":"TUCKER @ PARK NB","stop_desc":"FAR SIDE TUCKER @ PARK NB","wheelchair_boarding":1,"routes":[{"route_id":"19598","agency_id":"70006","route_short_name":"10","route_long_name":"Gravois-Lindell","route_type":3,"route_color":"#FFFFFF","route_text_color":"#000000"},{"route_id":"19623","agency_id":"70006","route_short_name":"73","route_long_name":"Carondelet","route_type":3,"route_color":"#FFFFFF","route_text_color":"#000000"}],"agency_name":"Metro St. Louis"},"geometry":{"type":"Point","coordinates":[-90.20392,38.61508]}},{"type":"Feature","properties":{"stop_id":"9050","stop_code":"9050","stop_name":"TUCKER @ HICKORY PLACE NB","stop_desc":"FAR SIDE TUCKER @ HICKORY PLACE NB","wheelchair_boarding":1,"routes":[{"route_id":"19598","agency_id":"70006","route_short_name":"10","route_long_name":"Gravois-Lindell","route_type":3,"route_color":"#FFFFFF","route_text_color":"#000000"},{"route_id":"19623","agency_id":"70006","route_short_name":"73","route_long_name":"Carondelet","route_type":3,"route_color":"#FFFFFF","route_text_color":"#000000"}],"agency_name":"Metro St. Louis"},"geometry":{"type":"Point","coordinates":[-90.20232,38.61687]}},{"type":"Feature","properties":{"stop_id":"9507","stop_code":"9507","stop_name":"BROADWAY @ ARSENAL NB","stop_desc":"FAR SIDE BROADWAY @ ARSENAL NB","wheelchair_boarding":2,"routes":[{"route_id":"19605","agency_id":"70006","route_short_name":"30","route_long_name":"Arsenal","route_type":3,"route_color":"#FFFFFF","route_text_color":"#000000"},{"route_id":"19623","agency_id":"70006","route_short_name":"73","route_long_name":"Carondelet","route_type":3,"route_color":"#FFFFFF","route_text_color":"#000000"}],"agency_name":"Metro St. Louis"},"geometry":{"type":"Point","coordinates":[-90.21108,38.59465]}},{"type":"Feature","properties":{"stop_id":"9509","stop_code":"9509","stop_name":"BROADWAY @ DORCAS NB","stop_desc":"FAR SIDE BROADWAY @ DORCAS NB","wheelchair_boarding":1,"routes":[{"route_id":"19605","agency_id":"70006","route_short_name":"30","route_long_name":"Arsenal","route_type":3,"route_color":"#FFFFFF","route_text_color":"#000000"},{"route_id":"19623","agency_id":"70006","route_short_name":"73","route_long_name":"Carondelet","route_type":3,"route_color":"#FFFFFF","route_text_color":"#000000"}],"agency_name":"Metro St. Louis"},"geometry":{"type":"Point","coordinates":[-90.20863,38.59759]}}]}