{"type":"FeatureCollection","features":[{"type":"Feature","properties":{"agency_name":"Metro St. Louis","route_id":"19628","agency_id":"70006","route_short_name":"79","route_long_name":"Ferguson-Clayton","route_type":3,"route_color":"#FFFFFF","route_text_color":"#000000"},"geometry":{"type":"MultiLineString","coordinates":[[[-90.33918,38.64609],[-90.33921,38.6461],[-90.33915,38.64607],[-90.33913,38.646],[-90.33915,38.64595],[-90.3392,38.64593],[-90.34024,38.64602],[-90.3398,38.64907],[-90.33825,38.65025],[-90.33407,38.6499],[-90.33361,38.65332],[-90.33349,38.65403],[-90.33311,38.65664],[-90.33275,38.65886],[-90.33251,38.66063],[-90.33225,38.66229],[-90.33211,38.66332],[-90.33211,38.66353],[-90.33218,38.66454],[-90.33231,38.66612],[-90.33234,38.66665],[-90.33235,38.66725],[-90.33212,38.66876],[-90.33161,38.67164],[-90.33127,38.67387],[-90.33114,38.6742],[-90.33103,38.67437],[-90.3309,38.67453],[-90.33075,38.67467],[-90.3299,38.67529],[-90.32927,38.67572],[-90.32903,38.67595],[-90.32889,38.67613],[-90.32877,38.67633],[-90.32869,38.67653],[-90.32864,38.67674],[-90.32864,38.67744],[-90.32873,38.67963],[-90.32872,38.67981],[-90.32878,38.68121],[-90.3288,38.68223],[-90.32879,38.68418],[-90.32881,38.68542],[-90.32876,38.69214],[-90.3287,38.69347],[-90.32871,38.69476],[-90.32866,38.69705],[-90.32867,38.69778],[-90.32866,38.69802],[-90.32864,38.69811],[-90.32853,38.69841],[-90.32842,38.6986],[-90.32818,38.69887],[-90.32779,38.69924],[-90.32612,38.70095],[-90.32584,38.70128],[-90.32572,38.70146],[-90.3256,38.70176],[-90.32555,38.70197],[-90.32553,38.70234],[-90.32554,38.70536],[-90.32552,38.70571],[-90.32546,38.70601],[-90.32517,38.70715],[-90.32506,38.70752],[-90.32498,38.70772],[-90.32488,38.70791],[-90.32475,38.70809],[-90.32445,38.70841],[-90.32422,38.70857],[-90.32399,38.7087],[-90.32372,38.7088],[-90.32325,38.70892],[-90.32256,38.70901],[-90.32198,38.70911],[-90.32156,38.70922],[-90.32115,38.70937],[-90.32076,38.70955],[-90.32022,38.70987],[-90.31998,38.71009],[-90.31977,38.71033],[-90.3195,38.71071],[-90.31939,38.71115],[-90.31938,38.71298],[-90.31935,38.7138],[-90.31936,38.71432],[-90.31935,38.71535],[-90.31933,38.71558],[-90.31929,38.71579],[-90.31921,38.71601],[-90.31911,38.71621],[-90.31892,38.71648],[-90.31845,38.71701],[-90.31825,38.71727],[-90.31809,38.71757],[-90.31624,38.71782],[-90.31606,38.71782],[-90.3161,38.71825],[-90.31605,38.7188],[-90.31578,38.71877],[-90.31546,38.71876],[-90.31514,38.7188],[-90.3152,38.71924],[-90.3153,38.71956],[-90.31539,38.71975],[-90.31561,38.71975],[-90.31577,38.71967],[-90.31586,38.7195]],[[-90.31606,38.71782],[-90.31581,38.71782],[-90.31494,38.71791],[-90.31441,38.71785],[-90.31337,38.71738],[-90.31278,38.71729],[-90.31266,38.71729],[-90.31232,38.71732],[-90.312,38.71737],[-90.31158,38.71751],[-90.30952,38.7181],[-90.30734,38.7183],[-90.30604,38.71838],[-90.30598,38.71881],[-90.30596,38.71932],[-90.30589,38.72002],[-90.30573,38.72068],[-90.3057,38.72086],[-90.30564,38.72176],[-90.30559,38.722],[-90.3054,38.72254],[-90.3053,38.72275],[-90.30478,38.72359],[-90.3044,38.72429],[-90.30401,38.72494],[-90.30359,38.7257],[-90.30237,38.72779],[-90.30218,38.7282],[-90.30199,38.72872],[-90.30187,38.72917],[-90.30182,38.72959],[-90.3018,38.7303],[-90.30181,38.73094],[-90.30169,38.73278],[-90.30163,38.73519],[-90.30166,38.7356],[-90.30171,38.73586],[-90.30183,38.73626],[-90.30222,38.7373],[-90.30322,38.73783],[-90.3053,38.73716],[-90.30885,38.73598],[-90.31049,38.73546],[-90.31563,38.73378],[-90.31565,38.73388],[-90.31558,38.74274],[-90.31537,38.74411],[-90.31491,38.74642],[-90.31468,38.7464],[-90.31392,38.74638],[-90.31369,38.74634],[-90.31262,38.74632],[-90.31219,38.74633],[-90.31194,38.74638],[-90.31153,38.74651],[-90.31123,38.74664],[-90.311,38.74677],[-90.31051,38.7471],[-90.31027,38.74724],[-90.30995,38.7474],[-90.30977,38.74754],[-90.30971,38.74764],[-90.30964,38.74769],[-90.30903,38.74809],[-90.30884,38.74818],[-90.30838,38.74834],[-90.30718,38.74855],[-90.30856,38.75075],[-90.30881,38.75125],[-90.30889,38.75158],[-90.309,38.75271],[-90.30913,38.75374],[-90.30942,38.75659],[-90.30951,38.75731],[-90.30962,38.75791],[-90.3097,38.75816],[-90.30986,38.75852],[-90.3102,38.75905],[-90.31097,38.75998],[-90.31325,38.76281],[-90.31357,38.76327],[-90.31379,38.76373],[-90.31388,38.764],[-90.3141,38.76481],[-90.31562,38.77082],[-90.31592,38.77165],[-90.31613,38.7721],[-90.31644,38.77268],[-90.31643,38.77309],[-90.31623,38.7732],[-90.31427,38.77313],[-90.31071,38.77276],[-90.30811,38.77239],[-90.30439,38.77205],[-90.30064,38.77167],[-90.29704,38.77139],[-90.29385,38.77123],[-90.28885,38.77104],[-90.28876,38.77097],[-90.28856,38.77097],[-90.28822,38.77102],[-90.28535,38.77102],[-90.28425,38.77099],[-90.28341,38.77089],[-90.28289,38.77078],[-90.28258,38.77068],[-90.28228,38.77056],[-90.28146,38.77014],[-90.28117,38.77004],[-90.28063,38.76993],[-90.28011,38.7699],[-90.27971,38.76982],[-90.2795,38.76981],[-90.27929,38.76982],[-90.27898,38.76986],[-90.27867,38.76996],[-90.27793,38.77039],[-90.27761,38.77053],[-90.27718,38.77066],[-90.27667,38.77072],[-90.27625,38.77074],[-90.27468,38.77071],[-90.27464,38.76915],[-90.27512,38.76913],[-90.27518,38.76916],[-90.27521,38.76922]],[[-90.30248,38.73799],[-90.30222,38.7373],[-90.30282,38.73895],[-90.30364,38.74108],[-90.30402,38.74213],[-90.30433,38.74289],[-90.30485,38.74406],[-90.30506,38.7449],[-90.30527,38.74545],[-90.30564,38.74619],[-90.30611,38.74694],[-90.30686,38.74807]]]}},{"type":"Feature","properties":{"stop_id":"13335","stop_code":"13335","stop_name":"3344 PERSHALL EB","stop_desc":"MID-BLOCK 3344 PERSHALL EB","wheelchair_boarding":1,"routes":[{"route_id":"19624","agency_id":"70006","route_short_name":"74","route_long_name":"Florissant","route_type":3,"route_color":"#FFFFFF","route_text_color":"#000000"},{"route_id":"19627","agency_id":"70006","route_short_name":"78","route_long_name":"Bellefontaine","route_type":3,"route_color":"#FFFFFF","route_text_color":"#000000"},{"route_id":"19628","agency_id":"70006","route_short_name":"79","route_long_name":"Ferguson-Clayton","route_type":3,"route_color":"#FFFFFF","route_text_color":"#000000"}],"agency_name":"Metro St. Louis"},"geometry":{"type":"Point","coordinates":[-90.28318,38.77079]}},{"type":"Feature","properties":{"stop_id":"13549","stop_code":"13549","stop_name":"FORSYTH @ CENTRAL EB","stop_desc":"NEAR SIDE FORSYTH @ CENTRAL EB","wheelchair_boarding":1,"routes":[{"route_id":"19608","agency_id":"70006","route_short_name":"33","route_long_name":"Midland","route_type":3,"route_color":"#FFFFFF","route_text_color":"#000000"},{"route_id":"19628","agency_id":"70006","route_short_name":"79","route_long_name":"Ferguson-Clayton","route_type":3,"route_color":"#FFFFFF","route_text_color":"#000000"},{"route_id":"19633","agency_id":"70006","route_short_name":"97","route_long_name":"Delmar","route_type":3,"route_color":"#FFFFFF","route_text_color":"#000000"}],"agency_name":"Metro St. Louis"},"geometry":{"type":"Point","coordinates":[-90.33869,38.65025]}},{"type":"Feature","properties":{"stop_id":"14403","stop_code":"14403","stop_name":"CLAYTON TRANSIT CENTER","wheelchair_boarding":1,"routes":[{"route_id":"19628","agency_id":"70006","route_short_name":"79","route_long_name":"Ferguson-Clayton","route_type":3,"route_color":"#FFFFFF","route_text_color":"#000000"},{"route_id":"19633","agency_id":"70006","route_short_name":"97","route_long_name":"Delmar","route_type":3,"route_color":"#FFFFFF","route_text_color":"#000000"}],"agency_name":"Metro St. Louis"},"geometry":{"type":"Point","coordinates":[-90.33974,38.64607]}},{"type":"Feature","properties":{"stop_id":"14672","stop_code":"14672","stop_name":"MERAMEC @ CARONDELET NB","stop_desc":"NEAR SIDE MERAMEC @ CARONDELET NB","wheelchair_boarding":1,"routes":[{"route_id":"19608","agency_id":"70006","route_short_name":"33","route_long_name":"Midland","route_type":3,"route_color":"#FFFFFF","route_text_color":"#000000"},{"route_id":"19628","agency_id":"70006","route_short_name":"79","route_long_name":"Ferguson-Clayton","route_type":3,"route_color":"#FFFFFF","route_text_color":"#000000"},{"route_id":"19633","agency_id":"70006","route_short_name":"97","route_long_name":"Delmar","route_type":3,"route_color":"#FFFFFF","route_text_color":"#000000"}],"agency_name":"Metro St. Louis"},"geometry":{"type":"Point","coordinates":[-90.33974,38.64883]}},{"type":"Feature","properties":{"stop_id":"15897","stop_code":"15897","stop_name":"UNIVERSITY PLACE @ EXPRESS SCRIPTS EB","stop_desc":"NEAR SIDE UNIVERSITY PLACE @ EXPRESS SCRIPTS EB","wheelchair_boarding":1,"routes":[{"route_id":"19628","agency_id":"70006","route_short_name":"79","route_long_name":"Ferguson-Clayton","route_type":3,"route_color":"#FFFFFF","route_text_color":"#000000"}],"agency_name":"Metro St. Louis"},"geometry":{"type":"Point","coordinates":[-90.31024,38.71784]}},{"type":"Feature","properties":{"stop_id":"16063","stop_code":"16063","stop_name":"NORTH HANLEY TRANSIT CENTER","wheelchair_boarding":1,"routes":[{"route_id":"19628","agency_id":"70006","route_short_name":"79","route_long_name":"Ferguson-Clayton","route_type":3,"route_color":"#FFFFFF","route_text_color":"#000000"},{"route_id":"19634","agency_id":"70006","route_short_name":"98","route_long_name":"Ballas-North Hanley","route_type":3,"route_color":"#FFFFFF","route_text_color":"#000000"},{"route_id":"19635","agency_id":"70006","route_short_name":"100","route_long_name":"Hazelwood","route_type":3,"route_color":"#FFFFFF","route_text_color":"#000000"}],"agency_name":"Metro St. Louis"},"geometry":{"type":"Point","coordinates":[-90.31522,38.71962]}},{"type":"Feature","properties":{"stop_id":"16251","stop_code":"16251","stop_name":"NORTH COUNTY TRANSIT CENTER","wheelchair_boarding":1,"routes":[{"route_id":"19611","agency_id":"70006","route_short_name":"40","route_long_name":"Broadway-Halls Ferry","route_type":3,"route_color":"#FFFFFF","route_text_color":"#000000"},{"route_id":"19626","agency_id":"70006","route_short_name":"77","route_long_name":"Village Square","route_type":3,"route_color":"#FFFFFF","route_text_color":"#000000"},{"route_id":"19627","agency_id":"70006","route_short_name":"78","route_long_name":"Bellefontaine","route_type":3,"route_color":"#FFFFFF","route_text_color":"#000000"},{"route_id":"19628","agency_id":"70006","route_short_name":"79","route_long_name":"Ferguson-Clayton","route_type":3,"route_color":"#FFFFFF","route_text_color":"#000000"}],"agency_name":"Metro St. Louis"},"geometry":{"type":"Point","coordinates":[-90.27521,38.7698]}},{"type":"Feature","properties":{"stop_id":"273","stop_code":"273","stop_name":"STLCC FLORISSANT VALLEY","stop_desc":"FAR SIDE STLCC FLORISSANT VALLEY","wheelchair_boarding":1,"routes":[{"route_id":"19624","agency_id":"70006","route_short_name":"74","route_long_name":"Florissant","route_type":3,"route_color":"#FFFFFF","route_text_color":"#000000"},{"route_id":"19627","agency_id":"70006","route_short_name":"78","route_long_name":"Bellefontaine","route_type":3,"route_color":"#FFFFFF","route_text_color":"#000000"},{"route_id":"19628","agency_id":"70006","route_short_name":"79","route_long_name":"Ferguson-Clayton","route_type":3,"route_color":"#FFFFFF","route_text_color":"#000000"}],"agency_name":"Metro St. Louis"},"geometry":{"type":"Point","coordinates":[-90.28791,38.771]}},{"type":"Feature","properties":{"stop_id":"3640","stop_code":"3640","stop_name":"SOUTH FLORISSANT @ TIFFIN NB","stop_desc":"NEAR SIDE SOUTH FLORISSANT @ TIFFIN NB","wheelchair_boarding":1,"routes":[{"route_id":"19628","agency_id":"70006","route_short_name":"79","route_long_name":"Ferguson-Clayton","route_type":3,"route_color":"#FFFFFF","route_text_color":"#000000"}],"agency_name":"Metro St. Louis"},"geometry":{"type":"Point","coordinates":[-90.30346,38.74074]}},{"type":"Feature","properties":{"stop_id":"3644","stop_code":"3644","stop_name":"SUBURBAN @ CLARK WB","stop_desc":"FAR SIDE SUBURBAN @ CLARK WB","wheelchair_boarding":2,"routes":[{"route_id":"19628","agency_id":"70006","route_short_name":"79","route_long_name":"Ferguson-Clayton","route_type":3,"route_color":"#FFFFFF","route_text_color":"#000000"}],"agency_name":"Metro St. Louis"},"geometry":{"type":"Point","coordinates":[-90.30539,38.73716]}},{"type":"Feature","properties":{"stop_id":"3645","stop_code":"3645","stop_name":"SUBURBAN @ HERN WB","stop_desc":"FAR SIDE SUBURBAN @ HERN WB","wheelchair_boarding":2,"routes":[{"route_id":"19628","agency_id":"70006","route_short_name":"79","route_long_name":"Ferguson-Clayton","route_type":3,"route_color":"#FFFFFF","route_text_color":"#000000"}],"agency_name":"Metro St. Louis"},"geometry":{"type":"Point","coordinates":[-90.30779,38.73638]}},{"type":"Feature","properties":{"stop_id":"3646","stop_code":"3646","stop_name":"SUBURBAN @ SHIRLEY WB","stop_desc":"FAR SIDE SUBURBAN @ SHIRLEY WB","wheelchair_boarding":2,"routes":[{"route_id":"19628","agency_id":"70006","route_short_name":"79","route_long_name":"Ferguson-Clayton","route_type":3,"route_color":"#FFFFFF","route_text_color":"#000000"}],"agency_name":"Metro St. Louis"},"geometry":{"type":"Point","coordinates":[-90.3091,38.73596]}},{"type":"Feature","properties":{"stop_id":"3647","stop_code":"3647","stop_name":"SUBURBAN @ GEORGIA WB","stop_desc":"FAR SIDE SUBURBAN @ GEORGIA WB","wheelchair_boarding":2,"routes":[{"route_id":"19628","agency_id":"70006","route_short_name":"79","route_long_name":"Ferguson-Clayton","route_type":3,"route_color":"#FFFFFF","route_text_color":"#000000"}],"agency_name":"Metro St. Louis"},"geometry":{"type":"Point","coordinates":[-90.31062,38.73546]}},{"type":"Feature","properties":{"stop_id":"3648","stop_code":"3648","stop_name":"SUBURBAN @ HARVEY WB","stop_desc":"NEAR SIDE SUBURBAN @ HARVEY WB","wheelchair_boarding":2,"routes":[{"route_id":"19628","agency_id":"70006","route_short_name":"79","route_long_name":"Ferguson-Clayton","route_type":3,"route_color":"#FFFFFF","route_text_color":"#000000"}],"agency_name":"Metro St. Louis"},"geometry":{"type":"Point","coordinates":[-90.31267,38.7348]}},{"type":"Feature","properties":{"stop_id":"3649","stop_code":"3649","stop_name":"SUBURBAN @ DADE WB","stop_desc":"NEAR SIDE SUBURBAN @ DADE WB","wheelchair_boarding":2,"routes":[{"route_id":"19628","agency_id":"70006","route_short_name":"79","route_long_name":"Ferguson-Clayton","route_type":3,"route_color":"#FFFFFF","route_text_color":"#000000"}],"agency_name":"Metro St. Louis"},"geometry":{"type":"Point","coordinates":[-90.31544,38.73389]}},{"type":"Feature","properties":{"stop_id":"3650","stop_code":"3650","stop_name":"DADE @ GRAF NB","stop_desc":"NEAR SIDE DADE @ GRAF NB","wheelchair_boarding":2,"routes":[{"route_id":"19628","agency_id":"70006","route_short_name":"79","route_long_name":"Ferguson-Clayton","route_type":3,"route_color":"#FFFFFF","route_text_color":"#000000"}],"agency_name":"Metro St. Louis"},"geometry":{"type":"Point","coordinates":[-90.31563,38.73623]}},{"type":"Feature","properties":{"stop_id":"3651","stop_code":"3651","stop_name":"DADE @ NORTH NB","stop_desc":"FAR SIDE DADE @ NORTH NB","wheelchair_boarding":2,"routes":[{"route_id":"19628","agency_id":"70006","route_short_name":"79","route_long_name":"Ferguson-Clayton","route_type":3,"route_color":"#FFFFFF","route_text_color":"#000000"}],"agency_name":"Metro St. Louis"},"geometry":{"type":"Point","coordinates":[-90.31559,38.73862]}},{"type":"Feature","properties":{"stop_id":"3652","stop_code":"3652","stop_name":"DADE @ TIFFIN NB","stop_desc":"NEAR SIDE DADE @ TIFFIN NB","wheelchair_boarding":2,"routes":[{"route_id":"19628","agency_id":"70006","route_short_name":"79","route_long_name":"Ferguson-Clayton","route_type":3,"route_color":"#FFFFFF","route_text_color":"#000000"}],"agency_name":"Metro St. Louis"},"geometry":{"type":"Point","coordinates":[-90.31557,38.74152]}},{"type":"Feature","properties":{"stop_id":"3654","stop_code":"3654","stop_name":"DADE @ CARSON NB","stop_desc":"NEAR SIDE DADE @ CARSON NB","wheelchair_boarding":2,"routes":[{"route_id":"19628","agency_id":"70006","route_short_name":"79","route_long_name":"Ferguson-Clayton","route_type":3,"route_color":"#FFFFFF","route_text_color":"#000000"}],"agency_name":"Metro St. Louis"},"geometry":{"type":"Point","coordinates":[-90.31553,38.74388]}},{"type":"Feature","properties":{"stop_id":"3693","stop_code":"3693","stop_name":"PERSHALL @ METRO PLAZA EB","stop_desc":"MID-BLOCK PERSHALL @ METRO PLAZA EB","wheelchair_boarding":2,"routes":[{"route_id":"19611","agency_id":"70006","route_short_name":"40","route_long_name":"Broadway-Halls Ferry","route_type":3,"route_color":"#FFFFFF","route_text_color":"#000000"},{"route_id":"19619","agency_id":"70006","route_short_name":"60","route_long_name":"Shepley-Lilac","route_type":3,"route_color":"#FFFFFF","route_text_color":"#000000"},{"route_id":"19624","agency_id":"70006","route_short_name":"74","route_long_name":"Florissant","route_type":3,"route_color":"#FFFFFF","route_text_color":"#000000"},{"route_id":"19626","agency_id":"70006","route_short_name":"77","route_long_name":"Village Square","route_type":3,"route_color":"#FFFFFF","route_text_color":"#000000"},{"route_id":"19627","agency_id":"70006","route_short_name":"78","route_long_name":"Bellefontaine","route_type":3,"route_color":"#FFFFFF","route_text_color":"#000000"},{"route_id":"19628","agency_id":"70006","route_short_name":"79","route_long_name":"Ferguson-Clayton","route_type":3,"route_color":"#FFFFFF","route_text_color":"#000000"}],"agency_name":"Metro St. Louis"},"geometry":{"type":"Point","coordinates":[-90.27873,38.77001]}},{"type":"Feature","properties":{"stop_id":"3729","stop_code":"3729","stop_name":"SOUTH FLORISSANT @ SPOT NB","stop_desc":"FAR SIDE SOUTH FLORISSANT @ SPOT NB","wheelchair_boarding":1,"routes":[{"route_id":"19628","agency_id":"70006","route_short_name":"79","route_long_name":"Ferguson-Clayton","route_type":3,"route_color":"#FFFFFF","route_text_color":"#000000"}],"agency_name":"Metro St. Louis"},"geometry":{"type":"Point","coordinates":[-90.30455,38.74353]}},{"type":"Feature","properties":{"stop_id":"3730","stop_code":"3730","stop_name":"NORTH FLORISSANT @ CHURCH NB","stop_desc":"FAR SIDE NORTH FLORISSANT @ CHURCH NB","wheelchair_boarding":1,"routes":[{"route_id":"19628","agency_id":"70006","route_short_name":"79","route_long_name":"Ferguson-Clayton","route_type":3,"route_color":"#FFFFFF","route_text_color":"#000000"}],"agency_name":"Metro St. Louis"},"geometry":{"type":"Point","coordinates":[-90.3051,38.74504]}},{"type":"Feature","properties":{"stop_id":"3731","stop_code":"3731","stop_name":"NORTH FLORISSANT @ DARST NB","stop_desc":"FAR SIDE NORTH FLORISSANT @ DARST NB","wheelchair_boarding":1,"routes":[{"route_id":"19628","agency_id":"70006","route_short_name":"79","route_long_name":"Ferguson-Clayton","route_type":3,"route_color":"#FFFFFF","route_text_color":"#000000"}],"agency_name":"Metro St. Louis"},"geometry":{"type":"Point","coordinates":[-90.30605,38.747]}},{"type":"Feature","properties":{"stop_id":"5261","stop_code":"5261","stop_name":"NORTH HANLEY @ MARYLAND NB","stop_desc":"NEAR SIDE NORTH HANLEY @ MARYLAND NB","wheelchair_boarding":1,"routes":[{"route_id":"19608","agency_id":"70006","route_short_name":"33","route_long_name":"Midland","route_type":3,"route_color":"#FFFFFF","route_text_color":"#000000"},{"route_id":"19628","agency_id":"70006","route_short_name":"79","route_long_name":"Ferguson-Clayton","route_type":3,"route_color":"#FFFFFF","route_text_color":"#000000"},{"route_id":"19633","agency_id":"70006","route_short_name":"97","route_long_name":"Delmar","route_type":3,"route_color":"#FFFFFF","route_text_color":"#000000"}],"agency_name":"Metro St. Louis"},"geometry":{"type":"Point","coordinates":[-90.33399,38.65046]}},{"type":"Feature","properties":{"stop_id":"5968","stop_code":"5968","stop_name":"NORTH HANLEY @ PERSHING NB","stop_desc":"NEAR SIDE NORTH HANLEY @ PERSHING NB","wheelchair_boarding":1,"routes":[{"route_id":"19608","agency_id":"70006","route_short_name":"33","route_long_name":"Midland","route_type":3,"route_color":"#FFFFFF","route_text_color":"#000000"},{"route_id":"19628","agency_id":"70006","route_short_name":"79","route_long_name":"Ferguson-Clayton","route_type":3,"route_color":"#FFFFFF","route_text_color":"#000000"},{"route_id":"19633","agency_id":"70006","route_short_name":"97","route_long_name":"Delmar","route_type":3,"route_color":"#FFFFFF","route_text_color":"#000000"}],"agency_name":"Metro St. Louis"},"geometry":{"type":"Point","coordinates":[-90.33352,38.65375]}},{"type":"Feature","properties":{"stop_id":"5969","stop_code":"5969","stop_name":"NORTH HANLEY @ STRATFORD NB","stop_desc":"FAR SIDE NORTH HANLEY @ STRATFORD NB","wheelchair_boarding":1,"routes":[{"route_id":"19608","agency_id":"70006","route_short_name":"33","route_long_name":"Midland","route_type":3,"route_color":"#FFFFFF","route_text_color":"#000000"},{"route_id":"19628","agency_id":"70006","route_short_name":"79","route_long_name":"Ferguson-Clayton","route_type":3,"route_color":"#FFFFFF","route_text_color":"#000000"},{"route_id":"19633","agency_id":"70006","route_short_name":"97","route_long_name":"Delmar","route_type":3,"route_color":"#FFFFFF","route_text_color":"#000000"}],"agency_name":"Metro St. Louis"},"geometry":{"type":"Point","coordinates":[-90.33311,38.65632]}},{"type":"Feature","properties":{"stop_id":"5970","stop_code":"5970","stop_name":"NORTH HANLEY @ DELMAR NB","stop_desc":"NEAR SIDE NORTH HANLEY @ DELMAR NB","wheelchair_boarding":2,"routes":[{"route_id":"19628","agency_id":"70006","route_short_name":"79","route_long_name":"Ferguson-Clayton","route_type":3,"route_color":"#FFFFFF","route_text_color":"#000000"},{"route_id":"19633","agency_id":"70006","route_short_name":"97","route_long_name":"Delmar","route_type":3,"route_color":"#FFFFFF","route_text_color":"#000000"}],"agency_name":"Metro St. Louis"},"geometry":{"type":"Point","coordinates":[-90.3328,38.65834]}},{"type":"Feature","properties":{"stop_id":"5972","stop_code":"5972","stop_name":"NORTH HANLEY @ KATHERINE NB","stop_desc":"FAR SIDE NORTH HANLEY @ KATHERINE NB","wheelchair_boarding":2,"routes":[{"route_id":"19594","agency_id":"70006","route_short_name":"4","route_long_name":"Natural Bridge","route_type":3,"route_color":"#FFFFFF","route_text_color":"#000000"},{"route_id":"19614","agency_id":"70006","route_short_name":"49","route_long_name":"Lindbergh","route_type":3,"route_color":"#FFFFFF","route_text_color":"#000000"},{"route_id":"19628","agency_id":"70006","route_short_name":"79","route_long_name":"Ferguson-Clayton","route_type":3,"route_color":"#FFFFFF","route_text_color":"#000000"}],"agency_name":"Metro St. Louis"},"geometry":{"type":"Point","coordinates":[-90.31925,38.71322]}},{"type":"Feature","properties":{"stop_id":"5973","stop_code":"5973","stop_name":"NORTH HANLEY @ AMHERST NB","stop_desc":"NEAR SIDE NORTH HANLEY @ AMHERST NB","wheelchair_boarding":2,"routes":[{"route_id":"19628","agency_id":"70006","route_short_name":"79","route_long_name":"Ferguson-Clayton","route_type":3,"route_color":"#FFFFFF","route_text_color":"#000000"}],"agency_name":"Metro St. Louis"},"geometry":{"type":"Point","coordinates":[-90.33221,38.66208]}},{"type":"Feature","properties":{"stop_id":"5974","stop_code":"5974","stop_name":"NORTH HANLEY @ BALSON NB","stop_desc":"FAR SIDE NORTH HANLEY @ BALSON NB","wheelchair_boarding":2,"routes":[{"route_id":"19628","agency_id":"70006","route_short_name":"79","route_long_name":"Ferguson-Clayton","route_type":3,"route_color":"#FFFFFF","route_text_color":"#000000"}],"agency_name":"Metro St. Louis"},"geometry":{"type":"Point","coordinates":[-90.33212,38.66479]}},{"type":"Feature","properties":{"stop_id":"5975","stop_code":"5975","stop_name":"NORTH HANLEY @ SHAFTESBURY NB","stop_desc":"NEAR SIDE NORTH HANLEY @ SHAFTESBURY NB","wheelchair_boarding":2,"routes":[{"route_id":"19628","agency_id":"70006","route_short_name":"79","route_long_name":"Ferguson-Clayton","route_type":3,"route_color":"#FFFFFF","route_text_color":"#000000"}],"agency_name":"Metro St. Louis"},"geometry":{"type":"Point","coordinates":[-90.33224,38.66687]}},{"type":"Feature","properties":{"stop_id":"5977","stop_code":"5977","stop_name":"NORTH HANLEY @ AHERN NB","stop_desc":"FAR SIDE NORTH HANLEY @ AHERN NB","wheelchair_boarding":2,"routes":[{"route_id":"19628","agency_id":"70006","route_short_name":"79","route_long_name":"Ferguson-Clayton","route_type":3,"route_color":"#FFFFFF","route_text_color":"#000000"}],"agency_name":"Metro St. Louis"},"geometry":{"type":"Point","coordinates":[-90.33201,38.66892]}},{"type":"Feature","properties":{"stop_id":"5978","stop_code":"5978","stop_name":"NORTH HANLEY @ OLIVE NB","stop_desc":"NEAR SIDE NORTH HANLEY @ OLIVE NB","wheelchair_boarding":2,"routes":[{"route_id":"19628","agency_id":"70006","route_short_name":"79","route_long_name":"Ferguson-Clayton","route_type":3,"route_color":"#FFFFFF","route_text_color":"#000000"}],"agency_name":"Metro St. Louis"},"geometry":{"type":"Point","coordinates":[-90.33157,38.67143]}},{"type":"Feature","properties":{"stop_id":"5980","stop_code":"5980","stop_name":"NORTH HANLEY @ CARLETON NB","stop_desc":"FAR SIDE NORTH HANLEY @ CARLETON NB","wheelchair_boarding":2,"routes":[{"route_id":"19628","agency_id":"70006","route_short_name":"79","route_long_name":"Ferguson-Clayton","route_type":3,"route_color":"#FFFFFF","route_text_color":"#000000"}],"agency_name":"Metro St. Louis"},"geometry":{"type":"Point","coordinates":[-90.33034,38.67494]}},{"type":"Feature","properties":{"stop_id":"5981","stop_code":"5981","stop_name":"NORTH HANLEY @ CANTON NB","stop_desc":"FAR SIDE NORTH HANLEY @ CANTON NB","wheelchair_boarding":2,"routes":[{"route_id":"19628","agency_id":"70006","route_short_name":"79","route_long_name":"Ferguson-Clayton","route_type":3,"route_color":"#FFFFFF","route_text_color":"#000000"}],"agency_name":"Metro St. Louis"},"geometry":{"type":"Point","coordinates":[-90.32856,38.67727]}},{"type":"Feature","properties":{"stop_id":"5983","stop_code":"5983","stop_name":"NORTH HANLEY @ MILAN NB","stop_desc":"FAR SIDE NORTH HANLEY @ MILAN NB","wheelchair_boarding":2,"routes":[{"route_id":"19628","agency_id":"70006","route_short_name":"79","route_long_name":"Ferguson-Clayton","route_type":3,"route_color":"#FFFFFF","route_text_color":"#000000"}],"agency_name":"Metro St. Louis"},"geometry":{"type":"Point","coordinates":[-90.32868,38.67989]}},{"type":"Feature","properties":{"stop_id":"5985","stop_code":"5985","stop_name":"NORTH HANLEY @ PAGE NB","stop_desc":"NEAR SIDE NORTH HANLEY @ PAGE NB","wheelchair_boarding":1,"routes":[{"route_id":"19628","agency_id":"70006","route_short_name":"79","route_long_name":"Ferguson-Clayton","route_type":3,"route_color":"#FFFFFF","route_text_color":"#000000"}],"agency_name":"Metro St. Louis"},"geometry":{"type":"Point","coordinates":[-90.32871,38.68312]}},{"type":"Feature","properties":{"stop_id":"5986","stop_code":"5986","stop_name":"NORTH HANLEY @ WASHINGTON NB","stop_desc":"FAR SIDE NORTH HANLEY @ WASHINGTON NB","wheelchair_boarding":1,"routes":[{"route_id":"19628","agency_id":"70006","route_short_name":"79","route_long_name":"Ferguson-Clayton","route_type":3,"route_color":"#FFFFFF","route_text_color":"#000000"}],"agency_name":"Metro St. Louis"},"geometry":{"type":"Point","coordinates":[-90.32874,38.68479]}},{"type":"Feature","properties":{"stop_id":"5988","stop_code":"5988","stop_name":"NORTH HANLEY @ MONROE NB","stop_desc":"FAR SIDE NORTH HANLEY @ MONROE NB","wheelchair_boarding":1,"routes":[{"route_id":"19628","agency_id":"70006","route_short_name":"79","route_long_name":"Ferguson-Clayton","route_type":3,"route_color":"#FFFFFF","route_text_color":"#000000"}],"agency_name":"Metro St. Louis"},"geometry":{"type":"Point","coordinates":[-90.32871,38.68702]}},{"type":"Feature","properties":{"stop_id":"5989","stop_code":"5989","stop_name":"NORTH HANLEY @ ALERT NB","stop_desc":"NEAR SIDE NORTH HANLEY @ ALERT NB","wheelchair_boarding":1,"routes":[{"route_id":"19628","agency_id":"70006","route_short_name":"79","route_long_name":"Ferguson-Clayton","route_type":3,"route_color":"#FFFFFF","route_text_color":"#000000"}],"agency_name":"Metro St. Louis"},"geometry":{"type":"Point","coordinates":[-90.32872,38.68849]}},{"type":"Feature","properties":{"stop_id":"5990","stop_code":"5990","stop_name":"NORTH HANLEY @ TITUS NB","stop_desc":"NEAR SIDE NORTH HANLEY @ TITUS NB","wheelchair_boarding":1,"routes":[{"route_id":"19628","agency_id":"70006","route_short_name":"79","route_long_name":"Ferguson-Clayton","route_type":3,"route_color":"#FFFFFF","route_text_color":"#000000"}],"agency_name":"Metro St. Louis"},"geometry":{"type":"Point","coordinates":[-90.3287,38.69057]}},{"type":"Feature","properties":{"stop_id":"5991","stop_code":"5991","stop_name":"NORTH HANLEY @ ELLERTON NB","stop_desc":"NEAR SIDE NORTH HANLEY @ ELLERTON NB","wheelchair_boarding":1,"routes":[{"route_id":"19628","agency_id":"70006","route_short_name":"79","route_long_name":"Ferguson-Clayton","route_type":3,"route_color":"#FFFFFF","route_text_color":"#000000"}],"agency_name":"Metro St. Louis"},"geometry":{"type":"Point","coordinates":[-90.32869,38.69189]}},{"type":"Feature","properties":{"stop_id":"5993","stop_code":"5993","stop_name":"NORTH HANLEY @ ROCK ROAD NB","stop_desc":"NEAR SIDE NORTH HANLEY @ ROCK ROAD NB","wheelchair_boarding":1,"routes":[{"route_id":"19628","agency_id":"70006","route_short_name":"79","route_long_name":"Ferguson-Clayton","route_type":3,"route_color":"#FFFFFF","route_text_color":"#000000"}],"agency_name":"Metro St. Louis"},"geometry":{"type":"Point","coordinates":[-90.32848,38.69832]}},{"type":"Feature","properties":{"stop_id":"5994","stop_code":"5994","stop_name":"NORTH HANLEY @ ROCK ROAD NB","stop_desc":"FAR SIDE NORTH HANLEY @ ROCK ROAD NB","wheelchair_boarding":2,"routes":[{"route_id":"19628","agency_id":"70006","route_short_name":"79","route_long_name":"Ferguson-Clayton","route_type":3,"route_color":"#FFFFFF","route_text_color":"#000000"}],"agency_name":"Metro St. Louis"},"geometry":{"type":"Point","coordinates":[-90.32761,38.69936]}},{"type":"Feature","properties":{"stop_id":"5997","stop_code":"5997","stop_name":"NORTH HANLEY @ HORATIO NB","stop_desc":"NEAR SIDE NORTH HANLEY @ HORATIO NB","wheelchair_boarding":2,"routes":[{"route_id":"19628","agency_id":"70006","route_short_name":"79","route_long_name":"Ferguson-Clayton","route_type":3,"route_color":"#FFFFFF","route_text_color":"#000000"}],"agency_name":"Metro St. Louis"},"geometry":{"type":"Point","coordinates":[-90.32546,38.70251]}},{"type":"Feature","properties":{"stop_id":"5998","stop_code":"5998","stop_name":"NORTH HANLEY @ FLORENTINE NB","stop_desc":"FAR SIDE NORTH HANLEY @ FLORENTINE NB","wheelchair_boarding":2,"routes":[{"route_id":"19628","agency_id":"70006","route_short_name":"79","route_long_name":"Ferguson-Clayton","route_type":3,"route_color":"#FFFFFF","route_text_color":"#000000"}],"agency_name":"Metro St. Louis"},"geometry":{"type":"Point","coordinates":[-90.32546,38.70498]}},{"type":"Feature","properties":{"stop_id":"5999","stop_code":"5999","stop_name":"NORTH HANLEY @ KENDALE NB","stop_desc":"FAR SIDE NORTH HANLEY @ KENDALE NB","wheelchair_boarding":2,"routes":[{"route_id":"19628","agency_id":"70006","route_short_name":"79","route_long_name":"Ferguson-Clayton","route_type":3,"route_color":"#FFFFFF","route_text_color":"#000000"}],"agency_name":"Metro St. Louis"},"geometry":{"type":"Point","coordinates":[-90.32506,38.7072]}},{"type":"Feature","properties":{"stop_id":"6000","stop_code":"6000","stop_name":"NORTH HANLEY @ MAYBELLE NB","stop_desc":"NEAR SIDE NORTH HANLEY @ MAYBELLE NB","wheelchair_boarding":2,"routes":[{"route_id":"19628","agency_id":"70006","route_short_name":"79","route_long_name":"Ferguson-Clayton","route_type":3,"route_color":"#FFFFFF","route_text_color":"#000000"}],"agency_name":"Metro St. Louis"},"geometry":{"type":"Point","coordinates":[-90.32394,38.70862]}},{"type":"Feature","properties":{"stop_id":"6001","stop_code":"6001","stop_name":"NORTH HANLEY @ THELMA NB","stop_desc":"FAR SIDE NORTH HANLEY @ THELMA NB","wheelchair_boarding":2,"routes":[{"route_id":"19628","agency_id":"70006","route_short_name":"79","route_long_name":"Ferguson-Clayton","route_type":3,"route_color":"#FFFFFF","route_text_color":"#000000"}],"agency_name":"Metro St. Louis"},"geometry":{"type":"Point","coordinates":[-90.32179,38.70909]}},{"type":"Feature","properties":{"stop_id":"6002","stop_code":"6002","stop_name":"NORTH HANLEY @ NATURAL BRIDGE NB","stop_desc":"NEAR SIDE NORTH HANLEY @ NATURAL BRIDGE NB","wheelchair_boarding":1,"routes":[{"route_id":"19628","agency_id":"70006","route_short_name":"79","route_long_name":"Ferguson-Clayton","route_type":3,"route_color":"#FFFFFF","route_text_color":"#000000"}],"agency_name":"Metro St. Louis"},"geometry":{"type":"Point","coordinates":[-90.31995,38.71001]}},{"type":"Feature","properties":{"stop_id":"6010","stop_code":"6010","stop_name":"UNIVERSITY PLACE @ MARK TWAIN EB","stop_desc":"FAR SIDE UNIVERSITY PLACE @ MARK TWAIN EB","wheelchair_boarding":1,"routes":[{"route_id":"19628","agency_id":"70006","route_short_name":"79","route_long_name":"Ferguson-Clayton","route_type":3,"route_color":"#FFFFFF","route_text_color":"#000000"}],"agency_name":"Metro St. Louis"},"geometry":{"type":"Point","coordinates":[-90.30819,38.71819]}},{"type":"Feature","properties":{"stop_id":"6011","stop_code":"6011","stop_name":"SOUTH FLORISSANT @ SIGNAL HILL NB","stop_desc":"FAR SIDE SOUTH FLORISSANT @ SIGNAL HILL NB","wheelchair_boarding":2,"routes":[{"route_id":"19628","agency_id":"70006","route_short_name":"79","route_long_name":"Ferguson-Clayton","route_type":3,"route_color":"#FFFFFF","route_text_color":"#000000"}],"agency_name":"Metro St. Louis"},"geometry":{"type":"Point","coordinates":[-90.30505,38.72297]}},{"type":"Feature","properties":{"stop_id":"6013","stop_code":"6013","stop_name":"SOUTH FLORISSANT @ BERNHARDT NB","stop_desc":"FAR SIDE SOUTH FLORISSANT @ BERNHARDT NB","wheelchair_boarding":2,"routes":[{"route_id":"19628","agency_id":"70006","route_short_name":"79","route_long_name":"Ferguson-Clayton","route_type":3,"route_color":"#FFFFFF","route_text_color":"#000000"}],"agency_name":"Metro St. Louis"},"geometry":{"type":"Point","coordinates":[-90.30301,38.72648]}},{"type":"Feature","properties":{"stop_id":"6014","stop_code":"6014","stop_name":"1210 SOUTH FLORISSANT  NB","stop_desc":"MID-BLOCK 1210 SOUTH FLORISSANT  NB","wheelchair_boarding":2,"routes":[{"route_id":"19628","agency_id":"70006","route_short_name":"79","route_long_name":"Ferguson-Clayton","route_type":3,"route_color":"#FFFFFF","route_text_color":"#000000"}],"agency_name":"Metro St. Louis"},"geometry":{"type":"Point","coordinates":[-90.30217,38.72796]}},{"type":"Feature","properties":{"stop_id":"6015","stop_code":"6015","stop_name":"SOUTH FLORISSANT @ HAWKESBURY NB","stop_desc":"NEAR SIDE SOUTH FLORISSANT @ HAWKESBURY NB","wheelchair_boarding":2,"routes":[{"route_id":"19628","agency_id":"70006","route_short_name":"79","route_long_name":"Ferguson-Clayton","route_type":3,"route_color":"#FFFFFF","route_text_color":"#000000"}],"agency_name":"Metro St. Louis"},"geometry":{"type":"Point","coordinates":[-90.30171,38.72954]}},{"type":"Feature","properties":{"stop_id":"6016","stop_code":"6016","stop_name":"1016 SOUTH FLORISSANT  NB","stop_desc":"MID-BLOCK 1016 SOUTH FLORISSANT  NB","wheelchair_boarding":2,"routes":[{"route_id":"19628","agency_id":"70006","route_short_name":"79","route_long_name":"Ferguson-Clayton","route_type":3,"route_color":"#FFFFFF","route_text_color":"#000000"}],"agency_name":"Metro St. Louis"},"geometry":{"type":"Point","coordinates":[-90.30168,38.7318]}},{"type":"Feature","properties":{"stop_id":"6017","stop_code":"6017","stop_name":"SOUTH FLORISSANT @ FAIRVIEW NB","stop_desc":"FAR SIDE SOUTH FLORISSANT @ FAIRVIEW NB","wheelchair_boarding":2,"routes":[{"route_id":"19628","agency_id":"70006","route_short_name":"79","route_long_name":"Ferguson-Clayton","route_type":3,"route_color":"#FFFFFF","route_text_color":"#000000"}],"agency_name":"Metro St. Louis"},"geometry":{"type":"Point","coordinates":[-90.30163,38.73312]}},{"type":"Feature","properties":{"stop_id":"6018","stop_code":"6018","stop_name":"SOUTH FLORISSANT @ PATRICIA NB","stop_desc":"NEAR SIDE SOUTH FLORISSANT @ PATRICIA NB","wheelchair_boarding":1,"routes":[{"route_id":"19628","agency_id":"70006","route_short_name":"79","route_long_name":"Ferguson-Clayton","route_type":3,"route_color":"#FFFFFF","route_text_color":"#000000"}],"agency_name":"Metro St. Louis"},"geometry":{"type":"Point","coordinates":[-90.30172,38.73608]}},{"type":"Feature","properties":{"stop_id":"6020","stop_code":"6020","stop_name":"SOUTH FLORISSANT @ LEE NB","stop_desc":"NEAR SIDE SOUTH FLORISSANT @ LEE NB","wheelchair_boarding":1,"routes":[{"route_id":"19628","agency_id":"70006","route_short_name":"79","route_long_name":"Ferguson-Clayton","route_type":3,"route_color":"#FFFFFF","route_text_color":"#000000"}],"agency_name":"Metro St. Louis"},"geometry":{"type":"Point","coordinates":[-90.30202,38.73705]}},{"type":"Feature","properties":{"stop_id":"6022","stop_code":"6022","stop_name":"NORTH FLORISSANT @ AIRPORT NB","stop_desc":"FAR SIDE NORTH FLORISSANT @ AIRPORT NB","wheelchair_boarding":1,"routes":[{"route_id":"19628","agency_id":"70006","route_short_name":"79","route_long_name":"Ferguson-Clayton","route_type":3,"route_color":"#FFFFFF","route_text_color":"#000000"}],"agency_name":"Metro St. Louis"},"geometry":{"type":"Point","coordinates":[-90.30748,38.74931]}},{"type":"Feature","properties":{"stop_id":"6023","stop_code":"6023","stop_name":"NORTH FLORISSANT @ JANUARY NB","stop_desc":"NEAR SIDE NORTH FLORISSANT @ JANUARY NB","wheelchair_boarding":2,"routes":[{"route_id":"19628","agency_id":"70006","route_short_name":"79","route_long_name":"Ferguson-Clayton","route_type":3,"route_color":"#FFFFFF","route_text_color":"#000000"}],"agency_name":"Metro St. Louis"},"geometry":{"type":"Point","coordinates":[-90.30878,38.75172]}},{"type":"Feature","properties":{"stop_id":"6025","stop_code":"6025","stop_name":"NORTH FLORISSANT @ POWELL NB","stop_desc":"NEAR SIDE NORTH FLORISSANT @ POWELL NB","wheelchair_boarding":1,"routes":[{"route_id":"19628","agency_id":"70006","route_short_name":"79","route_long_name":"Ferguson-Clayton","route_type":3,"route_color":"#FFFFFF","route_text_color":"#000000"}],"agency_name":"Metro St. Louis"},"geometry":{"type":"Point","coordinates":[-90.30926,38.75583]}},{"type":"Feature","properties":{"stop_id":"6026","stop_code":"6026","stop_name":"NORTH FLORISSANT @ FROST NB","stop_desc":"FAR SIDE NORTH FLORISSANT @ FROST NB","wheelchair_boarding":2,"routes":[{"route_id":"19628","agency_id":"70006","route_short_name":"79","route_long_name":"Ferguson-Clayton","route_type":3,"route_color":"#FFFFFF","route_text_color":"#000000"}],"agency_name":"Metro St. Louis"},"geometry":{"type":"Point","coordinates":[-90.31069,38.75979]}},{"type":"Feature","properties":{"stop_id":"6028","stop_code":"6028","stop_name":"NORTH FLORISSANT @ WHITE NB","stop_desc":"FAR SIDE NORTH FLORISSANT @ WHITE NB","wheelchair_boarding":2,"routes":[{"route_id":"19628","agency_id":"70006","route_short_name":"79","route_long_name":"Ferguson-Clayton","route_type":3,"route_color":"#FFFFFF","route_text_color":"#000000"}],"agency_name":"Metro St. Louis"},"geometry":{"type":"Point","coordinates":[-90.3133,38.76298]}},{"type":"Feature","properties":{"stop_id":"6030","stop_code":"6030","stop_name":"NORTH FLORISSANT @ GRETHER NB","stop_desc":"FAR SIDE NORTH FLORISSANT @ GRETHER NB","wheelchair_boarding":2,"routes":[{"route_id":"19628","agency_id":"70006","route_short_name":"79","route_long_name":"Ferguson-Clayton","route_type":3,"route_color":"#FFFFFF","route_text_color":"#000000"}],"agency_name":"Metro St. Louis"},"geometry":{"type":"Point","coordinates":[-90.31407,38.76507]}},{"type":"Feature","properties":{"stop_id":"6031","stop_code":"6031","stop_name":"NORTH FLORISSANT @ ELBRING NB","stop_desc":"NEAR SIDE NORTH FLORISSANT @ ELBRING NB","wheelchair_boarding":2,"routes":[{"route_id":"19628","agency_id":"70006","route_short_name":"79","route_long_name":"Ferguson-Clayton","route_type":3,"route_color":"#FFFFFF","route_text_color":"#000000"}],"agency_name":"Metro St. Louis"},"geometry":{"type":"Point","coordinates":[-90.31469,38.76743]}},{"type":"Feature","properties":{"stop_id":"6033","stop_code":"6033","stop_name":"NORTH FLORISSANT @ WADSWORTH NB","stop_desc":"FAR SIDE NORTH FLORISSANT @ WADSWORTH NB","wheelchair_boarding":2,"routes":[{"route_id":"19628","agency_id":"70006","route_short_name":"79","route_long_name":"Ferguson-Clayton","route_type":3,"route_color":"#FFFFFF","route_text_color":"#000000"}],"agency_name":"Metro St. Louis"},"geometry":{"type":"Point","coordinates":[-90.3152,38.76943]}},{"type":"Feature","properties":{"stop_id":"6034","stop_code":"6034","stop_name":"NORTH FLORISSANT @ BARTO NB","stop_desc":"NEAR SIDE NORTH FLORISSANT @ BARTO NB","wheelchair_boarding":2,"routes":[{"route_id":"19628","agency_id":"70006","route_short_name":"79","route_long_name":"Ferguson-Clayton","route_type":3,"route_color":"#FFFFFF","route_text_color":"#000000"}],"agency_name":"Metro St. Louis"},"geometry":{"type":"Point","coordinates":[-90.31554,38.77081]}},{"type":"Feature","properties":{"stop_id":"6035","stop_code":"6035","stop_name":"NEW FLORISSANT @ JEAN NB","stop_desc":"FAR SIDE NEW FLORISSANT @ JEAN NB","wheelchair_boarding":2,"routes":[{"route_id":"19628","agency_id":"70006","route_short_name":"79","route_long_name":"Ferguson-Clayton","route_type":3,"route_color":"#FFFFFF","route_text_color":"#000000"}],"agency_name":"Metro St. Louis"},"geometry":{"type":"Point","coordinates":[-90.31626,38.7725]}},{"type":"Feature","properties":{"stop_id":"6061","stop_code":"6061","stop_name":"NORTH HANLEY @ UNIVERSITY PLACE NB","stop_desc":"NEAR SIDE NORTH HANLEY @ UNIVERSITY PLACE NB","wheelchair_boarding":2,"routes":[{"route_id":"19594","agency_id":"70006","route_short_name":"4","route_long_name":"Natural Bridge","route_type":3,"route_color":"#FFFFFF","route_text_color":"#000000"},{"route_id":"19614","agency_id":"70006","route_short_name":"49","route_long_name":"Lindbergh","route_type":3,"route_color":"#FFFFFF","route_text_color":"#000000"},{"route_id":"19628","agency_id":"70006","route_short_name":"79","route_long_name":"Ferguson-Clayton","route_type":3,"route_color":"#FFFFFF","route_text_color":"#000000"}],"agency_name":"Metro St. Louis"},"geometry":{"type":"Point","coordinates":[-90.31795,38.71761]}},{"type":"Feature","properties":{"stop_id":"7466","stop_code":"7466","stop_name":"PERSHALL @ SSM CARDINAL EB","stop_desc":"NEAR SIDE PERSHALL @ SSM CARDINAL EB","wheelchair_boarding":2,"routes":[{"route_id":"19627","agency_id":"70006","route_short_name":"78","route_long_name":"Bellefontaine","route_type":3,"route_color":"#FFFFFF","route_text_color":"#000000"},{"route_id":"19628","agency_id":"70006","route_short_name":"79","route_long_name":"Ferguson-Clayton","route_type":3,"route_color":"#FFFFFF","route_text_color":"#000000"}],"agency_name":"Metro St. Louis"},"geometry":{"type":"Point","coordinates":[-90.3047,38.77207]}},{"type":"Feature","properties":{"stop_id":"7551","stop_code":"7551","stop_name":"AIRPORT @ MARGUERITE EB","stop_desc":"FAR SIDE AIRPORT @ MARGUERITE EB","wheelchair_boarding":2,"routes":[{"route_id":"19620","agency_id":"70006","route_short_name":"61","route_long_name":"Chambers Rd","route_type":3,"route_color":"#FFFFFF","route_text_color":"#000000"},{"route_id":"19628","agency_id":"70006","route_short_name":"79","route_long_name":"Ferguson-Clayton","route_type":3,"route_color":"#FFFFFF","route_text_color":"#000000"}],"agency_name":"Metro St. Louis"},"geometry":{"type":"Point","coordinates":[-90.31347,38.74632]}},{"type":"Feature","properties":{"stop_id":"7553","stop_code":"7553","stop_name":"AIRPORT @ CLARK EB","stop_desc":"NEAR SIDE AIRPORT @ CLARK EB","wheelchair_boarding":2,"routes":[{"route_id":"19620","agency_id":"70006","route_short_name":"61","route_long_name":"Chambers Rd","route_type":3,"route_color":"#FFFFFF","route_text_color":"#000000"},{"route_id":"19628","agency_id":"70006","route_short_name":"79","route_long_name":"Ferguson-Clayton","route_type":3,"route_color":"#FFFFFF","route_text_color":"#000000"}],"agency_name":"Metro St. Louis"},"geometry":{"type":"Point","coordinates":[-90.30963,38.74757]}},{"type":"Feature","properties":{"stop_id":"7564","stop_code":"7564","stop_name":"PERSHALL @ CHARLOTTE EB","stop_desc":"FAR SIDE PERSHALL @ CHARLOTTE EB","wheelchair_boarding":2,"routes":[{"route_id":"19627","agency_id":"70006","route_short_name":"78","route_long_name":"Bellefontaine","route_type":3,"route_color":"#FFFFFF","route_text_color":"#000000"},{"route_id":"19628","agency_id":"70006","route_short_name":"79","route_long_name":"Ferguson-Clayton","route_type":3,"route_color":"#FFFFFF","route_text_color":"#000000"}],"agency_name":"Metro St. Louis"},"geometry":{"type":"Point","coordinates":[-90.30222,38.77181]}},{"type":"Feature","properties":{"stop_id":"7565","stop_code":"7565","stop_name":"PERSHALL @ KNOLLSTONE EB","stop_desc":"NEAR SIDE PERSHALL @ KNOLLSTONE EB","wheelchair_boarding":2,"routes":[{"route_id":"19627","agency_id":"70006","route_short_name":"78","route_long_name":"Bellefontaine","route_type":3,"route_color":"#FFFFFF","route_text_color":"#000000"},{"route_id":"19628","agency_id":"70006","route_short_name":"79","route_long_name":"Ferguson-Clayton","route_type":3,"route_color":"#FFFFFF","route_text_color":"#000000"}],"agency_name":"Metro St. Louis"},"geometry":{"type":"Point","coordinates":[-90.29716,38.77138]}},{"type":"Feature","properties":{"stop_id":"7566","stop_code":"7566","stop_name":"PERSHALL @ KNOLLWAY EB","stop_desc":"NEAR SIDE PERSHALL @ KNOLLWAY EB","wheelchair_boarding":2,"routes":[{"route_id":"19627","agency_id":"70006","route_short_name":"78","route_long_name":"Bellefontaine","route_type":3,"route_color":"#FFFFFF","route_text_color":"#000000"},{"route_id":"19628","agency_id":"70006","route_short_name":"79","route_long_name":"Ferguson-Clayton","route_type":3,"route_color":"#FFFFFF","route_text_color":"#000000"}],"agency_name":"Metro St. Louis"},"geometry":{"type":"Point","coordinates":[-90.29524,38.7712]}},{"type":"Feature","properties":{"stop_id":"7567","stop_code":"7567","stop_name":"STLCC FLORISSANT VALLEY @ DAY CARE EB","stop_desc":"MID-BLOCK STLCC FLORISSANT VALLEY @ DAY CARE EB","wheelchair_boarding":1,"routes":[{"route_id":"19627","agency_id":"70006","route_short_name":"78","route_long_name":"Bellefontaine","route_type":3,"route_color":"#FFFFFF","route_text_color":"#000000"},{"route_id":"19628","agency_id":"70006","route_short_name":"79","route_long_name":"Ferguson-Clayton","route_type":3,"route_color":"#FFFFFF","route_text_color":"#000000"}],"agency_name":"Metro St. Louis"},"geometry":{"type":"Point","coordinates":[-90.29052,38.77108]}},{"type":"Feature","properties":{"stop_id":"8280","stop_code":"8280","stop_name":"FORSYTH @ BEMISTON EB","stop_desc":"FAR SIDE FORSYTH @ BEMISTON EB","wheelchair_boarding":1,"routes":[{"route_id":"19608","agency_id":"70006","route_short_name":"33","route_long_name":"Midland","route_type":3,"route_color":"#FFFFFF","route_text_color":"#000000"},{"route_id":"19628","agency_id":"70006","route_short_name":"79","route_long_name":"Ferguson-Clayton","route_type":3,"route_color":"#FFFFFF","route_text_color":"#000000"},{"route_id":"19633","agency_id":"70006","route_short_name":"97","route_long_name":"Delmar","route_type":3,"route_color":"#FFFFFF","route_text_color":"#000000"}],"agency_name":"Metro St. Louis"},"geometry":{"type":"Point","coordinates":[-90.33658,38.65007]}}]}