{"type":"FeatureCollection","features":[{"type":"Feature","properties":{"agency_name":"Metro St. Louis","route_id":"19641","agency_id":"70006","route_short_name":"6","route_long_name":"Rosemont","route_type":3,"route_color":"#FFFFFF","route_text_color":"#000000"},"geometry":{"type":"MultiLineString","coordinates":[[[-90.09425,38.61389],[-90.09507,38.61413],[-90.09425,38.61389],[-90.09415,38.6139],[-90.09407,38.61396],[-90.0938,38.61452],[-90.09497,38.61509],[-90.0954,38.61528],[-90.09577,38.61538],[-90.09592,38.61538],[-90.09622,38.61532],[-90.09634,38.61525],[-90.0964,38.61516],[-90.09661,38.61473],[-90.09711,38.61489],[-90.09727,38.61497],[-90.09757,38.61541],[-90.10031,38.61469],[-90.10115,38.61451],[-90.10158,38.61445],[-90.10205,38.61442],[-90.10279,38.61442],[-90.10335,38.61448],[-90.10405,38.6146],[-90.10725,38.6155],[-90.11184,38.61674],[-90.11133,38.61792],[-90.11124,38.61821],[-90.11122,38.61835],[-90.1112,38.61871],[-90.11123,38.61977],[-90.1112,38.62006],[-90.11124,38.62027],[-90.11122,38.62052],[-90.11125,38.6218],[-90.11035,38.6235],[-90.10845,38.62347],[-90.10552,38.62338],[-90.09945,38.62324],[-90.09733,38.62317],[-90.09642,38.62316],[-90.09345,38.62308],[-90.09295,38.62308],[-90.09293,38.62316],[-90.09293,38.62369],[-90.09294,38.62381],[-90.093,38.62393],[-90.09302,38.62411],[-90.09304,38.6248],[-90.09305,38.6267],[-90.0931,38.63036],[-90.0965,38.63041],[-90.09716,38.63044],[-90.10111,38.63054],[-90.10404,38.63058],[-90.10603,38.63064],[-90.10783,38.63067],[-90.10821,38.6307],[-90.10874,38.63071],[-90.10895,38.63067],[-90.10939,38.63048],[-90.1114,38.62969],[-90.11345,38.6287],[-90.11371,38.62862],[-90.11408,38.62859],[-90.11583,38.62852],[-90.11746,38.6282],[-90.11928,38.62782],[-90.11959,38.62774],[-90.11975,38.62768],[-90.12013,38.62748],[-90.12034,38.62728],[-90.12057,38.62698],[-90.12077,38.62667],[-90.12111,38.62619],[-90.12132,38.62598],[-90.12151,38.62584],[-90.12196,38.62527],[-90.12233,38.62476],[-90.12254,38.62484],[-90.12269,38.62483],[-90.12315,38.62418],[-90.12323,38.62409],[-90.12333,38.62402],[-90.12422,38.62368],[-90.1242,38.62363],[-90.12413,38.62351],[-90.12407,38.62348],[-90.12399,38.62346],[-90.12361,38.62371],[-90.12337,38.62394]],[[-90.12255,38.6245],[-90.12233,38.62476],[-90.12255,38.6245],[-90.12267,38.62439],[-90.12317,38.62366],[-90.12362,38.62292],[-90.12382,38.62271],[-90.12407,38.62262],[-90.12465,38.62283],[-90.12489,38.6229],[-90.12514,38.62294],[-90.12537,38.62295],[-90.12558,38.62294],[-90.1264,38.62286],[-90.12739,38.62295],[-90.13062,38.62372],[-90.13081,38.62382],[-90.13155,38.62405],[-90.13212,38.62431],[-90.13263,38.62461],[-90.13316,38.62499],[-90.13334,38.62509],[-90.13369,38.62522],[-90.13422,38.62532],[-90.13432,38.62537],[-90.13442,38.62544],[-90.13447,38.62551],[-90.13401,38.62625],[-90.13355,38.62705],[-90.13308,38.62758],[-90.13078,38.63002],[-90.13175,38.63089],[-90.13357,38.63043],[-90.13487,38.62949],[-90.1361,38.63049],[-90.13722,38.63149],[-90.13885,38.63219],[-90.14046,38.631],[-90.14021,38.63077],[-90.14011,38.63062],[-90.13999,38.63004],[-90.13982,38.62981],[-90.13834,38.62851],[-90.13824,38.62846]],[[-90.04771,38.5939],[-90.04791,38.59407],[-90.04771,38.5939],[-90.04753,38.59382],[-90.04584,38.59381],[-90.04584,38.59465],[-90.04578,38.59576],[-90.04632,38.59578],[-90.04712,38.59588],[-90.04791,38.59608],[-90.04841,38.59624],[-90.04886,38.59642],[-90.04945,38.5967],[-90.05005,38.59704],[-90.05105,38.59773],[-90.05114,38.59785],[-90.05201,38.59839],[-90.0521,38.59842],[-90.05316,38.59897],[-90.05425,38.59999],[-90.05399,38.6003],[-90.05362,38.6007],[-90.05352,38.60077],[-90.05338,38.60083],[-90.05321,38.60085],[-90.05303,38.60081],[-90.05291,38.60076],[-90.05282,38.60069],[-90.0527,38.60053],[-90.05268,38.60038],[-90.05296,38.5994],[-90.05417,38.59679],[-90.05424,38.59661],[-90.05441,38.59627],[-90.0551,38.59502],[-90.0578,38.59579],[-90.06011,38.59574],[-90.06037,38.5954],[-90.06074,38.59562],[-90.06135,38.59593],[-90.06362,38.59704],[-90.0713,38.6009],[-90.07404,38.60224],[-90.0773,38.60387],[-90.07777,38.60407],[-90.07822,38.60423],[-90.07933,38.60456],[-90.07986,38.60476],[-90.08133,38.60548],[-90.08322,38.60643],[-90.08357,38.60662],[-90.08609,38.6082],[-90.08643,38.60838],[-90.0867,38.6085],[-90.08715,38.60867],[-90.08771,38.60884],[-90.09276,38.61024],[-90.09282,38.61245],[-90.09285,38.61431],[-90.09315,38.61431],[-90.09338,38.61433]],[[-90.09489,38.61491],[-90.09483,38.61502],[-90.09529,38.61425]]]}},{"type":"Feature","properties":{"stop_id":"12263","stop_code":"12263","stop_name":"ILLINOIS ROUTE 157 @ CHURCH SB","stop_desc":"FAR SIDE ILLINOIS ROUTE 157 @ CHURCH SB","wheelchair_boarding":2,"routes":[{"route_id":"19636","agency_id":"70006","route_short_name":"1","route_long_name":"Main Street - State Street","route_type":3,"route_color":"#FFFFFF","route_text_color":"#000000"},{"route_id":"19641","agency_id":"70006","route_short_name":"6","route_long_name":"Rosemont","route_type":3,"route_color":"#FFFFFF","route_text_color":"#000000"}],"agency_name":"Metro St. Louis"},"geometry":{"type":"Point","coordinates":[-90.05432,38.59654]}},{"type":"Feature","properties":{"stop_id":"12476","stop_code":"12476","stop_name":"KINGSHIGHWAY @ SUMMIT NB","stop_desc":"FAR SIDE KINGSHIGHWAY @ SUMMIT NB","wheelchair_boarding":2,"routes":[{"route_id":"19641","agency_id":"70006","route_short_name":"6","route_long_name":"Rosemont","route_type":3,"route_color":"#FFFFFF","route_text_color":"#000000"}],"agency_name":"Metro St. Louis"},"geometry":{"type":"Point","coordinates":[-90.09269,38.61055]}},{"type":"Feature","properties":{"stop_id":"12484","stop_code":"12484","stop_name":"ST. CLAIR @ 40TH STREET WB","stop_desc":"NEAR SIDE ST. CLAIR @ 40TH STREET WB","wheelchair_boarding":2,"routes":[{"route_id":"19641","agency_id":"70006","route_short_name":"6","route_long_name":"Rosemont","route_type":3,"route_color":"#FFFFFF","route_text_color":"#000000"}],"agency_name":"Metro St. Louis"},"geometry":{"type":"Point","coordinates":[-90.10955,38.6162]}},{"type":"Feature","properties":{"stop_id":"12485","stop_code":"12485","stop_name":"ST. CLAIR @ 39TH STREET WB","stop_desc":"NEAR SIDE ST. CLAIR @ 39TH STREET WB","wheelchair_boarding":2,"routes":[{"route_id":"19641","agency_id":"70006","route_short_name":"6","route_long_name":"Rosemont","route_type":3,"route_color":"#FFFFFF","route_text_color":"#000000"}],"agency_name":"Metro St. Louis"},"geometry":{"type":"Point","coordinates":[-90.1106,38.61648]}},{"type":"Feature","properties":{"stop_id":"12486","stop_code":"12486","stop_name":"37TH STREET @ MONK NB","stop_desc":"NEAR SIDE 37TH STREET @ MONK NB","wheelchair_boarding":2,"routes":[{"route_id":"19641","agency_id":"70006","route_short_name":"6","route_long_name":"Rosemont","route_type":3,"route_color":"#FFFFFF","route_text_color":"#000000"}],"agency_name":"Metro St. Louis"},"geometry":{"type":"Point","coordinates":[-90.11122,38.62175]}},{"type":"Feature","properties":{"stop_id":"12487","stop_code":"12487","stop_name":"37TH STREET @ BUMKUM NB","stop_desc":"NEAR SIDE 37TH STREET @ BUMKUM NB","wheelchair_boarding":2,"routes":[{"route_id":"19641","agency_id":"70006","route_short_name":"6","route_long_name":"Rosemont","route_type":3,"route_color":"#FFFFFF","route_text_color":"#000000"}],"agency_name":"Metro St. Louis"},"geometry":{"type":"Point","coordinates":[-90.11125,38.62331]}},{"type":"Feature","properties":{"stop_id":"12488","stop_code":"12488","stop_name":"BUNKUM @ 38TH STREET EB","stop_desc":"FAR SIDE BUNKUM @ 38TH STREET EB","wheelchair_boarding":2,"routes":[{"route_id":"19641","agency_id":"70006","route_short_name":"6","route_long_name":"Rosemont","route_type":3,"route_color":"#FFFFFF","route_text_color":"#000000"}],"agency_name":"Metro St. Louis"},"geometry":{"type":"Point","coordinates":[-90.11023,38.62349]}},{"type":"Feature","properties":{"stop_id":"12489","stop_code":"12489","stop_name":"BUNKUM @ 40TH STREET EB","stop_desc":"FAR SIDE BUNKUM @ 40TH STREET EB","wheelchair_boarding":2,"routes":[{"route_id":"19641","agency_id":"70006","route_short_name":"6","route_long_name":"Rosemont","route_type":3,"route_color":"#FFFFFF","route_text_color":"#000000"}],"agency_name":"Metro St. Louis"},"geometry":{"type":"Point","coordinates":[-90.10824,38.62343]}},{"type":"Feature","properties":{"stop_id":"12490","stop_code":"12490","stop_name":"BUNKUM @ 41ST STREET EB","stop_desc":"FAR SIDE BUNKUM @ 41ST STREET EB","wheelchair_boarding":2,"routes":[{"route_id":"19641","agency_id":"70006","route_short_name":"6","route_long_name":"Rosemont","route_type":3,"route_color":"#FFFFFF","route_text_color":"#000000"}],"agency_name":"Metro St. Louis"},"geometry":{"type":"Point","coordinates":[-90.10693,38.62341]}},{"type":"Feature","properties":{"stop_id":"12491","stop_code":"12491","stop_name":"BUNKUM @ 43RD STREET EB","stop_desc":"NEAR SIDE BUNKUM @ 43RD STREET EB","wheelchair_boarding":1,"routes":[{"route_id":"19641","agency_id":"70006","route_short_name":"6","route_long_name":"Rosemont","route_type":3,"route_color":"#FFFFFF","route_text_color":"#000000"}],"agency_name":"Metro St. Louis"},"geometry":{"type":"Point","coordinates":[-90.10468,38.62335]}},{"type":"Feature","properties":{"stop_id":"12492","stop_code":"12492","stop_name":"BUNKUM @ 44TH STREET EB","stop_desc":"NEAR SIDE BUNKUM @ 44TH STREET EB","wheelchair_boarding":1,"routes":[{"route_id":"19641","agency_id":"70006","route_short_name":"6","route_long_name":"Rosemont","route_type":3,"route_color":"#FFFFFF","route_text_color":"#000000"}],"agency_name":"Metro St. Louis"},"geometry":{"type":"Point","coordinates":[-90.10347,38.6233]}},{"type":"Feature","properties":{"stop_id":"12493","stop_code":"12493","stop_name":"BUNKUM @ 45TH STREET EB","stop_desc":"FAR SIDE BUNKUM @ 45TH STREET EB","wheelchair_boarding":1,"routes":[{"route_id":"19641","agency_id":"70006","route_short_name":"6","route_long_name":"Rosemont","route_type":3,"route_color":"#FFFFFF","route_text_color":"#000000"}],"agency_name":"Metro St. Louis"},"geometry":{"type":"Point","coordinates":[-90.10217,38.62328]}},{"type":"Feature","properties":{"stop_id":"12494","stop_code":"12494","stop_name":"BUNKUM @ 47TH STREET EB","stop_desc":"FAR SIDE BUNKUM @ 47TH STREET EB","wheelchair_boarding":2,"routes":[{"route_id":"19641","agency_id":"70006","route_short_name":"6","route_long_name":"Rosemont","route_type":3,"route_color":"#FFFFFF","route_text_color":"#000000"}],"agency_name":"Metro St. Louis"},"geometry":{"type":"Point","coordinates":[-90.10088,38.62327]}},{"type":"Feature","properties":{"stop_id":"12495","stop_code":"12495","stop_name":"BUNKUM @ 48TH STREET EB","stop_desc":"FAR SIDE BUNKUM @ 48TH STREET EB","wheelchair_boarding":2,"routes":[{"route_id":"19641","agency_id":"70006","route_short_name":"6","route_long_name":"Rosemont","route_type":3,"route_color":"#FFFFFF","route_text_color":"#000000"}],"agency_name":"Metro St. Louis"},"geometry":{"type":"Point","coordinates":[-90.09971,38.62322]}},{"type":"Feature","properties":{"stop_id":"12496","stop_code":"12496","stop_name":"BUNKUM @ 49TH STREET EB","stop_desc":"FAR SIDE BUNKUM @ 49TH STREET EB","wheelchair_boarding":2,"routes":[{"route_id":"19641","agency_id":"70006","route_short_name":"6","route_long_name":"Rosemont","route_type":3,"route_color":"#FFFFFF","route_text_color":"#000000"}],"agency_name":"Metro St. Louis"},"geometry":{"type":"Point","coordinates":[-90.09852,38.62318]}},{"type":"Feature","properties":{"stop_id":"12497","stop_code":"12497","stop_name":"BUNKUM @ 51ST STREET EB","stop_desc":"NEAR SIDE BUNKUM @ 51ST STREET EB","wheelchair_boarding":2,"routes":[{"route_id":"19641","agency_id":"70006","route_short_name":"6","route_long_name":"Rosemont","route_type":3,"route_color":"#FFFFFF","route_text_color":"#000000"}],"agency_name":"Metro St. Louis"},"geometry":{"type":"Point","coordinates":[-90.09655,38.62314]}},{"type":"Feature","properties":{"stop_id":"12498","stop_code":"12498","stop_name":"BUNKUM @ 52ND STREET EB","stop_desc":"FAR SIDE BUNKUM @ 52ND STREET EB","wheelchair_boarding":2,"routes":[{"route_id":"19641","agency_id":"70006","route_short_name":"6","route_long_name":"Rosemont","route_type":3,"route_color":"#FFFFFF","route_text_color":"#000000"}],"agency_name":"Metro St. Louis"},"geometry":{"type":"Point","coordinates":[-90.09491,38.62308]}},{"type":"Feature","properties":{"stop_id":"12499","stop_code":"12499","stop_name":"KINGSHIGHWAY @ ADELAIDE NB","stop_desc":"NEAR SIDE KINGSHIGHWAY @ ADELAIDE NB","wheelchair_boarding":2,"routes":[{"route_id":"19641","agency_id":"70006","route_short_name":"6","route_long_name":"Rosemont","route_type":3,"route_color":"#FFFFFF","route_text_color":"#000000"},{"route_id":"19643","agency_id":"70006","route_short_name":"9","route_long_name":"Washington Park","route_type":3,"route_color":"#FFFFFF","route_text_color":"#000000"}],"agency_name":"Metro St. Louis"},"geometry":{"type":"Point","coordinates":[-90.09292,38.62378]}},{"type":"Feature","properties":{"stop_id":"12500","stop_code":"12500","stop_name":"KINGSHIGHWAY @ AVON PLACE NB","stop_desc":"NEAR SIDE KINGSHIGHWAY @ AVON PLACE NB","wheelchair_boarding":2,"routes":[{"route_id":"19641","agency_id":"70006","route_short_name":"6","route_long_name":"Rosemont","route_type":3,"route_color":"#FFFFFF","route_text_color":"#000000"},{"route_id":"19643","agency_id":"70006","route_short_name":"9","route_long_name":"Washington Park","route_type":3,"route_color":"#FFFFFF","route_text_color":"#000000"}],"agency_name":"Metro St. Louis"},"geometry":{"type":"Point","coordinates":[-90.09302,38.6255]}},{"type":"Feature","properties":{"stop_id":"12501","stop_code":"12501","stop_name":"KINGSHIGHWAY @ WESTMORELAND NB","stop_desc":"NEAR SIDE KINGSHIGHWAY @ WESTMORELAND NB","wheelchair_boarding":2,"routes":[{"route_id":"19641","agency_id":"70006","route_short_name":"6","route_long_name":"Rosemont","route_type":3,"route_color":"#FFFFFF","route_text_color":"#000000"},{"route_id":"19643","agency_id":"70006","route_short_name":"9","route_long_name":"Washington Park","route_type":3,"route_color":"#FFFFFF","route_text_color":"#000000"}],"agency_name":"Metro St. Louis"},"geometry":{"type":"Point","coordinates":[-90.09301,38.62724]}},{"type":"Feature","properties":{"stop_id":"12502","stop_code":"12502","stop_name":"KINGSHIGHWAY @ WARREN NB","stop_desc":"NEAR SIDE KINGSHIGHWAY @ WARREN NB","wheelchair_boarding":2,"routes":[{"route_id":"19641","agency_id":"70006","route_short_name":"6","route_long_name":"Rosemont","route_type":3,"route_color":"#FFFFFF","route_text_color":"#000000"},{"route_id":"19643","agency_id":"70006","route_short_name":"9","route_long_name":"Washington Park","route_type":3,"route_color":"#FFFFFF","route_text_color":"#000000"}],"agency_name":"Metro St. Louis"},"geometry":{"type":"Point","coordinates":[-90.09302,38.62809]}},{"type":"Feature","properties":{"stop_id":"12503","stop_code":"12503","stop_name":"KINGSHIGHWAY @ PORTLAND PLACE NB","stop_desc":"NEAR SIDE KINGSHIGHWAY @ PORTLAND PLACE NB","wheelchair_boarding":2,"routes":[{"route_id":"19641","agency_id":"70006","route_short_name":"6","route_long_name":"Rosemont","route_type":3,"route_color":"#FFFFFF","route_text_color":"#000000"},{"route_id":"19643","agency_id":"70006","route_short_name":"9","route_long_name":"Washington Park","route_type":3,"route_color":"#FFFFFF","route_text_color":"#000000"}],"agency_name":"Metro St. Louis"},"geometry":{"type":"Point","coordinates":[-90.09302,38.62897]}},{"type":"Feature","properties":{"stop_id":"12504","stop_code":"12504","stop_name":"KINGSHIGHWAY @ CASEYVILLE NB","stop_desc":"NEAR SIDE KINGSHIGHWAY @ CASEYVILLE NB","wheelchair_boarding":2,"routes":[{"route_id":"19641","agency_id":"70006","route_short_name":"6","route_long_name":"Rosemont","route_type":3,"route_color":"#FFFFFF","route_text_color":"#000000"},{"route_id":"19643","agency_id":"70006","route_short_name":"9","route_long_name":"Washington Park","route_type":3,"route_color":"#FFFFFF","route_text_color":"#000000"}],"agency_name":"Metro St. Louis"},"geometry":{"type":"Point","coordinates":[-90.09302,38.62988]}},{"type":"Feature","properties":{"stop_id":"12505","stop_code":"12505","stop_name":"CASEYVILLE @ 51ST STREET WB","stop_desc":"NEAR SIDE CASEYVILLE @ 51ST STREET WB","wheelchair_boarding":2,"routes":[{"route_id":"19641","agency_id":"70006","route_short_name":"6","route_long_name":"Rosemont","route_type":3,"route_color":"#FFFFFF","route_text_color":"#000000"}],"agency_name":"Metro St. Louis"},"geometry":{"type":"Point","coordinates":[-90.09591,38.63043]}},{"type":"Feature","properties":{"stop_id":"12506","stop_code":"12506","stop_name":"CASEYVILLE @ 50TH STREET WB","stop_desc":"NEAR SIDE CASEYVILLE @ 50TH STREET WB","wheelchair_boarding":2,"routes":[{"route_id":"19641","agency_id":"70006","route_short_name":"6","route_long_name":"Rosemont","route_type":3,"route_color":"#FFFFFF","route_text_color":"#000000"}],"agency_name":"Metro St. Louis"},"geometry":{"type":"Point","coordinates":[-90.09703,38.63046]}},{"type":"Feature","properties":{"stop_id":"12507","stop_code":"12507","stop_name":"CASEYVILLE @ 49TH STREET WB","stop_desc":"NEAR SIDE CASEYVILLE @ 49TH STREET WB","wheelchair_boarding":2,"routes":[{"route_id":"19641","agency_id":"70006","route_short_name":"6","route_long_name":"Rosemont","route_type":3,"route_color":"#FFFFFF","route_text_color":"#000000"}],"agency_name":"Metro St. Louis"},"geometry":{"type":"Point","coordinates":[-90.09818,38.63049]}},{"type":"Feature","properties":{"stop_id":"12509","stop_code":"12509","stop_name":"CASEYVILLE @ 46TH STREET WB","stop_desc":"FAR SIDE CASEYVILLE @ 46TH STREET WB","wheelchair_boarding":2,"routes":[{"route_id":"19641","agency_id":"70006","route_short_name":"6","route_long_name":"Rosemont","route_type":3,"route_color":"#FFFFFF","route_text_color":"#000000"}],"agency_name":"Metro St. Louis"},"geometry":{"type":"Point","coordinates":[-90.10185,38.63058]}},{"type":"Feature","properties":{"stop_id":"12510","stop_code":"12510","stop_name":"CASEYVILLE @ 45TH STREET WB","stop_desc":"FAR SIDE CASEYVILLE @ 45TH STREET WB","wheelchair_boarding":2,"routes":[{"route_id":"19641","agency_id":"70006","route_short_name":"6","route_long_name":"Rosemont","route_type":3,"route_color":"#FFFFFF","route_text_color":"#000000"}],"agency_name":"Metro St. Louis"},"geometry":{"type":"Point","coordinates":[-90.10303,38.63059]}},{"type":"Feature","properties":{"stop_id":"12511","stop_code":"12511","stop_name":"CASEYVILLE @ 44TH STREET WB","stop_desc":"FAR SIDE CASEYVILLE @ 44TH STREET WB","wheelchair_boarding":2,"routes":[{"route_id":"19641","agency_id":"70006","route_short_name":"6","route_long_name":"Rosemont","route_type":3,"route_color":"#FFFFFF","route_text_color":"#000000"}],"agency_name":"Metro St. Louis"},"geometry":{"type":"Point","coordinates":[-90.10426,38.63062]}},{"type":"Feature","properties":{"stop_id":"12512","stop_code":"12512","stop_name":"CASEYVILLE @ 43RD STREET WB","stop_desc":"NEAR SIDE CASEYVILLE @ 43RD STREET WB","wheelchair_boarding":2,"routes":[{"route_id":"19641","agency_id":"70006","route_short_name":"6","route_long_name":"Rosemont","route_type":3,"route_color":"#FFFFFF","route_text_color":"#000000"}],"agency_name":"Metro St. Louis"},"geometry":{"type":"Point","coordinates":[-90.10504,38.63064]}},{"type":"Feature","properties":{"stop_id":"12513","stop_code":"12513","stop_name":"CASEYVILLE @ 41ST STREET WB","stop_desc":"NEAR SIDE CASEYVILLE @ 41ST STREET WB","wheelchair_boarding":2,"routes":[{"route_id":"19641","agency_id":"70006","route_short_name":"6","route_long_name":"Rosemont","route_type":3,"route_color":"#FFFFFF","route_text_color":"#000000"}],"agency_name":"Metro St. Louis"},"geometry":{"type":"Point","coordinates":[-90.10717,38.63069]}},{"type":"Feature","properties":{"stop_id":"12514","stop_code":"12514","stop_name":"CASEYVILLE @ 40TH STREET WB","stop_desc":"NEAR SIDE CASEYVILLE @ 40TH STREET WB","wheelchair_boarding":2,"routes":[{"route_id":"19641","agency_id":"70006","route_short_name":"6","route_long_name":"Rosemont","route_type":3,"route_color":"#FFFFFF","route_text_color":"#000000"}],"agency_name":"Metro St. Louis"},"geometry":{"type":"Point","coordinates":[-90.10836,38.63074]}},{"type":"Feature","properties":{"stop_id":"12515","stop_code":"12515","stop_name":"CASEYVILLE @ 39TH STREET WB","stop_desc":"FAR SIDE CASEYVILLE @ 39TH STREET WB","wheelchair_boarding":2,"routes":[{"route_id":"19641","agency_id":"70006","route_short_name":"6","route_long_name":"Rosemont","route_type":3,"route_color":"#FFFFFF","route_text_color":"#000000"}],"agency_name":"Metro St. Louis"},"geometry":{"type":"Point","coordinates":[-90.10977,38.63038]}},{"type":"Feature","properties":{"stop_id":"12516","stop_code":"12516","stop_name":"CASEYVILLE @ 36TH STREET WB","stop_desc":"NEAR SIDE CASEYVILLE @ 36TH STREET WB","wheelchair_boarding":2,"routes":[{"route_id":"19641","agency_id":"70006","route_short_name":"6","route_long_name":"Rosemont","route_type":3,"route_color":"#FFFFFF","route_text_color":"#000000"}],"agency_name":"Metro St. Louis"},"geometry":{"type":"Point","coordinates":[-90.11177,38.62956]}},{"type":"Feature","properties":{"stop_id":"12517","stop_code":"12517","stop_name":"CASEYVILLE @ 35TH STREET WB","stop_desc":"FAR SIDE CASEYVILLE @ 35TH STREET WB","wheelchair_boarding":2,"routes":[{"route_id":"19641","agency_id":"70006","route_short_name":"6","route_long_name":"Rosemont","route_type":3,"route_color":"#FFFFFF","route_text_color":"#000000"}],"agency_name":"Metro St. Louis"},"geometry":{"type":"Point","coordinates":[-90.11264,38.62913]}},{"type":"Feature","properties":{"stop_id":"12518","stop_code":"12518","stop_name":"CASEYVILLE @ 32ND STREET WB","stop_desc":"NEAR SIDE CASEYVILLE @ 32ND STREET WB","wheelchair_boarding":2,"routes":[{"route_id":"19641","agency_id":"70006","route_short_name":"6","route_long_name":"Rosemont","route_type":3,"route_color":"#FFFFFF","route_text_color":"#000000"}],"agency_name":"Metro St. Louis"},"geometry":{"type":"Point","coordinates":[-90.11432,38.62862]}},{"type":"Feature","properties":{"stop_id":"12519","stop_code":"12519","stop_name":"CASEYVILLE @ PARK WB","stop_desc":"NEAR SIDE CASEYVILLE @ PARK WB","wheelchair_boarding":2,"routes":[{"route_id":"19641","agency_id":"70006","route_short_name":"6","route_long_name":"Rosemont","route_type":3,"route_color":"#FFFFFF","route_text_color":"#000000"}],"agency_name":"Metro St. Louis"},"geometry":{"type":"Point","coordinates":[-90.11564,38.62856]}},{"type":"Feature","properties":{"stop_id":"12520","stop_code":"12520","stop_name":"CASEYVILLE @ 29TH STREET WB","stop_desc":"FAR SIDE CASEYVILLE @ 29TH STREET WB","wheelchair_boarding":2,"routes":[{"route_id":"19641","agency_id":"70006","route_short_name":"6","route_long_name":"Rosemont","route_type":3,"route_color":"#FFFFFF","route_text_color":"#000000"}],"agency_name":"Metro St. Louis"},"geometry":{"type":"Point","coordinates":[-90.11886,38.62795]}},{"type":"Feature","properties":{"stop_id":"12522","stop_code":"12522","stop_name":"26TH STREET @ LYNCH SB","stop_desc":"NEAR SIDE 26TH STREET @ LYNCH SB","wheelchair_boarding":2,"routes":[{"route_id":"19641","agency_id":"70006","route_short_name":"6","route_long_name":"Rosemont","route_type":3,"route_color":"#FFFFFF","route_text_color":"#000000"}],"agency_name":"Metro St. Louis"},"geometry":{"type":"Point","coordinates":[-90.12106,38.62638]}},{"type":"Feature","properties":{"stop_id":"12523","stop_code":"12523","stop_name":"25TH STREET @ JJK CIRCLE SB","stop_desc":"NEAR SIDE 25TH STREET @ JJK CIRCLE SB","wheelchair_boarding":2,"routes":[{"route_id":"19641","agency_id":"70006","route_short_name":"6","route_long_name":"Rosemont","route_type":3,"route_color":"#FFFFFF","route_text_color":"#000000"},{"route_id":"19643","agency_id":"70006","route_short_name":"9","route_long_name":"Washington Park","route_type":3,"route_color":"#FFFFFF","route_text_color":"#000000"}],"agency_name":"Metro St. Louis"},"geometry":{"type":"Point","coordinates":[-90.12225,38.62498]}},{"type":"Feature","properties":{"stop_id":"12702","stop_code":"12702","stop_name":"EMERSON PARK TRANSIT CENTER","wheelchair_boarding":1,"routes":[{"route_id":"19641","agency_id":"70006","route_short_name":"6","route_long_name":"Rosemont","route_type":3,"route_color":"#FFFFFF","route_text_color":"#000000"},{"route_id":"19642","agency_id":"70006","route_short_name":"8","route_long_name":"Alta Sita","route_type":3,"route_color":"#FFFFFF","route_text_color":"#000000"},{"route_id":"19643","agency_id":"70006","route_short_name":"9","route_long_name":"Washington Park","route_type":3,"route_color":"#FFFFFF","route_text_color":"#000000"}],"agency_name":"Metro St. Louis"},"geometry":{"type":"Point","coordinates":[-90.13787,38.6285]}},{"type":"Feature","properties":{"stop_id":"12703","stop_code":"12703","stop_name":"11TH STREET @ BOWMAN SB","stop_desc":"NEAR SIDE 11TH STREET @ BOWMAN SB","wheelchair_boarding":2,"routes":[{"route_id":"19641","agency_id":"70006","route_short_name":"6","route_long_name":"Rosemont","route_type":3,"route_color":"#FFFFFF","route_text_color":"#000000"},{"route_id":"19643","agency_id":"70006","route_short_name":"9","route_long_name":"Washington Park","route_type":3,"route_color":"#FFFFFF","route_text_color":"#000000"}],"agency_name":"Metro St. Louis"},"geometry":{"type":"Point","coordinates":[-90.13961,38.63173]}},{"type":"Feature","properties":{"stop_id":"12725","stop_code":"12725","stop_name":"18TH STREET @ PARSON NB","stop_desc":"NEAR SIDE 18TH STREET @ PARSON NB","wheelchair_boarding":2,"routes":[{"route_id":"19641","agency_id":"70006","route_short_name":"6","route_long_name":"Rosemont","route_type":3,"route_color":"#FFFFFF","route_text_color":"#000000"},{"route_id":"19643","agency_id":"70006","route_short_name":"9","route_long_name":"Washington Park","route_type":3,"route_color":"#FFFFFF","route_text_color":"#000000"}],"agency_name":"Metro St. Louis"},"geometry":{"type":"Point","coordinates":[-90.13408,38.62614]}},{"type":"Feature","properties":{"stop_id":"12726","stop_code":"12726","stop_name":"18TH STREET @ WEIMAN NB","stop_desc":"NEAR SIDE 18TH STREET @ WEIMAN NB","wheelchair_boarding":2,"routes":[{"route_id":"19641","agency_id":"70006","route_short_name":"6","route_long_name":"Rosemont","route_type":3,"route_color":"#FFFFFF","route_text_color":"#000000"},{"route_id":"19643","agency_id":"70006","route_short_name":"9","route_long_name":"Washington Park","route_type":3,"route_color":"#FFFFFF","route_text_color":"#000000"}],"agency_name":"Metro St. Louis"},"geometry":{"type":"Point","coordinates":[-90.13318,38.62747]}},{"type":"Feature","properties":{"stop_id":"12727","stop_code":"12727","stop_name":"18TH STREET @ EXCHANGE NB","stop_desc":"NEAR SIDE 18TH STREET @ EXCHANGE NB","wheelchair_boarding":2,"routes":[{"route_id":"19641","agency_id":"70006","route_short_name":"6","route_long_name":"Rosemont","route_type":3,"route_color":"#FFFFFF","route_text_color":"#000000"},{"route_id":"19643","agency_id":"70006","route_short_name":"9","route_long_name":"Washington Park","route_type":3,"route_color":"#FFFFFF","route_text_color":"#000000"}],"agency_name":"Metro St. Louis"},"geometry":{"type":"Point","coordinates":[-90.13249,38.62819]}},{"type":"Feature","properties":{"stop_id":"12728","stop_code":"12728","stop_name":"18TH STREET @ WINSTANLEY NB","stop_desc":"FAR SIDE 18TH STREET @ WINSTANLEY NB","wheelchair_boarding":2,"routes":[{"route_id":"19641","agency_id":"70006","route_short_name":"6","route_long_name":"Rosemont","route_type":3,"route_color":"#FFFFFF","route_text_color":"#000000"},{"route_id":"19643","agency_id":"70006","route_short_name":"9","route_long_name":"Washington Park","route_type":3,"route_color":"#FFFFFF","route_text_color":"#000000"}],"agency_name":"Metro St. Louis"},"geometry":{"type":"Point","coordinates":[-90.13162,38.6291]}},{"type":"Feature","properties":{"stop_id":"12729","stop_code":"12729","stop_name":"18TH STREET @ LYNCH NB","stop_desc":"NEAR SIDE 18TH STREET @ LYNCH NB","wheelchair_boarding":2,"routes":[{"route_id":"19641","agency_id":"70006","route_short_name":"6","route_long_name":"Rosemont","route_type":3,"route_color":"#FFFFFF","route_text_color":"#000000"},{"route_id":"19643","agency_id":"70006","route_short_name":"9","route_long_name":"Washington Park","route_type":3,"route_color":"#FFFFFF","route_text_color":"#000000"}],"agency_name":"Metro St. Louis"},"geometry":{"type":"Point","coordinates":[-90.131,38.62971]}},{"type":"Feature","properties":{"stop_id":"12730","stop_code":"12730","stop_name":"LYNCH @ 15TH STREET WB","stop_desc":"NEAR SIDE LYNCH @ 15TH STREET WB","wheelchair_boarding":2,"routes":[{"route_id":"19641","agency_id":"70006","route_short_name":"6","route_long_name":"Rosemont","route_type":3,"route_color":"#FFFFFF","route_text_color":"#000000"},{"route_id":"19643","agency_id":"70006","route_short_name":"9","route_long_name":"Washington Park","route_type":3,"route_color":"#FFFFFF","route_text_color":"#000000"}],"agency_name":"Metro St. Louis"},"geometry":{"type":"Point","coordinates":[-90.132,38.63113]}},{"type":"Feature","properties":{"stop_id":"12740","stop_code":"12740","stop_name":"EXCHANGE @ 13TH STREET WB","stop_desc":"NEAR SIDE EXCHANGE @ 13TH STREET WB","wheelchair_boarding":2,"routes":[{"route_id":"19641","agency_id":"70006","route_short_name":"6","route_long_name":"Rosemont","route_type":3,"route_color":"#FFFFFF","route_text_color":"#000000"},{"route_id":"19643","agency_id":"70006","route_short_name":"9","route_long_name":"Washington Park","route_type":3,"route_color":"#FFFFFF","route_text_color":"#000000"}],"agency_name":"Metro St. Louis"},"geometry":{"type":"Point","coordinates":[-90.13709,38.63138]}},{"type":"Feature","properties":{"stop_id":"14124","stop_code":"14124","stop_name":"FAIRVIEW HEIGHTS TRANSIT CENTER","wheelchair_boarding":1,"routes":[{"route_id":"19636","agency_id":"70006","route_short_name":"1","route_long_name":"Main Street - State Street","route_type":3,"route_color":"#FFFFFF","route_text_color":"#000000"},{"route_id":"19641","agency_id":"70006","route_short_name":"6","route_long_name":"Rosemont","route_type":3,"route_color":"#FFFFFF","route_text_color":"#000000"},{"route_id":"19644","agency_id":"70006","route_short_name":"12","route_long_name":"OFallon-Fairview Heights","route_type":3,"route_color":"#FFFFFF","route_text_color":"#000000"},{"route_id":"19645","agency_id":"70006","route_short_name":"13","route_long_name":"Caseyville","route_type":3,"route_color":"#FFFFFF","route_text_color":"#000000"}],"agency_name":"Metro St. Louis"},"geometry":{"type":"Point","coordinates":[-90.04828,38.5947]}},{"type":"Feature","properties":{"stop_id":"14125","stop_code":"14125","stop_name":"WASHINGTON PARK TRANSIT CENTER","wheelchair_boarding":1,"routes":[{"route_id":"19641","agency_id":"70006","route_short_name":"6","route_long_name":"Rosemont","route_type":3,"route_color":"#FFFFFF","route_text_color":"#000000"},{"route_id":"19643","agency_id":"70006","route_short_name":"9","route_long_name":"Washington Park","route_type":3,"route_color":"#FFFFFF","route_text_color":"#000000"}],"agency_name":"Metro St. Louis"},"geometry":{"type":"Point","coordinates":[-90.09501,38.61409]}},{"type":"Feature","properties":{"stop_id":"14209","stop_code":"14209","stop_name":"ST. CLAIR @ MAGDALENA WB","stop_desc":"NEAR SIDE ST. CLAIR @ MAGDALENA WB","wheelchair_boarding":2,"routes":[{"route_id":"19636","agency_id":"70006","route_short_name":"1","route_long_name":"Main Street - State Street","route_type":3,"route_color":"#FFFFFF","route_text_color":"#000000"},{"route_id":"19641","agency_id":"70006","route_short_name":"6","route_long_name":"Rosemont","route_type":3,"route_color":"#FFFFFF","route_text_color":"#000000"},{"route_id":"19645","agency_id":"70006","route_short_name":"13","route_long_name":"Caseyville","route_type":3,"route_color":"#FFFFFF","route_text_color":"#000000"}],"agency_name":"Metro St. Louis"},"geometry":{"type":"Point","coordinates":[-90.05067,38.59756]}},{"type":"Feature","properties":{"stop_id":"14280","stop_code":"14280","stop_name":"JJK CENTER TRANSIT CENTER","wheelchair_boarding":1,"routes":[{"route_id":"19641","agency_id":"70006","route_short_name":"6","route_long_name":"Rosemont","route_type":3,"route_color":"#FFFFFF","route_text_color":"#000000"},{"route_id":"19643","agency_id":"70006","route_short_name":"9","route_long_name":"Washington Park","route_type":3,"route_color":"#FFFFFF","route_text_color":"#000000"}],"agency_name":"Metro St. Louis"},"geometry":{"type":"Point","coordinates":[-90.12413,38.62369]}},{"type":"Feature","properties":{"stop_id":"14401","stop_code":"14401","stop_name":"MARYBELL @ 80TH STREET WB","stop_desc":"FAR SIDE MARYBELL @ 80TH STREET WB","wheelchair_boarding":2,"routes":[{"route_id":"19641","agency_id":"70006","route_short_name":"6","route_long_name":"Rosemont","route_type":3,"route_color":"#FFFFFF","route_text_color":"#000000"}],"agency_name":"Metro St. Louis"},"geometry":{"type":"Point","coordinates":[-90.06594,38.59829]}},{"type":"Feature","properties":{"stop_id":"15239","stop_code":"15239","stop_name":"ST. CLAIR @ 47TH STREET WB","stop_desc":"FAR SIDE ST. CLAIR @ 47TH STREET WB","wheelchair_boarding":1,"routes":[{"route_id":"19641","agency_id":"70006","route_short_name":"6","route_long_name":"Rosemont","route_type":3,"route_color":"#FFFFFF","route_text_color":"#000000"}],"agency_name":"Metro St. Louis"},"geometry":{"type":"Point","coordinates":[-90.10326,38.61456]}},{"type":"Feature","properties":{"stop_id":"15240","stop_code":"15240","stop_name":"37TH STREET @ ST. CLAIR NB","stop_desc":"FAR SIDE 37TH STREET @ ST. CLAIR NB","wheelchair_boarding":2,"routes":[{"route_id":"19641","agency_id":"70006","route_short_name":"6","route_long_name":"Rosemont","route_type":3,"route_color":"#FFFFFF","route_text_color":"#000000"}],"agency_name":"Metro St. Louis"},"geometry":{"type":"Point","coordinates":[-90.1117,38.61704]}},{"type":"Feature","properties":{"stop_id":"15241","stop_code":"15241","stop_name":"CASEYVILLE @ 42ND STREET WB","stop_desc":"NEAR SIDE CASEYVILLE @ 42ND STREET WB","wheelchair_boarding":2,"routes":[{"route_id":"19641","agency_id":"70006","route_short_name":"6","route_long_name":"Rosemont","route_type":3,"route_color":"#FFFFFF","route_text_color":"#000000"}],"agency_name":"Metro St. Louis"},"geometry":{"type":"Point","coordinates":[-90.1061,38.63067]}},{"type":"Feature","properties":{"stop_id":"15307","stop_code":"15307","stop_name":"VIEUX CARRE @ BOUGAINVILLE WB","stop_desc":"NEAR SIDE VIEUX CARRE @ BOUGAINVILLE WB","wheelchair_boarding":2,"routes":[{"route_id":"19641","agency_id":"70006","route_short_name":"6","route_long_name":"Rosemont","route_type":3,"route_color":"#FFFFFF","route_text_color":"#000000"}],"agency_name":"Metro St. Louis"},"geometry":{"type":"Point","coordinates":[-90.05646,38.59549]}},{"type":"Feature","properties":{"stop_id":"15308","stop_code":"15308","stop_name":"VIEUX CARRE @ 86TH STREET WB","stop_desc":"NEAR SIDE VIEUX CARRE @ 86TH STREET WB","wheelchair_boarding":2,"routes":[{"route_id":"19641","agency_id":"70006","route_short_name":"6","route_long_name":"Rosemont","route_type":3,"route_color":"#FFFFFF","route_text_color":"#000000"}],"agency_name":"Metro St. Louis"},"geometry":{"type":"Point","coordinates":[-90.05763,38.59582]}},{"type":"Feature","properties":{"stop_id":"15309","stop_code":"15309","stop_name":"VIEUX CARRE @ GOELZ WB","stop_desc":"NEAR SIDE VIEUX CARRE @ GOELZ WB","wheelchair_boarding":2,"routes":[{"route_id":"19641","agency_id":"70006","route_short_name":"6","route_long_name":"Rosemont","route_type":3,"route_color":"#FFFFFF","route_text_color":"#000000"}],"agency_name":"Metro St. Louis"},"geometry":{"type":"Point","coordinates":[-90.05944,38.59633]}},{"type":"Feature","properties":{"stop_id":"15310","stop_code":"15310","stop_name":"MARYBELL @ 84TH STREET WB","stop_desc":"NEAR SIDE MARYBELL @ 84TH STREET WB","wheelchair_boarding":2,"routes":[{"route_id":"19641","agency_id":"70006","route_short_name":"6","route_long_name":"Rosemont","route_type":3,"route_color":"#FFFFFF","route_text_color":"#000000"}],"agency_name":"Metro St. Louis"},"geometry":{"type":"Point","coordinates":[-90.06119,38.5959]}},{"type":"Feature","properties":{"stop_id":"15311","stop_code":"15311","stop_name":"MARYBELL @ 83RD STREET WB","stop_desc":"FAR SIDE MARYBELL @ 83RD STREET WB","wheelchair_boarding":2,"routes":[{"route_id":"19641","agency_id":"70006","route_short_name":"6","route_long_name":"Rosemont","route_type":3,"route_color":"#FFFFFF","route_text_color":"#000000"}],"agency_name":"Metro St. Louis"},"geometry":{"type":"Point","coordinates":[-90.0626,38.59662]}},{"type":"Feature","properties":{"stop_id":"15312","stop_code":"15312","stop_name":"MARYBELL @ 82ND STREET WB","stop_desc":"FAR SIDE MARYBELL @ 82ND STREET WB","wheelchair_boarding":2,"routes":[{"route_id":"19641","agency_id":"70006","route_short_name":"6","route_long_name":"Rosemont","route_type":3,"route_color":"#FFFFFF","route_text_color":"#000000"}],"agency_name":"Metro St. Louis"},"geometry":{"type":"Point","coordinates":[-90.06375,38.59719]}},{"type":"Feature","properties":{"stop_id":"15313","stop_code":"15313","stop_name":"MARYBELL @ 81ST STREET WB","stop_desc":"NEAR SIDE MARYBELL @ 81ST STREET WB","wheelchair_boarding":2,"routes":[{"route_id":"19641","agency_id":"70006","route_short_name":"6","route_long_name":"Rosemont","route_type":3,"route_color":"#FFFFFF","route_text_color":"#000000"}],"agency_name":"Metro St. Louis"},"geometry":{"type":"Point","coordinates":[-90.06471,38.59768]}},{"type":"Feature","properties":{"stop_id":"15314","stop_code":"15314","stop_name":"MARYBELL @ 78TH STREET WB","stop_desc":"NEAR SIDE MARYBELL @ 78TH STREET WB","wheelchair_boarding":2,"routes":[{"route_id":"19641","agency_id":"70006","route_short_name":"6","route_long_name":"Rosemont","route_type":3,"route_color":"#FFFFFF","route_text_color":"#000000"}],"agency_name":"Metro St. Louis"},"geometry":{"type":"Point","coordinates":[-90.0675,38.59907]}},{"type":"Feature","properties":{"stop_id":"15315","stop_code":"15315","stop_name":"MARYBELL @ PERSHING WB","stop_desc":"NEAR SIDE MARYBELL @ PERSHING WB","wheelchair_boarding":2,"routes":[{"route_id":"19641","agency_id":"70006","route_short_name":"6","route_long_name":"Rosemont","route_type":3,"route_color":"#FFFFFF","route_text_color":"#000000"}],"agency_name":"Metro St. Louis"},"geometry":{"type":"Point","coordinates":[-90.06915,38.5999]}},{"type":"Feature","properties":{"stop_id":"15316","stop_code":"15316","stop_name":"MARYBELL @ 76TH STREET WB","stop_desc":"FAR SIDE MARYBELL @ 76TH STREET WB","wheelchair_boarding":2,"routes":[{"route_id":"19641","agency_id":"70006","route_short_name":"6","route_long_name":"Rosemont","route_type":3,"route_color":"#FFFFFF","route_text_color":"#000000"}],"agency_name":"Metro St. Louis"},"geometry":{"type":"Point","coordinates":[-90.07047,38.60055]}},{"type":"Feature","properties":{"stop_id":"15317","stop_code":"15317","stop_name":"MARYBELL @ 75TH STREET WB","stop_desc":"FAR SIDE MARYBELL @ 75TH STREET WB","wheelchair_boarding":2,"routes":[{"route_id":"19641","agency_id":"70006","route_short_name":"6","route_long_name":"Rosemont","route_type":3,"route_color":"#FFFFFF","route_text_color":"#000000"}],"agency_name":"Metro St. Louis"},"geometry":{"type":"Point","coordinates":[-90.07145,38.60104]}},{"type":"Feature","properties":{"stop_id":"15318","stop_code":"15318","stop_name":"MARYBELL @ 73RD STREET WB","stop_desc":"FAR SIDE MARYBELL @ 73RD STREET WB","wheelchair_boarding":2,"routes":[{"route_id":"19641","agency_id":"70006","route_short_name":"6","route_long_name":"Rosemont","route_type":3,"route_color":"#FFFFFF","route_text_color":"#000000"}],"agency_name":"Metro St. Louis"},"geometry":{"type":"Point","coordinates":[-90.07331,38.60195]}},{"type":"Feature","properties":{"stop_id":"15319","stop_code":"15319","stop_name":"MARYBELL @ 71ST STREET WB","stop_desc":"NEAR SIDE MARYBELL @ 71ST STREET WB","wheelchair_boarding":2,"routes":[{"route_id":"19641","agency_id":"70006","route_short_name":"6","route_long_name":"Rosemont","route_type":3,"route_color":"#FFFFFF","route_text_color":"#000000"}],"agency_name":"Metro St. Louis"},"geometry":{"type":"Point","coordinates":[-90.07471,38.60266]}},{"type":"Feature","properties":{"stop_id":"15320","stop_code":"15320","stop_name":"MARYBELL @ NOBLE WB","stop_desc":"NEAR SIDE MARYBELL @ NOBLE WB","wheelchair_boarding":2,"routes":[{"route_id":"19641","agency_id":"70006","route_short_name":"6","route_long_name":"Rosemont","route_type":3,"route_color":"#FFFFFF","route_text_color":"#000000"}],"agency_name":"Metro St. Louis"},"geometry":{"type":"Point","coordinates":[-90.07651,38.60355]}},{"type":"Feature","properties":{"stop_id":"15321","stop_code":"15321","stop_name":"MARYBELL @ BRE-MAR WB","stop_desc":"FAR SIDE MARYBELL @ BRE-MAR WB","wheelchair_boarding":2,"routes":[{"route_id":"19641","agency_id":"70006","route_short_name":"6","route_long_name":"Rosemont","route_type":3,"route_color":"#FFFFFF","route_text_color":"#000000"}],"agency_name":"Metro St. Louis"},"geometry":{"type":"Point","coordinates":[-90.07756,38.60404]}},{"type":"Feature","properties":{"stop_id":"15322","stop_code":"15322","stop_name":"SUMMIT @ KINGSHIGHWAY WB","stop_desc":"NEAR SIDE SUMMIT @ KINGSHIGHWAY WB","wheelchair_boarding":2,"routes":[{"route_id":"19641","agency_id":"70006","route_short_name":"6","route_long_name":"Rosemont","route_type":3,"route_color":"#FFFFFF","route_text_color":"#000000"}],"agency_name":"Metro St. Louis"},"geometry":{"type":"Point","coordinates":[-90.09215,38.61011]}},{"type":"Feature","properties":{"stop_id":"15573","stop_code":"15573","stop_name":"EXCHANGE @ 15TH STREET WB","stop_desc":"FAR SIDE EXCHANGE @ 15TH STREET WB","wheelchair_boarding":2,"routes":[{"route_id":"19641","agency_id":"70006","route_short_name":"6","route_long_name":"Rosemont","route_type":3,"route_color":"#FFFFFF","route_text_color":"#000000"},{"route_id":"19643","agency_id":"70006","route_short_name":"9","route_long_name":"Washington Park","route_type":3,"route_color":"#FFFFFF","route_text_color":"#000000"}],"agency_name":"Metro St. Louis"},"geometry":{"type":"Point","coordinates":[-90.13515,38.62969]}},{"type":"Feature","properties":{"stop_id":"16469","stop_code":"16469","stop_name":"15TH STREET @ WINSTANLEY SB","stop_desc":"NEAR SIDE 15TH STREET @ WINSTANLEY SB","wheelchair_boarding":1,"routes":[{"route_id":"19641","agency_id":"70006","route_short_name":"6","route_long_name":"Rosemont","route_type":3,"route_color":"#FFFFFF","route_text_color":"#000000"},{"route_id":"19643","agency_id":"70006","route_short_name":"9","route_long_name":"Washington Park","route_type":3,"route_color":"#FFFFFF","route_text_color":"#000000"}],"agency_name":"Metro St. Louis"},"geometry":{"type":"Point","coordinates":[-90.13357,38.63054]}}]}