{"type":"FeatureCollection","features":[{"type":"Feature","properties":{"agency_name":"Metro St. Louis","route_id":"19627","agency_id":"70006","route_short_name":"78","route_long_name":"Bellefontaine","route_type":3,"route_color":"#FFFFFF","route_text_color":"#000000"},"geometry":{"type":"MultiLineString","coordinates":[[[-90.22412,38.72709],[-90.22387,38.72718],[-90.22449,38.72696],[-90.22458,38.72698],[-90.22461,38.72701],[-90.22463,38.72705],[-90.22461,38.72711],[-90.22397,38.72733],[-90.22392,38.72735],[-90.22388,38.7274],[-90.22386,38.72748],[-90.22406,38.72761],[-90.22596,38.72711],[-90.22664,38.72704],[-90.22696,38.72699],[-90.22792,38.72679],[-90.22805,38.72824],[-90.22815,38.72912],[-90.22816,38.72958],[-90.2281,38.73013],[-90.22786,38.73119],[-90.22744,38.73261],[-90.22714,38.73371],[-90.22667,38.73549],[-90.22639,38.73665],[-90.22624,38.73708],[-90.2262,38.73728],[-90.22618,38.73765],[-90.22618,38.73801],[-90.22621,38.73903],[-90.22615,38.7396],[-90.22609,38.73994],[-90.22552,38.74237],[-90.22512,38.74419],[-90.22486,38.74553],[-90.22402,38.74948],[-90.22374,38.75107],[-90.22294,38.75485],[-90.22291,38.75506],[-90.22245,38.75741],[-90.22205,38.76151],[-90.222,38.76232],[-90.22189,38.76347],[-90.22178,38.76416],[-90.22158,38.76536],[-90.22128,38.76697],[-90.22118,38.76741],[-90.22099,38.7688],[-90.22074,38.77023],[-90.22064,38.77057],[-90.22043,38.77169],[-90.22004,38.7735],[-90.21996,38.77406],[-90.21976,38.77492],[-90.21965,38.77531],[-90.21919,38.77751],[-90.21902,38.77827],[-90.21858,38.7798],[-90.21802,38.78163],[-90.21784,38.78229],[-90.217,38.78512],[-90.21646,38.78673],[-90.2151,38.79061],[-90.21439,38.79269],[-90.21376,38.79431],[-90.21367,38.79451],[-90.21436,38.79461],[-90.21484,38.79466],[-90.21663,38.79462],[-90.22016,38.7946],[-90.22603,38.7949],[-90.22644,38.79497],[-90.22671,38.79505],[-90.22783,38.79544],[-90.23205,38.79594],[-90.23242,38.79597],[-90.23246,38.79599],[-90.23324,38.79611],[-90.23493,38.79632],[-90.23544,38.79646],[-90.23557,38.79652],[-90.23629,38.79693],[-90.23673,38.79712],[-90.23929,38.79802],[-90.24002,38.79826],[-90.24015,38.7983],[-90.24128,38.79855],[-90.24148,38.79858],[-90.24205,38.79861],[-90.24244,38.79857],[-90.24327,38.79836],[-90.2438,38.7982],[-90.24581,38.79765],[-90.24869,38.79688],[-90.24957,38.79666],[-90.25043,38.79638],[-90.25198,38.79545],[-90.25231,38.79523],[-90.25309,38.79464],[-90.25364,38.79416],[-90.25399,38.79391],[-90.25426,38.79376],[-90.25447,38.79367],[-90.25487,38.79353],[-90.2555,38.79339],[-90.2558,38.79337],[-90.25616,38.79336],[-90.25949,38.79341],[-90.26094,38.79341],[-90.26266,38.79345],[-90.26354,38.79343],[-90.26522,38.79343],[-90.26685,38.79341],[-90.26735,38.79332],[-90.26755,38.79327],[-90.26784,38.79331],[-90.26838,38.79334],[-90.26936,38.79337],[-90.27126,38.79346],[-90.27503,38.79352],[-90.27602,38.79348],[-90.27661,38.79341],[-90.27701,38.79339],[-90.27724,38.7934],[-90.27844,38.79367],[-90.27873,38.79372],[-90.27893,38.79373],[-90.28147,38.79379],[-90.28351,38.79379],[-90.28584,38.79383],[-90.28613,38.79381],[-90.28638,38.79376],[-90.28666,38.79367],[-90.28685,38.79357],[-90.28728,38.79328],[-90.28751,38.79316],[-90.28799,38.79307],[-90.28823,38.79306],[-90.28846,38.79308],[-90.28864,38.79312],[-90.28884,38.79319],[-90.28903,38.7933],[-90.28923,38.79346],[-90.28985,38.79405],[-90.2901,38.79426],[-90.29036,38.79443],[-90.29071,38.79461],[-90.29171,38.79504],[-90.29231,38.79523],[-90.29239,38.79528],[-90.29263,38.79537],[-90.30151,38.7954],[-90.30151,38.79528],[-90.30146,38.79518],[-90.30089,38.79473],[-90.30085,38.79468],[-90.30083,38.79462],[-90.30085,38.79163],[-90.30089,38.79141],[-90.30094,38.79131],[-90.3014,38.79079],[-90.30147,38.79061],[-90.30149,38.79041],[-90.30149,38.7892],[-90.30154,38.78486],[-90.30161,38.78156],[-90.30164,38.7808],[-90.30169,38.77691],[-90.30163,38.77674],[-90.30132,38.77628],[-90.30077,38.77556],[-90.29877,38.7728],[-90.29872,38.7727],[-90.29869,38.77249],[-90.29873,38.77228],[-90.30248,38.77255],[-90.30444,38.77275],[-90.30552,38.77288],[-90.30628,38.77299],[-90.30676,38.77301],[-90.30794,38.77316],[-90.30791,38.77293],[-90.30727,38.77225],[-90.30439,38.77205],[-90.30064,38.77167],[-90.29704,38.77139],[-90.29507,38.77128],[-90.29153,38.77115],[-90.29092,38.77111],[-90.28885,38.77104],[-90.28876,38.77097],[-90.28856,38.77097],[-90.28822,38.77102],[-90.28535,38.77102],[-90.28425,38.77099],[-90.28341,38.77089],[-90.28289,38.77078],[-90.28258,38.77068],[-90.28228,38.77056],[-90.28146,38.77014],[-90.28117,38.77004],[-90.28063,38.76993],[-90.28011,38.7699],[-90.27971,38.76982],[-90.2795,38.76981],[-90.27929,38.76982],[-90.27898,38.76986],[-90.27867,38.76996],[-90.27793,38.77039],[-90.27761,38.77053],[-90.27718,38.77066],[-90.27667,38.77072],[-90.27625,38.77074],[-90.27468,38.77071],[-90.27464,38.76915],[-90.27512,38.76913],[-90.27518,38.76916],[-90.27521,38.76922]]]}},{"type":"Feature","properties":{"stop_id":"13335","stop_code":"13335","stop_name":"3344 PERSHALL EB","stop_desc":"MID-BLOCK 3344 PERSHALL EB","wheelchair_boarding":1,"routes":[{"route_id":"19624","agency_id":"70006","route_short_name":"74","route_long_name":"Florissant","route_type":3,"route_color":"#FFFFFF","route_text_color":"#000000"},{"route_id":"19627","agency_id":"70006","route_short_name":"78","route_long_name":"Bellefontaine","route_type":3,"route_color":"#FFFFFF","route_text_color":"#000000"},{"route_id":"19628","agency_id":"70006","route_short_name":"79","route_long_name":"Ferguson-Clayton","route_type":3,"route_color":"#FFFFFF","route_text_color":"#000000"}],"agency_name":"Metro St. Louis"},"geometry":{"type":"Point","coordinates":[-90.28318,38.77079]}},{"type":"Feature","properties":{"stop_id":"1340","stop_code":"1340","stop_name":"WATERFORD @ PARKER SB","stop_desc":"FAR SIDE WATERFORD @ PARKER SB","wheelchair_boarding":2,"routes":[{"route_id":"19627","agency_id":"70006","route_short_name":"78","route_long_name":"Bellefontaine","route_type":3,"route_color":"#FFFFFF","route_text_color":"#000000"}],"agency_name":"Metro St. Louis"},"geometry":{"type":"Point","coordinates":[-90.30108,38.79486]}},{"type":"Feature","properties":{"stop_id":"13657","stop_code":"13657","stop_name":"BELLEFONTAINE @ LARIMORE NB","stop_desc":"FAR SIDE BELLEFONTAINE @ LARIMORE NB","wheelchair_boarding":1,"routes":[{"route_id":"19619","agency_id":"70006","route_short_name":"60","route_long_name":"Shepley-Lilac","route_type":3,"route_color":"#FFFFFF","route_text_color":"#000000"},{"route_id":"19627","agency_id":"70006","route_short_name":"78","route_long_name":"Bellefontaine","route_type":3,"route_color":"#FFFFFF","route_text_color":"#000000"}],"agency_name":"Metro St. Louis"},"geometry":{"type":"Point","coordinates":[-90.2203,38.77196]}},{"type":"Feature","properties":{"stop_id":"14597","stop_code":"14597","stop_name":"PARKER @ DELMAR GARDENS NORTH WB","stop_desc":"FAR SIDE PARKER @ DELMAR GARDENS NORTH WB","wheelchair_boarding":2,"routes":[{"route_id":"19627","agency_id":"70006","route_short_name":"78","route_long_name":"Bellefontaine","route_type":3,"route_color":"#FFFFFF","route_text_color":"#000000"}],"agency_name":"Metro St. Louis"},"geometry":{"type":"Point","coordinates":[-90.27438,38.79353]}},{"type":"Feature","properties":{"stop_id":"14704","stop_code":"14704","stop_name":"PARKER @ WHISPER LAKE WB","stop_desc":"NEAR SIDE PARKER @ WHISPER LAKE WB","wheelchair_boarding":2,"routes":[{"route_id":"19627","agency_id":"70006","route_short_name":"78","route_long_name":"Bellefontaine","route_type":3,"route_color":"#FFFFFF","route_text_color":"#000000"}],"agency_name":"Metro St. Louis"},"geometry":{"type":"Point","coordinates":[-90.26991,38.79343]}},{"type":"Feature","properties":{"stop_id":"14705","stop_code":"14705","stop_name":"PARKER @ TAMZINE WB","stop_desc":"FAR SIDE PARKER @ TAMZINE WB","wheelchair_boarding":2,"routes":[{"route_id":"19627","agency_id":"70006","route_short_name":"78","route_long_name":"Bellefontaine","route_type":3,"route_color":"#FFFFFF","route_text_color":"#000000"}],"agency_name":"Metro St. Louis"},"geometry":{"type":"Point","coordinates":[-90.28128,38.79376]}},{"type":"Feature","properties":{"stop_id":"14706","stop_code":"14706","stop_name":"PARKER @ RENEE WB","stop_desc":"NEAR SIDE PARKER @ RENEE WB","wheelchair_boarding":2,"routes":[{"route_id":"19627","agency_id":"70006","route_short_name":"78","route_long_name":"Bellefontaine","route_type":3,"route_color":"#FFFFFF","route_text_color":"#000000"}],"agency_name":"Metro St. Louis"},"geometry":{"type":"Point","coordinates":[-90.28655,38.79373]}},{"type":"Feature","properties":{"stop_id":"14720","stop_code":"14720","stop_name":"PARKER @ POGGEMOELLER WB","stop_desc":"FAR SIDE PARKER @ POGGEMOELLER WB","wheelchair_boarding":2,"routes":[{"route_id":"19627","agency_id":"70006","route_short_name":"78","route_long_name":"Bellefontaine","route_type":3,"route_color":"#FFFFFF","route_text_color":"#000000"}],"agency_name":"Metro St. Louis"},"geometry":{"type":"Point","coordinates":[-90.2281,38.7955]}},{"type":"Feature","properties":{"stop_id":"15489","stop_code":"15489","stop_name":"8937 RIVERVIEW WB","stop_desc":"MID-BLOCK 8937 RIVERVIEW WB","wheelchair_boarding":2,"routes":[{"route_id":"19601","agency_id":"70006","route_short_name":"16","route_long_name":"City Limits","route_type":3,"route_color":"#FFFFFF","route_text_color":"#000000"},{"route_id":"19611","agency_id":"70006","route_short_name":"40","route_long_name":"Broadway-Halls Ferry","route_type":3,"route_color":"#FFFFFF","route_text_color":"#000000"},{"route_id":"19612","agency_id":"70006","route_short_name":"41","route_long_name":"Lee","route_type":3,"route_color":"#FFFFFF","route_text_color":"#000000"},{"route_id":"19619","agency_id":"70006","route_short_name":"60","route_long_name":"Shepley-Lilac","route_type":3,"route_color":"#FFFFFF","route_text_color":"#000000"},{"route_id":"19620","agency_id":"70006","route_short_name":"61","route_long_name":"Chambers Rd","route_type":3,"route_color":"#FFFFFF","route_text_color":"#000000"},{"route_id":"19621","agency_id":"70006","route_short_name":"64","route_long_name":"Lucas-Hunt","route_type":3,"route_color":"#FFFFFF","route_text_color":"#000000"},{"route_id":"19627","agency_id":"70006","route_short_name":"78","route_long_name":"Bellefontaine","route_type":3,"route_color":"#FFFFFF","route_text_color":"#000000"},{"route_id":"19629","agency_id":"70006","route_short_name":"90","route_long_name":"Hampton","route_type":3,"route_color":"#FFFFFF","route_text_color":"#000000"}],"agency_name":"Metro St. Louis"},"geometry":{"type":"Point","coordinates":[-90.22641,38.72709]}},{"type":"Feature","properties":{"stop_id":"15928","stop_code":"15928","stop_name":"BELLEFONTAINE @ CLAUDINE NB","stop_desc":"FAR SIDE BELLEFONTAINE @ CLAUDINE NB","wheelchair_boarding":2,"routes":[{"route_id":"19627","agency_id":"70006","route_short_name":"78","route_long_name":"Bellefontaine","route_type":3,"route_color":"#FFFFFF","route_text_color":"#000000"}],"agency_name":"Metro St. Louis"},"geometry":{"type":"Point","coordinates":[-90.21869,38.77922]}},{"type":"Feature","properties":{"stop_id":"15962","stop_code":"15962","stop_name":"DUNN @ GRANDVIEW PLAZA WB","stop_desc":"MID-BLOCK DUNN @ GRANDVIEW PLAZA WB","wheelchair_boarding":2,"routes":[{"route_id":"19627","agency_id":"70006","route_short_name":"78","route_long_name":"Bellefontaine","route_type":3,"route_color":"#FFFFFF","route_text_color":"#000000"},{"route_id":"19628","agency_id":"70006","route_short_name":"79","route_long_name":"Ferguson-Clayton","route_type":3,"route_color":"#FFFFFF","route_text_color":"#000000"}],"agency_name":"Metro St. Louis"},"geometry":{"type":"Point","coordinates":[-90.30389,38.77272]}},{"type":"Feature","properties":{"stop_id":"16090","stop_code":"16090","stop_name":"RIVERVIEW TRANSIT CENTER","wheelchair_boarding":1,"routes":[{"route_id":"19620","agency_id":"70006","route_short_name":"61","route_long_name":"Chambers Rd","route_type":3,"route_color":"#FFFFFF","route_text_color":"#000000"},{"route_id":"19621","agency_id":"70006","route_short_name":"64","route_long_name":"Lucas-Hunt","route_type":3,"route_color":"#FFFFFF","route_text_color":"#000000"},{"route_id":"19627","agency_id":"70006","route_short_name":"78","route_long_name":"Bellefontaine","route_type":3,"route_color":"#FFFFFF","route_text_color":"#000000"},{"route_id":"19629","agency_id":"70006","route_short_name":"90","route_long_name":"Hampton","route_type":3,"route_color":"#FFFFFF","route_text_color":"#000000"}],"agency_name":"Metro St. Louis"},"geometry":{"type":"Point","coordinates":[-90.22399,38.72717]}},{"type":"Feature","properties":{"stop_id":"16117","stop_code":"16117","stop_name":"BELLEFONTAINE @ OAK PARKWAY NB","stop_desc":"NEAR SIDE BELLEFONTAINE @ OAK PARKWAY NB","wheelchair_boarding":2,"routes":[{"route_id":"19627","agency_id":"70006","route_short_name":"78","route_long_name":"Bellefontaine","route_type":3,"route_color":"#FFFFFF","route_text_color":"#000000"}],"agency_name":"Metro St. Louis"},"geometry":{"type":"Point","coordinates":[-90.21972,38.77465]}},{"type":"Feature","properties":{"stop_id":"16251","stop_code":"16251","stop_name":"NORTH COUNTY TRANSIT CENTER","wheelchair_boarding":1,"routes":[{"route_id":"19611","agency_id":"70006","route_short_name":"40","route_long_name":"Broadway-Halls Ferry","route_type":3,"route_color":"#FFFFFF","route_text_color":"#000000"},{"route_id":"19626","agency_id":"70006","route_short_name":"77","route_long_name":"Village Square","route_type":3,"route_color":"#FFFFFF","route_text_color":"#000000"},{"route_id":"19627","agency_id":"70006","route_short_name":"78","route_long_name":"Bellefontaine","route_type":3,"route_color":"#FFFFFF","route_text_color":"#000000"},{"route_id":"19628","agency_id":"70006","route_short_name":"79","route_long_name":"Ferguson-Clayton","route_type":3,"route_color":"#FFFFFF","route_text_color":"#000000"}],"agency_name":"Metro St. Louis"},"geometry":{"type":"Point","coordinates":[-90.27521,38.7698]}},{"type":"Feature","properties":{"stop_id":"16299","stop_code":"16299","stop_name":"BELLEFONTAINE @ TALISMAN NB","stop_desc":"FAR SIDE BELLEFONTAINE @ TALISMAN NB","wheelchair_boarding":2,"routes":[{"route_id":"19627","agency_id":"70006","route_short_name":"78","route_long_name":"Bellefontaine","route_type":3,"route_color":"#FFFFFF","route_text_color":"#000000"}],"agency_name":"Metro St. Louis"},"geometry":{"type":"Point","coordinates":[-90.21608,38.7876]}},{"type":"Feature","properties":{"stop_id":"16357","stop_code":"16357","stop_name":"DUNN @ WATERFORD WB","stop_desc":"FAR SIDE DUNN @ WATERFORD WB","wheelchair_boarding":2,"routes":[{"route_id":"19627","agency_id":"70006","route_short_name":"78","route_long_name":"Bellefontaine","route_type":3,"route_color":"#FFFFFF","route_text_color":"#000000"},{"route_id":"19628","agency_id":"70006","route_short_name":"79","route_long_name":"Ferguson-Clayton","route_type":3,"route_color":"#FFFFFF","route_text_color":"#000000"}],"agency_name":"Metro St. Louis"},"geometry":{"type":"Point","coordinates":[-90.2991,38.77235]}},{"type":"Feature","properties":{"stop_id":"16538","stop_code":"16538","stop_name":"PARKER @ PARKER SPUR WB","stop_desc":"FAR SIDE PARKER @ PARKER SPUR WB","wheelchair_boarding":2,"routes":[{"route_id":"19627","agency_id":"70006","route_short_name":"78","route_long_name":"Bellefontaine","route_type":3,"route_color":"#FFFFFF","route_text_color":"#000000"}],"agency_name":"Metro St. Louis"},"geometry":{"type":"Point","coordinates":[-90.29146,38.79502]}},{"type":"Feature","properties":{"stop_id":"16544","stop_code":"16544","stop_name":"PARKER @ NEW HALLS FERRY WB","stop_desc":"FAR SIDE PARKER @ NEW HALLS FERRY WB","wheelchair_boarding":2,"routes":[{"route_id":"19627","agency_id":"70006","route_short_name":"78","route_long_name":"Bellefontaine","route_type":3,"route_color":"#FFFFFF","route_text_color":"#000000"}],"agency_name":"Metro St. Louis"},"geometry":{"type":"Point","coordinates":[-90.28815,38.79314]}},{"type":"Feature","properties":{"stop_id":"273","stop_code":"273","stop_name":"STLCC FLORISSANT VALLEY","stop_desc":"FAR SIDE STLCC FLORISSANT VALLEY","wheelchair_boarding":1,"routes":[{"route_id":"19624","agency_id":"70006","route_short_name":"74","route_long_name":"Florissant","route_type":3,"route_color":"#FFFFFF","route_text_color":"#000000"},{"route_id":"19627","agency_id":"70006","route_short_name":"78","route_long_name":"Bellefontaine","route_type":3,"route_color":"#FFFFFF","route_text_color":"#000000"},{"route_id":"19628","agency_id":"70006","route_short_name":"79","route_long_name":"Ferguson-Clayton","route_type":3,"route_color":"#FFFFFF","route_text_color":"#000000"}],"agency_name":"Metro St. Louis"},"geometry":{"type":"Point","coordinates":[-90.28791,38.771]}},{"type":"Feature","properties":{"stop_id":"3595","stop_code":"3595","stop_name":"DUNN @ STONEBURY WB","stop_desc":"NEAR SIDE DUNN @ STONEBURY WB","wheelchair_boarding":2,"routes":[{"route_id":"19627","agency_id":"70006","route_short_name":"78","route_long_name":"Bellefontaine","route_type":3,"route_color":"#FFFFFF","route_text_color":"#000000"},{"route_id":"19628","agency_id":"70006","route_short_name":"79","route_long_name":"Ferguson-Clayton","route_type":3,"route_color":"#FFFFFF","route_text_color":"#000000"}],"agency_name":"Metro St. Louis"},"geometry":{"type":"Point","coordinates":[-90.30121,38.77247]}},{"type":"Feature","properties":{"stop_id":"3678","stop_code":"3678","stop_name":"WATERFORD @ JAMES J EAGAN SB","stop_desc":"FAR SIDE WATERFORD @ JAMES J EAGAN SB","wheelchair_boarding":2,"routes":[{"route_id":"19627","agency_id":"70006","route_short_name":"78","route_long_name":"Bellefontaine","route_type":3,"route_color":"#FFFFFF","route_text_color":"#000000"}],"agency_name":"Metro St. Louis"},"geometry":{"type":"Point","coordinates":[-90.3009,38.79277]}},{"type":"Feature","properties":{"stop_id":"3680","stop_code":"3680","stop_name":"WATERFORD @ ST. CATHERINE SB","stop_desc":"NEAR SIDE WATERFORD @ ST. CATHERINE SB","wheelchair_boarding":2,"routes":[{"route_id":"19627","agency_id":"70006","route_short_name":"78","route_long_name":"Bellefontaine","route_type":3,"route_color":"#FFFFFF","route_text_color":"#000000"}],"agency_name":"Metro St. Louis"},"geometry":{"type":"Point","coordinates":[-90.30156,38.78833]}},{"type":"Feature","properties":{"stop_id":"3682","stop_code":"3682","stop_name":"WATERFORD @ ST. ANTHONY SB","stop_desc":"FAR SIDE WATERFORD @ ST. ANTHONY SB","wheelchair_boarding":2,"routes":[{"route_id":"19627","agency_id":"70006","route_short_name":"78","route_long_name":"Bellefontaine","route_type":3,"route_color":"#FFFFFF","route_text_color":"#000000"}],"agency_name":"Metro St. Louis"},"geometry":{"type":"Point","coordinates":[-90.30162,38.78381]}},{"type":"Feature","properties":{"stop_id":"3684","stop_code":"3684","stop_name":"WATERFORD @ DERHAKE SB","stop_desc":"NEAR SIDE WATERFORD @ DERHAKE SB","wheelchair_boarding":2,"routes":[{"route_id":"19627","agency_id":"70006","route_short_name":"78","route_long_name":"Bellefontaine","route_type":3,"route_color":"#FFFFFF","route_text_color":"#000000"}],"agency_name":"Metro St. Louis"},"geometry":{"type":"Point","coordinates":[-90.30168,38.78107]}},{"type":"Feature","properties":{"stop_id":"3685","stop_code":"3685","stop_name":"WATERFORD @ PENHURST SB","stop_desc":"FAR SIDE WATERFORD @ PENHURST SB","wheelchair_boarding":2,"routes":[{"route_id":"19627","agency_id":"70006","route_short_name":"78","route_long_name":"Bellefontaine","route_type":3,"route_color":"#FFFFFF","route_text_color":"#000000"}],"agency_name":"Metro St. Louis"},"geometry":{"type":"Point","coordinates":[-90.30172,38.7783]}},{"type":"Feature","properties":{"stop_id":"3686","stop_code":"3686","stop_name":"WATERFORD @ WOODEN SB","stop_desc":"FAR SIDE WATERFORD @ WOODEN SB","wheelchair_boarding":2,"routes":[{"route_id":"19627","agency_id":"70006","route_short_name":"78","route_long_name":"Bellefontaine","route_type":3,"route_color":"#FFFFFF","route_text_color":"#000000"}],"agency_name":"Metro St. Louis"},"geometry":{"type":"Point","coordinates":[-90.30159,38.77664]}},{"type":"Feature","properties":{"stop_id":"3687","stop_code":"3687","stop_name":"WATERFORD @ HADWIN SB","stop_desc":"NEAR SIDE WATERFORD @ HADWIN SB","wheelchair_boarding":2,"routes":[{"route_id":"19627","agency_id":"70006","route_short_name":"78","route_long_name":"Bellefontaine","route_type":3,"route_color":"#FFFFFF","route_text_color":"#000000"}],"agency_name":"Metro St. Louis"},"geometry":{"type":"Point","coordinates":[-90.30044,38.77501]}},{"type":"Feature","properties":{"stop_id":"3688","stop_code":"3688","stop_name":"WATERFORD @ GRANDVIEW GARDENS COURT SB","stop_desc":"NEAR SIDE WATERFORD @ GRANDVIEW GARDENS COURT SB","wheelchair_boarding":2,"routes":[{"route_id":"19627","agency_id":"70006","route_short_name":"78","route_long_name":"Bellefontaine","route_type":3,"route_color":"#FFFFFF","route_text_color":"#000000"}],"agency_name":"Metro St. Louis"},"geometry":{"type":"Point","coordinates":[-90.29895,38.77301]}},{"type":"Feature","properties":{"stop_id":"3693","stop_code":"3693","stop_name":"PERSHALL @ METRO PLAZA EB","stop_desc":"MID-BLOCK PERSHALL @ METRO PLAZA EB","wheelchair_boarding":2,"routes":[{"route_id":"19611","agency_id":"70006","route_short_name":"40","route_long_name":"Broadway-Halls Ferry","route_type":3,"route_color":"#FFFFFF","route_text_color":"#000000"},{"route_id":"19619","agency_id":"70006","route_short_name":"60","route_long_name":"Shepley-Lilac","route_type":3,"route_color":"#FFFFFF","route_text_color":"#000000"},{"route_id":"19624","agency_id":"70006","route_short_name":"74","route_long_name":"Florissant","route_type":3,"route_color":"#FFFFFF","route_text_color":"#000000"},{"route_id":"19626","agency_id":"70006","route_short_name":"77","route_long_name":"Village Square","route_type":3,"route_color":"#FFFFFF","route_text_color":"#000000"},{"route_id":"19627","agency_id":"70006","route_short_name":"78","route_long_name":"Bellefontaine","route_type":3,"route_color":"#FFFFFF","route_text_color":"#000000"},{"route_id":"19628","agency_id":"70006","route_short_name":"79","route_long_name":"Ferguson-Clayton","route_type":3,"route_color":"#FFFFFF","route_text_color":"#000000"}],"agency_name":"Metro St. Louis"},"geometry":{"type":"Point","coordinates":[-90.27873,38.77001]}},{"type":"Feature","properties":{"stop_id":"5483","stop_code":"5483","stop_name":"BELLEFONTAINE @ SURF SIDE NB","stop_desc":"NEAR SIDE BELLEFONTAINE @ SURF SIDE NB","wheelchair_boarding":2,"routes":[{"route_id":"19627","agency_id":"70006","route_short_name":"78","route_long_name":"Bellefontaine","route_type":3,"route_color":"#FFFFFF","route_text_color":"#000000"}],"agency_name":"Metro St. Louis"},"geometry":{"type":"Point","coordinates":[-90.21917,38.77729]}},{"type":"Feature","properties":{"stop_id":"5494","stop_code":"5494","stop_name":"PARKER @ FONTAINE WB","stop_desc":"FAR SIDE PARKER @ FONTAINE WB","wheelchair_boarding":2,"routes":[{"route_id":"19627","agency_id":"70006","route_short_name":"78","route_long_name":"Bellefontaine","route_type":3,"route_color":"#FFFFFF","route_text_color":"#000000"}],"agency_name":"Metro St. Louis"},"geometry":{"type":"Point","coordinates":[-90.22142,38.79468]}},{"type":"Feature","properties":{"stop_id":"5496","stop_code":"5496","stop_name":"PARKER @ ROSEMIST WB","stop_desc":"NEAR SIDE PARKER @ ROSEMIST WB","wheelchair_boarding":2,"routes":[{"route_id":"19627","agency_id":"70006","route_short_name":"78","route_long_name":"Bellefontaine","route_type":3,"route_color":"#FFFFFF","route_text_color":"#000000"}],"agency_name":"Metro St. Louis"},"geometry":{"type":"Point","coordinates":[-90.22486,38.79487]}},{"type":"Feature","properties":{"stop_id":"5785","stop_code":"5785","stop_name":"BELLEFONTAINE @ TRAMPE NB","stop_desc":"NEAR SIDE BELLEFONTAINE @ TRAMPE NB","wheelchair_boarding":2,"routes":[{"route_id":"19627","agency_id":"70006","route_short_name":"78","route_long_name":"Bellefontaine","route_type":3,"route_color":"#FFFFFF","route_text_color":"#000000"}],"agency_name":"Metro St. Louis"},"geometry":{"type":"Point","coordinates":[-90.21536,38.78971]}},{"type":"Feature","properties":{"stop_id":"5786","stop_code":"5786","stop_name":"BELLEFONTAINE @ REDMAN NB","stop_desc":"NEAR SIDE BELLEFONTAINE @ REDMAN NB","wheelchair_boarding":2,"routes":[{"route_id":"19627","agency_id":"70006","route_short_name":"78","route_long_name":"Bellefontaine","route_type":3,"route_color":"#FFFFFF","route_text_color":"#000000"}],"agency_name":"Metro St. Louis"},"geometry":{"type":"Point","coordinates":[-90.21688,38.78531]}},{"type":"Feature","properties":{"stop_id":"5787","stop_code":"5787","stop_name":"BELLEFONTAINE @ DORIS NB","stop_desc":"FAR SIDE BELLEFONTAINE @ DORIS NB","wheelchair_boarding":2,"routes":[{"route_id":"19627","agency_id":"70006","route_short_name":"78","route_long_name":"Bellefontaine","route_type":3,"route_color":"#FFFFFF","route_text_color":"#000000"}],"agency_name":"Metro St. Louis"},"geometry":{"type":"Point","coordinates":[-90.21783,38.78213]}},{"type":"Feature","properties":{"stop_id":"6793","stop_code":"6793","stop_name":"BELLEFONTAINE @ FONTAINE PLACE NB","stop_desc":"FAR SIDE BELLEFONTAINE @ FONTAINE PLACE NB","wheelchair_boarding":2,"routes":[{"route_id":"19619","agency_id":"70006","route_short_name":"60","route_long_name":"Shepley-Lilac","route_type":3,"route_color":"#FFFFFF","route_text_color":"#000000"},{"route_id":"19620","agency_id":"70006","route_short_name":"61","route_long_name":"Chambers Rd","route_type":3,"route_color":"#FFFFFF","route_text_color":"#000000"},{"route_id":"19627","agency_id":"70006","route_short_name":"78","route_long_name":"Bellefontaine","route_type":3,"route_color":"#FFFFFF","route_text_color":"#000000"}],"agency_name":"Metro St. Louis"},"geometry":{"type":"Point","coordinates":[-90.22783,38.73101]}},{"type":"Feature","properties":{"stop_id":"6794","stop_code":"6794","stop_name":"BELLEFONTAINE @ TEURVILLE NB","stop_desc":"FAR SIDE BELLEFONTAINE @ TEURVILLE NB","wheelchair_boarding":2,"routes":[{"route_id":"19619","agency_id":"70006","route_short_name":"60","route_long_name":"Shepley-Lilac","route_type":3,"route_color":"#FFFFFF","route_text_color":"#000000"},{"route_id":"19620","agency_id":"70006","route_short_name":"61","route_long_name":"Chambers Rd","route_type":3,"route_color":"#FFFFFF","route_text_color":"#000000"},{"route_id":"19627","agency_id":"70006","route_short_name":"78","route_long_name":"Bellefontaine","route_type":3,"route_color":"#FFFFFF","route_text_color":"#000000"}],"agency_name":"Metro St. Louis"},"geometry":{"type":"Point","coordinates":[-90.22699,38.73396]}},{"type":"Feature","properties":{"stop_id":"6796","stop_code":"6796","stop_name":"BELLEFONTAINE @ ST. CYR NB","stop_desc":"FAR SIDE BELLEFONTAINE @ ST. CYR NB","wheelchair_boarding":2,"routes":[{"route_id":"19619","agency_id":"70006","route_short_name":"60","route_long_name":"Shepley-Lilac","route_type":3,"route_color":"#FFFFFF","route_text_color":"#000000"},{"route_id":"19620","agency_id":"70006","route_short_name":"61","route_long_name":"Chambers Rd","route_type":3,"route_color":"#FFFFFF","route_text_color":"#000000"},{"route_id":"19627","agency_id":"70006","route_short_name":"78","route_long_name":"Bellefontaine","route_type":3,"route_color":"#FFFFFF","route_text_color":"#000000"}],"agency_name":"Metro St. Louis"},"geometry":{"type":"Point","coordinates":[-90.22616,38.73731]}},{"type":"Feature","properties":{"stop_id":"6797","stop_code":"6797","stop_name":"BELLEFONTAINE @ ZELLWEGER NB","stop_desc":"NEAR SIDE BELLEFONTAINE @ ZELLWEGER NB","wheelchair_boarding":2,"routes":[{"route_id":"19619","agency_id":"70006","route_short_name":"60","route_long_name":"Shepley-Lilac","route_type":3,"route_color":"#FFFFFF","route_text_color":"#000000"},{"route_id":"19620","agency_id":"70006","route_short_name":"61","route_long_name":"Chambers Rd","route_type":3,"route_color":"#FFFFFF","route_text_color":"#000000"},{"route_id":"19627","agency_id":"70006","route_short_name":"78","route_long_name":"Bellefontaine","route_type":3,"route_color":"#FFFFFF","route_text_color":"#000000"}],"agency_name":"Metro St. Louis"},"geometry":{"type":"Point","coordinates":[-90.22571,38.74137]}},{"type":"Feature","properties":{"stop_id":"6799","stop_code":"6799","stop_name":"BELLEFONTAINE @ BIRITZ NB","stop_desc":"FAR SIDE BELLEFONTAINE @ BIRITZ NB","wheelchair_boarding":2,"routes":[{"route_id":"19619","agency_id":"70006","route_short_name":"60","route_long_name":"Shepley-Lilac","route_type":3,"route_color":"#FFFFFF","route_text_color":"#000000"},{"route_id":"19620","agency_id":"70006","route_short_name":"61","route_long_name":"Chambers Rd","route_type":3,"route_color":"#FFFFFF","route_text_color":"#000000"},{"route_id":"19627","agency_id":"70006","route_short_name":"78","route_long_name":"Bellefontaine","route_type":3,"route_color":"#FFFFFF","route_text_color":"#000000"}],"agency_name":"Metro St. Louis"},"geometry":{"type":"Point","coordinates":[-90.22491,38.74492]}},{"type":"Feature","properties":{"stop_id":"6801","stop_code":"6801","stop_name":"BELLEFONTAINE @ SURREY NB","stop_desc":"FAR SIDE BELLEFONTAINE @ SURREY NB","wheelchair_boarding":2,"routes":[{"route_id":"19619","agency_id":"70006","route_short_name":"60","route_long_name":"Shepley-Lilac","route_type":3,"route_color":"#FFFFFF","route_text_color":"#000000"},{"route_id":"19620","agency_id":"70006","route_short_name":"61","route_long_name":"Chambers Rd","route_type":3,"route_color":"#FFFFFF","route_text_color":"#000000"},{"route_id":"19627","agency_id":"70006","route_short_name":"78","route_long_name":"Bellefontaine","route_type":3,"route_color":"#FFFFFF","route_text_color":"#000000"}],"agency_name":"Metro St. Louis"},"geometry":{"type":"Point","coordinates":[-90.22421,38.74831]}},{"type":"Feature","properties":{"stop_id":"6811","stop_code":"6811","stop_name":"BELLEFONTAINE @ SHEPLEY NB","stop_desc":"NEAR SIDE BELLEFONTAINE @ SHEPLEY NB","wheelchair_boarding":2,"routes":[{"route_id":"19627","agency_id":"70006","route_short_name":"78","route_long_name":"Bellefontaine","route_type":3,"route_color":"#FFFFFF","route_text_color":"#000000"}],"agency_name":"Metro St. Louis"},"geometry":{"type":"Point","coordinates":[-90.22236,38.75785]}},{"type":"Feature","properties":{"stop_id":"6814","stop_code":"6814","stop_name":"BELLEFONTAINE @ COBURG LANDS NB","stop_desc":"FAR SIDE BELLEFONTAINE @ COBURG LANDS NB","wheelchair_boarding":2,"routes":[{"route_id":"19627","agency_id":"70006","route_short_name":"78","route_long_name":"Bellefontaine","route_type":3,"route_color":"#FFFFFF","route_text_color":"#000000"}],"agency_name":"Metro St. Louis"},"geometry":{"type":"Point","coordinates":[-90.22201,38.76164]}},{"type":"Feature","properties":{"stop_id":"6817","stop_code":"6817","stop_name":"BELLEFONTAINE @ QUIET NB","stop_desc":"NEAR SIDE BELLEFONTAINE @ QUIET NB","wheelchair_boarding":2,"routes":[{"route_id":"19627","agency_id":"70006","route_short_name":"78","route_long_name":"Bellefontaine","route_type":3,"route_color":"#FFFFFF","route_text_color":"#000000"}],"agency_name":"Metro St. Louis"},"geometry":{"type":"Point","coordinates":[-90.22134,38.76633]}},{"type":"Feature","properties":{"stop_id":"6846","stop_code":"6846","stop_name":"BELLEFONTAINE @ PARKER NB","stop_desc":"NEAR SIDE BELLEFONTAINE @ PARKER NB","wheelchair_boarding":2,"routes":[{"route_id":"19627","agency_id":"70006","route_short_name":"78","route_long_name":"Bellefontaine","route_type":3,"route_color":"#FFFFFF","route_text_color":"#000000"}],"agency_name":"Metro St. Louis"},"geometry":{"type":"Point","coordinates":[-90.21384,38.79388]}},{"type":"Feature","properties":{"stop_id":"6847","stop_code":"6847","stop_name":"PARKER @ BENHAM WB","stop_desc":"FAR SIDE PARKER @ BENHAM WB","wheelchair_boarding":1,"routes":[{"route_id":"19627","agency_id":"70006","route_short_name":"78","route_long_name":"Bellefontaine","route_type":3,"route_color":"#FFFFFF","route_text_color":"#000000"}],"agency_name":"Metro St. Louis"},"geometry":{"type":"Point","coordinates":[-90.23192,38.79597]}},{"type":"Feature","properties":{"stop_id":"6849","stop_code":"6849","stop_name":"PARKER @ RANCH WB","stop_desc":"NEAR SIDE PARKER @ RANCH WB","wheelchair_boarding":2,"routes":[{"route_id":"19627","agency_id":"70006","route_short_name":"78","route_long_name":"Bellefontaine","route_type":3,"route_color":"#FFFFFF","route_text_color":"#000000"}],"agency_name":"Metro St. Louis"},"geometry":{"type":"Point","coordinates":[-90.23795,38.79755]}},{"type":"Feature","properties":{"stop_id":"6850","stop_code":"6850","stop_name":"PARKER @ MIGNON WB","stop_desc":"FAR SIDE PARKER @ MIGNON WB","wheelchair_boarding":2,"routes":[{"route_id":"19627","agency_id":"70006","route_short_name":"78","route_long_name":"Bellefontaine","route_type":3,"route_color":"#FFFFFF","route_text_color":"#000000"}],"agency_name":"Metro St. Louis"},"geometry":{"type":"Point","coordinates":[-90.2406,38.79844]}},{"type":"Feature","properties":{"stop_id":"6851","stop_code":"6851","stop_name":"PARKER @ LA PADERA WB","stop_desc":"NEAR SIDE PARKER @ LA PADERA WB","wheelchair_boarding":2,"routes":[{"route_id":"19627","agency_id":"70006","route_short_name":"78","route_long_name":"Bellefontaine","route_type":3,"route_color":"#FFFFFF","route_text_color":"#000000"}],"agency_name":"Metro St. Louis"},"geometry":{"type":"Point","coordinates":[-90.24303,38.79846]}},{"type":"Feature","properties":{"stop_id":"6852","stop_code":"6852","stop_name":"PARKER @ SPACE WB","stop_desc":"FAR SIDE PARKER @ SPACE WB","wheelchair_boarding":2,"routes":[{"route_id":"19627","agency_id":"70006","route_short_name":"78","route_long_name":"Bellefontaine","route_type":3,"route_color":"#FFFFFF","route_text_color":"#000000"}],"agency_name":"Metro St. Louis"},"geometry":{"type":"Point","coordinates":[-90.24617,38.79759]}},{"type":"Feature","properties":{"stop_id":"6853","stop_code":"6853","stop_name":"PARKER @ JERRIES WB","stop_desc":"NEAR SIDE PARKER @ JERRIES WB","wheelchair_boarding":2,"routes":[{"route_id":"19627","agency_id":"70006","route_short_name":"78","route_long_name":"Bellefontaine","route_type":3,"route_color":"#FFFFFF","route_text_color":"#000000"}],"agency_name":"Metro St. Louis"},"geometry":{"type":"Point","coordinates":[-90.24978,38.79659]}},{"type":"Feature","properties":{"stop_id":"6854","stop_code":"6854","stop_name":"PARKER @ PARKWOOD WB","stop_desc":"FAR SIDE PARKER @ PARKWOOD WB","wheelchair_boarding":2,"routes":[{"route_id":"19627","agency_id":"70006","route_short_name":"78","route_long_name":"Bellefontaine","route_type":3,"route_color":"#FFFFFF","route_text_color":"#000000"}],"agency_name":"Metro St. Louis"},"geometry":{"type":"Point","coordinates":[-90.25602,38.79341]}},{"type":"Feature","properties":{"stop_id":"6855","stop_code":"6855","stop_name":"PARKER @ WENSLEY WB","stop_desc":"FAR SIDE PARKER @ WENSLEY WB","wheelchair_boarding":2,"routes":[{"route_id":"19627","agency_id":"70006","route_short_name":"78","route_long_name":"Bellefontaine","route_type":3,"route_color":"#FFFFFF","route_text_color":"#000000"}],"agency_name":"Metro St. Louis"},"geometry":{"type":"Point","coordinates":[-90.25846,38.79344]}},{"type":"Feature","properties":{"stop_id":"6856","stop_code":"6856","stop_name":"PARKER @ CENTERBROOK WB","stop_desc":"NEAR SIDE PARKER @ CENTERBROOK WB","wheelchair_boarding":2,"routes":[{"route_id":"19627","agency_id":"70006","route_short_name":"78","route_long_name":"Bellefontaine","route_type":3,"route_color":"#FFFFFF","route_text_color":"#000000"}],"agency_name":"Metro St. Louis"},"geometry":{"type":"Point","coordinates":[-90.26214,38.79351]}},{"type":"Feature","properties":{"stop_id":"7466","stop_code":"7466","stop_name":"PERSHALL @ SSM CARDINAL EB","stop_desc":"NEAR SIDE PERSHALL @ SSM CARDINAL EB","wheelchair_boarding":2,"routes":[{"route_id":"19627","agency_id":"70006","route_short_name":"78","route_long_name":"Bellefontaine","route_type":3,"route_color":"#FFFFFF","route_text_color":"#000000"},{"route_id":"19628","agency_id":"70006","route_short_name":"79","route_long_name":"Ferguson-Clayton","route_type":3,"route_color":"#FFFFFF","route_text_color":"#000000"}],"agency_name":"Metro St. Louis"},"geometry":{"type":"Point","coordinates":[-90.3047,38.77207]}},{"type":"Feature","properties":{"stop_id":"7564","stop_code":"7564","stop_name":"PERSHALL @ CHARLOTTE EB","stop_desc":"FAR SIDE PERSHALL @ CHARLOTTE EB","wheelchair_boarding":2,"routes":[{"route_id":"19627","agency_id":"70006","route_short_name":"78","route_long_name":"Bellefontaine","route_type":3,"route_color":"#FFFFFF","route_text_color":"#000000"},{"route_id":"19628","agency_id":"70006","route_short_name":"79","route_long_name":"Ferguson-Clayton","route_type":3,"route_color":"#FFFFFF","route_text_color":"#000000"}],"agency_name":"Metro St. Louis"},"geometry":{"type":"Point","coordinates":[-90.30222,38.77181]}},{"type":"Feature","properties":{"stop_id":"7565","stop_code":"7565","stop_name":"PERSHALL @ KNOLLSTONE EB","stop_desc":"NEAR SIDE PERSHALL @ KNOLLSTONE EB","wheelchair_boarding":2,"routes":[{"route_id":"19627","agency_id":"70006","route_short_name":"78","route_long_name":"Bellefontaine","route_type":3,"route_color":"#FFFFFF","route_text_color":"#000000"},{"route_id":"19628","agency_id":"70006","route_short_name":"79","route_long_name":"Ferguson-Clayton","route_type":3,"route_color":"#FFFFFF","route_text_color":"#000000"}],"agency_name":"Metro St. Louis"},"geometry":{"type":"Point","coordinates":[-90.29716,38.77138]}},{"type":"Feature","properties":{"stop_id":"7566","stop_code":"7566","stop_name":"PERSHALL @ KNOLLWAY EB","stop_desc":"NEAR SIDE PERSHALL @ KNOLLWAY EB","wheelchair_boarding":2,"routes":[{"route_id":"19627","agency_id":"70006","route_short_name":"78","route_long_name":"Bellefontaine","route_type":3,"route_color":"#FFFFFF","route_text_color":"#000000"},{"route_id":"19628","agency_id":"70006","route_short_name":"79","route_long_name":"Ferguson-Clayton","route_type":3,"route_color":"#FFFFFF","route_text_color":"#000000"}],"agency_name":"Metro St. Louis"},"geometry":{"type":"Point","coordinates":[-90.29524,38.7712]}},{"type":"Feature","properties":{"stop_id":"7567","stop_code":"7567","stop_name":"STLCC FLORISSANT VALLEY @ DAY CARE EB","stop_desc":"MID-BLOCK STLCC FLORISSANT VALLEY @ DAY CARE EB","wheelchair_boarding":1,"routes":[{"route_id":"19627","agency_id":"70006","route_short_name":"78","route_long_name":"Bellefontaine","route_type":3,"route_color":"#FFFFFF","route_text_color":"#000000"},{"route_id":"19628","agency_id":"70006","route_short_name":"79","route_long_name":"Ferguson-Clayton","route_type":3,"route_color":"#FFFFFF","route_text_color":"#000000"}],"agency_name":"Metro St. Louis"},"geometry":{"type":"Point","coordinates":[-90.29052,38.77108]}},{"type":"Feature","properties":{"stop_id":"9920","stop_code":"9920","stop_name":"PARKER @ OLD HALLS FERRY WB","stop_desc":"NEAR SIDE PARKER @ OLD HALLS FERRY WB","wheelchair_boarding":2,"routes":[{"route_id":"19627","agency_id":"70006","route_short_name":"78","route_long_name":"Bellefontaine","route_type":3,"route_color":"#FFFFFF","route_text_color":"#000000"}],"agency_name":"Metro St. Louis"},"geometry":{"type":"Point","coordinates":[-90.26672,38.79346]}}]}