{"type":"FeatureCollection","features":[{"type":"Feature","properties":{"agency_name":"Metro St. Louis","route_id":"19631","agency_id":"70006","route_short_name":"94","route_long_name":"Page","route_type":3,"route_color":"#FFFFFF","route_text_color":"#000000"},"geometry":{"type":"MultiLineString","coordinates":[[[-90.22774,38.64607],[-90.22731,38.64587],[-90.22819,38.64628],[-90.23116,38.64758],[-90.23263,38.6482],[-90.23485,38.6492],[-90.23856,38.65084],[-90.24023,38.65156],[-90.25832,38.65951],[-90.25865,38.65958],[-90.26262,38.65995],[-90.27146,38.66086],[-90.27201,38.66092],[-90.27223,38.66099],[-90.27371,38.66178],[-90.27615,38.66312],[-90.28227,38.66638],[-90.28316,38.66689],[-90.28377,38.6672],[-90.28809,38.66953],[-90.28897,38.66999],[-90.28984,38.67049],[-90.29062,38.67091],[-90.29116,38.67118],[-90.29133,38.67125],[-90.29162,38.67134],[-90.29204,38.67144],[-90.29401,38.67107],[-90.29447,38.66968],[-90.29466,38.66852],[-90.29841,38.66887],[-90.29901,38.6689],[-90.30023,38.66888],[-90.30054,38.6689],[-90.30219,38.6692],[-90.30161,38.67116],[-90.30133,38.67218],[-90.30094,38.6733],[-90.30315,38.67375],[-90.30555,38.67411],[-90.30853,38.67452],[-90.30913,38.67464],[-90.30957,38.6748],[-90.31323,38.6763],[-90.31434,38.67679],[-90.31535,38.67718],[-90.31879,38.67832],[-90.32037,38.67886],[-90.32095,38.67913],[-90.32793,38.68311],[-90.32861,38.68349],[-90.32879,38.68355],[-90.33542,38.68358],[-90.33587,38.6836],[-90.33619,38.68368],[-90.34156,38.68541],[-90.34197,38.68551],[-90.34245,38.68557],[-90.34268,38.68558],[-90.34866,38.6856],[-90.34898,38.68563],[-90.34936,38.68573],[-90.35074,38.68632],[-90.35098,38.68639],[-90.35118,38.68643],[-90.35168,38.68646],[-90.35426,38.6865],[-90.35537,38.68651],[-90.35691,38.68649],[-90.35751,38.68653],[-90.3579,38.68659],[-90.36298,38.68722],[-90.36738,38.68765],[-90.36895,38.68782],[-90.37032,38.68801],[-90.37184,38.68826],[-90.37495,38.68871],[-90.37596,38.68888],[-90.37651,38.68905],[-90.38028,38.69038],[-90.38063,38.69048],[-90.38128,38.69059],[-90.38446,38.69097],[-90.3869,38.69124],[-90.39301,38.69189],[-90.39879,38.69248],[-90.39956,38.69259],[-90.39997,38.6927],[-90.40028,38.69281],[-90.40053,38.69291],[-90.40083,38.69307],[-90.40125,38.69333],[-90.40209,38.69391],[-90.40247,38.6942],[-90.40377,38.69512],[-90.40428,38.69542],[-90.40469,38.69559],[-90.4048,38.69567],[-90.40497,38.69573],[-90.40572,38.69589],[-90.4094,38.69657],[-90.41221,38.69712],[-90.41428,38.69749],[-90.41712,38.69804],[-90.41909,38.69846],[-90.42044,38.69871],[-90.42042,38.69891],[-90.42043,38.69909],[-90.42049,38.69931],[-90.4205,38.69945],[-90.42042,38.69971],[-90.42023,38.70011],[-90.42017,38.70029],[-90.42015,38.70049],[-90.42017,38.70068],[-90.42023,38.70083],[-90.42302,38.70446],[-90.42311,38.70463],[-90.42314,38.70483],[-90.42432,38.70696],[-90.43094,38.70655],[-90.43217,38.70654],[-90.43213,38.70609],[-90.4321,38.70537],[-90.43205,38.70489],[-90.43193,38.70445],[-90.43163,38.70385],[-90.43146,38.7036],[-90.43105,38.7031],[-90.43017,38.70183],[-90.43006,38.70169],[-90.42996,38.70153],[-90.42974,38.701],[-90.42972,38.70089],[-90.4297,38.70058],[-90.42973,38.69969],[-90.4297,38.69919],[-90.42964,38.69885],[-90.42913,38.69716],[-90.42985,38.69703],[-90.43048,38.69698],[-90.43076,38.69699],[-90.43107,38.69704],[-90.43146,38.69714],[-90.43311,38.69773],[-90.43368,38.69792],[-90.43408,38.69802],[-90.43655,38.69818],[-90.43677,38.69818],[-90.43762,38.69812],[-90.43828,38.69805],[-90.44226,38.69749],[-90.44313,38.7004],[-90.44319,38.70056],[-90.44339,38.70095],[-90.44365,38.7013],[-90.44401,38.70164],[-90.44422,38.70179],[-90.44623,38.70293],[-90.44601,38.70318],[-90.44593,38.70337],[-90.44591,38.70358],[-90.44592,38.70369],[-90.446,38.7039],[-90.44606,38.70399],[-90.44627,38.70418],[-90.44747,38.70513],[-90.44758,38.70527],[-90.44761,38.70535],[-90.44764,38.70554],[-90.44759,38.70572],[-90.44711,38.70643],[-90.44644,38.70751],[-90.44586,38.70849],[-90.44577,38.70871],[-90.44571,38.70893],[-90.44569,38.70921],[-90.44573,38.71207],[-90.44574,38.71233],[-90.44577,38.71245],[-90.44571,38.7126],[-90.44565,38.71267],[-90.44552,38.71276],[-90.44542,38.7128]],[[-90.20246,38.6256],[-90.20246,38.62562],[-90.20257,38.62504],[-90.20253,38.62498],[-90.20231,38.62495],[-90.20188,38.62591],[-90.20104,38.62808],[-90.20239,38.62842],[-90.20459,38.62887],[-90.20694,38.62945],[-90.21045,38.63013],[-90.21136,38.63032],[-90.21229,38.63049],[-90.21479,38.631],[-90.21589,38.63114],[-90.21635,38.63117],[-90.21896,38.63117],[-90.22037,38.63115],[-90.2215,38.6311],[-90.22326,38.63105],[-90.22635,38.63104],[-90.22728,38.63106],[-90.22656,38.63314],[-90.22578,38.63515],[-90.22557,38.63573],[-90.22416,38.63983],[-90.22402,38.64015],[-90.22398,38.64033],[-90.22404,38.64329],[-90.22402,38.64356],[-90.22399,38.64369],[-90.22428,38.64391],[-90.22451,38.64411],[-90.22504,38.64464],[-90.22542,38.64511],[-90.22553,38.64512],[-90.22575,38.64518],[-90.2269,38.64569]],[[-90.39213,38.69127],[-90.39124,38.6917],[-90.39213,38.69127],[-90.39242,38.68952],[-90.38929,38.68919],[-90.38909,38.69039]],[[-90.39205,38.69178],[-90.39213,38.69127]]]}},{"type":"Feature","properties":{"stop_id":"13769","stop_code":"13769","stop_name":"PAGE @ GRAND WB","stop_desc":"FAR SIDE PAGE @ GRAND WB","wheelchair_boarding":1,"routes":[{"route_id":"19631","agency_id":"70006","route_short_name":"94","route_long_name":"Page","route_type":3,"route_color":"#FFFFFF","route_text_color":"#000000"}],"agency_name":"Metro St. Louis"},"geometry":{"type":"Point","coordinates":[-90.22792,38.64623]}},{"type":"Feature","properties":{"stop_id":"13770","stop_code":"13770","stop_name":"PAGE @ SARAH WB","stop_desc":"NEAR SIDE PAGE @ SARAH WB","wheelchair_boarding":1,"routes":[{"route_id":"19631","agency_id":"70006","route_short_name":"94","route_long_name":"Page","route_type":3,"route_color":"#FFFFFF","route_text_color":"#000000"}],"agency_name":"Metro St. Louis"},"geometry":{"type":"Point","coordinates":[-90.23842,38.65084]}},{"type":"Feature","properties":{"stop_id":"13852","stop_code":"13852","stop_name":"PAGE @ VANDEVENTER WB","stop_desc":"FAR SIDE PAGE @ VANDEVENTER WB","wheelchair_boarding":1,"routes":[{"route_id":"19631","agency_id":"70006","route_short_name":"94","route_long_name":"Page","route_type":3,"route_color":"#FFFFFF","route_text_color":"#000000"}],"agency_name":"Metro St. Louis"},"geometry":{"type":"Point","coordinates":[-90.23412,38.64896]}},{"type":"Feature","properties":{"stop_id":"13858","stop_code":"13858","stop_name":"PAGE @ SPRING WB","stop_desc":"NEAR SIDE PAGE @ SPRING WB","wheelchair_boarding":2,"routes":[{"route_id":"19631","agency_id":"70006","route_short_name":"94","route_long_name":"Page","route_type":3,"route_color":"#FFFFFF","route_text_color":"#000000"}],"agency_name":"Metro St. Louis"},"geometry":{"type":"Point","coordinates":[-90.22898,38.6467]}},{"type":"Feature","properties":{"stop_id":"13859","stop_code":"13859","stop_name":"PAGE @ PRAIRIE WB","stop_desc":"FAR SIDE PAGE @ PRAIRIE WB","wheelchair_boarding":1,"routes":[{"route_id":"19631","agency_id":"70006","route_short_name":"94","route_long_name":"Page","route_type":3,"route_color":"#FFFFFF","route_text_color":"#000000"}],"agency_name":"Metro St. Louis"},"geometry":{"type":"Point","coordinates":[-90.23129,38.64769]}},{"type":"Feature","properties":{"stop_id":"13860","stop_code":"13860","stop_name":"PAGE @ WHITTIER WB","stop_desc":"FAR SIDE PAGE @ WHITTIER WB","wheelchair_boarding":1,"routes":[{"route_id":"19631","agency_id":"70006","route_short_name":"94","route_long_name":"Page","route_type":3,"route_color":"#FFFFFF","route_text_color":"#000000"}],"agency_name":"Metro St. Louis"},"geometry":{"type":"Point","coordinates":[-90.24044,38.65173]}},{"type":"Feature","properties":{"stop_id":"13966","stop_code":"13966","stop_name":"LIGHT HOUSE FOR THE BLIND EB","stop_desc":"MID-BLOCK LIGHT HOUSE FOR THE BLIND EB","wheelchair_boarding":2,"routes":[{"route_id":"19614","agency_id":"70006","route_short_name":"49","route_long_name":"Lindbergh","route_type":3,"route_color":"#FFFFFF","route_text_color":"#000000"},{"route_id":"19631","agency_id":"70006","route_short_name":"94","route_long_name":"Page","route_type":3,"route_color":"#FFFFFF","route_text_color":"#000000"}],"agency_name":"Metro St. Louis"},"geometry":{"type":"Point","coordinates":[-90.39165,38.68939]}},{"type":"Feature","properties":{"stop_id":"14675","stop_code":"14675","stop_name":"LACKLAND @ ALTOM WB","stop_desc":"NEAR SIDE LACKLAND @ ALTOM WB","wheelchair_boarding":2,"routes":[{"route_id":"19631","agency_id":"70006","route_short_name":"94","route_long_name":"Page","route_type":3,"route_color":"#FFFFFF","route_text_color":"#000000"}],"agency_name":"Metro St. Louis"},"geometry":{"type":"Point","coordinates":[-90.44085,38.69775]}},{"type":"Feature","properties":{"stop_id":"15144","stop_code":"15144","stop_name":"COMPTON @ OLIVE NB","stop_desc":"NEAR SIDE COMPTON @ OLIVE NB","wheelchair_boarding":1,"routes":[{"route_id":"19631","agency_id":"70006","route_short_name":"94","route_long_name":"Page","route_type":3,"route_color":"#FFFFFF","route_text_color":"#000000"}],"agency_name":"Metro St. Louis"},"geometry":{"type":"Point","coordinates":[-90.22564,38.63533]}},{"type":"Feature","properties":{"stop_id":"15193","stop_code":"15193","stop_name":"COMPTON @ SAMUEL SHEPARD NB","stop_desc":"FAR SIDE COMPTON @ SAMUEL SHEPARD NB","wheelchair_boarding":1,"routes":[{"route_id":"19631","agency_id":"70006","route_short_name":"94","route_long_name":"Page","route_type":3,"route_color":"#FFFFFF","route_text_color":"#000000"}],"agency_name":"Metro St. Louis"},"geometry":{"type":"Point","coordinates":[-90.22464,38.63827]}},{"type":"Feature","properties":{"stop_id":"15677","stop_code":"15677","stop_name":"BALL @ PAGE SERVICE NB","stop_desc":"FAR SIDE BALL @ PAGE SERVICE NB","wheelchair_boarding":1,"routes":[{"route_id":"19631","agency_id":"70006","route_short_name":"94","route_long_name":"Page","route_type":3,"route_color":"#FFFFFF","route_text_color":"#000000"}],"agency_name":"Metro St. Louis"},"geometry":{"type":"Point","coordinates":[-90.42009,38.70015]}},{"type":"Feature","properties":{"stop_id":"15694","stop_code":"15694","stop_name":"BALL @ LAKESIDE SERVICE NB","stop_desc":"FAR SIDE BALL @ LAKESIDE SERVICE NB","wheelchair_boarding":1,"routes":[{"route_id":"19631","agency_id":"70006","route_short_name":"94","route_long_name":"Page","route_type":3,"route_color":"#FFFFFF","route_text_color":"#000000"}],"agency_name":"Metro St. Louis"},"geometry":{"type":"Point","coordinates":[-90.4208,38.70169]}},{"type":"Feature","properties":{"stop_id":"15695","stop_code":"15695","stop_name":"BALL @ LAKESIDE CROSSING COURT NB","stop_desc":"FAR SIDE BALL @ LAKESIDE CROSSING COURT NB","wheelchair_boarding":2,"routes":[{"route_id":"19631","agency_id":"70006","route_short_name":"94","route_long_name":"Page","route_type":3,"route_color":"#FFFFFF","route_text_color":"#000000"}],"agency_name":"Metro St. Louis"},"geometry":{"type":"Point","coordinates":[-90.42251,38.70389]}},{"type":"Feature","properties":{"stop_id":"15696","stop_code":"15696","stop_name":"ADIE @ VERNA WB","stop_desc":"NEAR SIDE ADIE @ VERNA WB","wheelchair_boarding":2,"routes":[{"route_id":"19631","agency_id":"70006","route_short_name":"94","route_long_name":"Page","route_type":3,"route_color":"#FFFFFF","route_text_color":"#000000"}],"agency_name":"Metro St. Louis"},"geometry":{"type":"Point","coordinates":[-90.42407,38.70705]}},{"type":"Feature","properties":{"stop_id":"15697","stop_code":"15697","stop_name":"ADIE @ ROCK ISLAND WB","stop_desc":"NEAR SIDE ADIE @ ROCK ISLAND WB","wheelchair_boarding":2,"routes":[{"route_id":"19631","agency_id":"70006","route_short_name":"94","route_long_name":"Page","route_type":3,"route_color":"#FFFFFF","route_text_color":"#000000"}],"agency_name":"Metro St. Louis"},"geometry":{"type":"Point","coordinates":[-90.42791,38.70678]}},{"type":"Feature","properties":{"stop_id":"15698","stop_code":"15698","stop_name":"ADIE @ NORTHLINE INDUSTRIAL WB","stop_desc":"NEAR SIDE ADIE @ NORTHLINE INDUSTRIAL WB","wheelchair_boarding":1,"routes":[{"route_id":"19631","agency_id":"70006","route_short_name":"94","route_long_name":"Page","route_type":3,"route_color":"#FFFFFF","route_text_color":"#000000"}],"agency_name":"Metro St. Louis"},"geometry":{"type":"Point","coordinates":[-90.42975,38.70669]}},{"type":"Feature","properties":{"stop_id":"15707","stop_code":"15707","stop_name":"CIVIC CENTER TRANSIT CENTER","wheelchair_boarding":1,"routes":[{"route_id":"19631","agency_id":"70006","route_short_name":"94","route_long_name":"Page","route_type":3,"route_color":"#FFFFFF","route_text_color":"#000000"},{"route_id":"19633","agency_id":"70006","route_short_name":"97","route_long_name":"Delmar","route_type":3,"route_color":"#FFFFFF","route_text_color":"#000000"}],"agency_name":"Metro St. Louis"},"geometry":{"type":"Point","coordinates":[-90.20252,38.62525]}},{"type":"Feature","properties":{"stop_id":"1587","stop_code":"1587","stop_name":"MARKET @ 16TH STREET WB","stop_desc":"FAR SIDE MARKET @ 16TH STREET WB","wheelchair_boarding":1,"routes":[{"route_id":"19594","agency_id":"70006","route_short_name":"4","route_long_name":"Natural Bridge","route_type":3,"route_color":"#FFFFFF","route_text_color":"#000000"},{"route_id":"19631","agency_id":"70006","route_short_name":"94","route_long_name":"Page","route_type":3,"route_color":"#FFFFFF","route_text_color":"#000000"}],"agency_name":"Metro St. Louis"},"geometry":{"type":"Point","coordinates":[-90.20408,38.62883]}},{"type":"Feature","properties":{"stop_id":"15938","stop_code":"15938","stop_name":"PROGRESS PARKWAY @ DORSETT EB","stop_desc":"FAR SIDE PROGRESS PARKWAY @ DORSETT EB","wheelchair_boarding":2,"routes":[{"route_id":"19631","agency_id":"70006","route_short_name":"94","route_long_name":"Page","route_type":3,"route_color":"#FFFFFF","route_text_color":"#000000"}],"agency_name":"Metro St. Louis"},"geometry":{"type":"Point","coordinates":[-90.44391,38.71359]}},{"type":"Feature","properties":{"stop_id":"16129","stop_code":"16129","stop_name":"COMPTON @ SCHOOL NB","stop_desc":"NEAR SIDE COMPTON @ SCHOOL NB","wheelchair_boarding":1,"routes":[{"route_id":"19631","agency_id":"70006","route_short_name":"94","route_long_name":"Page","route_type":3,"route_color":"#FFFFFF","route_text_color":"#000000"}],"agency_name":"Metro St. Louis"},"geometry":{"type":"Point","coordinates":[-90.22387,38.64186]}},{"type":"Feature","properties":{"stop_id":"16130","stop_code":"16130","stop_name":"DR ML KING @ SHERIDAN WB","stop_desc":"NEAR SIDE DR ML KING @ SHERIDAN WB","wheelchair_boarding":1,"routes":[{"route_id":"19631","agency_id":"70006","route_short_name":"94","route_long_name":"Page","route_type":3,"route_color":"#FFFFFF","route_text_color":"#000000"}],"agency_name":"Metro St. Louis"},"geometry":{"type":"Point","coordinates":[-90.22456,38.64428]}},{"type":"Feature","properties":{"stop_id":"16183","stop_code":"16183","stop_name":"PAGE @ SKINKER WB","stop_desc":"FAR SIDE PAGE @ SKINKER WB","wheelchair_boarding":2,"routes":[{"route_id":"19631","agency_id":"70006","route_short_name":"94","route_long_name":"Page","route_type":3,"route_color":"#FFFFFF","route_text_color":"#000000"}],"agency_name":"Metro St. Louis"},"geometry":{"type":"Point","coordinates":[-90.29093,38.67112]}},{"type":"Feature","properties":{"stop_id":"16479","stop_code":"16479","stop_name":"LACKLAND @ CONCOURSE WB","stop_desc":"MID-BLOCK LACKLAND @ CONCOURSE WB","wheelchair_boarding":2,"routes":[{"route_id":"19631","agency_id":"70006","route_short_name":"94","route_long_name":"Page","route_type":3,"route_color":"#FFFFFF","route_text_color":"#000000"}],"agency_name":"Metro St. Louis"},"geometry":{"type":"Point","coordinates":[-90.43508,38.69816]}},{"type":"Feature","properties":{"stop_id":"16481","stop_code":"16481","stop_name":"SCHEUTZ @ WESTLINE INDUSTRIAL SB","stop_desc":"NEAR SIDE SCHEUTZ @ WESTLINE INDUSTRIAL SB","wheelchair_boarding":2,"routes":[{"route_id":"19631","agency_id":"70006","route_short_name":"94","route_long_name":"Page","route_type":3,"route_color":"#FFFFFF","route_text_color":"#000000"}],"agency_name":"Metro St. Louis"},"geometry":{"type":"Point","coordinates":[-90.43137,38.70331]}},{"type":"Feature","properties":{"stop_id":"2125","stop_code":"2125","stop_name":"COMPTON @ FRANKLIN NB","stop_desc":"FAR SIDE COMPTON @ FRANKLIN NB","wheelchair_boarding":1,"routes":[{"route_id":"19631","agency_id":"70006","route_short_name":"94","route_long_name":"Page","route_type":3,"route_color":"#FFFFFF","route_text_color":"#000000"}],"agency_name":"Metro St. Louis"},"geometry":{"type":"Point","coordinates":[-90.22389,38.64041]}},{"type":"Feature","properties":{"stop_id":"2399","stop_code":"2399","stop_name":"PAGE @ PENDLETON WB","stop_desc":"NEAR SIDE PAGE @ PENDLETON WB","wheelchair_boarding":1,"routes":[{"route_id":"19631","agency_id":"70006","route_short_name":"94","route_long_name":"Page","route_type":3,"route_color":"#FFFFFF","route_text_color":"#000000"}],"agency_name":"Metro St. Louis"},"geometry":{"type":"Point","coordinates":[-90.24362,38.65313]}},{"type":"Feature","properties":{"stop_id":"2400","stop_code":"2400","stop_name":"PAGE @ NEWSTEAD WB","stop_desc":"NEAR SIDE PAGE @ NEWSTEAD WB","wheelchair_boarding":1,"routes":[{"route_id":"19631","agency_id":"70006","route_short_name":"94","route_long_name":"Page","route_type":3,"route_color":"#FFFFFF","route_text_color":"#000000"}],"agency_name":"Metro St. Louis"},"geometry":{"type":"Point","coordinates":[-90.24646,38.6544]}},{"type":"Feature","properties":{"stop_id":"2401","stop_code":"2401","stop_name":"PAGE @ TAYLOR WB","stop_desc":"FAR SIDE PAGE @ TAYLOR WB","wheelchair_boarding":1,"routes":[{"route_id":"19631","agency_id":"70006","route_short_name":"94","route_long_name":"Page","route_type":3,"route_color":"#FFFFFF","route_text_color":"#000000"}],"agency_name":"Metro St. Louis"},"geometry":{"type":"Point","coordinates":[-90.24972,38.65578]}},{"type":"Feature","properties":{"stop_id":"2402","stop_code":"2402","stop_name":"PAGE @ CORA WB","stop_desc":"NEAR SIDE PAGE @ CORA WB","wheelchair_boarding":2,"routes":[{"route_id":"19631","agency_id":"70006","route_short_name":"94","route_long_name":"Page","route_type":3,"route_color":"#FFFFFF","route_text_color":"#000000"}],"agency_name":"Metro St. Louis"},"geometry":{"type":"Point","coordinates":[-90.25294,38.65721]}},{"type":"Feature","properties":{"stop_id":"2403","stop_code":"2403","stop_name":"PAGE @ MARCUS WB","stop_desc":"NEAR SIDE PAGE @ MARCUS WB","wheelchair_boarding":1,"routes":[{"route_id":"19631","agency_id":"70006","route_short_name":"94","route_long_name":"Page","route_type":3,"route_color":"#FFFFFF","route_text_color":"#000000"}],"agency_name":"Metro St. Louis"},"geometry":{"type":"Point","coordinates":[-90.25469,38.658]}},{"type":"Feature","properties":{"stop_id":"2404","stop_code":"2404","stop_name":"PAGE @ WALTON WB","stop_desc":"FAR SIDE PAGE @ WALTON WB","wheelchair_boarding":2,"routes":[{"route_id":"19631","agency_id":"70006","route_short_name":"94","route_long_name":"Page","route_type":3,"route_color":"#FFFFFF","route_text_color":"#000000"}],"agency_name":"Metro St. Louis"},"geometry":{"type":"Point","coordinates":[-90.2568,38.65893]}},{"type":"Feature","properties":{"stop_id":"2406","stop_code":"2406","stop_name":"PAGE @ EUCLID WB","stop_desc":"FAR SIDE PAGE @ EUCLID WB","wheelchair_boarding":1,"routes":[{"route_id":"19631","agency_id":"70006","route_short_name":"94","route_long_name":"Page","route_type":3,"route_color":"#FFFFFF","route_text_color":"#000000"}],"agency_name":"Metro St. Louis"},"geometry":{"type":"Point","coordinates":[-90.25952,38.65971]}},{"type":"Feature","properties":{"stop_id":"2407","stop_code":"2407","stop_name":"PAGE @ KINGSHIGHWAY WB","stop_desc":"FAR SIDE PAGE @ KINGSHIGHWAY WB","wheelchair_boarding":1,"routes":[{"route_id":"19631","agency_id":"70006","route_short_name":"94","route_long_name":"Page","route_type":3,"route_color":"#FFFFFF","route_text_color":"#000000"}],"agency_name":"Metro St. Louis"},"geometry":{"type":"Point","coordinates":[-90.2625,38.66002]}},{"type":"Feature","properties":{"stop_id":"2408","stop_code":"2408","stop_name":"PAGE @ ACADEMY WB","stop_desc":"NEAR SIDE PAGE @ ACADEMY WB","wheelchair_boarding":1,"routes":[{"route_id":"19631","agency_id":"70006","route_short_name":"94","route_long_name":"Page","route_type":3,"route_color":"#FFFFFF","route_text_color":"#000000"}],"agency_name":"Metro St. Louis"},"geometry":{"type":"Point","coordinates":[-90.26616,38.66038]}},{"type":"Feature","properties":{"stop_id":"2409","stop_code":"2409","stop_name":"PAGE @ CLARENDON WB","stop_desc":"FAR SIDE PAGE @ CLARENDON WB","wheelchair_boarding":2,"routes":[{"route_id":"19631","agency_id":"70006","route_short_name":"94","route_long_name":"Page","route_type":3,"route_color":"#FFFFFF","route_text_color":"#000000"}],"agency_name":"Metro St. Louis"},"geometry":{"type":"Point","coordinates":[-90.26892,38.66067]}},{"type":"Feature","properties":{"stop_id":"2410","stop_code":"2410","stop_name":"PAGE @ UNION WB","stop_desc":"FAR SIDE PAGE @ UNION WB","wheelchair_boarding":2,"routes":[{"route_id":"19631","agency_id":"70006","route_short_name":"94","route_long_name":"Page","route_type":3,"route_color":"#FFFFFF","route_text_color":"#000000"}],"agency_name":"Metro St. Louis"},"geometry":{"type":"Point","coordinates":[-90.27253,38.66123]}},{"type":"Feature","properties":{"stop_id":"2411","stop_code":"2411","stop_name":"PAGE @ ARLINGTON WB","stop_desc":"FAR SIDE PAGE @ ARLINGTON WB","wheelchair_boarding":1,"routes":[{"route_id":"19631","agency_id":"70006","route_short_name":"94","route_long_name":"Page","route_type":3,"route_color":"#FFFFFF","route_text_color":"#000000"}],"agency_name":"Metro St. Louis"},"geometry":{"type":"Point","coordinates":[-90.27445,38.66226]}},{"type":"Feature","properties":{"stop_id":"2412","stop_code":"2412","stop_name":"PAGE @ BELT WB","stop_desc":"FAR SIDE PAGE @ BELT WB","wheelchair_boarding":1,"routes":[{"route_id":"19631","agency_id":"70006","route_short_name":"94","route_long_name":"Page","route_type":3,"route_color":"#FFFFFF","route_text_color":"#000000"}],"agency_name":"Metro St. Louis"},"geometry":{"type":"Point","coordinates":[-90.27645,38.66336]}},{"type":"Feature","properties":{"stop_id":"2414","stop_code":"2414","stop_name":"PAGE @ CLARA WB","stop_desc":"FAR SIDE PAGE @ CLARA WB","wheelchair_boarding":2,"routes":[{"route_id":"19631","agency_id":"70006","route_short_name":"94","route_long_name":"Page","route_type":3,"route_color":"#FFFFFF","route_text_color":"#000000"}],"agency_name":"Metro St. Louis"},"geometry":{"type":"Point","coordinates":[-90.27979,38.66515]}},{"type":"Feature","properties":{"stop_id":"2417","stop_code":"2417","stop_name":"PAGE @ GOODFELLOW WB","stop_desc":"FAR SIDE PAGE @ GOODFELLOW WB","wheelchair_boarding":1,"routes":[{"route_id":"19631","agency_id":"70006","route_short_name":"94","route_long_name":"Page","route_type":3,"route_color":"#FFFFFF","route_text_color":"#000000"}],"agency_name":"Metro St. Louis"},"geometry":{"type":"Point","coordinates":[-90.28342,38.6671]}},{"type":"Feature","properties":{"stop_id":"2418","stop_code":"2418","stop_name":"PAGE @ HAMILTON WB","stop_desc":"FAR SIDE PAGE @ HAMILTON WB","wheelchair_boarding":1,"routes":[{"route_id":"19631","agency_id":"70006","route_short_name":"94","route_long_name":"Page","route_type":3,"route_color":"#FFFFFF","route_text_color":"#000000"}],"agency_name":"Metro St. Louis"},"geometry":{"type":"Point","coordinates":[-90.28636,38.66869]}},{"type":"Feature","properties":{"stop_id":"2419","stop_code":"2419","stop_name":"PAGE @ HODIAMONT WB","stop_desc":"NEAR SIDE PAGE @ HODIAMONT WB","wheelchair_boarding":1,"routes":[{"route_id":"19631","agency_id":"70006","route_short_name":"94","route_long_name":"Page","route_type":3,"route_color":"#FFFFFF","route_text_color":"#000000"}],"agency_name":"Metro St. Louis"},"geometry":{"type":"Point","coordinates":[-90.28879,38.66996]}},{"type":"Feature","properties":{"stop_id":"2420","stop_code":"2420","stop_name":"STEPHEN JONES @ PAGE SB","stop_desc":"FAR SIDE STEPHEN JONES @ PAGE SB","wheelchair_boarding":2,"routes":[{"route_id":"19631","agency_id":"70006","route_short_name":"94","route_long_name":"Page","route_type":3,"route_color":"#FFFFFF","route_text_color":"#000000"}],"agency_name":"Metro St. Louis"},"geometry":{"type":"Point","coordinates":[-90.29399,38.67131]}},{"type":"Feature","properties":{"stop_id":"2422","stop_code":"2422","stop_name":"STEPHEN JONES @ PLYMOUTH SB","stop_desc":"NEAR SIDE STEPHEN JONES @ PLYMOUTH SB","wheelchair_boarding":1,"routes":[{"route_id":"19631","agency_id":"70006","route_short_name":"94","route_long_name":"Page","route_type":3,"route_color":"#FFFFFF","route_text_color":"#000000"}],"agency_name":"Metro St. Louis"},"geometry":{"type":"Point","coordinates":[-90.29463,38.66893]}},{"type":"Feature","properties":{"stop_id":"2424","stop_code":"2424","stop_name":"WELLSTON TRANSIT CENTER WB","wheelchair_boarding":1,"routes":[{"route_id":"19631","agency_id":"70006","route_short_name":"94","route_long_name":"Page","route_type":3,"route_color":"#FFFFFF","route_text_color":"#000000"}],"agency_name":"Metro St. Louis"},"geometry":{"type":"Point","coordinates":[-90.29899,38.66897]}},{"type":"Feature","properties":{"stop_id":"2425","stop_code":"2425","stop_name":"PLYMOUTH @ SUTTER WB","stop_desc":"NEAR SIDE PLYMOUTH @ SUTTER WB","wheelchair_boarding":1,"routes":[{"route_id":"19631","agency_id":"70006","route_short_name":"94","route_long_name":"Page","route_type":3,"route_color":"#FFFFFF","route_text_color":"#000000"}],"agency_name":"Metro St. Louis"},"geometry":{"type":"Point","coordinates":[-90.30185,38.66916]}},{"type":"Feature","properties":{"stop_id":"2426","stop_code":"2426","stop_name":"SUTTER @ JOSEPH NB","stop_desc":"NEAR SIDE SUTTER @ JOSEPH NB","wheelchair_boarding":2,"routes":[{"route_id":"19631","agency_id":"70006","route_short_name":"94","route_long_name":"Page","route_type":3,"route_color":"#FFFFFF","route_text_color":"#000000"}],"agency_name":"Metro St. Louis"},"geometry":{"type":"Point","coordinates":[-90.30159,38.67112]}},{"type":"Feature","properties":{"stop_id":"2428","stop_code":"2428","stop_name":"PAGE @ MILFORD WB","stop_desc":"NEAR SIDE PAGE @ MILFORD WB","wheelchair_boarding":1,"routes":[{"route_id":"19631","agency_id":"70006","route_short_name":"94","route_long_name":"Page","route_type":3,"route_color":"#FFFFFF","route_text_color":"#000000"}],"agency_name":"Metro St. Louis"},"geometry":{"type":"Point","coordinates":[-90.31289,38.67622]}},{"type":"Feature","properties":{"stop_id":"2429","stop_code":"2429","stop_name":"PAGE @ PENNSYLVANIA WB","stop_desc":"FAR SIDE PAGE @ PENNSYLVANIA WB","wheelchair_boarding":2,"routes":[{"route_id":"19631","agency_id":"70006","route_short_name":"94","route_long_name":"Page","route_type":3,"route_color":"#FFFFFF","route_text_color":"#000000"}],"agency_name":"Metro St. Louis"},"geometry":{"type":"Point","coordinates":[-90.31571,38.67736]}},{"type":"Feature","properties":{"stop_id":"2431","stop_code":"2431","stop_name":"PAGE @ NIXON WB","stop_desc":"NEAR SIDE PAGE @ NIXON WB","wheelchair_boarding":1,"routes":[{"route_id":"19631","agency_id":"70006","route_short_name":"94","route_long_name":"Page","route_type":3,"route_color":"#FFFFFF","route_text_color":"#000000"}],"agency_name":"Metro St. Louis"},"geometry":{"type":"Point","coordinates":[-90.31898,38.67846]}},{"type":"Feature","properties":{"stop_id":"2432","stop_code":"2432","stop_name":"PAGE @ FARIS WB","stop_desc":"FAR SIDE PAGE @ FARIS WB","wheelchair_boarding":2,"routes":[{"route_id":"19631","agency_id":"70006","route_short_name":"94","route_long_name":"Page","route_type":3,"route_color":"#FFFFFF","route_text_color":"#000000"}],"agency_name":"Metro St. Louis"},"geometry":{"type":"Point","coordinates":[-90.32052,38.679]}},{"type":"Feature","properties":{"stop_id":"2434","stop_code":"2434","stop_name":"PAGE @ QUENDO WB","stop_desc":"NEAR SIDE PAGE @ QUENDO WB","wheelchair_boarding":1,"routes":[{"route_id":"19631","agency_id":"70006","route_short_name":"94","route_long_name":"Page","route_type":3,"route_color":"#FFFFFF","route_text_color":"#000000"}],"agency_name":"Metro St. Louis"},"geometry":{"type":"Point","coordinates":[-90.32408,38.68102]}},{"type":"Feature","properties":{"stop_id":"2436","stop_code":"2436","stop_name":"PAGE @ HANLEY WB","stop_desc":"NEAR SIDE PAGE @ HANLEY WB","wheelchair_boarding":1,"routes":[{"route_id":"19631","agency_id":"70006","route_short_name":"94","route_long_name":"Page","route_type":3,"route_color":"#FFFFFF","route_text_color":"#000000"}],"agency_name":"Metro St. Louis"},"geometry":{"type":"Point","coordinates":[-90.32749,38.68299]}},{"type":"Feature","properties":{"stop_id":"2438","stop_code":"2438","stop_name":"PAGE @ HARRISON WB","stop_desc":"FAR SIDE PAGE @ HARRISON WB","wheelchair_boarding":2,"routes":[{"route_id":"19631","agency_id":"70006","route_short_name":"94","route_long_name":"Page","route_type":3,"route_color":"#FFFFFF","route_text_color":"#000000"}],"agency_name":"Metro St. Louis"},"geometry":{"type":"Point","coordinates":[-90.33405,38.68366]}},{"type":"Feature","properties":{"stop_id":"2439","stop_code":"2439","stop_name":"PAGE @ NORTH AND SOUTH WB","stop_desc":"FAR SIDE PAGE @ NORTH AND SOUTH WB","wheelchair_boarding":2,"routes":[{"route_id":"19631","agency_id":"70006","route_short_name":"94","route_long_name":"Page","route_type":3,"route_color":"#FFFFFF","route_text_color":"#000000"}],"agency_name":"Metro St. Louis"},"geometry":{"type":"Point","coordinates":[-90.33624,38.68379]}},{"type":"Feature","properties":{"stop_id":"2441","stop_code":"2441","stop_name":"PAGE  @ GULF WB","stop_desc":"NEAR SIDE PAGE  @ GULF WB","wheelchair_boarding":2,"routes":[{"route_id":"19631","agency_id":"70006","route_short_name":"94","route_long_name":"Page","route_type":3,"route_color":"#FFFFFF","route_text_color":"#000000"}],"agency_name":"Metro St. Louis"},"geometry":{"type":"Point","coordinates":[-90.33949,38.68483]}},{"type":"Feature","properties":{"stop_id":"2442","stop_code":"2442","stop_name":"PAGE @ CRYSTAL COURT WB","stop_desc":"NEAR SIDE PAGE @ CRYSTAL COURT WB","wheelchair_boarding":2,"routes":[{"route_id":"19631","agency_id":"70006","route_short_name":"94","route_long_name":"Page","route_type":3,"route_color":"#FFFFFF","route_text_color":"#000000"}],"agency_name":"Metro St. Louis"},"geometry":{"type":"Point","coordinates":[-90.34276,38.68564]}},{"type":"Feature","properties":{"stop_id":"2443","stop_code":"2443","stop_name":"PAGE @ WALTON WB","stop_desc":"NEAR SIDE PAGE @ WALTON WB","wheelchair_boarding":2,"routes":[{"route_id":"19631","agency_id":"70006","route_short_name":"94","route_long_name":"Page","route_type":3,"route_color":"#FFFFFF","route_text_color":"#000000"}],"agency_name":"Metro St. Louis"},"geometry":{"type":"Point","coordinates":[-90.34648,38.68568]}},{"type":"Feature","properties":{"stop_id":"2444","stop_code":"2444","stop_name":"PAGE @ BELTWAY WB","stop_desc":"FAR SIDE PAGE @ BELTWAY WB","wheelchair_boarding":2,"routes":[{"route_id":"19631","agency_id":"70006","route_short_name":"94","route_long_name":"Page","route_type":3,"route_color":"#FFFFFF","route_text_color":"#000000"}],"agency_name":"Metro St. Louis"},"geometry":{"type":"Point","coordinates":[-90.35233,38.6866]}},{"type":"Feature","properties":{"stop_id":"2445","stop_code":"2445","stop_name":"PAGE @ INNERBELT BUSINESS COURT WB","stop_desc":"FAR SIDE PAGE @ INNERBELT BUSINESS COURT WB","wheelchair_boarding":2,"routes":[{"route_id":"19631","agency_id":"70006","route_short_name":"94","route_long_name":"Page","route_type":3,"route_color":"#FFFFFF","route_text_color":"#000000"}],"agency_name":"Metro St. Louis"},"geometry":{"type":"Point","coordinates":[-90.35632,38.68663]}},{"type":"Feature","properties":{"stop_id":"2446","stop_code":"2446","stop_name":"PAGE @ WOODSON WB","stop_desc":"FAR SIDE PAGE @ WOODSON WB","wheelchair_boarding":2,"routes":[{"route_id":"19631","agency_id":"70006","route_short_name":"94","route_long_name":"Page","route_type":3,"route_color":"#FFFFFF","route_text_color":"#000000"}],"agency_name":"Metro St. Louis"},"geometry":{"type":"Point","coordinates":[-90.36307,38.68735]}},{"type":"Feature","properties":{"stop_id":"2447","stop_code":"2447","stop_name":"PAGE @ BURNS WB","stop_desc":"FAR SIDE PAGE @ BURNS WB","wheelchair_boarding":2,"routes":[{"route_id":"19631","agency_id":"70006","route_short_name":"94","route_long_name":"Page","route_type":3,"route_color":"#FFFFFF","route_text_color":"#000000"}],"agency_name":"Metro St. Louis"},"geometry":{"type":"Point","coordinates":[-90.36831,38.68783]}},{"type":"Feature","properties":{"stop_id":"2449","stop_code":"2449","stop_name":"PAGE @ SPENCER WB","stop_desc":"FAR SIDE PAGE @ SPENCER WB","wheelchair_boarding":2,"routes":[{"route_id":"19631","agency_id":"70006","route_short_name":"94","route_long_name":"Page","route_type":3,"route_color":"#FFFFFF","route_text_color":"#000000"}],"agency_name":"Metro St. Louis"},"geometry":{"type":"Point","coordinates":[-90.37223,38.68839]}},{"type":"Feature","properties":{"stop_id":"2450","stop_code":"2450","stop_name":"PAGE @ DIELMAN WB","stop_desc":"FAR SIDE PAGE @ DIELMAN WB","wheelchair_boarding":2,"routes":[{"route_id":"19631","agency_id":"70006","route_short_name":"94","route_long_name":"Page","route_type":3,"route_color":"#FFFFFF","route_text_color":"#000000"}],"agency_name":"Metro St. Louis"},"geometry":{"type":"Point","coordinates":[-90.37572,38.68891]}},{"type":"Feature","properties":{"stop_id":"2451","stop_code":"2451","stop_name":"9901 PAGE WB","stop_desc":"MID-BLOCK 9901 PAGE WB","wheelchair_boarding":2,"routes":[{"route_id":"19631","agency_id":"70006","route_short_name":"94","route_long_name":"Page","route_type":3,"route_color":"#FFFFFF","route_text_color":"#000000"}],"agency_name":"Metro St. Louis"},"geometry":{"type":"Point","coordinates":[-90.37812,38.68969]}},{"type":"Feature","properties":{"stop_id":"2452","stop_code":"2452","stop_name":"PAGE @ SIMS WB","stop_desc":"FAR SIDE PAGE @ SIMS WB","wheelchair_boarding":2,"routes":[{"route_id":"19631","agency_id":"70006","route_short_name":"94","route_long_name":"Page","route_type":3,"route_color":"#FFFFFF","route_text_color":"#000000"}],"agency_name":"Metro St. Louis"},"geometry":{"type":"Point","coordinates":[-90.38121,38.69067]}},{"type":"Feature","properties":{"stop_id":"2453","stop_code":"2453","stop_name":"PAGE @ DYER WB","stop_desc":"NEAR SIDE PAGE @ DYER WB","wheelchair_boarding":2,"routes":[{"route_id":"19631","agency_id":"70006","route_short_name":"94","route_long_name":"Page","route_type":3,"route_color":"#FFFFFF","route_text_color":"#000000"}],"agency_name":"Metro St. Louis"},"geometry":{"type":"Point","coordinates":[-90.38409,38.691]}},{"type":"Feature","properties":{"stop_id":"2454","stop_code":"2454","stop_name":"PAGE @ UCEYLE WB","stop_desc":"NEAR SIDE PAGE @ UCEYLE WB","wheelchair_boarding":2,"routes":[{"route_id":"19631","agency_id":"70006","route_short_name":"94","route_long_name":"Page","route_type":3,"route_color":"#FFFFFF","route_text_color":"#000000"}],"agency_name":"Metro St. Louis"},"geometry":{"type":"Point","coordinates":[-90.3863,38.6912]}},{"type":"Feature","properties":{"stop_id":"2455","stop_code":"2455","stop_name":"PAGE @ ASHBY WB","stop_desc":"MID-BLOCK PAGE @ ASHBY WB","wheelchair_boarding":2,"routes":[{"route_id":"19631","agency_id":"70006","route_short_name":"94","route_long_name":"Page","route_type":3,"route_color":"#FFFFFF","route_text_color":"#000000"}],"agency_name":"Metro St. Louis"},"geometry":{"type":"Point","coordinates":[-90.39257,38.69191]}},{"type":"Feature","properties":{"stop_id":"2456","stop_code":"2456","stop_name":"PAGE @ WARSON WB","stop_desc":"FAR SIDE PAGE @ WARSON WB","wheelchair_boarding":2,"routes":[{"route_id":"19631","agency_id":"70006","route_short_name":"94","route_long_name":"Page","route_type":3,"route_color":"#FFFFFF","route_text_color":"#000000"}],"agency_name":"Metro St. Louis"},"geometry":{"type":"Point","coordinates":[-90.39741,38.69241]}},{"type":"Feature","properties":{"stop_id":"2457","stop_code":"2457","stop_name":"PAGE @ GALT INDUSTRIAL WB","stop_desc":"FAR SIDE PAGE @ GALT INDUSTRIAL WB","wheelchair_boarding":2,"routes":[{"route_id":"19631","agency_id":"70006","route_short_name":"94","route_long_name":"Page","route_type":3,"route_color":"#FFFFFF","route_text_color":"#000000"}],"agency_name":"Metro St. Louis"},"geometry":{"type":"Point","coordinates":[-90.40074,38.69316]}},{"type":"Feature","properties":{"stop_id":"2459","stop_code":"2459","stop_name":"PAGE @ RUCKERT WB","stop_desc":"FAR SIDE PAGE @ RUCKERT WB","wheelchair_boarding":2,"routes":[{"route_id":"19631","agency_id":"70006","route_short_name":"94","route_long_name":"Page","route_type":3,"route_color":"#FFFFFF","route_text_color":"#000000"}],"agency_name":"Metro St. Louis"},"geometry":{"type":"Point","coordinates":[-90.40342,38.69499]}},{"type":"Feature","properties":{"stop_id":"2468","stop_code":"2468","stop_name":"WESTPORT PLAZA @ WESTLINE INDUSTRIAL WB","stop_desc":"FAR SIDE WESTPORT PLAZA @ WESTLINE INDUSTRIAL WB","wheelchair_boarding":1,"routes":[{"route_id":"19631","agency_id":"70006","route_short_name":"94","route_long_name":"Page","route_type":3,"route_color":"#FFFFFF","route_text_color":"#000000"},{"route_id":"19634","agency_id":"70006","route_short_name":"98","route_long_name":"Ballas-North Hanley","route_type":3,"route_color":"#FFFFFF","route_text_color":"#000000"}],"agency_name":"Metro St. Louis"},"geometry":{"type":"Point","coordinates":[-90.44349,38.7013]}},{"type":"Feature","properties":{"stop_id":"2471","stop_code":"2471","stop_name":"WESTPORT PLAZA @ FEE FEE WB","stop_desc":"FAR SIDE WESTPORT PLAZA @ FEE FEE WB","wheelchair_boarding":1,"routes":[{"route_id":"19631","agency_id":"70006","route_short_name":"94","route_long_name":"Page","route_type":3,"route_color":"#FFFFFF","route_text_color":"#000000"},{"route_id":"19634","agency_id":"70006","route_short_name":"98","route_long_name":"Ballas-North Hanley","route_type":3,"route_color":"#FFFFFF","route_text_color":"#000000"}],"agency_name":"Metro St. Louis"},"geometry":{"type":"Point","coordinates":[-90.44535,38.70253]}},{"type":"Feature","properties":{"stop_id":"2553","stop_code":"2553","stop_name":"SCHUETZ @ LACKLAND SB","stop_desc":"NEAR SIDE SCHUETZ @ LACKLAND SB","wheelchair_boarding":1,"routes":[{"route_id":"19631","agency_id":"70006","route_short_name":"94","route_long_name":"Page","route_type":3,"route_color":"#FFFFFF","route_text_color":"#000000"}],"agency_name":"Metro St. Louis"},"geometry":{"type":"Point","coordinates":[-90.42936,38.69754]}},{"type":"Feature","properties":{"stop_id":"2742","stop_code":"2742","stop_name":"COMPTON @ LACLEDE NB","stop_desc":"NEAR SIDE COMPTON @ LACLEDE NB","wheelchair_boarding":1,"routes":[{"route_id":"19631","agency_id":"70006","route_short_name":"94","route_long_name":"Page","route_type":3,"route_color":"#FFFFFF","route_text_color":"#000000"}],"agency_name":"Metro St. Louis"},"geometry":{"type":"Point","coordinates":[-90.2267,38.6325]}},{"type":"Feature","properties":{"stop_id":"5317","stop_code":"5317","stop_name":"MARKET @ JEFFERSON WB","stop_desc":"FAR SIDE MARKET @ JEFFERSON WB","wheelchair_boarding":1,"routes":[{"route_id":"19631","agency_id":"70006","route_short_name":"94","route_long_name":"Page","route_type":3,"route_color":"#FFFFFF","route_text_color":"#000000"}],"agency_name":"Metro St. Louis"},"geometry":{"type":"Point","coordinates":[-90.21601,38.63127]}},{"type":"Feature","properties":{"stop_id":"5318","stop_code":"5318","stop_name":"MARKET @ EWING WB","stop_desc":"NEAR SIDE MARKET @ EWING WB","wheelchair_boarding":1,"routes":[{"route_id":"19631","agency_id":"70006","route_short_name":"94","route_long_name":"Page","route_type":3,"route_color":"#FFFFFF","route_text_color":"#000000"}],"agency_name":"Metro St. Louis"},"geometry":{"type":"Point","coordinates":[-90.2194,38.63123]}},{"type":"Feature","properties":{"stop_id":"5319","stop_code":"5319","stop_name":"MARKET ST @ GARRISON AVE","stop_desc":"FAR SIDE MARKET ST @ GARRISON AVE","wheelchair_boarding":1,"routes":[{"route_id":"19631","agency_id":"70006","route_short_name":"94","route_long_name":"Page","route_type":3,"route_color":"#FFFFFF","route_text_color":"#000000"}],"agency_name":"Metro St. Louis"},"geometry":{"type":"Point","coordinates":[-90.22406,38.63112]}},{"type":"Feature","properties":{"stop_id":"6959","stop_code":"6959","stop_name":"PROGRESS PARKWAY @ WESTPORT PLAZA NB","stop_desc":"FAR SIDE PROGRESS PARKWAY @ WESTPORT PLAZA NB","wheelchair_boarding":2,"routes":[{"route_id":"19631","agency_id":"70006","route_short_name":"94","route_long_name":"Page","route_type":3,"route_color":"#FFFFFF","route_text_color":"#000000"}],"agency_name":"Metro St. Louis"},"geometry":{"type":"Point","coordinates":[-90.44592,38.70313]}},{"type":"Feature","properties":{"stop_id":"6960","stop_code":"6960","stop_name":"78 PROGRESS PARKWAY NB","stop_desc":"FAR SIDE 78 PROGRESS PARKWAY NB","wheelchair_boarding":2,"routes":[{"route_id":"19631","agency_id":"70006","route_short_name":"94","route_long_name":"Page","route_type":3,"route_color":"#FFFFFF","route_text_color":"#000000"}],"agency_name":"Metro St. Louis"},"geometry":{"type":"Point","coordinates":[-90.44629,38.70763]}},{"type":"Feature","properties":{"stop_id":"6962","stop_code":"6962","stop_name":"PROGRESS PARKWAY @ KIMLER NB","stop_desc":"NEAR SIDE PROGRESS PARKWAY @ KIMLER NB","wheelchair_boarding":1,"routes":[{"route_id":"19631","agency_id":"70006","route_short_name":"94","route_long_name":"Page","route_type":3,"route_color":"#FFFFFF","route_text_color":"#000000"}],"agency_name":"Metro St. Louis"},"geometry":{"type":"Point","coordinates":[-90.4456,38.71009]}},{"type":"Feature","properties":{"stop_id":"7414","stop_code":"7414","stop_name":"PAGE @ WOODRUFF WB","stop_desc":"NEAR SIDE PAGE @ WOODRUFF WB","wheelchair_boarding":1,"routes":[{"route_id":"19631","agency_id":"70006","route_short_name":"94","route_long_name":"Page","route_type":3,"route_color":"#FFFFFF","route_text_color":"#000000"}],"agency_name":"Metro St. Louis"},"geometry":{"type":"Point","coordinates":[-90.30597,38.67425]}},{"type":"Feature","properties":{"stop_id":"7416","stop_code":"7416","stop_name":"PAGE @ KINGSLAND WB","stop_desc":"NEAR SIDE PAGE @ KINGSLAND WB","wheelchair_boarding":2,"routes":[{"route_id":"19631","agency_id":"70006","route_short_name":"94","route_long_name":"Page","route_type":3,"route_color":"#FFFFFF","route_text_color":"#000000"}],"agency_name":"Metro St. Louis"},"geometry":{"type":"Point","coordinates":[-90.30425,38.67399]}},{"type":"Feature","properties":{"stop_id":"7419","stop_code":"7419","stop_name":"PAGE @ LEROY WB","stop_desc":"NEAR SIDE PAGE @ LEROY WB","wheelchair_boarding":2,"routes":[{"route_id":"19631","agency_id":"70006","route_short_name":"94","route_long_name":"Page","route_type":3,"route_color":"#FFFFFF","route_text_color":"#000000"}],"agency_name":"Metro St. Louis"},"geometry":{"type":"Point","coordinates":[-90.31049,38.67521]}},{"type":"Feature","properties":{"stop_id":"8638","stop_code":"8638","stop_name":"MARKET @ 14TH STREET WB","stop_desc":"FAR SIDE MARKET @ 14TH STREET WB","wheelchair_boarding":1,"routes":[{"route_id":"19594","agency_id":"70006","route_short_name":"4","route_long_name":"Natural Bridge","route_type":3,"route_color":"#FFFFFF","route_text_color":"#000000"},{"route_id":"19631","agency_id":"70006","route_short_name":"94","route_long_name":"Page","route_type":3,"route_color":"#FFFFFF","route_text_color":"#000000"}],"agency_name":"Metro St. Louis"},"geometry":{"type":"Point","coordinates":[-90.20175,38.62835]}},{"type":"Feature","properties":{"stop_id":"8640","stop_code":"8640","stop_name":"MARKET @ 17TH STREET WB","stop_desc":"FAR SIDE MARKET @ 17TH STREET WB","wheelchair_boarding":1,"routes":[{"route_id":"19594","agency_id":"70006","route_short_name":"4","route_long_name":"Natural Bridge","route_type":3,"route_color":"#FFFFFF","route_text_color":"#000000"},{"route_id":"19631","agency_id":"70006","route_short_name":"94","route_long_name":"Page","route_type":3,"route_color":"#FFFFFF","route_text_color":"#000000"}],"agency_name":"Metro St. Louis"},"geometry":{"type":"Point","coordinates":[-90.20519,38.62909]}},{"type":"Feature","properties":{"stop_id":"8641","stop_code":"8641","stop_name":"MARKET @ 20TH STREET WB","stop_desc":"FAR SIDE MARKET @ 20TH STREET WB","wheelchair_boarding":1,"routes":[{"route_id":"19594","agency_id":"70006","route_short_name":"4","route_long_name":"Natural Bridge","route_type":3,"route_color":"#FFFFFF","route_text_color":"#000000"},{"route_id":"19631","agency_id":"70006","route_short_name":"94","route_long_name":"Page","route_type":3,"route_color":"#FFFFFF","route_text_color":"#000000"}],"agency_name":"Metro St. Louis"},"geometry":{"type":"Point","coordinates":[-90.20944,38.63005]}},{"type":"Feature","properties":{"stop_id":"8643","stop_code":"8643","stop_name":"MARKET @ 23RD STREET WB","stop_desc":"NEAR SIDE MARKET @ 23RD STREET WB","wheelchair_boarding":1,"routes":[{"route_id":"19594","agency_id":"70006","route_short_name":"4","route_long_name":"Natural Bridge","route_type":3,"route_color":"#FFFFFF","route_text_color":"#000000"},{"route_id":"19631","agency_id":"70006","route_short_name":"94","route_long_name":"Page","route_type":3,"route_color":"#FFFFFF","route_text_color":"#000000"}],"agency_name":"Metro St. Louis"},"geometry":{"type":"Point","coordinates":[-90.21285,38.63071]}}]}