{"type":"FeatureCollection","features":[{"type":"Feature","properties":{"agency_name":"Metro St. Louis","route_id":"19596","agency_id":"70006","route_short_name":"8","route_long_name":"Shaw-Cherokee","route_type":3,"route_color":"#FFFFFF","route_text_color":"#000000"},"geometry":{"type":"MultiLineString","coordinates":[[[-90.26577,38.54006],[-90.26578,38.54],[-90.26581,38.53998],[-90.26584,38.53998],[-90.26617,38.54019],[-90.25627,38.5489],[-90.25232,38.5524],[-90.25181,38.55283],[-90.2488,38.5555],[-90.24799,38.55619],[-90.24383,38.55957],[-90.24347,38.55988],[-90.24314,38.56028],[-90.2426,38.561],[-90.24194,38.56197],[-90.24076,38.56365],[-90.24013,38.56449],[-90.23831,38.56702],[-90.23764,38.56801],[-90.23682,38.56914],[-90.23395,38.57321],[-90.23379,38.57352],[-90.23376,38.57371],[-90.23376,38.57389],[-90.23384,38.57431],[-90.23388,38.57463],[-90.23383,38.57506],[-90.23373,38.5754],[-90.23359,38.57566],[-90.23334,38.57592],[-90.23166,38.57751],[-90.23082,38.57833],[-90.22822,38.58077],[-90.22809,38.58091],[-90.228,38.58109],[-90.22794,38.5813],[-90.22713,38.58524],[-90.22683,38.58567],[-90.22681,38.58574],[-90.22679,38.5859],[-90.22683,38.58611],[-90.22686,38.58667],[-90.22656,38.58792],[-90.22648,38.5884],[-90.22619,38.5897],[-90.22603,38.59057],[-90.22582,38.59149],[-90.22545,38.59329],[-90.23229,38.59415],[-90.23343,38.59429],[-90.23458,38.59441],[-90.24026,38.59515],[-90.24088,38.59495],[-90.24111,38.59479],[-90.2415,38.59448],[-90.24238,38.59366],[-90.24364,38.59383],[-90.24327,38.59606],[-90.24242,38.6018],[-90.24225,38.60273],[-90.2422,38.60326],[-90.24214,38.60334],[-90.24212,38.60342],[-90.24209,38.60363],[-90.24188,38.60462],[-90.24152,38.60629],[-90.24131,38.60719],[-90.24649,38.60769],[-90.24609,38.6101],[-90.2457,38.61275],[-90.24525,38.61564],[-90.25358,38.61643],[-90.25639,38.61668],[-90.25609,38.6181],[-90.25589,38.61921],[-90.25562,38.62049],[-90.25556,38.62089],[-90.25556,38.621],[-90.2557,38.62179],[-90.25611,38.62345],[-90.2569,38.62698],[-90.25682,38.62712],[-90.25599,38.62951],[-90.26075,38.63053],[-90.26042,38.63213],[-90.26026,38.63302],[-90.25955,38.63571],[-90.25954,38.63585],[-90.25955,38.63612],[-90.25977,38.63625],[-90.26009,38.6362],[-90.26049,38.63618]]]}},{"type":"Feature","properties":{"stop_id":"14792","stop_code":"14792","stop_name":"CENTRAL WEST END TRANSIT CENTER","wheelchair_boarding":1,"routes":[{"route_id":"19592","agency_id":"70006","route_short_name":"1","route_long_name":"Gold","route_type":3,"route_color":"#FFFFFF","route_text_color":"#000000"},{"route_id":"19596","agency_id":"70006","route_short_name":"8","route_long_name":"Shaw-Cherokee","route_type":3,"route_color":"#FFFFFF","route_text_color":"#000000"},{"route_id":"19598","agency_id":"70006","route_short_name":"10","route_long_name":"Gravois-Lindell","route_type":3,"route_color":"#FFFFFF","route_text_color":"#000000"},{"route_id":"19600","agency_id":"70006","route_short_name":"13","route_long_name":"Union","route_type":3,"route_color":"#FFFFFF","route_text_color":"#000000"},{"route_id":"19618","agency_id":"70006","route_short_name":"59","route_long_name":"Oakland","route_type":3,"route_color":"#FFFFFF","route_text_color":"#000000"},{"route_id":"19632","agency_id":"70006","route_short_name":"95","route_long_name":"Kingshighway","route_type":3,"route_color":"#FFFFFF","route_text_color":"#000000"}],"agency_name":"Metro St. Louis"},"geometry":{"type":"Point","coordinates":[-90.25999,38.63568]}},{"type":"Feature","properties":{"stop_id":"15481","stop_code":"15481","stop_name":"TOWER GROVE @ BLAINE NB","stop_desc":"FAR SIDE TOWER GROVE @ BLAINE NB","wheelchair_boarding":1,"routes":[{"route_id":"19596","agency_id":"70006","route_short_name":"8","route_long_name":"Shaw-Cherokee","route_type":3,"route_color":"#FFFFFF","route_text_color":"#000000"}],"agency_name":"Metro St. Louis"},"geometry":{"type":"Point","coordinates":[-90.25551,38.62075]}},{"type":"Feature","properties":{"stop_id":"16140","stop_code":"16140","stop_name":"MAGNOLIA @ 39TH STREET WB","stop_desc":"NEAR SIDE MAGNOLIA @ 39TH STREET WB","wheelchair_boarding":1,"routes":[{"route_id":"19596","agency_id":"70006","route_short_name":"8","route_long_name":"Shaw-Cherokee","route_type":3,"route_color":"#FFFFFF","route_text_color":"#000000"}],"agency_name":"Metro St. Louis"},"geometry":{"type":"Point","coordinates":[-90.24579,38.6077]}},{"type":"Feature","properties":{"stop_id":"1712","stop_code":"1712","stop_name":"SHAW @ 39TH STREET WB","stop_desc":"FAR SIDE SHAW @ 39TH STREET WB","wheelchair_boarding":1,"routes":[{"route_id":"19596","agency_id":"70006","route_short_name":"8","route_long_name":"Shaw-Cherokee","route_type":3,"route_color":"#FFFFFF","route_text_color":"#000000"}],"agency_name":"Metro St. Louis"},"geometry":{"type":"Point","coordinates":[-90.24544,38.6157]}},{"type":"Feature","properties":{"stop_id":"1713","stop_code":"1713","stop_name":"SHAW @ LAWRENCE WB","stop_desc":"NEAR SIDE SHAW @ LAWRENCE WB","wheelchair_boarding":2,"routes":[{"route_id":"19596","agency_id":"70006","route_short_name":"8","route_long_name":"Shaw-Cherokee","route_type":3,"route_color":"#FFFFFF","route_text_color":"#000000"}],"agency_name":"Metro St. Louis"},"geometry":{"type":"Point","coordinates":[-90.24769,38.61591]}},{"type":"Feature","properties":{"stop_id":"1714","stop_code":"1714","stop_name":"SHAW @ THURMAN WB","stop_desc":"NEAR SIDE SHAW @ THURMAN WB","wheelchair_boarding":1,"routes":[{"route_id":"19596","agency_id":"70006","route_short_name":"8","route_long_name":"Shaw-Cherokee","route_type":3,"route_color":"#FFFFFF","route_text_color":"#000000"}],"agency_name":"Metro St. Louis"},"geometry":{"type":"Point","coordinates":[-90.25037,38.61615]}},{"type":"Feature","properties":{"stop_id":"1715","stop_code":"1715","stop_name":"SHAW @ KLEMM WB","stop_desc":"NEAR SIDE SHAW @ KLEMM WB","wheelchair_boarding":2,"routes":[{"route_id":"19596","agency_id":"70006","route_short_name":"8","route_long_name":"Shaw-Cherokee","route_type":3,"route_color":"#FFFFFF","route_text_color":"#000000"}],"agency_name":"Metro St. Louis"},"geometry":{"type":"Point","coordinates":[-90.25341,38.61644]}},{"type":"Feature","properties":{"stop_id":"1911","stop_code":"1911","stop_name":"BROADWAY @ FASSEN NB","stop_desc":"NEAR SIDE BROADWAY @ FASSEN NB","wheelchair_boarding":2,"routes":[{"route_id":"19596","agency_id":"70006","route_short_name":"8","route_long_name":"Shaw-Cherokee","route_type":3,"route_color":"#FFFFFF","route_text_color":"#000000"}],"agency_name":"Metro St. Louis"},"geometry":{"type":"Point","coordinates":[-90.24145,38.56251]}},{"type":"Feature","properties":{"stop_id":"1914","stop_code":"1914","stop_name":"BROADWAY @ MAEDER NB","stop_desc":"NEAR SIDE BROADWAY @ MAEDER NB","wheelchair_boarding":2,"routes":[{"route_id":"19596","agency_id":"70006","route_short_name":"8","route_long_name":"Shaw-Cherokee","route_type":3,"route_color":"#FFFFFF","route_text_color":"#000000"}],"agency_name":"Metro St. Louis"},"geometry":{"type":"Point","coordinates":[-90.23834,38.56688]}},{"type":"Feature","properties":{"stop_id":"1915","stop_code":"1915","stop_name":"BROADWAY @ NEBRASKA NB","stop_desc":"NEAR SIDE BROADWAY @ NEBRASKA NB","wheelchair_boarding":1,"routes":[{"route_id":"19596","agency_id":"70006","route_short_name":"8","route_long_name":"Shaw-Cherokee","route_type":3,"route_color":"#FFFFFF","route_text_color":"#000000"}],"agency_name":"Metro St. Louis"},"geometry":{"type":"Point","coordinates":[-90.23753,38.568]}},{"type":"Feature","properties":{"stop_id":"3470","stop_code":"3470","stop_name":"39TH STREET @ SHENANDOAH NB","stop_desc":"FAR SIDE 39TH STREET @ SHENANDOAH NB","wheelchair_boarding":1,"routes":[{"route_id":"19596","agency_id":"70006","route_short_name":"8","route_long_name":"Shaw-Cherokee","route_type":3,"route_color":"#FFFFFF","route_text_color":"#000000"}],"agency_name":"Metro St. Louis"},"geometry":{"type":"Point","coordinates":[-90.24608,38.6103]}},{"type":"Feature","properties":{"stop_id":"3471","stop_code":"3471","stop_name":"39TH STREET @ FLAD NB","stop_desc":"FAR SIDE 39TH STREET @ FLAD NB","wheelchair_boarding":2,"routes":[{"route_id":"19596","agency_id":"70006","route_short_name":"8","route_long_name":"Shaw-Cherokee","route_type":3,"route_color":"#FFFFFF","route_text_color":"#000000"}],"agency_name":"Metro St. Louis"},"geometry":{"type":"Point","coordinates":[-90.24575,38.61216]}},{"type":"Feature","properties":{"stop_id":"3473","stop_code":"3473","stop_name":"39TH STREET @ RUSSELL NB","stop_desc":"FAR SIDE 39TH STREET @ RUSSELL NB","wheelchair_boarding":1,"routes":[{"route_id":"19596","agency_id":"70006","route_short_name":"8","route_long_name":"Shaw-Cherokee","route_type":3,"route_color":"#FFFFFF","route_text_color":"#000000"}],"agency_name":"Metro St. Louis"},"geometry":{"type":"Point","coordinates":[-90.24543,38.61418]}},{"type":"Feature","properties":{"stop_id":"3829","stop_code":"3829","stop_name":"CHEROKEE @ JEFFERSON WB","stop_desc":"FAR SIDE CHEROKEE @ JEFFERSON WB","wheelchair_boarding":1,"routes":[{"route_id":"19596","agency_id":"70006","route_short_name":"8","route_long_name":"Shaw-Cherokee","route_type":3,"route_color":"#FFFFFF","route_text_color":"#000000"}],"agency_name":"Metro St. Louis"},"geometry":{"type":"Point","coordinates":[-90.22574,38.59336]}},{"type":"Feature","properties":{"stop_id":"394","stop_code":"394","stop_name":"BROADWAY @ GASCONADE NB","stop_desc":"NEAR SIDE BROADWAY @ GASCONADE NB","wheelchair_boarding":2,"routes":[{"route_id":"19596","agency_id":"70006","route_short_name":"8","route_long_name":"Shaw-Cherokee","route_type":3,"route_color":"#FFFFFF","route_text_color":"#000000"},{"route_id":"19623","agency_id":"70006","route_short_name":"73","route_long_name":"Carondelet","route_type":3,"route_color":"#FFFFFF","route_text_color":"#000000"}],"agency_name":"Metro St. Louis"},"geometry":{"type":"Point","coordinates":[-90.22897,38.57998]}},{"type":"Feature","properties":{"stop_id":"4115","stop_code":"4115","stop_name":"GRAND @ CHEROKEE NB","stop_desc":"NEAR SIDE GRAND @ CHEROKEE NB","wheelchair_boarding":1,"routes":[{"route_id":"19596","agency_id":"70006","route_short_name":"8","route_long_name":"Shaw-Cherokee","route_type":3,"route_color":"#FFFFFF","route_text_color":"#000000"},{"route_id":"19622","agency_id":"70006","route_short_name":"70","route_long_name":"Grand","route_type":3,"route_color":"#FFFFFF","route_text_color":"#000000"}],"agency_name":"Metro St. Louis"},"geometry":{"type":"Point","coordinates":[-90.24331,38.59536]}},{"type":"Feature","properties":{"stop_id":"4116","stop_code":"4116","stop_name":"GRAND @ UTAH PLACE NB","stop_desc":"FAR SIDE GRAND @ UTAH PLACE NB","wheelchair_boarding":1,"routes":[{"route_id":"19596","agency_id":"70006","route_short_name":"8","route_long_name":"Shaw-Cherokee","route_type":3,"route_color":"#FFFFFF","route_text_color":"#000000"},{"route_id":"19622","agency_id":"70006","route_short_name":"70","route_long_name":"Grand","route_type":3,"route_color":"#FFFFFF","route_text_color":"#000000"}],"agency_name":"Metro St. Louis"},"geometry":{"type":"Point","coordinates":[-90.24293,38.59773]}},{"type":"Feature","properties":{"stop_id":"4118","stop_code":"4118","stop_name":"GRAND @ JUNIATA NB","stop_desc":"FAR SIDE GRAND @ JUNIATA NB","wheelchair_boarding":1,"routes":[{"route_id":"19596","agency_id":"70006","route_short_name":"8","route_long_name":"Shaw-Cherokee","route_type":3,"route_color":"#FFFFFF","route_text_color":"#000000"},{"route_id":"19622","agency_id":"70006","route_short_name":"70","route_long_name":"Grand","route_type":3,"route_color":"#FFFFFF","route_text_color":"#000000"}],"agency_name":"Metro St. Louis"},"geometry":{"type":"Point","coordinates":[-90.24239,38.60133]}},{"type":"Feature","properties":{"stop_id":"4119","stop_code":"4119","stop_name":"GRAND @ ARSENAL NB","stop_desc":"FAR SIDE GRAND @ ARSENAL NB","wheelchair_boarding":1,"routes":[{"route_id":"19596","agency_id":"70006","route_short_name":"8","route_long_name":"Shaw-Cherokee","route_type":3,"route_color":"#FFFFFF","route_text_color":"#000000"},{"route_id":"19622","agency_id":"70006","route_short_name":"70","route_long_name":"Grand","route_type":3,"route_color":"#FFFFFF","route_text_color":"#000000"}],"agency_name":"Metro St. Louis"},"geometry":{"type":"Point","coordinates":[-90.2421,38.60329]}},{"type":"Feature","properties":{"stop_id":"412","stop_code":"412","stop_name":"CATALAN TRANSIT CENTER","wheelchair_boarding":1,"routes":[{"route_id":"19596","agency_id":"70006","route_short_name":"8","route_long_name":"Shaw-Cherokee","route_type":3,"route_color":"#FFFFFF","route_text_color":"#000000"}],"agency_name":"Metro St. Louis"},"geometry":{"type":"Point","coordinates":[-90.26593,38.54005]}},{"type":"Feature","properties":{"stop_id":"4120","stop_code":"4120","stop_name":"GRAND @ HALLIDAY NB","stop_desc":"NEAR SIDE GRAND @ HALLIDAY NB","wheelchair_boarding":1,"routes":[{"route_id":"19596","agency_id":"70006","route_short_name":"8","route_long_name":"Shaw-Cherokee","route_type":3,"route_color":"#FFFFFF","route_text_color":"#000000"},{"route_id":"19622","agency_id":"70006","route_short_name":"70","route_long_name":"Grand","route_type":3,"route_color":"#FFFFFF","route_text_color":"#000000"}],"agency_name":"Metro St. Louis"},"geometry":{"type":"Point","coordinates":[-90.24171,38.60508]}},{"type":"Feature","properties":{"stop_id":"6548","stop_code":"6548","stop_name":"BROADWAY @ MARCEAU NB","stop_desc":"NEAR SIDE BROADWAY @ MARCEAU NB","wheelchair_boarding":1,"routes":[{"route_id":"19596","agency_id":"70006","route_short_name":"8","route_long_name":"Shaw-Cherokee","route_type":3,"route_color":"#FFFFFF","route_text_color":"#000000"}],"agency_name":"Metro St. Louis"},"geometry":{"type":"Point","coordinates":[-90.26446,38.54159]}},{"type":"Feature","properties":{"stop_id":"6549","stop_code":"6549","stop_name":"BROADWAY @ DAVIS NB","stop_desc":"NEAR SIDE BROADWAY @ DAVIS NB","wheelchair_boarding":2,"routes":[{"route_id":"19596","agency_id":"70006","route_short_name":"8","route_long_name":"Shaw-Cherokee","route_type":3,"route_color":"#FFFFFF","route_text_color":"#000000"}],"agency_name":"Metro St. Louis"},"geometry":{"type":"Point","coordinates":[-90.26285,38.543]}},{"type":"Feature","properties":{"stop_id":"6551","stop_code":"6551","stop_name":"BROADWAY @ PRIMM NB","stop_desc":"FAR SIDE BROADWAY @ PRIMM NB","wheelchair_boarding":1,"routes":[{"route_id":"19596","agency_id":"70006","route_short_name":"8","route_long_name":"Shaw-Cherokee","route_type":3,"route_color":"#FFFFFF","route_text_color":"#000000"}],"agency_name":"Metro St. Louis"},"geometry":{"type":"Point","coordinates":[-90.26004,38.54548]}},{"type":"Feature","properties":{"stop_id":"6554","stop_code":"6554","stop_name":"BROADWAY @ KOELN NB","stop_desc":"FAR SIDE BROADWAY @ KOELN NB","wheelchair_boarding":2,"routes":[{"route_id":"19596","agency_id":"70006","route_short_name":"8","route_long_name":"Shaw-Cherokee","route_type":3,"route_color":"#FFFFFF","route_text_color":"#000000"}],"agency_name":"Metro St. Louis"},"geometry":{"type":"Point","coordinates":[-90.25692,38.54823]}},{"type":"Feature","properties":{"stop_id":"6558","stop_code":"6558","stop_name":"BROADWAY @ BLOW NB","stop_desc":"FAR SIDE BROADWAY @ BLOW NB","wheelchair_boarding":1,"routes":[{"route_id":"19596","agency_id":"70006","route_short_name":"8","route_long_name":"Shaw-Cherokee","route_type":3,"route_color":"#FFFFFF","route_text_color":"#000000"}],"agency_name":"Metro St. Louis"},"geometry":{"type":"Point","coordinates":[-90.25347,38.55125]}},{"type":"Feature","properties":{"stop_id":"6559","stop_code":"6559","stop_name":"BROADWAY @ LOUGHBOROUGH NB","stop_desc":"FAR SIDE BROADWAY @ LOUGHBOROUGH NB","wheelchair_boarding":1,"routes":[{"route_id":"19596","agency_id":"70006","route_short_name":"8","route_long_name":"Shaw-Cherokee","route_type":3,"route_color":"#FFFFFF","route_text_color":"#000000"}],"agency_name":"Metro St. Louis"},"geometry":{"type":"Point","coordinates":[-90.25199,38.55259]}},{"type":"Feature","properties":{"stop_id":"6562","stop_code":"6562","stop_name":"BROADWAY @ HOLLY HILLS NB","stop_desc":"NEAR SIDE BROADWAY @ HOLLY HILLS NB","wheelchair_boarding":1,"routes":[{"route_id":"19596","agency_id":"70006","route_short_name":"8","route_long_name":"Shaw-Cherokee","route_type":3,"route_color":"#FFFFFF","route_text_color":"#000000"}],"agency_name":"Metro St. Louis"},"geometry":{"type":"Point","coordinates":[-90.24808,38.55603]}},{"type":"Feature","properties":{"stop_id":"6565","stop_code":"6565","stop_name":"BROADWAY @ FILLMORE NB","stop_desc":"NEAR SIDE BROADWAY @ FILLMORE NB","wheelchair_boarding":1,"routes":[{"route_id":"19596","agency_id":"70006","route_short_name":"8","route_long_name":"Shaw-Cherokee","route_type":3,"route_color":"#FFFFFF","route_text_color":"#000000"}],"agency_name":"Metro St. Louis"},"geometry":{"type":"Point","coordinates":[-90.24475,38.55876]}},{"type":"Feature","properties":{"stop_id":"6566","stop_code":"6566","stop_name":"BROADWAY @ DOVER NB","stop_desc":"FAR SIDE BROADWAY @ DOVER NB","wheelchair_boarding":1,"routes":[{"route_id":"19596","agency_id":"70006","route_short_name":"8","route_long_name":"Shaw-Cherokee","route_type":3,"route_color":"#FFFFFF","route_text_color":"#000000"}],"agency_name":"Metro St. Louis"},"geometry":{"type":"Point","coordinates":[-90.24294,38.56037]}},{"type":"Feature","properties":{"stop_id":"6567","stop_code":"6567","stop_name":"BROADWAY @ ITASKA NB","stop_desc":"NEAR SIDE BROADWAY @ ITASKA NB","wheelchair_boarding":1,"routes":[{"route_id":"19596","agency_id":"70006","route_short_name":"8","route_long_name":"Shaw-Cherokee","route_type":3,"route_color":"#FFFFFF","route_text_color":"#000000"}],"agency_name":"Metro St. Louis"},"geometry":{"type":"Point","coordinates":[-90.23592,38.57028]}},{"type":"Feature","properties":{"stop_id":"6568","stop_code":"6568","stop_name":"BROADWAY @ MOUNT PLEASANT NB","stop_desc":"NEAR SIDE BROADWAY @ MOUNT PLEASANT NB","wheelchair_boarding":2,"routes":[{"route_id":"19596","agency_id":"70006","route_short_name":"8","route_long_name":"Shaw-Cherokee","route_type":3,"route_color":"#FFFFFF","route_text_color":"#000000"}],"agency_name":"Metro St. Louis"},"geometry":{"type":"Point","coordinates":[-90.2346,38.57217]}},{"type":"Feature","properties":{"stop_id":"6569","stop_code":"6569","stop_name":"BROADWAY @ OSCEOLA NB","stop_desc":"FAR SIDE BROADWAY @ OSCEOLA NB","wheelchair_boarding":2,"routes":[{"route_id":"19596","agency_id":"70006","route_short_name":"8","route_long_name":"Shaw-Cherokee","route_type":3,"route_color":"#FFFFFF","route_text_color":"#000000"}],"agency_name":"Metro St. Louis"},"geometry":{"type":"Point","coordinates":[-90.23247,38.57661]}},{"type":"Feature","properties":{"stop_id":"6576","stop_code":"6576","stop_name":"BROADWAY @ KEOKUK NB","stop_desc":"NEAR SIDE BROADWAY @ KEOKUK NB","wheelchair_boarding":1,"routes":[{"route_id":"19596","agency_id":"70006","route_short_name":"8","route_long_name":"Shaw-Cherokee","route_type":3,"route_color":"#FFFFFF","route_text_color":"#000000"},{"route_id":"19623","agency_id":"70006","route_short_name":"73","route_long_name":"Carondelet","route_type":3,"route_color":"#FFFFFF","route_text_color":"#000000"}],"agency_name":"Metro St. Louis"},"geometry":{"type":"Point","coordinates":[-90.22725,38.58416]}},{"type":"Feature","properties":{"stop_id":"7580","stop_code":"7580","stop_name":"CHEROKEE @ NEBRASKA WB","stop_desc":"NEAR SIDE CHEROKEE @ NEBRASKA WB","wheelchair_boarding":1,"routes":[{"route_id":"19596","agency_id":"70006","route_short_name":"8","route_long_name":"Shaw-Cherokee","route_type":3,"route_color":"#FFFFFF","route_text_color":"#000000"}],"agency_name":"Metro St. Louis"},"geometry":{"type":"Point","coordinates":[-90.23211,38.59417]}},{"type":"Feature","properties":{"stop_id":"7666","stop_code":"7666","stop_name":"CHEROKEE @ CALIFORNIA WB","stop_desc":"NEAR SIDE CHEROKEE @ CALIFORNIA WB","wheelchair_boarding":1,"routes":[{"route_id":"19596","agency_id":"70006","route_short_name":"8","route_long_name":"Shaw-Cherokee","route_type":3,"route_color":"#FFFFFF","route_text_color":"#000000"}],"agency_name":"Metro St. Louis"},"geometry":{"type":"Point","coordinates":[-90.22985,38.59388]}},{"type":"Feature","properties":{"stop_id":"7667","stop_code":"7667","stop_name":"CHEROKEE @ MINNESOTA WB","stop_desc":"NEAR SIDE CHEROKEE @ MINNESOTA WB","wheelchair_boarding":1,"routes":[{"route_id":"19596","agency_id":"70006","route_short_name":"8","route_long_name":"Shaw-Cherokee","route_type":3,"route_color":"#FFFFFF","route_text_color":"#000000"}],"agency_name":"Metro St. Louis"},"geometry":{"type":"Point","coordinates":[-90.23443,38.59447]}},{"type":"Feature","properties":{"stop_id":"7668","stop_code":"7668","stop_name":"CHEROKEE @ COMPTON WB","stop_desc":"FAR SIDE CHEROKEE @ COMPTON WB","wheelchair_boarding":1,"routes":[{"route_id":"19596","agency_id":"70006","route_short_name":"8","route_long_name":"Shaw-Cherokee","route_type":3,"route_color":"#FFFFFF","route_text_color":"#000000"}],"agency_name":"Metro St. Louis"},"geometry":{"type":"Point","coordinates":[-90.23717,38.59481]}},{"type":"Feature","properties":{"stop_id":"8557","stop_code":"8557","stop_name":"TOWER GROVE @ SHAW NB","stop_desc":"FAR SIDE TOWER GROVE @ SHAW NB","wheelchair_boarding":1,"routes":[{"route_id":"19596","agency_id":"70006","route_short_name":"8","route_long_name":"Shaw-Cherokee","route_type":3,"route_color":"#FFFFFF","route_text_color":"#000000"}],"agency_name":"Metro St. Louis"},"geometry":{"type":"Point","coordinates":[-90.25623,38.61705]}},{"type":"Feature","properties":{"stop_id":"8558","stop_code":"8558","stop_name":"TOWER GROVE @ LAFAYETTE NB","stop_desc":"FAR SIDE TOWER GROVE @ LAFAYETTE NB","wheelchair_boarding":1,"routes":[{"route_id":"19596","agency_id":"70006","route_short_name":"8","route_long_name":"Shaw-Cherokee","route_type":3,"route_color":"#FFFFFF","route_text_color":"#000000"}],"agency_name":"Metro St. Louis"},"geometry":{"type":"Point","coordinates":[-90.25586,38.61888]}},{"type":"Feature","properties":{"stop_id":"8562","stop_code":"8562","stop_name":"TOWER GROVE @ VISTA NB","stop_desc":"NEAR SIDE TOWER GROVE @ VISTA NB","wheelchair_boarding":1,"routes":[{"route_id":"19596","agency_id":"70006","route_short_name":"8","route_long_name":"Shaw-Cherokee","route_type":3,"route_color":"#FFFFFF","route_text_color":"#000000"}],"agency_name":"Metro St. Louis"},"geometry":{"type":"Point","coordinates":[-90.25621,38.62415]}},{"type":"Feature","properties":{"stop_id":"8565","stop_code":"8565","stop_name":"TOWER GROVE @ MANCHESTER NB","stop_desc":"FAR SIDE TOWER GROVE @ MANCHESTER NB","wheelchair_boarding":1,"routes":[{"route_id":"19596","agency_id":"70006","route_short_name":"8","route_long_name":"Shaw-Cherokee","route_type":3,"route_color":"#FFFFFF","route_text_color":"#000000"}],"agency_name":"Metro St. Louis"},"geometry":{"type":"Point","coordinates":[-90.25665,38.62754]}},{"type":"Feature","properties":{"stop_id":"8567","stop_code":"8567","stop_name":"TOWER GROVE @ GIBSON NB","stop_desc":"FAR SIDE TOWER GROVE @ GIBSON NB","wheelchair_boarding":1,"routes":[{"route_id":"19596","agency_id":"70006","route_short_name":"8","route_long_name":"Shaw-Cherokee","route_type":3,"route_color":"#FFFFFF","route_text_color":"#000000"}],"agency_name":"Metro St. Louis"},"geometry":{"type":"Point","coordinates":[-90.25623,38.62873]}},{"type":"Feature","properties":{"stop_id":"8569","stop_code":"8569","stop_name":"CHOUTEAU @ NEWSTEAD WB","stop_desc":"NEAR SIDE CHOUTEAU @ NEWSTEAD WB","wheelchair_boarding":2,"routes":[{"route_id":"19596","agency_id":"70006","route_short_name":"8","route_long_name":"Shaw-Cherokee","route_type":3,"route_color":"#FFFFFF","route_text_color":"#000000"}],"agency_name":"Metro St. Louis"},"geometry":{"type":"Point","coordinates":[-90.25807,38.63002]}},{"type":"Feature","properties":{"stop_id":"8571","stop_code":"8571","stop_name":"TAYLOR @ CLAYTON NB","stop_desc":"FAR SIDE TAYLOR @ CLAYTON NB","wheelchair_boarding":2,"routes":[{"route_id":"19596","agency_id":"70006","route_short_name":"8","route_long_name":"Shaw-Cherokee","route_type":3,"route_color":"#FFFFFF","route_text_color":"#000000"},{"route_id":"19618","agency_id":"70006","route_short_name":"59","route_long_name":"Oakland","route_type":3,"route_color":"#FFFFFF","route_text_color":"#000000"},{"route_id":"19632","agency_id":"70006","route_short_name":"95","route_long_name":"Kingshighway","route_type":3,"route_color":"#FFFFFF","route_text_color":"#000000"}],"agency_name":"Metro St. Louis"},"geometry":{"type":"Point","coordinates":[-90.2601,38.63346]}},{"type":"Feature","properties":{"stop_id":"8814","stop_code":"8814","stop_name":"JEFFERSON @ CHIPPEWA NB","stop_desc":"FAR SIDE JEFFERSON @ CHIPPEWA NB","wheelchair_boarding":1,"routes":[{"route_id":"19596","agency_id":"70006","route_short_name":"8","route_long_name":"Shaw-Cherokee","route_type":3,"route_color":"#FFFFFF","route_text_color":"#000000"},{"route_id":"19599","agency_id":"70006","route_short_name":"11","route_long_name":"Chippewa","route_type":3,"route_color":"#FFFFFF","route_text_color":"#000000"}],"agency_name":"Metro St. Louis"},"geometry":{"type":"Point","coordinates":[-90.22675,38.58651]}},{"type":"Feature","properties":{"stop_id":"8816","stop_code":"8816","stop_name":"JEFFERSON @ MIAMI NB","stop_desc":"FAR SIDE JEFFERSON @ MIAMI NB","wheelchair_boarding":1,"routes":[{"route_id":"19596","agency_id":"70006","route_short_name":"8","route_long_name":"Shaw-Cherokee","route_type":3,"route_color":"#FFFFFF","route_text_color":"#000000"},{"route_id":"19599","agency_id":"70006","route_short_name":"11","route_long_name":"Chippewa","route_type":3,"route_color":"#FFFFFF","route_text_color":"#000000"}],"agency_name":"Metro St. Louis"},"geometry":{"type":"Point","coordinates":[-90.22604,38.59004]}},{"type":"Feature","properties":{"stop_id":"8868","stop_code":"8868","stop_name":"GRAVOIS @ CHEROKEE WB","stop_desc":"FAR SIDE GRAVOIS @ CHEROKEE WB","wheelchair_boarding":1,"routes":[{"route_id":"19596","agency_id":"70006","route_short_name":"8","route_long_name":"Shaw-Cherokee","route_type":3,"route_color":"#FFFFFF","route_text_color":"#000000"},{"route_id":"19598","agency_id":"70006","route_short_name":"10","route_long_name":"Gravois-Lindell","route_type":3,"route_color":"#FFFFFF","route_text_color":"#000000"}],"agency_name":"Metro St. Louis"},"geometry":{"type":"Point","coordinates":[-90.24106,38.595]}}]}