{"type":"FeatureCollection","features":[{"type":"Feature","properties":{"agency_name":"Metro St. Louis","route_id":"19609","agency_id":"70006","route_short_name":"34","route_long_name":"Earth City","route_type":3,"route_color":"#FFFFFF","route_text_color":"#000000"},"geometry":{"type":"MultiLineString","coordinates":[[[-90.31561,38.71975],[-90.315,38.71977],[-90.31561,38.71975],[-90.31577,38.71967],[-90.31586,38.7195],[-90.31606,38.71875],[-90.3161,38.71825],[-90.31606,38.71782],[-90.31624,38.71782],[-90.31782,38.71823],[-90.31762,38.71869],[-90.31721,38.71952],[-90.31716,38.71967],[-90.3171,38.72013],[-90.31713,38.72098],[-90.31767,38.72128],[-90.31875,38.72124],[-90.31923,38.72124],[-90.31987,38.72136],[-90.32049,38.72151],[-90.32123,38.72187],[-90.32173,38.72216],[-90.32203,38.72238],[-90.3246,38.72447],[-90.32512,38.72487],[-90.32723,38.72659],[-90.32767,38.72698],[-90.32806,38.7273],[-90.33051,38.72925],[-90.33121,38.72975],[-90.3316,38.72998],[-90.33199,38.73017],[-90.33274,38.73047],[-90.33297,38.73055],[-90.33382,38.73076],[-90.33466,38.731],[-90.33603,38.73135],[-90.33718,38.73167],[-90.34047,38.73248],[-90.34281,38.73308],[-90.34352,38.73325],[-90.34413,38.73337],[-90.34475,38.73342],[-90.3454,38.73343],[-90.34579,38.73341],[-90.346,38.73336],[-90.3473,38.7332],[-90.34768,38.73317],[-90.34862,38.73317],[-90.34932,38.73321],[-90.3501,38.7333],[-90.35049,38.73336],[-90.35103,38.73347],[-90.35135,38.73357],[-90.35221,38.7338],[-90.3528,38.73402],[-90.35365,38.73438],[-90.35481,38.73498],[-90.35624,38.73575],[-90.35944,38.73743],[-90.36139,38.73837],[-90.36175,38.73853],[-90.36253,38.73882],[-90.36314,38.739],[-90.36365,38.73913],[-90.36441,38.73927],[-90.36536,38.73939],[-90.37097,38.73999],[-90.37131,38.74004],[-90.37195,38.74017],[-90.37259,38.74034],[-90.3737,38.74072],[-90.37486,38.74126],[-90.37586,38.74177],[-90.37731,38.74248],[-90.37795,38.74274],[-90.37833,38.74286],[-90.37916,38.74307],[-90.38011,38.7432],[-90.38048,38.74321],[-90.38113,38.74321],[-90.38159,38.74318],[-90.38272,38.74315],[-90.38304,38.74312],[-90.38498,38.74306],[-90.38626,38.74309],[-90.39934,38.74391],[-90.40037,38.74396],[-90.40275,38.74414],[-90.405,38.74427],[-90.40599,38.7443],[-90.40732,38.74428],[-90.40842,38.74423],[-90.41131,38.74403],[-90.41271,38.74396],[-90.41476,38.74383],[-90.41621,38.74376],[-90.4174,38.74368],[-90.41811,38.74366],[-90.41868,38.74368],[-90.41936,38.74373],[-90.41999,38.74382],[-90.4311,38.74596],[-90.43203,38.74612],[-90.43282,38.74629],[-90.43393,38.74658],[-90.43531,38.74703],[-90.43715,38.7477],[-90.43846,38.74821],[-90.43946,38.74856],[-90.43987,38.74875],[-90.44363,38.75012],[-90.44752,38.75158],[-90.45436,38.75411],[-90.45501,38.7546],[-90.45526,38.75484],[-90.45547,38.75512],[-90.45556,38.75527],[-90.45656,38.75743],[-90.45668,38.75777],[-90.45671,38.75793],[-90.45673,38.75823],[-90.4567,38.75848],[-90.4566,38.75895],[-90.45628,38.75949],[-90.4561,38.75987],[-90.45592,38.76033],[-90.45565,38.76114],[-90.45556,38.76158],[-90.45548,38.76221],[-90.45501,38.76262],[-90.45471,38.76263],[-90.45451,38.76261],[-90.45414,38.76251],[-90.45343,38.76363],[-90.45336,38.76393],[-90.45336,38.76414],[-90.45342,38.76433],[-90.45359,38.7646],[-90.45447,38.76559],[-90.45457,38.76577],[-90.45477,38.76633],[-90.45492,38.76658],[-90.45498,38.76663],[-90.45472,38.7668],[-90.45448,38.76701],[-90.45401,38.76754],[-90.45393,38.76774],[-90.4539,38.76786],[-90.4539,38.76806],[-90.45398,38.76834],[-90.45611,38.77288],[-90.45636,38.77357],[-90.45665,38.77463],[-90.45674,38.77485],[-90.457,38.77517],[-90.45726,38.77537],[-90.45773,38.77557],[-90.45803,38.77564],[-90.46031,38.77596],[-90.46132,38.77613],[-90.46292,38.77635],[-90.46366,38.77649],[-90.46383,38.77655],[-90.46491,38.77706],[-90.46538,38.77726],[-90.46593,38.77738],[-90.46616,38.77739],[-90.46639,38.77738],[-90.46662,38.77734],[-90.46684,38.77728],[-90.46705,38.7772],[-90.46787,38.77677],[-90.46815,38.77659],[-90.46839,38.77635],[-90.46853,38.77617],[-90.47344,38.76803],[-90.47487,38.76562],[-90.47509,38.76529],[-90.47513,38.76519],[-90.47519,38.76486],[-90.47515,38.76454],[-90.47511,38.76444],[-90.47501,38.76424],[-90.47494,38.76416],[-90.47467,38.76394],[-90.47452,38.76384],[-90.47415,38.76367],[-90.47357,38.76345],[-90.46638,38.7608],[-90.46606,38.76074],[-90.46564,38.76073],[-90.46418,38.76096],[-90.45959,38.76178],[-90.45942,38.76175],[-90.45867,38.7619],[-90.45801,38.75993],[-90.45775,38.75903],[-90.45769,38.75872],[-90.45766,38.7584],[-90.45767,38.75795],[-90.4577,38.75775],[-90.45776,38.75747],[-90.45789,38.75711],[-90.45804,38.75679],[-90.45842,38.75613],[-90.45891,38.75536],[-90.46089,38.75207],[-90.46228,38.74992],[-90.46296,38.74884],[-90.46431,38.74657],[-90.46451,38.74627],[-90.46474,38.74598],[-90.46494,38.74577],[-90.46519,38.74554],[-90.46563,38.74521],[-90.46716,38.74419],[-90.46831,38.74552],[-90.46845,38.74571],[-90.46855,38.7459],[-90.46863,38.74611],[-90.46866,38.74624],[-90.46867,38.74646],[-90.46795,38.74643],[-90.46753,38.74636],[-90.46737,38.74643],[-90.46682,38.7474],[-90.4667,38.74751],[-90.46654,38.74759],[-90.46614,38.74772],[-90.46603,38.74779],[-90.46565,38.74832],[-90.4661,38.74877],[-90.46628,38.74906],[-90.46655,38.74957],[-90.46507,38.75008],[-90.4646,38.7501],[-90.46457,38.74997],[-90.46446,38.74972],[-90.46416,38.74938],[-90.46384,38.7492],[-90.46277,38.74877],[-90.46205,38.75],[-90.46151,38.75087],[-90.46077,38.752],[-90.46066,38.75219],[-90.4605,38.75227],[-90.46025,38.75254],[-90.46012,38.75265],[-90.4598,38.75284],[-90.45959,38.75294],[-90.45923,38.75306],[-90.45625,38.75389],[-90.45596,38.75395],[-90.45564,38.75398],[-90.45541,38.75398],[-90.45518,38.75397],[-90.45157,38.75286],[-90.44763,38.75139],[-90.44598,38.75084],[-90.44195,38.74935],[-90.44136,38.74912],[-90.43619,38.74722],[-90.43469,38.7467],[-90.43406,38.74651],[-90.43304,38.74624],[-90.43208,38.74602],[-90.43098,38.74579],[-90.42016,38.74372],[-90.41956,38.74362],[-90.41876,38.74354],[-90.41824,38.74352],[-90.41765,38.74352],[-90.41695,38.74355],[-90.41274,38.74381],[-90.41228,38.74382],[-90.41079,38.74393],[-90.4074,38.74412],[-90.40666,38.74414],[-90.40535,38.74413],[-90.39787,38.74367],[-90.39104,38.74323],[-90.39066,38.74319],[-90.38626,38.74292],[-90.38488,38.74289],[-90.383,38.74295],[-90.38131,38.74303],[-90.38058,38.74304],[-90.38023,38.74303],[-90.37974,38.74298],[-90.3791,38.74289],[-90.37865,38.74279],[-90.37833,38.7427],[-90.37773,38.74249],[-90.3769,38.74212],[-90.3751,38.7412],[-90.3743,38.74081],[-90.3737,38.74055],[-90.37321,38.74037],[-90.37212,38.74005],[-90.37139,38.73989],[-90.37109,38.73986],[-90.37071,38.7398],[-90.36474,38.73917],[-90.36412,38.73907],[-90.36359,38.73896],[-90.36256,38.73868],[-90.36203,38.7385],[-90.36149,38.73827],[-90.36089,38.73799],[-90.35844,38.73675],[-90.35288,38.73377],[-90.35152,38.73308],[-90.35117,38.73296],[-90.35052,38.7328],[-90.34975,38.73274],[-90.34911,38.73278],[-90.34651,38.73313],[-90.34541,38.73322],[-90.34508,38.73323],[-90.34436,38.73319],[-90.34391,38.73313],[-90.34362,38.73307],[-90.34024,38.73222],[-90.33938,38.73197],[-90.33858,38.7317],[-90.33763,38.73133],[-90.33683,38.73098],[-90.3301,38.72779],[-90.3293,38.72742],[-90.329,38.7273],[-90.32847,38.72703],[-90.32788,38.7267],[-90.32711,38.72619],[-90.32673,38.7259],[-90.3249,38.72439],[-90.32435,38.72396],[-90.32256,38.7225],[-90.32181,38.72194],[-90.32156,38.72178],[-90.32131,38.72163],[-90.32054,38.72126],[-90.31966,38.72097],[-90.31954,38.72088],[-90.31946,38.72085],[-90.31811,38.72042],[-90.31761,38.72023],[-90.31729,38.72015]],[[-90.31606,38.71782],[-90.31581,38.71782],[-90.31494,38.71791],[-90.31441,38.71785],[-90.31392,38.71763],[-90.31372,38.71823],[-90.31376,38.7184],[-90.31429,38.71978],[-90.3144,38.71981]]]}},{"type":"Feature","properties":{"stop_id":"13330","stop_code":"13330","stop_name":"NORTH HANLEY TRANSIT CENTER","wheelchair_boarding":1,"routes":[{"route_id":"19594","agency_id":"70006","route_short_name":"4","route_long_name":"Natural Bridge","route_type":3,"route_color":"#FFFFFF","route_text_color":"#000000"},{"route_id":"19609","agency_id":"70006","route_short_name":"34","route_long_name":"Earth City","route_type":3,"route_color":"#FFFFFF","route_text_color":"#000000"},{"route_id":"19614","agency_id":"70006","route_short_name":"49","route_long_name":"Lindbergh","route_type":3,"route_color":"#FFFFFF","route_text_color":"#000000"},{"route_id":"19620","agency_id":"70006","route_short_name":"61","route_long_name":"Chambers Rd","route_type":3,"route_color":"#FFFFFF","route_text_color":"#000000"},{"route_id":"19625","agency_id":"70006","route_short_name":"76","route_long_name":"N Hanley Shuttle","route_type":3,"route_color":"#FFFFFF","route_text_color":"#000000"},{"route_id":"19626","agency_id":"70006","route_short_name":"77","route_long_name":"Village Square","route_type":3,"route_color":"#FFFFFF","route_text_color":"#000000"},{"route_id":"19628","agency_id":"70006","route_short_name":"79","route_long_name":"Ferguson-Clayton","route_type":3,"route_color":"#FFFFFF","route_text_color":"#000000"}],"agency_name":"Metro St. Louis"},"geometry":{"type":"Point","coordinates":[-90.31495,38.71976]}},{"type":"Feature","properties":{"stop_id":"13616","stop_code":"13616","stop_name":"RIDER TRAIL SOUTH @ EARTH CITY EXPRESSWAY EB","stop_desc":"NEAR SIDE RIDER TRAIL SOUTH @ EARTH CITY EXPRESSWAY EB","wheelchair_boarding":2,"routes":[{"route_id":"19609","agency_id":"70006","route_short_name":"34","route_long_name":"Earth City","route_type":3,"route_color":"#FFFFFF","route_text_color":"#000000"}],"agency_name":"Metro St. Louis"},"geometry":{"type":"Point","coordinates":[-90.46,38.76162]}},{"type":"Feature","properties":{"stop_id":"14622","stop_code":"14622","stop_name":"13390 LAKEFRONT NB","stop_desc":"NEAR SIDE 13390 LAKEFRONT NB","wheelchair_boarding":2,"routes":[{"route_id":"19609","agency_id":"70006","route_short_name":"34","route_long_name":"Earth City","route_type":3,"route_color":"#FFFFFF","route_text_color":"#000000"}],"agency_name":"Metro St. Louis"},"geometry":{"type":"Point","coordinates":[-90.45441,38.76698]}},{"type":"Feature","properties":{"stop_id":"14623","stop_code":"14623","stop_name":"13342 LAKEFRONT NB","stop_desc":"MID-BLOCK 13342 LAKEFRONT NB","wheelchair_boarding":2,"routes":[{"route_id":"19609","agency_id":"70006","route_short_name":"34","route_long_name":"Earth City","route_type":3,"route_color":"#FFFFFF","route_text_color":"#000000"}],"agency_name":"Metro St. Louis"},"geometry":{"type":"Point","coordinates":[-90.45465,38.76995]}},{"type":"Feature","properties":{"stop_id":"14625","stop_code":"14625","stop_name":"LAKEFRONT @ VENTURES WAY NB","stop_desc":"NEAR SIDE LAKEFRONT @ VENTURES WAY NB","wheelchair_boarding":2,"routes":[{"route_id":"19609","agency_id":"70006","route_short_name":"34","route_long_name":"Earth City","route_type":3,"route_color":"#FFFFFF","route_text_color":"#000000"}],"agency_name":"Metro St. Louis"},"geometry":{"type":"Point","coordinates":[-90.45561,38.77195]}},{"type":"Feature","properties":{"stop_id":"14626","stop_code":"14626","stop_name":"13188 LAKEFRONT NB","stop_desc":"NEAR SIDE 13188 LAKEFRONT NB","wheelchair_boarding":2,"routes":[{"route_id":"19609","agency_id":"70006","route_short_name":"34","route_long_name":"Earth City","route_type":3,"route_color":"#FFFFFF","route_text_color":"#000000"}],"agency_name":"Metro St. Louis"},"geometry":{"type":"Point","coordinates":[-90.45637,38.7739]}},{"type":"Feature","properties":{"stop_id":"14627","stop_code":"14627","stop_name":"RIDER TRAIL NORTH @ EARTH CITY EXPRESSWAY WB","stop_desc":"NEAR SIDE RIDER TRAIL NORTH @ EARTH CITY EXPRESSWAY WB","wheelchair_boarding":2,"routes":[{"route_id":"19609","agency_id":"70006","route_short_name":"34","route_long_name":"Earth City","route_type":3,"route_color":"#FFFFFF","route_text_color":"#000000"}],"agency_name":"Metro St. Louis"},"geometry":{"type":"Point","coordinates":[-90.45957,38.77597]}},{"type":"Feature","properties":{"stop_id":"14628","stop_code":"14628","stop_name":"13789 RIDER TRAIL NORTH WB","stop_desc":"MID-BLOCK 13789 RIDER TRAIL NORTH WB","wheelchair_boarding":2,"routes":[{"route_id":"19609","agency_id":"70006","route_short_name":"34","route_long_name":"Earth City","route_type":3,"route_color":"#FFFFFF","route_text_color":"#000000"}],"agency_name":"Metro St. Louis"},"geometry":{"type":"Point","coordinates":[-90.46277,38.7764]}},{"type":"Feature","properties":{"stop_id":"14632","stop_code":"14632","stop_name":"4143 RIDER TRAIL NORTH SB","stop_desc":"MID-BLOCK 4143 RIDER TRAIL NORTH SB","wheelchair_boarding":2,"routes":[{"route_id":"19609","agency_id":"70006","route_short_name":"34","route_long_name":"Earth City","route_type":3,"route_color":"#FFFFFF","route_text_color":"#000000"}],"agency_name":"Metro St. Louis"},"geometry":{"type":"Point","coordinates":[-90.47474,38.766]}},{"type":"Feature","properties":{"stop_id":"14633","stop_code":"14633","stop_name":"RIDER TRAIL SOUTH @ GALLEY COURT EB","stop_desc":"NEAR SIDE RIDER TRAIL SOUTH @ GALLEY COURT EB","wheelchair_boarding":2,"routes":[{"route_id":"19609","agency_id":"70006","route_short_name":"34","route_long_name":"Earth City","route_type":3,"route_color":"#FFFFFF","route_text_color":"#000000"}],"agency_name":"Metro St. Louis"},"geometry":{"type":"Point","coordinates":[-90.47417,38.76361]}},{"type":"Feature","properties":{"stop_id":"16141","stop_code":"16141","stop_name":"EARTH CITY EXPRESSWAY @ RIDER TRAIL SOUTH NB","stop_desc":"NEAR SIDE EARTH CITY EXPRESSWAY @ RIDER TRAIL SOUTH NB","wheelchair_boarding":2,"routes":[{"route_id":"19609","agency_id":"70006","route_short_name":"34","route_long_name":"Earth City","route_type":3,"route_color":"#FFFFFF","route_text_color":"#000000"}],"agency_name":"Metro St. Louis"},"geometry":{"type":"Point","coordinates":[-90.45545,38.76201]}},{"type":"Feature","properties":{"stop_id":"16227","stop_code":"16227","stop_name":"RIVERPORT @ AMPHITHEATER NB","stop_desc":"NEAR SIDE RIVERPORT @ AMPHITHEATER NB","wheelchair_boarding":2,"routes":[{"route_id":"19609","agency_id":"70006","route_short_name":"34","route_long_name":"Earth City","route_type":3,"route_color":"#FFFFFF","route_text_color":"#000000"}],"agency_name":"Metro St. Louis"},"geometry":{"type":"Point","coordinates":[-90.46846,38.74592]}},{"type":"Feature","properties":{"stop_id":"16256","stop_code":"16256","stop_name":"RIDER TRAIL NORTH @ PARKS STEED SB","stop_desc":"NEAR SIDE RIDER TRAIL NORTH @ PARKS STEED SB","wheelchair_boarding":2,"routes":[{"route_id":"19609","agency_id":"70006","route_short_name":"34","route_long_name":"Earth City","route_type":3,"route_color":"#FFFFFF","route_text_color":"#000000"}],"agency_name":"Metro St. Louis"},"geometry":{"type":"Point","coordinates":[-90.47334,38.76826]}},{"type":"Feature","properties":{"stop_id":"16257","stop_code":"16257","stop_name":"4301 RIDER TRAIL NORTH SB","stop_desc":"NEAR SIDE 4301 RIDER TRAIL NORTH SB","wheelchair_boarding":2,"routes":[{"route_id":"19609","agency_id":"70006","route_short_name":"34","route_long_name":"Earth City","route_type":3,"route_color":"#FFFFFF","route_text_color":"#000000"}],"agency_name":"Metro St. Louis"},"geometry":{"type":"Point","coordinates":[-90.47089,38.77234]}},{"type":"Feature","properties":{"stop_id":"16316","stop_code":"16316","stop_name":"4375 RIDER TRAIL NORTH SB","stop_desc":"NEAR SIDE 4375 RIDER TRAIL NORTH SB","wheelchair_boarding":1,"routes":[{"route_id":"19609","agency_id":"70006","route_short_name":"34","route_long_name":"Earth City","route_type":3,"route_color":"#FFFFFF","route_text_color":"#000000"}],"agency_name":"Metro St. Louis"},"geometry":{"type":"Point","coordinates":[-90.46786,38.77685]}},{"type":"Feature","properties":{"stop_id":"353","stop_code":"353","stop_name":"ATHLETIC WAY @ RIDER TRAIL SOUTH EB","stop_desc":"FAR SIDE ATHLETIC WAY @ RIDER TRAIL SOUTH EB","wheelchair_boarding":2,"routes":[{"route_id":"19609","agency_id":"70006","route_short_name":"34","route_long_name":"Earth City","route_type":3,"route_color":"#FFFFFF","route_text_color":"#000000"}],"agency_name":"Metro St. Louis"},"geometry":{"type":"Point","coordinates":[-90.45378,38.76301]}},{"type":"Feature","properties":{"stop_id":"6873","stop_code":"6873","stop_name":"RIDER TRAIL @ UPS CUSTOMER ENTRANCE","stop_desc":"NEAR SIDE RIDER TRAIL @ UPS CUSTOMER ENTRANCE","wheelchair_boarding":2,"routes":[{"route_id":"19609","agency_id":"70006","route_short_name":"34","route_long_name":"Earth City","route_type":3,"route_color":"#FFFFFF","route_text_color":"#000000"}],"agency_name":"Metro St. Louis"},"geometry":{"type":"Point","coordinates":[-90.46517,38.77727]}},{"type":"Feature","properties":{"stop_id":"6881","stop_code":"6881","stop_name":"RIVERPORT LANE @ RIVERPORT EB","stop_desc":"MID-BLOCK RIVERPORT LANE @ RIVERPORT EB","wheelchair_boarding":2,"routes":[{"route_id":"19609","agency_id":"70006","route_short_name":"34","route_long_name":"Earth City","route_type":3,"route_color":"#FFFFFF","route_text_color":"#000000"}],"agency_name":"Metro St. Louis"},"geometry":{"type":"Point","coordinates":[-90.46451,38.74966]}},{"type":"Feature","properties":{"stop_id":"6896","stop_code":"6896","stop_name":"MAGELLAN LOOP @ RIVERPORT NB","stop_desc":"NEAR SIDE MAGELLAN LOOP @ RIVERPORT NB","wheelchair_boarding":1,"routes":[{"route_id":"19609","agency_id":"70006","route_short_name":"34","route_long_name":"Earth City","route_type":3,"route_color":"#FFFFFF","route_text_color":"#000000"}],"agency_name":"Metro St. Louis"},"geometry":{"type":"Point","coordinates":[-90.46682,38.74734]}},{"type":"Feature","properties":{"stop_id":"6902","stop_code":"6902","stop_name":"3595 RIDER TRAIL SOUTH EB","stop_desc":"MID-BLOCK 3595 RIDER TRAIL SOUTH EB","wheelchair_boarding":2,"routes":[{"route_id":"19609","agency_id":"70006","route_short_name":"34","route_long_name":"Earth City","route_type":3,"route_color":"#FFFFFF","route_text_color":"#000000"}],"agency_name":"Metro St. Louis"},"geometry":{"type":"Point","coordinates":[-90.46695,38.76094]}},{"type":"Feature","properties":{"stop_id":"6904","stop_code":"6904","stop_name":"3700 RIDER TRAIL SOUTH EB","stop_desc":"NEAR SIDE 3700 RIDER TRAIL SOUTH EB","wheelchair_boarding":2,"routes":[{"route_id":"19609","agency_id":"70006","route_short_name":"34","route_long_name":"Earth City","route_type":3,"route_color":"#FFFFFF","route_text_color":"#000000"}],"agency_name":"Metro St. Louis"},"geometry":{"type":"Point","coordinates":[-90.46973,38.762]}}]}