{"type":"FeatureCollection","features":[{"type":"Feature","properties":{"agency_name":"Metro St. Louis","route_id":"19610","agency_id":"70006","route_short_name":"35","route_long_name":"Rock Road","route_type":3,"route_color":"#FFFFFF","route_text_color":"#000000"},"geometry":{"type":"MultiLineString","coordinates":[[[-90.30172,38.6856],[-90.30161,38.68505],[-90.30172,38.6856],[-90.30182,38.68564],[-90.30225,38.68562],[-90.30256,38.68527],[-90.30272,38.68506],[-90.30271,38.68495],[-90.30255,38.68486],[-90.30283,38.68454],[-90.31099,38.6888],[-90.31146,38.68909],[-90.31436,38.69097],[-90.31753,38.6933],[-90.31835,38.69379],[-90.31974,38.69449],[-90.32184,38.69559],[-90.32245,38.69589],[-90.32521,38.69732],[-90.3295,38.69956],[-90.33151,38.70065],[-90.33245,38.70112],[-90.33782,38.70394],[-90.33992,38.7051],[-90.34063,38.70548],[-90.34102,38.70567],[-90.348,38.70946],[-90.3496,38.71031],[-90.35521,38.71336],[-90.35765,38.71467],[-90.36222,38.71718],[-90.36435,38.71828],[-90.36571,38.71906],[-90.36634,38.7194],[-90.36784,38.72014],[-90.36894,38.72071],[-90.36937,38.72096],[-90.37133,38.72197],[-90.37463,38.72382],[-90.37984,38.72679],[-90.3808,38.72735],[-90.38441,38.72938],[-90.38589,38.73023],[-90.39393,38.73475],[-90.39744,38.73677],[-90.39964,38.73801],[-90.40012,38.73832],[-90.40047,38.73852],[-90.40465,38.74087],[-90.40593,38.7415],[-90.40626,38.74165],[-90.40655,38.74176],[-90.40938,38.74275],[-90.41228,38.74382],[-90.41411,38.74444],[-90.4204,38.74669],[-90.42102,38.74693],[-90.42152,38.74717],[-90.422,38.74744],[-90.42231,38.74764],[-90.42262,38.74785],[-90.42311,38.74824],[-90.42555,38.75049],[-90.42882,38.75347],[-90.42908,38.75343],[-90.42964,38.753],[-90.42984,38.75309],[-90.43008,38.75308],[-90.43017,38.75305],[-90.43032,38.75295],[-90.4308,38.75251],[-90.43116,38.75228],[-90.43153,38.75208],[-90.43122,38.75199],[-90.43102,38.75187],[-90.43067,38.75139],[-90.43057,38.75111],[-90.43054,38.7509],[-90.43057,38.75057],[-90.43063,38.75036],[-90.43073,38.75015],[-90.43091,38.74991],[-90.43016,38.74951],[-90.42972,38.74913],[-90.42795,38.75019],[-90.4271,38.75068]],[[-90.42893,38.75356],[-90.42882,38.75347],[-90.43062,38.75513],[-90.43149,38.75598],[-90.43225,38.75668],[-90.43258,38.75702],[-90.43296,38.75738],[-90.43369,38.758],[-90.43403,38.75831],[-90.43471,38.75906],[-90.43491,38.75936],[-90.43188,38.76055],[-90.43122,38.76079],[-90.4308,38.76088],[-90.43017,38.7609],[-90.42995,38.76093],[-90.42964,38.76104],[-90.42938,38.76118],[-90.42858,38.76167],[-90.42838,38.76187],[-90.42835,38.76194],[-90.42836,38.76204]],[[-90.43153,38.75208],[-90.43153,38.75208]],[[-90.43504,38.75956],[-90.43491,38.75936],[-90.43504,38.75956],[-90.43528,38.76003],[-90.4355,38.76061],[-90.4356,38.76101],[-90.43565,38.76144],[-90.43568,38.76241],[-90.43568,38.76333],[-90.43571,38.76389],[-90.4358,38.76445],[-90.43593,38.76487],[-90.43604,38.76515],[-90.43628,38.76564],[-90.43639,38.76582],[-90.4367,38.76625],[-90.43702,38.76661],[-90.444,38.77382],[-90.44443,38.77418],[-90.44524,38.77473],[-90.44617,38.77518],[-90.44667,38.77536],[-90.45029,38.77641],[-90.45265,38.77715],[-90.45249,38.77742],[-90.45236,38.77754],[-90.44974,38.77893],[-90.44967,38.77889]]]}},{"type":"Feature","properties":{"stop_id":"13964","stop_code":"13964","stop_name":"ST. CHARLES ROCK ROAD @ ADIE WB","stop_desc":"NEAR SIDE ST. CHARLES ROCK ROAD @ ADIE WB","wheelchair_boarding":1,"routes":[{"route_id":"19610","agency_id":"70006","route_short_name":"35","route_long_name":"Rock Road","route_type":3,"route_color":"#FFFFFF","route_text_color":"#000000"},{"route_id":"19614","agency_id":"70006","route_short_name":"49","route_long_name":"Lindbergh","route_type":3,"route_color":"#FFFFFF","route_text_color":"#000000"}],"agency_name":"Metro St. Louis"},"geometry":{"type":"Point","coordinates":[-90.39317,38.73443]}},{"type":"Feature","properties":{"stop_id":"14305","stop_code":"14305","stop_name":"ST. CHARLES ROCK ROAD @ MCKELVEY WB","stop_desc":"FAR SIDE ST. CHARLES ROCK ROAD @ MCKELVEY WB","wheelchair_boarding":2,"routes":[{"route_id":"19610","agency_id":"70006","route_short_name":"35","route_long_name":"Rock Road","route_type":3,"route_color":"#FFFFFF","route_text_color":"#000000"}],"agency_name":"Metro St. Louis"},"geometry":{"type":"Point","coordinates":[-90.4269,38.75184]}},{"type":"Feature","properties":{"stop_id":"14516","stop_code":"14516","stop_name":"ST. CHARLES ROCK ROAD @ PENNRIDGE WB","stop_desc":"FAR SIDE ST. CHARLES ROCK ROAD @ PENNRIDGE WB","wheelchair_boarding":1,"routes":[{"route_id":"19610","agency_id":"70006","route_short_name":"35","route_long_name":"Rock Road","route_type":3,"route_color":"#FFFFFF","route_text_color":"#000000"}],"agency_name":"Metro St. Louis"},"geometry":{"type":"Point","coordinates":[-90.43523,38.76013]}},{"type":"Feature","properties":{"stop_id":"14519","stop_code":"14519","stop_name":"ST. CHARLES ROCK ROAD @ DEPAUL WB","stop_desc":"FAR SIDE ST. CHARLES ROCK ROAD @ DEPAUL WB","wheelchair_boarding":2,"routes":[{"route_id":"19610","agency_id":"70006","route_short_name":"35","route_long_name":"Rock Road","route_type":3,"route_color":"#FFFFFF","route_text_color":"#000000"}],"agency_name":"Metro St. Louis"},"geometry":{"type":"Point","coordinates":[-90.42909,38.75382]}},{"type":"Feature","properties":{"stop_id":"14772","stop_code":"14772","stop_name":"ST CHARLES ROCK ROAD @ TAUSSIG WB","stop_desc":"FAR SIDE ST CHARLES ROCK ROAD @ TAUSSIG WB","wheelchair_boarding":2,"routes":[{"route_id":"19610","agency_id":"70006","route_short_name":"35","route_long_name":"Rock Road","route_type":3,"route_color":"#FFFFFF","route_text_color":"#000000"}],"agency_name":"Metro St. Louis"},"geometry":{"type":"Point","coordinates":[-90.43969,38.7695]}},{"type":"Feature","properties":{"stop_id":"14773","stop_code":"14773","stop_name":"12755 ST. CHARLES ROCK ROAD WB","stop_desc":"MID-BLOCK 12755 ST. CHARLES ROCK ROAD WB","wheelchair_boarding":2,"routes":[{"route_id":"19610","agency_id":"70006","route_short_name":"35","route_long_name":"Rock Road","route_type":3,"route_color":"#FFFFFF","route_text_color":"#000000"}],"agency_name":"Metro St. Louis"},"geometry":{"type":"Point","coordinates":[-90.43564,38.76418]}},{"type":"Feature","properties":{"stop_id":"16506","stop_code":"16506","stop_name":"PENNRIDGE @ ST. CHARLES ROCK ROAD EB","stop_desc":"FAR SIDE PENNRIDGE @ ST. CHARLES ROCK ROAD EB","wheelchair_boarding":2,"routes":[{"route_id":"19610","agency_id":"70006","route_short_name":"35","route_long_name":"Rock Road","route_type":3,"route_color":"#FFFFFF","route_text_color":"#000000"}],"agency_name":"Metro St. Louis"},"geometry":{"type":"Point","coordinates":[-90.43361,38.75977]}},{"type":"Feature","properties":{"stop_id":"16507","stop_code":"16507","stop_name":"PENNRIDGE @ CARROLLTON INDUSTRIAL WB","stop_desc":"FAR SIDE PENNRIDGE @ CARROLLTON INDUSTRIAL WB","wheelchair_boarding":2,"routes":[{"route_id":"19610","agency_id":"70006","route_short_name":"35","route_long_name":"Rock Road","route_type":3,"route_color":"#FFFFFF","route_text_color":"#000000"}],"agency_name":"Metro St. Louis"},"geometry":{"type":"Point","coordinates":[-90.4285,38.76238]}},{"type":"Feature","properties":{"stop_id":"16513","stop_code":"16513","stop_name":"3440 DEPAUL SB","stop_desc":"NEAR SIDE 3440 DEPAUL SB","wheelchair_boarding":2,"routes":[{"route_id":"19610","agency_id":"70006","route_short_name":"35","route_long_name":"Rock Road","route_type":3,"route_color":"#FFFFFF","route_text_color":"#000000"}],"agency_name":"Metro St. Louis"},"geometry":{"type":"Point","coordinates":[-90.4315,38.75219]}},{"type":"Feature","properties":{"stop_id":"314","stop_code":"314","stop_name":"175 BOULDER INDUSTRIAL","stop_desc":"MID-BLOCK 175 BOULDER INDUSTRIAL","wheelchair_boarding":2,"routes":[{"route_id":"19610","agency_id":"70006","route_short_name":"35","route_long_name":"Rock Road","route_type":3,"route_color":"#FFFFFF","route_text_color":"#000000"}],"agency_name":"Metro St. Louis"},"geometry":{"type":"Point","coordinates":[-90.44713,38.77805]}},{"type":"Feature","properties":{"stop_id":"315","stop_code":"315","stop_name":"DEPAUL @ DEPAUL HOSPITAL SB","stop_desc":"NEAR SIDE DEPAUL @ DEPAUL HOSPITAL SB","wheelchair_boarding":1,"routes":[{"route_id":"19610","agency_id":"70006","route_short_name":"35","route_long_name":"Rock Road","route_type":3,"route_color":"#FFFFFF","route_text_color":"#000000"}],"agency_name":"Metro St. Louis"},"geometry":{"type":"Point","coordinates":[-90.43082,38.75012]}},{"type":"Feature","properties":{"stop_id":"6868","stop_code":"6868","stop_name":"ST CHARLES ROCK ROAD @ NORTHWEST INDUSTRIAL WB","stop_desc":"NEAR SIDE ST CHARLES ROCK ROAD @ NORTHWEST INDUSTRIAL WB","wheelchair_boarding":2,"routes":[{"route_id":"19610","agency_id":"70006","route_short_name":"35","route_long_name":"Rock Road","route_type":3,"route_color":"#FFFFFF","route_text_color":"#000000"}],"agency_name":"Metro St. Louis"},"geometry":{"type":"Point","coordinates":[-90.44698,38.77557]}},{"type":"Feature","properties":{"stop_id":"6870","stop_code":"6870","stop_name":"ROCK INDUSTRIAL PARK @ ST. CHARLES ROCK ROAD NB","stop_desc":"FAR SIDE ROCK INDUSTRIAL PARK @ ST. CHARLES ROCK ROAD NB","wheelchair_boarding":2,"routes":[{"route_id":"19610","agency_id":"70006","route_short_name":"35","route_long_name":"Rock Road","route_type":3,"route_color":"#FFFFFF","route_text_color":"#000000"}],"agency_name":"Metro St. Louis"},"geometry":{"type":"Point","coordinates":[-90.45238,38.77756]}},{"type":"Feature","properties":{"stop_id":"7056","stop_code":"7056","stop_name":"ST. CHARLES ROCK ROAD @ FERGUSON WB","stop_desc":"FAR SIDE ST. CHARLES ROCK ROAD @ FERGUSON WB","wheelchair_boarding":2,"routes":[{"route_id":"19610","agency_id":"70006","route_short_name":"35","route_long_name":"Rock Road","route_type":3,"route_color":"#FFFFFF","route_text_color":"#000000"}],"agency_name":"Metro St. Louis"},"geometry":{"type":"Point","coordinates":[-90.30546,38.68599]}},{"type":"Feature","properties":{"stop_id":"7057","stop_code":"7057","stop_name":"ST. CHARLES ROCK ROAD @ SALERNO WB","stop_desc":"FAR SIDE ST. CHARLES ROCK ROAD @ SALERNO WB","wheelchair_boarding":2,"routes":[{"route_id":"19610","agency_id":"70006","route_short_name":"35","route_long_name":"Rock Road","route_type":3,"route_color":"#FFFFFF","route_text_color":"#000000"}],"agency_name":"Metro St. Louis"},"geometry":{"type":"Point","coordinates":[-90.30686,38.68671]}},{"type":"Feature","properties":{"stop_id":"7058","stop_code":"7058","stop_name":"ST. CHARLES ROCK ROAD @ 74TH STREET WB","stop_desc":"FAR SIDE ST. CHARLES ROCK ROAD @ 74TH STREET WB","wheelchair_boarding":2,"routes":[{"route_id":"19610","agency_id":"70006","route_short_name":"35","route_long_name":"Rock Road","route_type":3,"route_color":"#FFFFFF","route_text_color":"#000000"}],"agency_name":"Metro St. Louis"},"geometry":{"type":"Point","coordinates":[-90.30932,38.688]}},{"type":"Feature","properties":{"stop_id":"7060","stop_code":"7060","stop_name":"ST. CHARLES ROCK ROAD @ AUSTIN WB","stop_desc":"NEAR SIDE ST. CHARLES ROCK ROAD @ AUSTIN WB","wheelchair_boarding":1,"routes":[{"route_id":"19610","agency_id":"70006","route_short_name":"35","route_long_name":"Rock Road","route_type":3,"route_color":"#FFFFFF","route_text_color":"#000000"}],"agency_name":"Metro St. Louis"},"geometry":{"type":"Point","coordinates":[-90.31415,38.69094]}},{"type":"Feature","properties":{"stop_id":"7061","stop_code":"7061","stop_name":"ST. CHARLES ROCK ROAD @ NORMANDY WB","stop_desc":"FAR SIDE ST. CHARLES ROCK ROAD @ NORMANDY WB","wheelchair_boarding":1,"routes":[{"route_id":"19610","agency_id":"70006","route_short_name":"35","route_long_name":"Rock Road","route_type":3,"route_color":"#FFFFFF","route_text_color":"#000000"}],"agency_name":"Metro St. Louis"},"geometry":{"type":"Point","coordinates":[-90.31723,38.69317]}},{"type":"Feature","properties":{"stop_id":"7064","stop_code":"7064","stop_name":"ST. CHARLES ROCK ROAD @ CARSON WB","stop_desc":"FAR SIDE ST. CHARLES ROCK ROAD @ CARSON WB","wheelchair_boarding":1,"routes":[{"route_id":"19610","agency_id":"70006","route_short_name":"35","route_long_name":"Rock Road","route_type":3,"route_color":"#FFFFFF","route_text_color":"#000000"}],"agency_name":"Metro St. Louis"},"geometry":{"type":"Point","coordinates":[-90.32591,38.69777]}},{"type":"Feature","properties":{"stop_id":"7065","stop_code":"7065","stop_name":"ST. CHARLES ROCK ROAD @ NORTH HANLEY WB","stop_desc":"FAR SIDE ST. CHARLES ROCK ROAD @ NORTH HANLEY WB","wheelchair_boarding":1,"routes":[{"route_id":"19610","agency_id":"70006","route_short_name":"35","route_long_name":"Rock Road","route_type":3,"route_color":"#FFFFFF","route_text_color":"#000000"}],"agency_name":"Metro St. Louis"},"geometry":{"type":"Point","coordinates":[-90.32876,38.69926]}},{"type":"Feature","properties":{"stop_id":"7066","stop_code":"7066","stop_name":"ST. CHARLES ROCK ROAD @ WHEATON WB","stop_desc":"FAR SIDE ST. CHARLES ROCK ROAD @ WHEATON WB","wheelchair_boarding":1,"routes":[{"route_id":"19610","agency_id":"70006","route_short_name":"35","route_long_name":"Rock Road","route_type":3,"route_color":"#FFFFFF","route_text_color":"#000000"}],"agency_name":"Metro St. Louis"},"geometry":{"type":"Point","coordinates":[-90.33012,38.69999]}},{"type":"Feature","properties":{"stop_id":"7067","stop_code":"7067","stop_name":"ST. CHARLES ROCK ROAD @ NORTH AND SOUTH WB","stop_desc":"FAR SIDE ST. CHARLES ROCK ROAD @ NORTH AND SOUTH WB","wheelchair_boarding":1,"routes":[{"route_id":"19610","agency_id":"70006","route_short_name":"35","route_long_name":"Rock Road","route_type":3,"route_color":"#FFFFFF","route_text_color":"#000000"}],"agency_name":"Metro St. Louis"},"geometry":{"type":"Point","coordinates":[-90.33207,38.70104]}},{"type":"Feature","properties":{"stop_id":"7068","stop_code":"7068","stop_name":"ST. CHARLES ROCK ROAD @ LACKLAND WB","stop_desc":"FAR SIDE ST. CHARLES ROCK ROAD @ LACKLAND WB","wheelchair_boarding":1,"routes":[{"route_id":"19610","agency_id":"70006","route_short_name":"35","route_long_name":"Rock Road","route_type":3,"route_color":"#FFFFFF","route_text_color":"#000000"}],"agency_name":"Metro St. Louis"},"geometry":{"type":"Point","coordinates":[-90.33648,38.70331]}},{"type":"Feature","properties":{"stop_id":"7069","stop_code":"7069","stop_name":"ST. CHARLES ROCK ROAD @ ENDICOTT WB","stop_desc":"FAR SIDE ST. CHARLES ROCK ROAD @ ENDICOTT WB","wheelchair_boarding":1,"routes":[{"route_id":"19610","agency_id":"70006","route_short_name":"35","route_long_name":"Rock Road","route_type":3,"route_color":"#FFFFFF","route_text_color":"#000000"}],"agency_name":"Metro St. Louis"},"geometry":{"type":"Point","coordinates":[-90.34138,38.70599]}},{"type":"Feature","properties":{"stop_id":"7070","stop_code":"7070","stop_name":"ST. CHARLES ROCK ROAD @ MCKIBBON WB","stop_desc":"NEAR SIDE ST. CHARLES ROCK ROAD @ MCKIBBON WB","wheelchair_boarding":1,"routes":[{"route_id":"19610","agency_id":"70006","route_short_name":"35","route_long_name":"Rock Road","route_type":3,"route_color":"#FFFFFF","route_text_color":"#000000"}],"agency_name":"Metro St. Louis"},"geometry":{"type":"Point","coordinates":[-90.34521,38.70807]}},{"type":"Feature","properties":{"stop_id":"7071","stop_code":"7071","stop_name":"8707 ST. CHARLES ROCK ROAD WB","stop_desc":"MID-BLOCK 8707 ST. CHARLES ROCK ROAD WB","wheelchair_boarding":2,"routes":[{"route_id":"19610","agency_id":"70006","route_short_name":"35","route_long_name":"Rock Road","route_type":3,"route_color":"#FFFFFF","route_text_color":"#000000"}],"agency_name":"Metro St. Louis"},"geometry":{"type":"Point","coordinates":[-90.34705,38.70907]}},{"type":"Feature","properties":{"stop_id":"7073","stop_code":"7073","stop_name":"ST. CHARLES ROCK ROAD @ BROWN WB","stop_desc":"FAR SIDE ST. CHARLES ROCK ROAD @ BROWN WB","wheelchair_boarding":2,"routes":[{"route_id":"19610","agency_id":"70006","route_short_name":"35","route_long_name":"Rock Road","route_type":3,"route_color":"#FFFFFF","route_text_color":"#000000"}],"agency_name":"Metro St. Louis"},"geometry":{"type":"Point","coordinates":[-90.35103,38.71123]}},{"type":"Feature","properties":{"stop_id":"7074","stop_code":"7074","stop_name":"ST. CHARLES ROCK ROAD @ EMINENCE WB","stop_desc":"MID-BLOCK ST. CHARLES ROCK ROAD @ EMINENCE WB","wheelchair_boarding":1,"routes":[{"route_id":"19610","agency_id":"70006","route_short_name":"35","route_long_name":"Rock Road","route_type":3,"route_color":"#FFFFFF","route_text_color":"#000000"}],"agency_name":"Metro St. Louis"},"geometry":{"type":"Point","coordinates":[-90.3531,38.71236]}},{"type":"Feature","properties":{"stop_id":"7076","stop_code":"7076","stop_name":"ST. CHARLES ROCK ROAD @ BOSWELL WB","stop_desc":"FAR SIDE ST. CHARLES ROCK ROAD @ BOSWELL WB","wheelchair_boarding":1,"routes":[{"route_id":"19610","agency_id":"70006","route_short_name":"35","route_long_name":"Rock Road","route_type":3,"route_color":"#FFFFFF","route_text_color":"#000000"}],"agency_name":"Metro St. Louis"},"geometry":{"type":"Point","coordinates":[-90.35643,38.71418]}},{"type":"Feature","properties":{"stop_id":"7077","stop_code":"7077","stop_name":"ST. CHARLES ROCK ROAD @ GORDON WB","stop_desc":"FAR SIDE ST. CHARLES ROCK ROAD @ GORDON WB","wheelchair_boarding":1,"routes":[{"route_id":"19610","agency_id":"70006","route_short_name":"35","route_long_name":"Rock Road","route_type":3,"route_color":"#FFFFFF","route_text_color":"#000000"}],"agency_name":"Metro St. Louis"},"geometry":{"type":"Point","coordinates":[-90.35836,38.71522]}},{"type":"Feature","properties":{"stop_id":"7078","stop_code":"7078","stop_name":"ST. CHARLES ROCK ROAD @ WOODSON WB","stop_desc":"FAR SIDE ST. CHARLES ROCK ROAD @ WOODSON WB","wheelchair_boarding":1,"routes":[{"route_id":"19610","agency_id":"70006","route_short_name":"35","route_long_name":"Rock Road","route_type":3,"route_color":"#FFFFFF","route_text_color":"#000000"}],"agency_name":"Metro St. Louis"},"geometry":{"type":"Point","coordinates":[-90.36044,38.71635]}},{"type":"Feature","properties":{"stop_id":"7079","stop_code":"7079","stop_name":"ST. CHARLES ROCK ROAD @ DIX WB","stop_desc":"FAR SIDE ST. CHARLES ROCK ROAD @ DIX WB","wheelchair_boarding":1,"routes":[{"route_id":"19610","agency_id":"70006","route_short_name":"35","route_long_name":"Rock Road","route_type":3,"route_color":"#FFFFFF","route_text_color":"#000000"}],"agency_name":"Metro St. Louis"},"geometry":{"type":"Point","coordinates":[-90.3629,38.71768]}},{"type":"Feature","properties":{"stop_id":"7081","stop_code":"7081","stop_name":"9641 ST. CHARLES ROCK ROAD WB","stop_desc":"MID-BLOCK 9641 ST. CHARLES ROCK ROAD WB","wheelchair_boarding":2,"routes":[{"route_id":"19610","agency_id":"70006","route_short_name":"35","route_long_name":"Rock Road","route_type":3,"route_color":"#FFFFFF","route_text_color":"#000000"}],"agency_name":"Metro St. Louis"},"geometry":{"type":"Point","coordinates":[-90.36657,38.71961]}},{"type":"Feature","properties":{"stop_id":"7082","stop_code":"7082","stop_name":"ST. CHARLES ROCK ROAD @ LYNNTOWN WB","stop_desc":"FAR SIDE ST. CHARLES ROCK ROAD @ LYNNTOWN WB","wheelchair_boarding":2,"routes":[{"route_id":"19610","agency_id":"70006","route_short_name":"35","route_long_name":"Rock Road","route_type":3,"route_color":"#FFFFFF","route_text_color":"#000000"}],"agency_name":"Metro St. Louis"},"geometry":{"type":"Point","coordinates":[-90.36975,38.72127]}},{"type":"Feature","properties":{"stop_id":"7084","stop_code":"7084","stop_name":"ST. CHARLES ROCK ROAD @ WISMER WB","stop_desc":"FAR SIDE ST. CHARLES ROCK ROAD @ WISMER WB","wheelchair_boarding":1,"routes":[{"route_id":"19610","agency_id":"70006","route_short_name":"35","route_long_name":"Rock Road","route_type":3,"route_color":"#FFFFFF","route_text_color":"#000000"}],"agency_name":"Metro St. Louis"},"geometry":{"type":"Point","coordinates":[-90.37296,38.72301]}},{"type":"Feature","properties":{"stop_id":"7085","stop_code":"7085","stop_name":"ST. CHARLES ROCK ROAD @ GERALDINE WB","stop_desc":"FAR SIDE ST. CHARLES ROCK ROAD @ GERALDINE WB","wheelchair_boarding":2,"routes":[{"route_id":"19610","agency_id":"70006","route_short_name":"35","route_long_name":"Rock Road","route_type":3,"route_color":"#FFFFFF","route_text_color":"#000000"}],"agency_name":"Metro St. Louis"},"geometry":{"type":"Point","coordinates":[-90.3751,38.72421]}},{"type":"Feature","properties":{"stop_id":"7087","stop_code":"7087","stop_name":"ST. CHARLES ROCK ROAD @ ST. GREGORY WB","stop_desc":"NEAR SIDE ST. CHARLES ROCK ROAD @ ST. GREGORY WB","wheelchair_boarding":1,"routes":[{"route_id":"19610","agency_id":"70006","route_short_name":"35","route_long_name":"Rock Road","route_type":3,"route_color":"#FFFFFF","route_text_color":"#000000"}],"agency_name":"Metro St. Louis"},"geometry":{"type":"Point","coordinates":[-90.37815,38.72594]}},{"type":"Feature","properties":{"stop_id":"7088","stop_code":"7088","stop_name":"ST. CHARLES ROCK ROAD @ INDUSTRIAL WB","stop_desc":"FAR SIDE ST. CHARLES ROCK ROAD @ INDUSTRIAL WB","wheelchair_boarding":1,"routes":[{"route_id":"19610","agency_id":"70006","route_short_name":"35","route_long_name":"Rock Road","route_type":3,"route_color":"#FFFFFF","route_text_color":"#000000"}],"agency_name":"Metro St. Louis"},"geometry":{"type":"Point","coordinates":[-90.3805,38.72727]}},{"type":"Feature","properties":{"stop_id":"7090","stop_code":"7090","stop_name":"ST. CHARLES ROCK ROAD @ SAN CARLOS WB","stop_desc":"FAR SIDE ST. CHARLES ROCK ROAD @ SAN CARLOS WB","wheelchair_boarding":1,"routes":[{"route_id":"19610","agency_id":"70006","route_short_name":"35","route_long_name":"Rock Road","route_type":3,"route_color":"#FFFFFF","route_text_color":"#000000"}],"agency_name":"Metro St. Louis"},"geometry":{"type":"Point","coordinates":[-90.38377,38.72914]}},{"type":"Feature","properties":{"stop_id":"7091","stop_code":"7091","stop_name":"ST. CHARLES ROCK ROAD @ ASHBY WB","stop_desc":"FAR SIDE ST. CHARLES ROCK ROAD @ ASHBY WB","wheelchair_boarding":1,"routes":[{"route_id":"19610","agency_id":"70006","route_short_name":"35","route_long_name":"Rock Road","route_type":3,"route_color":"#FFFFFF","route_text_color":"#000000"}],"agency_name":"Metro St. Louis"},"geometry":{"type":"Point","coordinates":[-90.38635,38.73059]}},{"type":"Feature","properties":{"stop_id":"7092","stop_code":"7092","stop_name":"ST. CHARLES ROCK ROAD @ ST. TIMOTHY WB","stop_desc":"FAR SIDE ST. CHARLES ROCK ROAD @ ST. TIMOTHY WB","wheelchair_boarding":1,"routes":[{"route_id":"19610","agency_id":"70006","route_short_name":"35","route_long_name":"Rock Road","route_type":3,"route_color":"#FFFFFF","route_text_color":"#000000"}],"agency_name":"Metro St. Louis"},"geometry":{"type":"Point","coordinates":[-90.3884,38.73169]}},{"type":"Feature","properties":{"stop_id":"7093","stop_code":"7093","stop_name":"ST. CHARLES ROCK ROAD @ FEE FEE WB","stop_desc":"NEAR SIDE ST. CHARLES ROCK ROAD @ FEE FEE WB","wheelchair_boarding":2,"routes":[{"route_id":"19610","agency_id":"70006","route_short_name":"35","route_long_name":"Rock Road","route_type":3,"route_color":"#FFFFFF","route_text_color":"#000000"}],"agency_name":"Metro St. Louis"},"geometry":{"type":"Point","coordinates":[-90.40247,38.73978]}},{"type":"Feature","properties":{"stop_id":"7094","stop_code":"7094","stop_name":"ST. CHARLES ROCK ROAD @ FEE FEE WB","stop_desc":"FAR SIDE ST. CHARLES ROCK ROAD @ FEE FEE WB","wheelchair_boarding":2,"routes":[{"route_id":"19610","agency_id":"70006","route_short_name":"35","route_long_name":"Rock Road","route_type":3,"route_color":"#FFFFFF","route_text_color":"#000000"}],"agency_name":"Metro St. Louis"},"geometry":{"type":"Point","coordinates":[-90.40474,38.74105]}},{"type":"Feature","properties":{"stop_id":"7095","stop_code":"7095","stop_name":"ST. CHARLES ROCK ROAD @ MARK TWAIN WB","stop_desc":"NEAR SIDE ST. CHARLES ROCK ROAD @ MARK TWAIN WB","wheelchair_boarding":1,"routes":[{"route_id":"19610","agency_id":"70006","route_short_name":"35","route_long_name":"Rock Road","route_type":3,"route_color":"#FFFFFF","route_text_color":"#000000"}],"agency_name":"Metro St. Louis"},"geometry":{"type":"Point","coordinates":[-90.40857,38.74259]}},{"type":"Feature","properties":{"stop_id":"7098","stop_code":"7098","stop_name":"ST. CHARLES ROCK ROAD @ HARMONY WB","stop_desc":"FAR SIDE ST. CHARLES ROCK ROAD @ HARMONY WB","wheelchair_boarding":1,"routes":[{"route_id":"19610","agency_id":"70006","route_short_name":"35","route_long_name":"Rock Road","route_type":3,"route_color":"#FFFFFF","route_text_color":"#000000"}],"agency_name":"Metro St. Louis"},"geometry":{"type":"Point","coordinates":[-90.42075,38.74694]}},{"type":"Feature","properties":{"stop_id":"7099","stop_code":"7099","stop_name":"ST. CHARLES ROCK ROAD @ NIEDRINGHAUS WB","stop_desc":"NEAR SIDE ST. CHARLES ROCK ROAD @ NIEDRINGHAUS WB","wheelchair_boarding":2,"routes":[{"route_id":"19610","agency_id":"70006","route_short_name":"35","route_long_name":"Rock Road","route_type":3,"route_color":"#FFFFFF","route_text_color":"#000000"}],"agency_name":"Metro St. Louis"},"geometry":{"type":"Point","coordinates":[-90.42386,38.74909]}},{"type":"Feature","properties":{"stop_id":"7424","stop_code":"7424","stop_name":"ROCK ROAD TRANSIT CENTER","wheelchair_boarding":1,"routes":[{"route_id":"19593","agency_id":"70006","route_short_name":"2","route_long_name":"Red","route_type":3,"route_color":"#FFFFFF","route_text_color":"#000000"},{"route_id":"19603","agency_id":"70006","route_short_name":"19","route_long_name":"St Louis Ave","route_type":3,"route_color":"#FFFFFF","route_text_color":"#000000"},{"route_id":"19607","agency_id":"70006","route_short_name":"32","route_long_name":"Dr ML King","route_type":3,"route_color":"#FFFFFF","route_text_color":"#000000"},{"route_id":"19610","agency_id":"70006","route_short_name":"35","route_long_name":"Rock Road","route_type":3,"route_color":"#FFFFFF","route_text_color":"#000000"},{"route_id":"19621","agency_id":"70006","route_short_name":"64","route_long_name":"Lucas-Hunt","route_type":3,"route_color":"#FFFFFF","route_text_color":"#000000"}],"agency_name":"Metro St. Louis"},"geometry":{"type":"Point","coordinates":[-90.30164,38.68516]}},{"type":"Feature","properties":{"stop_id":"9191","stop_code":"9191","stop_name":"ST. CHARLES ROCK ROAD @ BANKS WB","stop_desc":"NEAR SIDE ST. CHARLES ROCK ROAD @ BANKS WB","wheelchair_boarding":1,"routes":[{"route_id":"19610","agency_id":"70006","route_short_name":"35","route_long_name":"Rock Road","route_type":3,"route_color":"#FFFFFF","route_text_color":"#000000"},{"route_id":"19614","agency_id":"70006","route_short_name":"49","route_long_name":"Lindbergh","route_type":3,"route_color":"#FFFFFF","route_text_color":"#000000"}],"agency_name":"Metro St. Louis"},"geometry":{"type":"Point","coordinates":[-90.39603,38.73604]}}]}