{"type":"FeatureCollection","features":[{"type":"Feature","properties":{"agency_name":"Metro St. Louis","route_id":"19635","agency_id":"70006","route_short_name":"100","route_long_name":"Hazelwood","route_type":3,"route_color":"#FFFFFF","route_text_color":"#000000"},"geometry":{"type":"MultiLineString","coordinates":[[[-90.40088,38.79631],[-90.40276,38.7944],[-90.40088,38.79631],[-90.40377,38.79807],[-90.40441,38.79831],[-90.4088,38.79749],[-90.41365,38.79365],[-90.41377,38.79348],[-90.41376,38.79334],[-90.41362,38.79315],[-90.41383,38.79307],[-90.41716,38.79099],[-90.41727,38.79083],[-90.41727,38.79062],[-90.41713,38.7903],[-90.41699,38.79013],[-90.41778,38.78927],[-90.41806,38.78906],[-90.41842,38.78876],[-90.4197,38.78795],[-90.41995,38.78776],[-90.42008,38.78763],[-90.4202,38.78748],[-90.42074,38.78677],[-90.42094,38.78648],[-90.42111,38.78611],[-90.42114,38.78596],[-90.42115,38.78579],[-90.42114,38.78567],[-90.4211,38.78551],[-90.42062,38.78393],[-90.42044,38.78347],[-90.42023,38.78305],[-90.42008,38.78311],[-90.4197,38.7832],[-90.41855,38.7831],[-90.41761,38.78229],[-90.41662,38.78052],[-90.41589,38.77929],[-90.41546,38.77865],[-90.4148,38.77782],[-90.41406,38.77698],[-90.41233,38.7751],[-90.41096,38.77367],[-90.40919,38.77169],[-90.40853,38.771],[-90.40814,38.77065],[-90.40769,38.77037],[-90.40717,38.77014],[-90.40648,38.76994],[-90.4061,38.76989],[-90.40538,38.76985],[-90.40477,38.76987],[-90.40437,38.76991],[-90.40368,38.77003],[-90.40296,38.77023],[-90.40223,38.77051],[-90.40115,38.77115],[-90.4008,38.77139],[-90.39991,38.77195],[-90.3997,38.77203],[-90.39948,38.77206],[-90.39902,38.77199],[-90.39692,38.77075],[-90.39668,38.77058],[-90.39619,38.77017],[-90.39495,38.76894],[-90.39389,38.77001],[-90.39097,38.77305],[-90.39079,38.77317],[-90.39058,38.77327],[-90.39036,38.77332],[-90.38925,38.77346],[-90.38881,38.77355],[-90.38839,38.77369],[-90.38791,38.77391],[-90.38695,38.77442],[-90.3859,38.77447],[-90.3832,38.7729],[-90.38635,38.76963],[-90.38608,38.76945],[-90.38589,38.76925],[-90.38574,38.76891],[-90.38512,38.76736],[-90.38491,38.76693],[-90.38464,38.7665],[-90.38433,38.76609],[-90.38394,38.76569],[-90.38349,38.76529],[-90.38311,38.76501],[-90.38237,38.76457],[-90.38176,38.76504],[-90.38154,38.76523],[-90.38127,38.76551],[-90.38006,38.76687],[-90.3781,38.76893],[-90.37765,38.76945],[-90.37573,38.76852],[-90.36932,38.76472],[-90.36699,38.76331],[-90.3655,38.76244],[-90.3654,38.76258],[-90.36516,38.76261],[-90.36502,38.76267],[-90.36482,38.76288],[-90.36481,38.76292],[-90.36483,38.76295],[-90.36502,38.76305],[-90.36506,38.76305],[-90.36532,38.76279],[-90.3654,38.76258],[-90.3645,38.76185],[-90.36337,38.7612],[-90.36267,38.76077],[-90.36216,38.76048],[-90.36178,38.76029],[-90.3614,38.76014],[-90.36104,38.76004],[-90.36049,38.75995],[-90.36002,38.75994],[-90.35972,38.75996],[-90.35704,38.76025],[-90.35658,38.76027],[-90.35612,38.76024],[-90.3556,38.76014],[-90.35519,38.76002],[-90.35289,38.75913],[-90.35071,38.75828],[-90.34972,38.75788],[-90.34952,38.75777],[-90.34926,38.75759],[-90.34894,38.7572],[-90.34885,38.75702],[-90.34879,38.75683],[-90.34876,38.75663],[-90.34875,38.75632],[-90.34877,38.75423],[-90.34882,38.75143],[-90.3488,38.75106],[-90.34865,38.75067],[-90.34852,38.75048],[-90.34837,38.75031],[-90.34822,38.75017],[-90.34796,38.75],[-90.3476,38.74983],[-90.34644,38.7495],[-90.34616,38.74937],[-90.34597,38.74926],[-90.3456,38.74953],[-90.34532,38.74969],[-90.34329,38.7497],[-90.34037,38.74967],[-90.33801,38.74967],[-90.33726,38.74963],[-90.33676,38.74963],[-90.33637,38.74968],[-90.33554,38.74995],[-90.33508,38.74955],[-90.335,38.7489],[-90.33496,38.74841],[-90.33471,38.74461],[-90.33469,38.7432],[-90.3347,38.74116],[-90.33469,38.74089],[-90.33465,38.74067],[-90.33456,38.74036],[-90.33447,38.74017],[-90.33162,38.73574],[-90.33123,38.73519],[-90.33102,38.73493],[-90.33078,38.73469],[-90.32729,38.73206],[-90.32658,38.73149],[-90.32519,38.73046],[-90.32439,38.72978],[-90.32402,38.72952],[-90.32373,38.72935],[-90.32011,38.7275],[-90.3198,38.72732],[-90.31953,38.72712],[-90.31928,38.72689],[-90.31839,38.72589],[-90.31723,38.72455],[-90.31696,38.72414],[-90.31687,38.72395],[-90.31679,38.72365],[-90.31677,38.72334],[-90.31678,38.72324],[-90.31685,38.7229],[-90.31708,38.7221],[-90.31718,38.72166],[-90.31719,38.72146],[-90.31713,38.72098],[-90.3171,38.72013],[-90.31716,38.71967],[-90.31721,38.71952],[-90.31762,38.71869],[-90.31782,38.71823],[-90.31624,38.71782],[-90.31606,38.71782],[-90.3161,38.71825],[-90.31605,38.7188],[-90.31578,38.71877],[-90.31546,38.71876],[-90.31514,38.7188]],[[-90.3645,38.76185],[-90.3655,38.76244]]]}},{"type":"Feature","properties":{"stop_id":"13506","stop_code":"13506","stop_name":"CAMPUS PARKWAY @ MISSOURI BOTTOM NB","stop_desc":"FAR SIDE CAMPUS PARKWAY @ MISSOURI BOTTOM NB","wheelchair_boarding":2,"routes":[{"route_id":"19635","agency_id":"70006","route_short_name":"100","route_long_name":"Hazelwood","route_type":3,"route_color":"#FFFFFF","route_text_color":"#000000"}],"agency_name":"Metro St. Louis"},"geometry":{"type":"Point","coordinates":[-90.39448,38.76919]}},{"type":"Feature","properties":{"stop_id":"13581","stop_code":"13581","stop_name":"AIRPORT @ BUILDING 101 EB","stop_desc":"NEAR SIDE AIRPORT @ BUILDING 101 EB","wheelchair_boarding":1,"routes":[{"route_id":"19635","agency_id":"70006","route_short_name":"100","route_long_name":"Hazelwood","route_type":3,"route_color":"#FFFFFF","route_text_color":"#000000"}],"agency_name":"Metro St. Louis"},"geometry":{"type":"Point","coordinates":[-90.34428,38.74962]}},{"type":"Feature","properties":{"stop_id":"14635","stop_code":"14635","stop_name":"ST. LOUIS MILLS @ TAUSSIG SB","stop_desc":"NEAR SIDE ST. LOUIS MILLS @ TAUSSIG SB","wheelchair_boarding":2,"routes":[{"route_id":"19635","agency_id":"70006","route_short_name":"100","route_long_name":"Hazelwood","route_type":3,"route_color":"#FFFFFF","route_text_color":"#000000"}],"agency_name":"Metro St. Louis"},"geometry":{"type":"Point","coordinates":[-90.42048,38.78331]}},{"type":"Feature","properties":{"stop_id":"14653","stop_code":"14653","stop_name":"MCDONNELL @ LINDBERGH EB","stop_desc":"FAR SIDE MCDONNELL @ LINDBERGH EB","wheelchair_boarding":2,"routes":[{"route_id":"19635","agency_id":"70006","route_short_name":"100","route_long_name":"Hazelwood","route_type":3,"route_color":"#FFFFFF","route_text_color":"#000000"}],"agency_name":"Metro St. Louis"},"geometry":{"type":"Point","coordinates":[-90.36899,38.7644]}},{"type":"Feature","properties":{"stop_id":"15619","stop_code":"15619","stop_name":"VALLEY INDUSTRIES LOOP","stop_desc":"MID-BLOCK VALLEY INDUSTRIES LOOP","wheelchair_boarding":1,"routes":[{"route_id":"19635","agency_id":"70006","route_short_name":"100","route_long_name":"Hazelwood","route_type":3,"route_color":"#FFFFFF","route_text_color":"#000000"}],"agency_name":"Metro St. Louis"},"geometry":{"type":"Point","coordinates":[-90.36456,38.76293]}},{"type":"Feature","properties":{"stop_id":"16063","stop_code":"16063","stop_name":"NORTH HANLEY TRANSIT CENTER","wheelchair_boarding":1,"routes":[{"route_id":"19628","agency_id":"70006","route_short_name":"79","route_long_name":"Ferguson-Clayton","route_type":3,"route_color":"#FFFFFF","route_text_color":"#000000"},{"route_id":"19634","agency_id":"70006","route_short_name":"98","route_long_name":"Ballas-North Hanley","route_type":3,"route_color":"#FFFFFF","route_text_color":"#000000"},{"route_id":"19635","agency_id":"70006","route_short_name":"100","route_long_name":"Hazelwood","route_type":3,"route_color":"#FFFFFF","route_text_color":"#000000"}],"agency_name":"Metro St. Louis"},"geometry":{"type":"Point","coordinates":[-90.31522,38.71962]}},{"type":"Feature","properties":{"stop_id":"16148","stop_code":"16148","stop_name":"MCDONNELL @ GENAIRE SB","stop_desc":"FAR SIDE MCDONNELL @ GENAIRE SB","wheelchair_boarding":2,"routes":[{"route_id":"19635","agency_id":"70006","route_short_name":"100","route_long_name":"Hazelwood","route_type":3,"route_color":"#FFFFFF","route_text_color":"#000000"}],"agency_name":"Metro St. Louis"},"geometry":{"type":"Point","coordinates":[-90.3488,38.75076]}},{"type":"Feature","properties":{"stop_id":"16405","stop_code":"16405","stop_name":"NORTH HANLEY @ IRVINGTON SB","stop_desc":"NEAR SIDE NORTH HANLEY @ IRVINGTON SB","wheelchair_boarding":2,"routes":[{"route_id":"19620","agency_id":"70006","route_short_name":"61","route_long_name":"Chambers Rd","route_type":3,"route_color":"#FFFFFF","route_text_color":"#000000"},{"route_id":"19625","agency_id":"70006","route_short_name":"76","route_long_name":"N Hanley Shuttle","route_type":3,"route_color":"#FFFFFF","route_text_color":"#000000"},{"route_id":"19626","agency_id":"70006","route_short_name":"77","route_long_name":"Village Square","route_type":3,"route_color":"#FFFFFF","route_text_color":"#000000"},{"route_id":"19635","agency_id":"70006","route_short_name":"100","route_long_name":"Hazelwood","route_type":3,"route_color":"#FFFFFF","route_text_color":"#000000"}],"agency_name":"Metro St. Louis"},"geometry":{"type":"Point","coordinates":[-90.33056,38.73442]}},{"type":"Feature","properties":{"stop_id":"16406","stop_code":"16406","stop_name":"PARK 370 @ TRADE ACCESS WB","stop_desc":"FAR SIDE PARK 370 @ TRADE ACCESS WB","wheelchair_boarding":2,"routes":[{"route_id":"19635","agency_id":"70006","route_short_name":"100","route_long_name":"Hazelwood","route_type":3,"route_color":"#FFFFFF","route_text_color":"#000000"}],"agency_name":"Metro St. Louis"},"geometry":{"type":"Point","coordinates":[-90.41404,38.79301]}},{"type":"Feature","properties":{"stop_id":"16413","stop_code":"16413","stop_name":"TRADEPORT COURT TIME POINT","wheelchair_boarding":2,"routes":[{"route_id":"19635","agency_id":"70006","route_short_name":"100","route_long_name":"Hazelwood","route_type":3,"route_color":"#FFFFFF","route_text_color":"#000000"}],"agency_name":"Metro St. Louis"},"geometry":{"type":"Point","coordinates":[-90.40291,38.79435]}},{"type":"Feature","properties":{"stop_id":"16416","stop_code":"16416","stop_name":"TRADEPORT @ TRADEPORT COURT WB","stop_desc":"FAR SIDE TRADEPORT @ TRADEPORT COURT WB","wheelchair_boarding":1,"routes":[{"route_id":"19635","agency_id":"70006","route_short_name":"100","route_long_name":"Hazelwood","route_type":3,"route_color":"#FFFFFF","route_text_color":"#000000"}],"agency_name":"Metro St. Louis"},"geometry":{"type":"Point","coordinates":[-90.40143,38.79672]}},{"type":"Feature","properties":{"stop_id":"16417","stop_code":"16417","stop_name":"TRADE ACCESS @ TRADEPORT SB","stop_desc":"FAR SIDE TRADE ACCESS @ TRADEPORT SB","wheelchair_boarding":1,"routes":[{"route_id":"19635","agency_id":"70006","route_short_name":"100","route_long_name":"Hazelwood","route_type":3,"route_color":"#FFFFFF","route_text_color":"#000000"}],"agency_name":"Metro St. Louis"},"geometry":{"type":"Point","coordinates":[-90.40712,38.79932]}},{"type":"Feature","properties":{"stop_id":"16503","stop_code":"16503","stop_name":"422 HAZELWOOD LOGISTICS CENTER EB","stop_desc":"FAR SIDE 422 HAZELWOOD LOGISTICS CENTER EB","wheelchair_boarding":2,"routes":[{"route_id":"19635","agency_id":"70006","route_short_name":"100","route_long_name":"Hazelwood","route_type":3,"route_color":"#FFFFFF","route_text_color":"#000000"}],"agency_name":"Metro St. Louis"},"geometry":{"type":"Point","coordinates":[-90.38505,38.76698]}},{"type":"Feature","properties":{"stop_id":"16504","stop_code":"16504","stop_name":"FEE FEE @ HAZELWOOD LOGISTICS CENTER NB","stop_desc":"FAR SIDE FEE FEE @ HAZELWOOD LOGISTICS CENTER NB","wheelchair_boarding":2,"routes":[{"route_id":"19635","agency_id":"70006","route_short_name":"100","route_long_name":"Hazelwood","route_type":3,"route_color":"#FFFFFF","route_text_color":"#000000"}],"agency_name":"Metro St. Louis"},"geometry":{"type":"Point","coordinates":[-90.38171,38.76495]}},{"type":"Feature","properties":{"stop_id":"16505","stop_code":"16505","stop_name":"FEE FEE @ MCDONNELL NB","stop_desc":"NEAR SIDE FEE FEE @ MCDONNELL NB","wheelchair_boarding":2,"routes":[{"route_id":"19635","agency_id":"70006","route_short_name":"100","route_long_name":"Hazelwood","route_type":3,"route_color":"#FFFFFF","route_text_color":"#000000"}],"agency_name":"Metro St. Louis"},"geometry":{"type":"Point","coordinates":[-90.37756,38.76941]}},{"type":"Feature","properties":{"stop_id":"16514","stop_code":"16514","stop_name":"HAZELWOOD LOGISTICS CENTER @ PHANTOM EB","stop_desc":"FAR SIDE HAZELWOOD LOGISTICS CENTER @ PHANTOM EB","wheelchair_boarding":2,"routes":[{"route_id":"19635","agency_id":"70006","route_short_name":"100","route_long_name":"Hazelwood","route_type":3,"route_color":"#FFFFFF","route_text_color":"#000000"}],"agency_name":"Metro St. Louis"},"geometry":{"type":"Point","coordinates":[-90.38623,38.76944]}},{"type":"Feature","properties":{"stop_id":"4583","stop_code":"4583","stop_name":"MCDONNELL @ FA-18 BUILDING BOEING SB","stop_desc":"FAR SIDE MCDONNELL @ FA-18 BUILDING BOEING SB","wheelchair_boarding":1,"routes":[{"route_id":"19635","agency_id":"70006","route_short_name":"100","route_long_name":"Hazelwood","route_type":3,"route_color":"#FFFFFF","route_text_color":"#000000"}],"agency_name":"Metro St. Louis"},"geometry":{"type":"Point","coordinates":[-90.34882,38.75575]}},{"type":"Feature","properties":{"stop_id":"4590","stop_code":"4590","stop_name":"PHANTOM @ MCDONNELL SB","stop_desc":"FAR SIDE PHANTOM @ MCDONNELL SB","wheelchair_boarding":2,"routes":[{"route_id":"19635","agency_id":"70006","route_short_name":"100","route_long_name":"Hazelwood","route_type":3,"route_color":"#FFFFFF","route_text_color":"#000000"}],"agency_name":"Metro St. Louis"},"geometry":{"type":"Point","coordinates":[-90.38362,38.77261]}},{"type":"Feature","properties":{"stop_id":"4594","stop_code":"4594","stop_name":"CAMPUS PARKWAY @ ANGLUM NB","stop_desc":"FAR SIDE CAMPUS PARKWAY @ ANGLUM NB","wheelchair_boarding":2,"routes":[{"route_id":"19635","agency_id":"70006","route_short_name":"100","route_long_name":"Hazelwood","route_type":3,"route_color":"#FFFFFF","route_text_color":"#000000"}],"agency_name":"Metro St. Louis"},"geometry":{"type":"Point","coordinates":[-90.39126,38.77263]}},{"type":"Feature","properties":{"stop_id":"4600","stop_code":"4600","stop_name":"5770 CAMPUS PARKWAY NB","stop_desc":"FAR SIDE 5770 CAMPUS PARKWAY NB","wheelchair_boarding":2,"routes":[{"route_id":"19635","agency_id":"70006","route_short_name":"100","route_long_name":"Hazelwood","route_type":3,"route_color":"#FFFFFF","route_text_color":"#000000"}],"agency_name":"Metro St. Louis"},"geometry":{"type":"Point","coordinates":[-90.38962,38.77327]}},{"type":"Feature","properties":{"stop_id":"4608","stop_code":"4608","stop_name":"310 MCDONNELL EB","stop_desc":"NEAR SIDE 310 MCDONNELL EB","wheelchair_boarding":2,"routes":[{"route_id":"19635","agency_id":"70006","route_short_name":"100","route_long_name":"Hazelwood","route_type":3,"route_color":"#FFFFFF","route_text_color":"#000000"}],"agency_name":"Metro St. Louis"},"geometry":{"type":"Point","coordinates":[-90.37542,38.76816]}},{"type":"Feature","properties":{"stop_id":"4612","stop_code":"4612","stop_name":"MCDONNELL @ GATE 27 BOEING EB","stop_desc":"MID-BLOCK MCDONNELL @ GATE 27 BOEING EB","wheelchair_boarding":2,"routes":[{"route_id":"19635","agency_id":"70006","route_short_name":"100","route_long_name":"Hazelwood","route_type":3,"route_color":"#FFFFFF","route_text_color":"#000000"}],"agency_name":"Metro St. Louis"},"geometry":{"type":"Point","coordinates":[-90.36424,38.76165]}},{"type":"Feature","properties":{"stop_id":"4613","stop_code":"4613","stop_name":"AIRPORT @ NORTH HANLEY EB","stop_desc":"MID-BLOCK AIRPORT @ NORTH HANLEY EB","wheelchair_boarding":1,"routes":[{"route_id":"19635","agency_id":"70006","route_short_name":"100","route_long_name":"Hazelwood","route_type":3,"route_color":"#FFFFFF","route_text_color":"#000000"}],"agency_name":"Metro St. Louis"},"geometry":{"type":"Point","coordinates":[-90.33576,38.74979]}},{"type":"Feature","properties":{"stop_id":"565","stop_code":"565","stop_name":"MISSOURI BOTTOM @ OFF RAMP 22B-A I-270 EB","stop_desc":"MID-BLOCK MISSOURI BOTTOM @ OFF RAMP 22B-A I-270 EB","wheelchair_boarding":2,"routes":[{"route_id":"19635","agency_id":"70006","route_short_name":"100","route_long_name":"Hazelwood","route_type":3,"route_color":"#FFFFFF","route_text_color":"#000000"}],"agency_name":"Metro St. Louis"},"geometry":{"type":"Point","coordinates":[-90.39826,38.77141]}},{"type":"Feature","properties":{"stop_id":"5879","stop_code":"5879","stop_name":"NORTH HANLEY @ STELLA SB","stop_desc":"NEAR SIDE NORTH HANLEY @ STELLA SB","wheelchair_boarding":1,"routes":[{"route_id":"19620","agency_id":"70006","route_short_name":"61","route_long_name":"Chambers Rd","route_type":3,"route_color":"#FFFFFF","route_text_color":"#000000"},{"route_id":"19625","agency_id":"70006","route_short_name":"76","route_long_name":"N Hanley Shuttle","route_type":3,"route_color":"#FFFFFF","route_text_color":"#000000"},{"route_id":"19626","agency_id":"70006","route_short_name":"77","route_long_name":"Village Square","route_type":3,"route_color":"#FFFFFF","route_text_color":"#000000"},{"route_id":"19635","agency_id":"70006","route_short_name":"100","route_long_name":"Hazelwood","route_type":3,"route_color":"#FFFFFF","route_text_color":"#000000"}],"agency_name":"Metro St. Louis"},"geometry":{"type":"Point","coordinates":[-90.33491,38.74694]}},{"type":"Feature","properties":{"stop_id":"5880","stop_code":"5880","stop_name":"NORTH HANLEY @ MADISON SB","stop_desc":"NEAR SIDE NORTH HANLEY @ MADISON SB","wheelchair_boarding":1,"routes":[{"route_id":"19620","agency_id":"70006","route_short_name":"61","route_long_name":"Chambers Rd","route_type":3,"route_color":"#FFFFFF","route_text_color":"#000000"},{"route_id":"19625","agency_id":"70006","route_short_name":"76","route_long_name":"N Hanley Shuttle","route_type":3,"route_color":"#FFFFFF","route_text_color":"#000000"},{"route_id":"19626","agency_id":"70006","route_short_name":"77","route_long_name":"Village Square","route_type":3,"route_color":"#FFFFFF","route_text_color":"#000000"},{"route_id":"19635","agency_id":"70006","route_short_name":"100","route_long_name":"Hazelwood","route_type":3,"route_color":"#FFFFFF","route_text_color":"#000000"}],"agency_name":"Metro St. Louis"},"geometry":{"type":"Point","coordinates":[-90.33483,38.74555]}},{"type":"Feature","properties":{"stop_id":"5881","stop_code":"5881","stop_name":"5861 NORTH HANLEY SB","stop_desc":"NEAR SIDE 5861 NORTH HANLEY SB","wheelchair_boarding":1,"routes":[{"route_id":"19620","agency_id":"70006","route_short_name":"61","route_long_name":"Chambers Rd","route_type":3,"route_color":"#FFFFFF","route_text_color":"#000000"},{"route_id":"19625","agency_id":"70006","route_short_name":"76","route_long_name":"N Hanley Shuttle","route_type":3,"route_color":"#FFFFFF","route_text_color":"#000000"},{"route_id":"19626","agency_id":"70006","route_short_name":"77","route_long_name":"Village Square","route_type":3,"route_color":"#FFFFFF","route_text_color":"#000000"},{"route_id":"19635","agency_id":"70006","route_short_name":"100","route_long_name":"Hazelwood","route_type":3,"route_color":"#FFFFFF","route_text_color":"#000000"}],"agency_name":"Metro St. Louis"},"geometry":{"type":"Point","coordinates":[-90.33476,38.74327]}},{"type":"Feature","properties":{"stop_id":"5882","stop_code":"5882","stop_name":"NORTH HANLEY @ SCUDDER SB","stop_desc":"FAR SIDE NORTH HANLEY @ SCUDDER SB","wheelchair_boarding":1,"routes":[{"route_id":"19620","agency_id":"70006","route_short_name":"61","route_long_name":"Chambers Rd","route_type":3,"route_color":"#FFFFFF","route_text_color":"#000000"},{"route_id":"19625","agency_id":"70006","route_short_name":"76","route_long_name":"N Hanley Shuttle","route_type":3,"route_color":"#FFFFFF","route_text_color":"#000000"},{"route_id":"19626","agency_id":"70006","route_short_name":"77","route_long_name":"Village Square","route_type":3,"route_color":"#FFFFFF","route_text_color":"#000000"},{"route_id":"19635","agency_id":"70006","route_short_name":"100","route_long_name":"Hazelwood","route_type":3,"route_color":"#FFFFFF","route_text_color":"#000000"}],"agency_name":"Metro St. Louis"},"geometry":{"type":"Point","coordinates":[-90.3348,38.74089]}},{"type":"Feature","properties":{"stop_id":"5892","stop_code":"5892","stop_name":"NORTH HANLEY @ REV JOHN MITCHELL SB","stop_desc":"NEAR SIDE NORTH HANLEY @ REV JOHN MITCHELL SB","wheelchair_boarding":1,"routes":[{"route_id":"19620","agency_id":"70006","route_short_name":"61","route_long_name":"Chambers Rd","route_type":3,"route_color":"#FFFFFF","route_text_color":"#000000"},{"route_id":"19625","agency_id":"70006","route_short_name":"76","route_long_name":"N Hanley Shuttle","route_type":3,"route_color":"#FFFFFF","route_text_color":"#000000"},{"route_id":"19626","agency_id":"70006","route_short_name":"77","route_long_name":"Village Square","route_type":3,"route_color":"#FFFFFF","route_text_color":"#000000"},{"route_id":"19635","agency_id":"70006","route_short_name":"100","route_long_name":"Hazelwood","route_type":3,"route_color":"#FFFFFF","route_text_color":"#000000"}],"agency_name":"Metro St. Louis"},"geometry":{"type":"Point","coordinates":[-90.32554,38.73062]}},{"type":"Feature","properties":{"stop_id":"5894","stop_code":"5894","stop_name":"NORTH HANLEY @ ZEV SB","stop_desc":"FAR SIDE NORTH HANLEY @ ZEV SB","wheelchair_boarding":1,"routes":[{"route_id":"19620","agency_id":"70006","route_short_name":"61","route_long_name":"Chambers Rd","route_type":3,"route_color":"#FFFFFF","route_text_color":"#000000"},{"route_id":"19625","agency_id":"70006","route_short_name":"76","route_long_name":"N Hanley Shuttle","route_type":3,"route_color":"#FFFFFF","route_text_color":"#000000"},{"route_id":"19626","agency_id":"70006","route_short_name":"77","route_long_name":"Village Square","route_type":3,"route_color":"#FFFFFF","route_text_color":"#000000"},{"route_id":"19635","agency_id":"70006","route_short_name":"100","route_long_name":"Hazelwood","route_type":3,"route_color":"#FFFFFF","route_text_color":"#000000"}],"agency_name":"Metro St. Louis"},"geometry":{"type":"Point","coordinates":[-90.32152,38.72815]}},{"type":"Feature","properties":{"stop_id":"5898","stop_code":"5898","stop_name":"NORTH HANLEY @ EVANS SB","stop_desc":"NEAR SIDE NORTH HANLEY @ EVANS SB","wheelchair_boarding":1,"routes":[{"route_id":"19620","agency_id":"70006","route_short_name":"61","route_long_name":"Chambers Rd","route_type":3,"route_color":"#FFFFFF","route_text_color":"#000000"},{"route_id":"19625","agency_id":"70006","route_short_name":"76","route_long_name":"N Hanley Shuttle","route_type":3,"route_color":"#FFFFFF","route_text_color":"#000000"},{"route_id":"19626","agency_id":"70006","route_short_name":"77","route_long_name":"Village Square","route_type":3,"route_color":"#FFFFFF","route_text_color":"#000000"},{"route_id":"19635","agency_id":"70006","route_short_name":"100","route_long_name":"Hazelwood","route_type":3,"route_color":"#FFFFFF","route_text_color":"#000000"}],"agency_name":"Metro St. Louis"},"geometry":{"type":"Point","coordinates":[-90.31705,38.72412]}}]}