{"type":"FeatureCollection","features":[{"type":"Feature","properties":{"agency_name":"Metro St. Louis","route_id":"19641","agency_id":"70006","route_short_name":"6","route_long_name":"Rosemont","route_type":3,"route_color":"#FFFFFF","route_text_color":"#000000"},"geometry":{"type":"MultiLineString","coordinates":[[[-90.13763,38.62876],[-90.13808,38.62847],[-90.13763,38.62876],[-90.13753,38.62888],[-90.13751,38.62904],[-90.13759,38.62918],[-90.1381,38.62959],[-90.13848,38.62978],[-90.13885,38.62988],[-90.13929,38.62992],[-90.13953,38.62991],[-90.13982,38.62981],[-90.13999,38.63004],[-90.14011,38.63062],[-90.14021,38.63077],[-90.14046,38.631],[-90.13885,38.63219],[-90.13722,38.63149],[-90.1361,38.63049],[-90.13487,38.62949],[-90.13357,38.63043],[-90.13175,38.63089],[-90.13078,38.63002],[-90.13308,38.62758],[-90.13355,38.62705],[-90.13401,38.62625],[-90.13447,38.62551],[-90.13454,38.62552],[-90.13461,38.62551],[-90.1347,38.62542],[-90.13475,38.62512],[-90.13483,38.62493],[-90.13511,38.62454],[-90.13552,38.62467],[-90.13698,38.6252],[-90.13716,38.62529],[-90.13735,38.62543],[-90.13776,38.62578],[-90.13706,38.62588],[-90.13642,38.62573],[-90.13615,38.62561],[-90.13568,38.62534],[-90.13529,38.62517],[-90.13483,38.62493],[-90.13381,38.62445],[-90.13263,38.62402],[-90.13145,38.6237],[-90.12939,38.62321],[-90.12913,38.62316],[-90.12882,38.62307],[-90.12741,38.62272],[-90.12353,38.62179],[-90.12332,38.62165],[-90.12291,38.62147],[-90.12271,38.62134],[-90.12261,38.6212],[-90.12254,38.62106],[-90.12251,38.62087],[-90.1226,38.62062],[-90.1227,38.62047],[-90.12286,38.62032],[-90.12308,38.62016],[-90.12341,38.62005],[-90.12367,38.62],[-90.12395,38.62001],[-90.12413,38.62004],[-90.125,38.62032],[-90.12442,38.62128],[-90.12401,38.6219],[-90.12353,38.6228],[-90.12281,38.62401],[-90.12256,38.62438],[-90.12255,38.6245],[-90.12233,38.62476],[-90.12254,38.62484],[-90.12269,38.62483],[-90.12315,38.62418],[-90.12323,38.62409],[-90.12333,38.62402],[-90.12422,38.62368],[-90.1242,38.62363],[-90.12413,38.62351],[-90.12407,38.62348],[-90.12399,38.62346],[-90.12361,38.62371],[-90.12337,38.62394]],[[-90.12233,38.62476],[-90.12196,38.62527],[-90.12151,38.62584],[-90.12132,38.62598],[-90.12111,38.62619],[-90.12077,38.62667],[-90.12057,38.62698],[-90.12034,38.62728],[-90.12013,38.62748],[-90.11975,38.62768],[-90.11959,38.62774],[-90.11928,38.62782],[-90.11746,38.6282],[-90.11583,38.62852],[-90.11408,38.62859],[-90.11371,38.62862],[-90.11345,38.6287],[-90.1114,38.62969],[-90.10939,38.63048],[-90.10895,38.63067],[-90.10874,38.63071],[-90.10821,38.6307],[-90.10783,38.63067],[-90.10603,38.63064],[-90.10404,38.63058],[-90.10111,38.63054],[-90.09716,38.63044],[-90.0965,38.63041],[-90.0931,38.63036],[-90.09305,38.6267],[-90.09304,38.6248],[-90.09302,38.62411],[-90.093,38.62393],[-90.09308,38.62375],[-90.09308,38.62308],[-90.09733,38.62317],[-90.09945,38.62324],[-90.10552,38.62338],[-90.10845,38.62347],[-90.11035,38.6235],[-90.11125,38.6218],[-90.11122,38.62052],[-90.11124,38.62027],[-90.1112,38.62006],[-90.11123,38.61977],[-90.1112,38.61871],[-90.11122,38.61835],[-90.11124,38.61821],[-90.11133,38.61792],[-90.11184,38.61674],[-90.10725,38.6155],[-90.10405,38.6146],[-90.10335,38.61448],[-90.10279,38.61442],[-90.10205,38.61442],[-90.10158,38.61445],[-90.10115,38.61451],[-90.10031,38.61469],[-90.09757,38.61541],[-90.09727,38.61497],[-90.09711,38.61489],[-90.09548,38.61436],[-90.09507,38.61413],[-90.09425,38.61389],[-90.09415,38.6139],[-90.09407,38.61396],[-90.09338,38.61433],[-90.09315,38.61431],[-90.09285,38.61431],[-90.09282,38.61245],[-90.09276,38.61024],[-90.08771,38.60884],[-90.08715,38.60867],[-90.0867,38.6085],[-90.08643,38.60838],[-90.08609,38.6082],[-90.08357,38.60662],[-90.08322,38.60643],[-90.08133,38.60548],[-90.07986,38.60476],[-90.07933,38.60456],[-90.07822,38.60423],[-90.07777,38.60407],[-90.0773,38.60387],[-90.07404,38.60224],[-90.0713,38.6009],[-90.06362,38.59704],[-90.06135,38.59593],[-90.06074,38.59562],[-90.06037,38.5954],[-90.06011,38.59574],[-90.0578,38.59579],[-90.0551,38.59502],[-90.05494,38.59499],[-90.05448,38.59583],[-90.05403,38.59673],[-90.05381,38.59712],[-90.05358,38.59774],[-90.05321,38.59858],[-90.05312,38.59882],[-90.05268,38.59962],[-90.05258,38.59973],[-90.05246,38.59983],[-90.05233,38.59989],[-90.05216,38.5999],[-90.0519,38.59984],[-90.05179,38.59977],[-90.0517,38.59967],[-90.05166,38.59958],[-90.05165,38.59946],[-90.05166,38.59935],[-90.0521,38.59842],[-90.05207,38.59829],[-90.05176,38.59809],[-90.05123,38.59778],[-90.05105,38.59773],[-90.05005,38.59704],[-90.04945,38.5967],[-90.04886,38.59642],[-90.04841,38.59624],[-90.04878,38.59574],[-90.04886,38.5956],[-90.04887,38.59547]]]}},{"type":"Feature","properties":{"stop_id":"12079","stop_code":"12079","stop_name":"ST. CLAIR @ MAGDALENA EB","stop_desc":"NEAR SIDE ST. CLAIR @ MAGDALENA EB","wheelchair_boarding":2,"routes":[{"route_id":"19636","agency_id":"70006","route_short_name":"1","route_long_name":"Main Street - State Street","route_type":3,"route_color":"#FFFFFF","route_text_color":"#000000"},{"route_id":"19641","agency_id":"70006","route_short_name":"6","route_long_name":"Rosemont","route_type":3,"route_color":"#FFFFFF","route_text_color":"#000000"},{"route_id":"19645","agency_id":"70006","route_short_name":"13","route_long_name":"Caseyville","route_type":3,"route_color":"#FFFFFF","route_text_color":"#000000"}],"agency_name":"Metro St. Louis"},"geometry":{"type":"Point","coordinates":[-90.05117,38.5977]}},{"type":"Feature","properties":{"stop_id":"12080","stop_code":"12080","stop_name":"ILLINOIS ROUTE 157 @ CHURCH NB","stop_desc":"NEAR SIDE ILLINOIS ROUTE 157 @ CHURCH NB","wheelchair_boarding":2,"routes":[{"route_id":"19636","agency_id":"70006","route_short_name":"1","route_long_name":"Main Street - State Street","route_type":3,"route_color":"#FFFFFF","route_text_color":"#000000"},{"route_id":"19641","agency_id":"70006","route_short_name":"6","route_long_name":"Rosemont","route_type":3,"route_color":"#FFFFFF","route_text_color":"#000000"}],"agency_name":"Metro St. Louis"},"geometry":{"type":"Point","coordinates":[-90.05403,38.59666]}},{"type":"Feature","properties":{"stop_id":"12081","stop_code":"12081","stop_name":"ILLINOIS ROUTE 157 @ VIEUX CARRE NB","stop_desc":"FAR SIDE ILLINOIS ROUTE 157 @ VIEUX CARRE NB","wheelchair_boarding":2,"routes":[{"route_id":"19636","agency_id":"70006","route_short_name":"1","route_long_name":"Main Street - State Street","route_type":3,"route_color":"#FFFFFF","route_text_color":"#000000"},{"route_id":"19641","agency_id":"70006","route_short_name":"6","route_long_name":"Rosemont","route_type":3,"route_color":"#FFFFFF","route_text_color":"#000000"}],"agency_name":"Metro St. Louis"},"geometry":{"type":"Point","coordinates":[-90.05476,38.59528]}},{"type":"Feature","properties":{"stop_id":"12430","stop_code":"12430","stop_name":"26TH STREET @ LYNCH NB","stop_desc":"FAR SIDE 26TH STREET @ LYNCH NB","wheelchair_boarding":2,"routes":[{"route_id":"19641","agency_id":"70006","route_short_name":"6","route_long_name":"Rosemont","route_type":3,"route_color":"#FFFFFF","route_text_color":"#000000"}],"agency_name":"Metro St. Louis"},"geometry":{"type":"Point","coordinates":[-90.12107,38.6262]}},{"type":"Feature","properties":{"stop_id":"12431","stop_code":"12431","stop_name":"CASEYVILLE @ 26TH STREET EB","stop_desc":"FAR SIDE CASEYVILLE @ 26TH STREET EB","wheelchair_boarding":2,"routes":[{"route_id":"19641","agency_id":"70006","route_short_name":"6","route_long_name":"Rosemont","route_type":3,"route_color":"#FFFFFF","route_text_color":"#000000"}],"agency_name":"Metro St. Louis"},"geometry":{"type":"Point","coordinates":[-90.11978,38.62767]}},{"type":"Feature","properties":{"stop_id":"12432","stop_code":"12432","stop_name":"2920 CASEYVILLE EB","stop_desc":"MID-BLOCK 2920 CASEYVILLE EB","wheelchair_boarding":2,"routes":[{"route_id":"19641","agency_id":"70006","route_short_name":"6","route_long_name":"Rosemont","route_type":3,"route_color":"#FFFFFF","route_text_color":"#000000"}],"agency_name":"Metro St. Louis"},"geometry":{"type":"Point","coordinates":[-90.11826,38.62802]}},{"type":"Feature","properties":{"stop_id":"12433","stop_code":"12433","stop_name":"CASEYVILLE @ PARK EB","stop_desc":"NEAR SIDE CASEYVILLE @ PARK EB","wheelchair_boarding":2,"routes":[{"route_id":"19641","agency_id":"70006","route_short_name":"6","route_long_name":"Rosemont","route_type":3,"route_color":"#FFFFFF","route_text_color":"#000000"}],"agency_name":"Metro St. Louis"},"geometry":{"type":"Point","coordinates":[-90.11605,38.62846]}},{"type":"Feature","properties":{"stop_id":"12434","stop_code":"12434","stop_name":"CASEYVILLE @ 32ND STREET EB","stop_desc":"FAR SIDE CASEYVILLE @ 32ND STREET EB","wheelchair_boarding":2,"routes":[{"route_id":"19641","agency_id":"70006","route_short_name":"6","route_long_name":"Rosemont","route_type":3,"route_color":"#FFFFFF","route_text_color":"#000000"}],"agency_name":"Metro St. Louis"},"geometry":{"type":"Point","coordinates":[-90.11437,38.62858]}},{"type":"Feature","properties":{"stop_id":"12436","stop_code":"12436","stop_name":"CASEYVILLE @ 37TH STREET EB","stop_desc":"NEAR SIDE CASEYVILLE @ 37TH STREET EB","wheelchair_boarding":2,"routes":[{"route_id":"19641","agency_id":"70006","route_short_name":"6","route_long_name":"Rosemont","route_type":3,"route_color":"#FFFFFF","route_text_color":"#000000"}],"agency_name":"Metro St. Louis"},"geometry":{"type":"Point","coordinates":[-90.11158,38.62959]}},{"type":"Feature","properties":{"stop_id":"12437","stop_code":"12437","stop_name":"CASEYVILLE @ 39TH STREET EB","stop_desc":"NEAR SIDE CASEYVILLE @ 39TH STREET EB","wheelchair_boarding":2,"routes":[{"route_id":"19641","agency_id":"70006","route_short_name":"6","route_long_name":"Rosemont","route_type":3,"route_color":"#FFFFFF","route_text_color":"#000000"}],"agency_name":"Metro St. Louis"},"geometry":{"type":"Point","coordinates":[-90.1098,38.63029]}},{"type":"Feature","properties":{"stop_id":"12438","stop_code":"12438","stop_name":"CASEYVILLE @ 40TH STREET EB","stop_desc":"NEAR SIDE CASEYVILLE @ 40TH STREET EB","wheelchair_boarding":2,"routes":[{"route_id":"19641","agency_id":"70006","route_short_name":"6","route_long_name":"Rosemont","route_type":3,"route_color":"#FFFFFF","route_text_color":"#000000"}],"agency_name":"Metro St. Louis"},"geometry":{"type":"Point","coordinates":[-90.10872,38.63068]}},{"type":"Feature","properties":{"stop_id":"12439","stop_code":"12439","stop_name":"CASEYVILLE @ 41ST STREET EB","stop_desc":"NEAR SIDE CASEYVILLE @ 41ST STREET EB","wheelchair_boarding":2,"routes":[{"route_id":"19641","agency_id":"70006","route_short_name":"6","route_long_name":"Rosemont","route_type":3,"route_color":"#FFFFFF","route_text_color":"#000000"}],"agency_name":"Metro St. Louis"},"geometry":{"type":"Point","coordinates":[-90.10755,38.63065]}},{"type":"Feature","properties":{"stop_id":"12440","stop_code":"12440","stop_name":"CASEYVILLE @ 42ND STREET EB","stop_desc":"NEAR SIDE CASEYVILLE @ 42ND STREET EB","wheelchair_boarding":2,"routes":[{"route_id":"19641","agency_id":"70006","route_short_name":"6","route_long_name":"Rosemont","route_type":3,"route_color":"#FFFFFF","route_text_color":"#000000"}],"agency_name":"Metro St. Louis"},"geometry":{"type":"Point","coordinates":[-90.10648,38.63058]}},{"type":"Feature","properties":{"stop_id":"12441","stop_code":"12441","stop_name":"CASEYVILLE @ 43RD STREET EB","stop_desc":"NEAR SIDE CASEYVILLE @ 43RD STREET EB","wheelchair_boarding":2,"routes":[{"route_id":"19641","agency_id":"70006","route_short_name":"6","route_long_name":"Rosemont","route_type":3,"route_color":"#FFFFFF","route_text_color":"#000000"}],"agency_name":"Metro St. Louis"},"geometry":{"type":"Point","coordinates":[-90.10535,38.63055]}},{"type":"Feature","properties":{"stop_id":"12442","stop_code":"12442","stop_name":"CASEYVILLE @ 44TH STREET EB","stop_desc":"NEAR SIDE CASEYVILLE @ 44TH STREET EB","wheelchair_boarding":2,"routes":[{"route_id":"19641","agency_id":"70006","route_short_name":"6","route_long_name":"Rosemont","route_type":3,"route_color":"#FFFFFF","route_text_color":"#000000"}],"agency_name":"Metro St. Louis"},"geometry":{"type":"Point","coordinates":[-90.10423,38.63052]}},{"type":"Feature","properties":{"stop_id":"12443","stop_code":"12443","stop_name":"CASEYVILLE @ 45TH STREET EB","stop_desc":"FAR SIDE CASEYVILLE @ 45TH STREET EB","wheelchair_boarding":2,"routes":[{"route_id":"19641","agency_id":"70006","route_short_name":"6","route_long_name":"Rosemont","route_type":3,"route_color":"#FFFFFF","route_text_color":"#000000"}],"agency_name":"Metro St. Louis"},"geometry":{"type":"Point","coordinates":[-90.10264,38.63053]}},{"type":"Feature","properties":{"stop_id":"12446","stop_code":"12446","stop_name":"CASEYVILLE @ 49TH STREET EB","stop_desc":"FAR SIDE CASEYVILLE @ 49TH STREET EB","wheelchair_boarding":2,"routes":[{"route_id":"19641","agency_id":"70006","route_short_name":"6","route_long_name":"Rosemont","route_type":3,"route_color":"#FFFFFF","route_text_color":"#000000"}],"agency_name":"Metro St. Louis"},"geometry":{"type":"Point","coordinates":[-90.09805,38.63044]}},{"type":"Feature","properties":{"stop_id":"12447","stop_code":"12447","stop_name":"CASEYVILLE @ 53RD STREET EB","stop_desc":"FAR SIDE CASEYVILLE @ 53RD STREET EB","wheelchair_boarding":2,"routes":[{"route_id":"19641","agency_id":"70006","route_short_name":"6","route_long_name":"Rosemont","route_type":3,"route_color":"#FFFFFF","route_text_color":"#000000"}],"agency_name":"Metro St. Louis"},"geometry":{"type":"Point","coordinates":[-90.09519,38.63034]}},{"type":"Feature","properties":{"stop_id":"12449","stop_code":"12449","stop_name":"KINGSHIGHWAY @ CASEYVILLE SB","stop_desc":"FAR SIDE KINGSHIGHWAY @ CASEYVILLE SB","wheelchair_boarding":2,"routes":[{"route_id":"19641","agency_id":"70006","route_short_name":"6","route_long_name":"Rosemont","route_type":3,"route_color":"#FFFFFF","route_text_color":"#000000"},{"route_id":"19643","agency_id":"70006","route_short_name":"9","route_long_name":"Washington Park","route_type":3,"route_color":"#FFFFFF","route_text_color":"#000000"}],"agency_name":"Metro St. Louis"},"geometry":{"type":"Point","coordinates":[-90.09312,38.62978]}},{"type":"Feature","properties":{"stop_id":"12450","stop_code":"12450","stop_name":"KINGSHIGHWAY @ WARREN SB","stop_desc":"NEAR SIDE KINGSHIGHWAY @ WARREN SB","wheelchair_boarding":2,"routes":[{"route_id":"19641","agency_id":"70006","route_short_name":"6","route_long_name":"Rosemont","route_type":3,"route_color":"#FFFFFF","route_text_color":"#000000"},{"route_id":"19643","agency_id":"70006","route_short_name":"9","route_long_name":"Washington Park","route_type":3,"route_color":"#FFFFFF","route_text_color":"#000000"}],"agency_name":"Metro St. Louis"},"geometry":{"type":"Point","coordinates":[-90.09314,38.62862]}},{"type":"Feature","properties":{"stop_id":"12451","stop_code":"12451","stop_name":"KINGSHIGHWAY @ HALLOWS SB","stop_desc":"NEAR SIDE KINGSHIGHWAY @ HALLOWS SB","wheelchair_boarding":2,"routes":[{"route_id":"19641","agency_id":"70006","route_short_name":"6","route_long_name":"Rosemont","route_type":3,"route_color":"#FFFFFF","route_text_color":"#000000"},{"route_id":"19643","agency_id":"70006","route_short_name":"9","route_long_name":"Washington Park","route_type":3,"route_color":"#FFFFFF","route_text_color":"#000000"}],"agency_name":"Metro St. Louis"},"geometry":{"type":"Point","coordinates":[-90.09311,38.62683]}},{"type":"Feature","properties":{"stop_id":"12452","stop_code":"12452","stop_name":"KINGSHIGHWAY @ AVON PLACE SB","stop_desc":"NEAR SIDE KINGSHIGHWAY @ AVON PLACE SB","wheelchair_boarding":2,"routes":[{"route_id":"19641","agency_id":"70006","route_short_name":"6","route_long_name":"Rosemont","route_type":3,"route_color":"#FFFFFF","route_text_color":"#000000"},{"route_id":"19643","agency_id":"70006","route_short_name":"9","route_long_name":"Washington Park","route_type":3,"route_color":"#FFFFFF","route_text_color":"#000000"}],"agency_name":"Metro St. Louis"},"geometry":{"type":"Point","coordinates":[-90.0931,38.62586]}},{"type":"Feature","properties":{"stop_id":"12453","stop_code":"12453","stop_name":"KINGSHIGHWAY @ ADELAIDE SB","stop_desc":"FAR SIDE KINGSHIGHWAY @ ADELAIDE SB","wheelchair_boarding":2,"routes":[{"route_id":"19641","agency_id":"70006","route_short_name":"6","route_long_name":"Rosemont","route_type":3,"route_color":"#FFFFFF","route_text_color":"#000000"},{"route_id":"19643","agency_id":"70006","route_short_name":"9","route_long_name":"Washington Park","route_type":3,"route_color":"#FFFFFF","route_text_color":"#000000"}],"agency_name":"Metro St. Louis"},"geometry":{"type":"Point","coordinates":[-90.09314,38.62375]}},{"type":"Feature","properties":{"stop_id":"12454","stop_code":"12454","stop_name":"BUNKUM @ 52ND STREET WB","stop_desc":"FAR SIDE BUNKUM @ 52ND STREET WB","wheelchair_boarding":2,"routes":[{"route_id":"19641","agency_id":"70006","route_short_name":"6","route_long_name":"Rosemont","route_type":3,"route_color":"#FFFFFF","route_text_color":"#000000"}],"agency_name":"Metro St. Louis"},"geometry":{"type":"Point","coordinates":[-90.09531,38.62316]}},{"type":"Feature","properties":{"stop_id":"12455","stop_code":"12455","stop_name":"BUNKUM @ 51ST STREET WB","stop_desc":"FAR SIDE BUNKUM @ 51ST STREET WB","wheelchair_boarding":2,"routes":[{"route_id":"19641","agency_id":"70006","route_short_name":"6","route_long_name":"Rosemont","route_type":3,"route_color":"#FFFFFF","route_text_color":"#000000"}],"agency_name":"Metro St. Louis"},"geometry":{"type":"Point","coordinates":[-90.09654,38.6232]}},{"type":"Feature","properties":{"stop_id":"12456","stop_code":"12456","stop_name":"BUNKUM @ 49TH STREET WB","stop_desc":"FAR SIDE BUNKUM @ 49TH STREET WB","wheelchair_boarding":2,"routes":[{"route_id":"19641","agency_id":"70006","route_short_name":"6","route_long_name":"Rosemont","route_type":3,"route_color":"#FFFFFF","route_text_color":"#000000"}],"agency_name":"Metro St. Louis"},"geometry":{"type":"Point","coordinates":[-90.09891,38.62324]}},{"type":"Feature","properties":{"stop_id":"12457","stop_code":"12457","stop_name":"BUNKUM @ 47TH STREET WB","stop_desc":"FAR SIDE BUNKUM @ 47TH STREET WB","wheelchair_boarding":2,"routes":[{"route_id":"19641","agency_id":"70006","route_short_name":"6","route_long_name":"Rosemont","route_type":3,"route_color":"#FFFFFF","route_text_color":"#000000"}],"agency_name":"Metro St. Louis"},"geometry":{"type":"Point","coordinates":[-90.10076,38.6233]}},{"type":"Feature","properties":{"stop_id":"12458","stop_code":"12458","stop_name":"BUNKUM @ 45TH STREET WB","stop_desc":"FAR SIDE BUNKUM @ 45TH STREET WB","wheelchair_boarding":1,"routes":[{"route_id":"19641","agency_id":"70006","route_short_name":"6","route_long_name":"Rosemont","route_type":3,"route_color":"#FFFFFF","route_text_color":"#000000"}],"agency_name":"Metro St. Louis"},"geometry":{"type":"Point","coordinates":[-90.10248,38.62335]}},{"type":"Feature","properties":{"stop_id":"12459","stop_code":"12459","stop_name":"BUNKUM @ 44TH STREET WB","stop_desc":"FAR SIDE BUNKUM @ 44TH STREET WB","wheelchair_boarding":1,"routes":[{"route_id":"19641","agency_id":"70006","route_short_name":"6","route_long_name":"Rosemont","route_type":3,"route_color":"#FFFFFF","route_text_color":"#000000"}],"agency_name":"Metro St. Louis"},"geometry":{"type":"Point","coordinates":[-90.10348,38.62338]}},{"type":"Feature","properties":{"stop_id":"12460","stop_code":"12460","stop_name":"BUNKUM @ 43RD STREET WB","stop_desc":"NEAR SIDE BUNKUM @ 43RD STREET WB","wheelchair_boarding":1,"routes":[{"route_id":"19641","agency_id":"70006","route_short_name":"6","route_long_name":"Rosemont","route_type":3,"route_color":"#FFFFFF","route_text_color":"#000000"}],"agency_name":"Metro St. Louis"},"geometry":{"type":"Point","coordinates":[-90.10496,38.62342]}},{"type":"Feature","properties":{"stop_id":"12461","stop_code":"12461","stop_name":"BUNKUM @ 42ND STREET WB","stop_desc":"NEAR SIDE BUNKUM @ 42ND STREET WB","wheelchair_boarding":2,"routes":[{"route_id":"19641","agency_id":"70006","route_short_name":"6","route_long_name":"Rosemont","route_type":3,"route_color":"#FFFFFF","route_text_color":"#000000"}],"agency_name":"Metro St. Louis"},"geometry":{"type":"Point","coordinates":[-90.10605,38.62344]}},{"type":"Feature","properties":{"stop_id":"12462","stop_code":"12462","stop_name":"BUNKUM @ 41ST STREET WB","stop_desc":"NEAR SIDE BUNKUM @ 41ST STREET WB","wheelchair_boarding":2,"routes":[{"route_id":"19641","agency_id":"70006","route_short_name":"6","route_long_name":"Rosemont","route_type":3,"route_color":"#FFFFFF","route_text_color":"#000000"}],"agency_name":"Metro St. Louis"},"geometry":{"type":"Point","coordinates":[-90.1072,38.62347]}},{"type":"Feature","properties":{"stop_id":"12463","stop_code":"12463","stop_name":"BUNKUM @ 40TH STREET WB","stop_desc":"FAR SIDE BUNKUM @ 40TH STREET WB","wheelchair_boarding":2,"routes":[{"route_id":"19641","agency_id":"70006","route_short_name":"6","route_long_name":"Rosemont","route_type":3,"route_color":"#FFFFFF","route_text_color":"#000000"}],"agency_name":"Metro St. Louis"},"geometry":{"type":"Point","coordinates":[-90.10861,38.62349]}},{"type":"Feature","properties":{"stop_id":"12464","stop_code":"12464","stop_name":"BUNKUM @ 38TH STREET WB","stop_desc":"NEAR SIDE BUNKUM @ 38TH STREET WB","wheelchair_boarding":2,"routes":[{"route_id":"19641","agency_id":"70006","route_short_name":"6","route_long_name":"Rosemont","route_type":3,"route_color":"#FFFFFF","route_text_color":"#000000"}],"agency_name":"Metro St. Louis"},"geometry":{"type":"Point","coordinates":[-90.11002,38.62352]}},{"type":"Feature","properties":{"stop_id":"12465","stop_code":"12465","stop_name":"37TH STREET @ BUNKUM SB","stop_desc":"FAR SIDE 37TH STREET @ BUNKUM SB","wheelchair_boarding":2,"routes":[{"route_id":"19641","agency_id":"70006","route_short_name":"6","route_long_name":"Rosemont","route_type":3,"route_color":"#FFFFFF","route_text_color":"#000000"}],"agency_name":"Metro St. Louis"},"geometry":{"type":"Point","coordinates":[-90.11134,38.62305]}},{"type":"Feature","properties":{"stop_id":"12466","stop_code":"12466","stop_name":"37TH STREET @ MONK SB","stop_desc":"FAR SIDE 37TH STREET @ MONK SB","wheelchair_boarding":2,"routes":[{"route_id":"19641","agency_id":"70006","route_short_name":"6","route_long_name":"Rosemont","route_type":3,"route_color":"#FFFFFF","route_text_color":"#000000"}],"agency_name":"Metro St. Louis"},"geometry":{"type":"Point","coordinates":[-90.1113,38.62161]}},{"type":"Feature","properties":{"stop_id":"12467","stop_code":"12467","stop_name":"ST. CLAIR @ 39TH STREET EB","stop_desc":"NEAR SIDE ST. CLAIR @ 39TH STREET EB","wheelchair_boarding":2,"routes":[{"route_id":"19641","agency_id":"70006","route_short_name":"6","route_long_name":"Rosemont","route_type":3,"route_color":"#FFFFFF","route_text_color":"#000000"}],"agency_name":"Metro St. Louis"},"geometry":{"type":"Point","coordinates":[-90.11095,38.61639]}},{"type":"Feature","properties":{"stop_id":"12468","stop_code":"12468","stop_name":"ST. CLAIR @ 40TH STREET EB","stop_desc":"FAR SIDE ST. CLAIR @ 40TH STREET EB","wheelchair_boarding":2,"routes":[{"route_id":"19641","agency_id":"70006","route_short_name":"6","route_long_name":"Rosemont","route_type":3,"route_color":"#FFFFFF","route_text_color":"#000000"}],"agency_name":"Metro St. Louis"},"geometry":{"type":"Point","coordinates":[-90.10965,38.61607]}},{"type":"Feature","properties":{"stop_id":"12478","stop_code":"12478","stop_name":"KINGSHIGHWAY @ SUMMIT SB","stop_desc":"NEAR SIDE KINGSHIGHWAY @ SUMMIT SB","wheelchair_boarding":2,"routes":[{"route_id":"19641","agency_id":"70006","route_short_name":"6","route_long_name":"Rosemont","route_type":3,"route_color":"#FFFFFF","route_text_color":"#000000"}],"agency_name":"Metro St. Louis"},"geometry":{"type":"Point","coordinates":[-90.09287,38.61059]}},{"type":"Feature","properties":{"stop_id":"12525","stop_code":"12525","stop_name":"25TH STREET @ ARGONNE NB","stop_desc":"FAR SIDE 25TH STREET @ ARGONNE NB","wheelchair_boarding":2,"routes":[{"route_id":"19641","agency_id":"70006","route_short_name":"6","route_long_name":"Rosemont","route_type":3,"route_color":"#FFFFFF","route_text_color":"#000000"},{"route_id":"19643","agency_id":"70006","route_short_name":"9","route_long_name":"Washington Park","route_type":3,"route_color":"#FFFFFF","route_text_color":"#000000"}],"agency_name":"Metro St. Louis"},"geometry":{"type":"Point","coordinates":[-90.12204,38.62511]}},{"type":"Feature","properties":{"stop_id":"12702","stop_code":"12702","stop_name":"EMERSON PARK TRANSIT CENTER","wheelchair_boarding":1,"routes":[{"route_id":"19641","agency_id":"70006","route_short_name":"6","route_long_name":"Rosemont","route_type":3,"route_color":"#FFFFFF","route_text_color":"#000000"},{"route_id":"19642","agency_id":"70006","route_short_name":"8","route_long_name":"Alta Sita","route_type":3,"route_color":"#FFFFFF","route_text_color":"#000000"},{"route_id":"19643","agency_id":"70006","route_short_name":"9","route_long_name":"Washington Park","route_type":3,"route_color":"#FFFFFF","route_text_color":"#000000"}],"agency_name":"Metro St. Louis"},"geometry":{"type":"Point","coordinates":[-90.13787,38.6285]}},{"type":"Feature","properties":{"stop_id":"12741","stop_code":"12741","stop_name":"11TH STREET @ BOWMAN NB","stop_desc":"NEAR SIDE 11TH STREET @ BOWMAN NB","wheelchair_boarding":2,"routes":[{"route_id":"19641","agency_id":"70006","route_short_name":"6","route_long_name":"Rosemont","route_type":3,"route_color":"#FFFFFF","route_text_color":"#000000"},{"route_id":"19643","agency_id":"70006","route_short_name":"9","route_long_name":"Washington Park","route_type":3,"route_color":"#FFFFFF","route_text_color":"#000000"}],"agency_name":"Metro St. Louis"},"geometry":{"type":"Point","coordinates":[-90.1399,38.63139]}},{"type":"Feature","properties":{"stop_id":"12823","stop_code":"12823","stop_name":"25TH STREET @ ST. CLAIR NB","stop_desc":"NEAR SIDE 25TH STREET @ ST. CLAIR NB","wheelchair_boarding":2,"routes":[{"route_id":"19641","agency_id":"70006","route_short_name":"6","route_long_name":"Rosemont","route_type":3,"route_color":"#FFFFFF","route_text_color":"#000000"},{"route_id":"19642","agency_id":"70006","route_short_name":"8","route_long_name":"Alta Sita","route_type":3,"route_color":"#FFFFFF","route_text_color":"#000000"},{"route_id":"19643","agency_id":"70006","route_short_name":"9","route_long_name":"Washington Park","route_type":3,"route_color":"#FFFFFF","route_text_color":"#000000"}],"agency_name":"Metro St. Louis"},"geometry":{"type":"Point","coordinates":[-90.1247,38.62071]}},{"type":"Feature","properties":{"stop_id":"13664","stop_code":"13664","stop_name":"VIEUX CARRE @ GOELZ EB","stop_desc":"FAR SIDE VIEUX CARRE @ GOELZ EB","wheelchair_boarding":2,"routes":[{"route_id":"19641","agency_id":"70006","route_short_name":"6","route_long_name":"Rosemont","route_type":3,"route_color":"#FFFFFF","route_text_color":"#000000"}],"agency_name":"Metro St. Louis"},"geometry":{"type":"Point","coordinates":[-90.05928,38.59619]}},{"type":"Feature","properties":{"stop_id":"14124","stop_code":"14124","stop_name":"FAIRVIEW HEIGHTS TRANSIT CENTER","wheelchair_boarding":1,"routes":[{"route_id":"19636","agency_id":"70006","route_short_name":"1","route_long_name":"Main Street - State Street","route_type":3,"route_color":"#FFFFFF","route_text_color":"#000000"},{"route_id":"19641","agency_id":"70006","route_short_name":"6","route_long_name":"Rosemont","route_type":3,"route_color":"#FFFFFF","route_text_color":"#000000"},{"route_id":"19644","agency_id":"70006","route_short_name":"12","route_long_name":"OFallon-Fairview Heights","route_type":3,"route_color":"#FFFFFF","route_text_color":"#000000"},{"route_id":"19645","agency_id":"70006","route_short_name":"13","route_long_name":"Caseyville","route_type":3,"route_color":"#FFFFFF","route_text_color":"#000000"}],"agency_name":"Metro St. Louis"},"geometry":{"type":"Point","coordinates":[-90.04828,38.5947]}},{"type":"Feature","properties":{"stop_id":"14125","stop_code":"14125","stop_name":"WASHINGTON PARK TRANSIT CENTER","wheelchair_boarding":1,"routes":[{"route_id":"19641","agency_id":"70006","route_short_name":"6","route_long_name":"Rosemont","route_type":3,"route_color":"#FFFFFF","route_text_color":"#000000"},{"route_id":"19643","agency_id":"70006","route_short_name":"9","route_long_name":"Washington Park","route_type":3,"route_color":"#FFFFFF","route_text_color":"#000000"}],"agency_name":"Metro St. Louis"},"geometry":{"type":"Point","coordinates":[-90.09501,38.61409]}},{"type":"Feature","properties":{"stop_id":"14197","stop_code":"14197","stop_name":"EXCHANGE @ 13TH STREET EB","stop_desc":"NEAR SIDE EXCHANGE @ 13TH STREET EB","wheelchair_boarding":2,"routes":[{"route_id":"19641","agency_id":"70006","route_short_name":"6","route_long_name":"Rosemont","route_type":3,"route_color":"#FFFFFF","route_text_color":"#000000"},{"route_id":"19643","agency_id":"70006","route_short_name":"9","route_long_name":"Washington Park","route_type":3,"route_color":"#FFFFFF","route_text_color":"#000000"}],"agency_name":"Metro St. Louis"},"geometry":{"type":"Point","coordinates":[-90.13747,38.63155]}},{"type":"Feature","properties":{"stop_id":"14280","stop_code":"14280","stop_name":"JJK CENTER TRANSIT CENTER","wheelchair_boarding":1,"routes":[{"route_id":"19641","agency_id":"70006","route_short_name":"6","route_long_name":"Rosemont","route_type":3,"route_color":"#FFFFFF","route_text_color":"#000000"},{"route_id":"19643","agency_id":"70006","route_short_name":"9","route_long_name":"Washington Park","route_type":3,"route_color":"#FFFFFF","route_text_color":"#000000"}],"agency_name":"Metro St. Louis"},"geometry":{"type":"Point","coordinates":[-90.12413,38.62369]}},{"type":"Feature","properties":{"stop_id":"14389","stop_code":"14389","stop_name":"MARYBELL @ 80TH STREET EB","stop_desc":"FAR SIDE MARYBELL @ 80TH STREET EB","wheelchair_boarding":2,"routes":[{"route_id":"19641","agency_id":"70006","route_short_name":"6","route_long_name":"Rosemont","route_type":3,"route_color":"#FFFFFF","route_text_color":"#000000"}],"agency_name":"Metro St. Louis"},"geometry":{"type":"Point","coordinates":[-90.06559,38.59802]}},{"type":"Feature","properties":{"stop_id":"14556","stop_code":"14556","stop_name":"EXCHANGE @ 15TH STREET EB","stop_desc":"NEAR SIDE EXCHANGE @ 15TH STREET EB","wheelchair_boarding":2,"routes":[{"route_id":"19641","agency_id":"70006","route_short_name":"6","route_long_name":"Rosemont","route_type":3,"route_color":"#FFFFFF","route_text_color":"#000000"},{"route_id":"19643","agency_id":"70006","route_short_name":"9","route_long_name":"Washington Park","route_type":3,"route_color":"#FFFFFF","route_text_color":"#000000"}],"agency_name":"Metro St. Louis"},"geometry":{"type":"Point","coordinates":[-90.13511,38.62964]}},{"type":"Feature","properties":{"stop_id":"15245","stop_code":"15245","stop_name":"KINGSHIGHWAY @ WESTMORELAND SB","stop_desc":"NEAR SIDE KINGSHIGHWAY @ WESTMORELAND SB","wheelchair_boarding":2,"routes":[{"route_id":"19641","agency_id":"70006","route_short_name":"6","route_long_name":"Rosemont","route_type":3,"route_color":"#FFFFFF","route_text_color":"#000000"},{"route_id":"19643","agency_id":"70006","route_short_name":"9","route_long_name":"Washington Park","route_type":3,"route_color":"#FFFFFF","route_text_color":"#000000"}],"agency_name":"Metro St. Louis"},"geometry":{"type":"Point","coordinates":[-90.09312,38.62761]}},{"type":"Feature","properties":{"stop_id":"15246","stop_code":"15246","stop_name":"BUNKUM @ 48TH STREET WB","stop_desc":"FAR SIDE BUNKUM @ 48TH STREET WB","wheelchair_boarding":2,"routes":[{"route_id":"19641","agency_id":"70006","route_short_name":"6","route_long_name":"Rosemont","route_type":3,"route_color":"#FFFFFF","route_text_color":"#000000"}],"agency_name":"Metro St. Louis"},"geometry":{"type":"Point","coordinates":[-90.09968,38.62328]}},{"type":"Feature","properties":{"stop_id":"15247","stop_code":"15247","stop_name":"ST. CLAIR @ 47TH STREET EB","stop_desc":"FAR SIDE ST. CLAIR @ 47TH STREET EB","wheelchair_boarding":2,"routes":[{"route_id":"19641","agency_id":"70006","route_short_name":"6","route_long_name":"Rosemont","route_type":3,"route_color":"#FFFFFF","route_text_color":"#000000"}],"agency_name":"Metro St. Louis"},"geometry":{"type":"Point","coordinates":[-90.10223,38.61439]}},{"type":"Feature","properties":{"stop_id":"15332","stop_code":"15332","stop_name":"SUMMIT @ KINGSHIGHWAY EB","stop_desc":"FAR SIDE SUMMIT @ KINGSHIGHWAY EB","wheelchair_boarding":2,"routes":[{"route_id":"19641","agency_id":"70006","route_short_name":"6","route_long_name":"Rosemont","route_type":3,"route_color":"#FFFFFF","route_text_color":"#000000"}],"agency_name":"Metro St. Louis"},"geometry":{"type":"Point","coordinates":[-90.0923,38.61007]}},{"type":"Feature","properties":{"stop_id":"15333","stop_code":"15333","stop_name":"MARYBELL @ BRE-MAR EB","stop_desc":"NEAR SIDE MARYBELL @ BRE-MAR EB","wheelchair_boarding":2,"routes":[{"route_id":"19641","agency_id":"70006","route_short_name":"6","route_long_name":"Rosemont","route_type":3,"route_color":"#FFFFFF","route_text_color":"#000000"}],"agency_name":"Metro St. Louis"},"geometry":{"type":"Point","coordinates":[-90.07751,38.60392]}},{"type":"Feature","properties":{"stop_id":"15334","stop_code":"15334","stop_name":"MARYBELL @ NOBLE EB","stop_desc":"FAR SIDE MARYBELL @ NOBLE EB","wheelchair_boarding":2,"routes":[{"route_id":"19641","agency_id":"70006","route_short_name":"6","route_long_name":"Rosemont","route_type":3,"route_color":"#FFFFFF","route_text_color":"#000000"}],"agency_name":"Metro St. Louis"},"geometry":{"type":"Point","coordinates":[-90.07657,38.60347]}},{"type":"Feature","properties":{"stop_id":"15335","stop_code":"15335","stop_name":"MARYBELL @ 71ST STREET EB","stop_desc":"FAR SIDE MARYBELL @ 71ST STREET EB","wheelchair_boarding":2,"routes":[{"route_id":"19641","agency_id":"70006","route_short_name":"6","route_long_name":"Rosemont","route_type":3,"route_color":"#FFFFFF","route_text_color":"#000000"}],"agency_name":"Metro St. Louis"},"geometry":{"type":"Point","coordinates":[-90.0747,38.60255]}},{"type":"Feature","properties":{"stop_id":"15336","stop_code":"15336","stop_name":"MARYBELL @ 73RD STREET EB","stop_desc":"FAR SIDE MARYBELL @ 73RD STREET EB","wheelchair_boarding":2,"routes":[{"route_id":"19641","agency_id":"70006","route_short_name":"6","route_long_name":"Rosemont","route_type":3,"route_color":"#FFFFFF","route_text_color":"#000000"}],"agency_name":"Metro St. Louis"},"geometry":{"type":"Point","coordinates":[-90.07298,38.60169]}},{"type":"Feature","properties":{"stop_id":"15337","stop_code":"15337","stop_name":"MARYBELL @ 75TH STREET EB","stop_desc":"NEAR SIDE MARYBELL @ 75TH STREET EB","wheelchair_boarding":2,"routes":[{"route_id":"19641","agency_id":"70006","route_short_name":"6","route_long_name":"Rosemont","route_type":3,"route_color":"#FFFFFF","route_text_color":"#000000"}],"agency_name":"Metro St. Louis"},"geometry":{"type":"Point","coordinates":[-90.07149,38.60095]}},{"type":"Feature","properties":{"stop_id":"15338","stop_code":"15338","stop_name":"MARYBELL @ 76TH STREET EB","stop_desc":"FAR SIDE MARYBELL @ 76TH STREET EB","wheelchair_boarding":2,"routes":[{"route_id":"19641","agency_id":"70006","route_short_name":"6","route_long_name":"Rosemont","route_type":3,"route_color":"#FFFFFF","route_text_color":"#000000"}],"agency_name":"Metro St. Louis"},"geometry":{"type":"Point","coordinates":[-90.07021,38.60031]}},{"type":"Feature","properties":{"stop_id":"15339","stop_code":"15339","stop_name":"MARYBELL @ PERSHING EB","stop_desc":"FAR SIDE MARYBELL @ PERSHING EB","wheelchair_boarding":2,"routes":[{"route_id":"19641","agency_id":"70006","route_short_name":"6","route_long_name":"Rosemont","route_type":3,"route_color":"#FFFFFF","route_text_color":"#000000"}],"agency_name":"Metro St. Louis"},"geometry":{"type":"Point","coordinates":[-90.06912,38.59978]}},{"type":"Feature","properties":{"stop_id":"15340","stop_code":"15340","stop_name":"MARYBELL @ 78TH STREET EB","stop_desc":"NEAR SIDE MARYBELL @ 78TH STREET EB","wheelchair_boarding":2,"routes":[{"route_id":"19641","agency_id":"70006","route_short_name":"6","route_long_name":"Rosemont","route_type":3,"route_color":"#FFFFFF","route_text_color":"#000000"}],"agency_name":"Metro St. Louis"},"geometry":{"type":"Point","coordinates":[-90.06784,38.59914]}},{"type":"Feature","properties":{"stop_id":"15341","stop_code":"15341","stop_name":"MARYBELL @ 82ND STREET EB","stop_desc":"NEAR SIDE MARYBELL @ 82ND STREET EB","wheelchair_boarding":2,"routes":[{"route_id":"19641","agency_id":"70006","route_short_name":"6","route_long_name":"Rosemont","route_type":3,"route_color":"#FFFFFF","route_text_color":"#000000"}],"agency_name":"Metro St. Louis"},"geometry":{"type":"Point","coordinates":[-90.06376,38.5971]}},{"type":"Feature","properties":{"stop_id":"15342","stop_code":"15342","stop_name":"MARYBELL @ 83RD STREET EB","stop_desc":"NEAR SIDE MARYBELL @ 83RD STREET EB","wheelchair_boarding":2,"routes":[{"route_id":"19641","agency_id":"70006","route_short_name":"6","route_long_name":"Rosemont","route_type":3,"route_color":"#FFFFFF","route_text_color":"#000000"}],"agency_name":"Metro St. Louis"},"geometry":{"type":"Point","coordinates":[-90.06265,38.59653]}},{"type":"Feature","properties":{"stop_id":"15343","stop_code":"15343","stop_name":"MARYBELL @ 84TH STREET EB","stop_desc":"NEAR SIDE MARYBELL @ 84TH STREET EB","wheelchair_boarding":2,"routes":[{"route_id":"19641","agency_id":"70006","route_short_name":"6","route_long_name":"Rosemont","route_type":3,"route_color":"#FFFFFF","route_text_color":"#000000"}],"agency_name":"Metro St. Louis"},"geometry":{"type":"Point","coordinates":[-90.0615,38.5959]}},{"type":"Feature","properties":{"stop_id":"15344","stop_code":"15344","stop_name":"VIEUX CARRE @ BOUGAINVILLE EB","stop_desc":"FAR SIDE VIEUX CARRE @ BOUGAINVILLE EB","wheelchair_boarding":2,"routes":[{"route_id":"19641","agency_id":"70006","route_short_name":"6","route_long_name":"Rosemont","route_type":3,"route_color":"#FFFFFF","route_text_color":"#000000"}],"agency_name":"Metro St. Louis"},"geometry":{"type":"Point","coordinates":[-90.05646,38.59539]}},{"type":"Feature","properties":{"stop_id":"15569","stop_code":"15569","stop_name":"CASEYVILLE @ 52ND STREET EB","stop_desc":"FAR SIDE CASEYVILLE @ 52ND STREET EB","wheelchair_boarding":2,"routes":[{"route_id":"19641","agency_id":"70006","route_short_name":"6","route_long_name":"Rosemont","route_type":3,"route_color":"#FFFFFF","route_text_color":"#000000"}],"agency_name":"Metro St. Louis"},"geometry":{"type":"Point","coordinates":[-90.09665,38.63038]}},{"type":"Feature","properties":{"stop_id":"15572","stop_code":"15572","stop_name":"LYNCH @ 15TH STREET EB","stop_desc":"NEAR SIDE LYNCH @ 15TH STREET EB","wheelchair_boarding":2,"routes":[{"route_id":"19641","agency_id":"70006","route_short_name":"6","route_long_name":"Rosemont","route_type":3,"route_color":"#FFFFFF","route_text_color":"#000000"},{"route_id":"19643","agency_id":"70006","route_short_name":"9","route_long_name":"Washington Park","route_type":3,"route_color":"#FFFFFF","route_text_color":"#000000"}],"agency_name":"Metro St. Louis"},"geometry":{"type":"Point","coordinates":[-90.13209,38.63113]}},{"type":"Feature","properties":{"stop_id":"15585","stop_code":"15585","stop_name":"MARYBELL @ 79TH STREET EB","stop_desc":"NEAR SIDE MARYBELL @ 79TH STREET EB","wheelchair_boarding":2,"routes":[{"route_id":"19641","agency_id":"70006","route_short_name":"6","route_long_name":"Rosemont","route_type":3,"route_color":"#FFFFFF","route_text_color":"#000000"}],"agency_name":"Metro St. Louis"},"geometry":{"type":"Point","coordinates":[-90.06687,38.59865]}},{"type":"Feature","properties":{"stop_id":"15909","stop_code":"15909","stop_name":"MARYBELL @ GOELZ EB","stop_desc":"NEAR SIDE MARYBELL @ GOELZ EB","wheelchair_boarding":2,"routes":[{"route_id":"19641","agency_id":"70006","route_short_name":"6","route_long_name":"Rosemont","route_type":3,"route_color":"#FFFFFF","route_text_color":"#000000"}],"agency_name":"Metro St. Louis"},"geometry":{"type":"Point","coordinates":[-90.06059,38.5955]}},{"type":"Feature","properties":{"stop_id":"16327","stop_code":"16327","stop_name":"18TH STREET @ LYNCH SB","stop_desc":"FAR SIDE 18TH STREET @ LYNCH SB","wheelchair_boarding":2,"routes":[{"route_id":"19641","agency_id":"70006","route_short_name":"6","route_long_name":"Rosemont","route_type":3,"route_color":"#FFFFFF","route_text_color":"#000000"},{"route_id":"19643","agency_id":"70006","route_short_name":"9","route_long_name":"Washington Park","route_type":3,"route_color":"#FFFFFF","route_text_color":"#000000"}],"agency_name":"Metro St. Louis"},"geometry":{"type":"Point","coordinates":[-90.13104,38.62983]}},{"type":"Feature","properties":{"stop_id":"16328","stop_code":"16328","stop_name":"18TH STREET @ WINSTANLEY SB","stop_desc":"FAR SIDE 18TH STREET @ WINSTANLEY SB","wheelchair_boarding":2,"routes":[{"route_id":"19641","agency_id":"70006","route_short_name":"6","route_long_name":"Rosemont","route_type":3,"route_color":"#FFFFFF","route_text_color":"#000000"},{"route_id":"19643","agency_id":"70006","route_short_name":"9","route_long_name":"Washington Park","route_type":3,"route_color":"#FFFFFF","route_text_color":"#000000"}],"agency_name":"Metro St. Louis"},"geometry":{"type":"Point","coordinates":[-90.13194,38.62888]}},{"type":"Feature","properties":{"stop_id":"16329","stop_code":"16329","stop_name":"18TH STREET @ EXCHANGE SB","stop_desc":"FAR SIDE 18TH STREET @ EXCHANGE SB","wheelchair_boarding":2,"routes":[{"route_id":"19641","agency_id":"70006","route_short_name":"6","route_long_name":"Rosemont","route_type":3,"route_color":"#FFFFFF","route_text_color":"#000000"},{"route_id":"19643","agency_id":"70006","route_short_name":"9","route_long_name":"Washington Park","route_type":3,"route_color":"#FFFFFF","route_text_color":"#000000"}],"agency_name":"Metro St. Louis"},"geometry":{"type":"Point","coordinates":[-90.13263,38.62813]}},{"type":"Feature","properties":{"stop_id":"16330","stop_code":"16330","stop_name":"18TH STREET @ WEIMAN SB","stop_desc":"FAR SIDE 18TH STREET @ WEIMAN SB","wheelchair_boarding":2,"routes":[{"route_id":"19641","agency_id":"70006","route_short_name":"6","route_long_name":"Rosemont","route_type":3,"route_color":"#FFFFFF","route_text_color":"#000000"},{"route_id":"19643","agency_id":"70006","route_short_name":"9","route_long_name":"Washington Park","route_type":3,"route_color":"#FFFFFF","route_text_color":"#000000"}],"agency_name":"Metro St. Louis"},"geometry":{"type":"Point","coordinates":[-90.13332,38.62746]}},{"type":"Feature","properties":{"stop_id":"16331","stop_code":"16331","stop_name":"18TH STREET @ BAUGH SB","stop_desc":"NEAR SIDE 18TH STREET @ BAUGH SB","wheelchair_boarding":2,"routes":[{"route_id":"19641","agency_id":"70006","route_short_name":"6","route_long_name":"Rosemont","route_type":3,"route_color":"#FFFFFF","route_text_color":"#000000"},{"route_id":"19643","agency_id":"70006","route_short_name":"9","route_long_name":"Washington Park","route_type":3,"route_color":"#FFFFFF","route_text_color":"#000000"}],"agency_name":"Metro St. Louis"},"geometry":{"type":"Point","coordinates":[-90.13441,38.62578]}},{"type":"Feature","properties":{"stop_id":"16468","stop_code":"16468","stop_name":"15TH STREET @ WINSTANLEY NB","stop_desc":"NEAR SIDE 15TH STREET @ WINSTANLEY NB","wheelchair_boarding":1,"routes":[{"route_id":"19641","agency_id":"70006","route_short_name":"6","route_long_name":"Rosemont","route_type":3,"route_color":"#FFFFFF","route_text_color":"#000000"},{"route_id":"19643","agency_id":"70006","route_short_name":"9","route_long_name":"Washington Park","route_type":3,"route_color":"#FFFFFF","route_text_color":"#000000"}],"agency_name":"Metro St. Louis"},"geometry":{"type":"Point","coordinates":[-90.13362,38.63029]}}]}