{"type":"FeatureCollection","features":[{"type":"Feature","properties":{"agency_name":"Metro St. Louis","route_id":"19646","agency_id":"70006","route_short_name":"14","route_long_name":"Memorial Hosp-Westfield Plaza","route_type":3,"route_color":"#FFFFFF","route_text_color":"#000000"},"geometry":{"type":"MultiLineString","coordinates":[[[-90.05427,38.54737],[-90.05423,38.5475],[-90.05443,38.54696],[-90.05272,38.54589],[-90.05181,38.54528],[-90.05067,38.54455],[-90.04989,38.54398],[-90.04809,38.54255],[-90.04777,38.54234],[-90.04777,38.5419],[-90.04771,38.5416],[-90.04753,38.5412],[-90.04701,38.5405],[-90.04564,38.53872],[-90.04541,38.53847],[-90.04505,38.53815],[-90.04466,38.53787],[-90.04331,38.5371],[-90.04181,38.53629],[-90.04131,38.53606],[-90.04075,38.53585],[-90.04031,38.53571],[-90.0394,38.5355],[-90.03608,38.53488],[-90.03606,38.53445],[-90.03607,38.53275],[-90.03605,38.5303],[-90.03543,38.53025],[-90.0353,38.53022],[-90.03523,38.53012],[-90.03522,38.52942],[-90.03518,38.52926],[-90.03508,38.52912],[-90.03489,38.52892],[-90.03478,38.52878],[-90.03475,38.52862],[-90.03476,38.52843],[-90.03472,38.52817],[-90.03497,38.52823],[-90.03522,38.52825],[-90.03604,38.52826],[-90.03607,38.52939]],[[-90.03613,38.53511],[-90.03608,38.53488],[-90.03613,38.53511],[-90.03639,38.53602],[-90.03663,38.53671],[-90.03681,38.5374],[-90.03691,38.53795],[-90.03695,38.53857],[-90.03688,38.54065],[-90.03687,38.5416],[-90.03613,38.54172],[-90.03307,38.54162],[-90.03114,38.54157],[-90.02967,38.54156],[-90.02926,38.54154],[-90.02751,38.54153],[-90.02627,38.54158],[-90.02372,38.54161],[-90.021,38.54155],[-90.01116,38.54151],[-90.01115,38.54401],[-90.01116,38.54879],[-90.0203,38.54886],[-90.02055,38.54888],[-90.02054,38.55052],[-90.02208,38.55053],[-90.02255,38.5506],[-90.02373,38.55061],[-90.02458,38.55064],[-90.02481,38.55074],[-90.0251,38.55061],[-90.02522,38.55045],[-90.02525,38.55025],[-90.02571,38.55022],[-90.0264,38.55023],[-90.02664,38.55026],[-90.02685,38.55031],[-90.02705,38.5504],[-90.02726,38.55052],[-90.02771,38.5509],[-90.02708,38.55121],[-90.02638,38.5516],[-90.02235,38.55397],[-90.01949,38.55559],[-90.01853,38.55617],[-90.01556,38.55777],[-90.0147,38.55825],[-90.01387,38.55878],[-90.0142,38.55906],[-90.01446,38.55931],[-90.01457,38.55934],[-90.01463,38.55933],[-90.01534,38.55892],[-90.01528,38.55886]]]}},{"type":"Feature","properties":{"stop_id":"11427","stop_code":"11427","stop_name":"MEMORIAL HOSPITAL TRANSIT CENTER","stop_desc":"FAR SIDE MEMORIAL HOSPITAL TRANSIT CENTER","wheelchair_boarding":1,"routes":[{"route_id":"19646","agency_id":"70006","route_short_name":"14","route_long_name":"Memorial Hosp-Westfield Plaza","route_type":3,"route_color":"#FFFFFF","route_text_color":"#000000"}],"agency_name":"Metro St. Louis"},"geometry":{"type":"Point","coordinates":[-90.01537,38.55832]}},{"type":"Feature","properties":{"stop_id":"11433","stop_code":"11433","stop_name":"MEMORIAL @ ROYAL HEIGHTS WB","stop_desc":"FAR SIDE MEMORIAL @ ROYAL HEIGHTS WB","wheelchair_boarding":2,"routes":[{"route_id":"19646","agency_id":"70006","route_short_name":"14","route_long_name":"Memorial Hosp-Westfield Plaza","route_type":3,"route_color":"#FFFFFF","route_text_color":"#000000"}],"agency_name":"Metro St. Louis"},"geometry":{"type":"Point","coordinates":[-90.01209,38.54884]}},{"type":"Feature","properties":{"stop_id":"11435","stop_code":"11435","stop_name":"MEMORIAL @ 39TH STREET WB","stop_desc":"FAR SIDE MEMORIAL @ 39TH STREET WB","wheelchair_boarding":2,"routes":[{"route_id":"19646","agency_id":"70006","route_short_name":"14","route_long_name":"Memorial Hosp-Westfield Plaza","route_type":3,"route_color":"#FFFFFF","route_text_color":"#000000"}],"agency_name":"Metro St. Louis"},"geometry":{"type":"Point","coordinates":[-90.01423,38.5489]}},{"type":"Feature","properties":{"stop_id":"11436","stop_code":"11436","stop_name":"MEMORIAL @ 43RD STREET WB","stop_desc":"NEAR SIDE MEMORIAL @ 43RD STREET WB","wheelchair_boarding":2,"routes":[{"route_id":"19646","agency_id":"70006","route_short_name":"14","route_long_name":"Memorial Hosp-Westfield Plaza","route_type":3,"route_color":"#FFFFFF","route_text_color":"#000000"}],"agency_name":"Metro St. Louis"},"geometry":{"type":"Point","coordinates":[-90.01809,38.54892]}},{"type":"Feature","properties":{"stop_id":"11437","stop_code":"11437","stop_name":"MEMORIAL @ PARK WB","stop_desc":"NEAR SIDE MEMORIAL @ PARK WB","wheelchair_boarding":2,"routes":[{"route_id":"19646","agency_id":"70006","route_short_name":"14","route_long_name":"Memorial Hosp-Westfield Plaza","route_type":3,"route_color":"#FFFFFF","route_text_color":"#000000"}],"agency_name":"Metro St. Louis"},"geometry":{"type":"Point","coordinates":[-90.02014,38.54894]}},{"type":"Feature","properties":{"stop_id":"11439","stop_code":"11439","stop_name":"MEMORIAL @ ADMISSION TESTING CENTER WB","stop_desc":"NEAR SIDE MEMORIAL @ ADMISSION TESTING CENTER WB","wheelchair_boarding":2,"routes":[{"route_id":"19646","agency_id":"70006","route_short_name":"14","route_long_name":"Memorial Hosp-Westfield Plaza","route_type":3,"route_color":"#FFFFFF","route_text_color":"#000000"}],"agency_name":"Metro St. Louis"},"geometry":{"type":"Point","coordinates":[-90.02224,38.55059]}},{"type":"Feature","properties":{"stop_id":"11458","stop_code":"11458","stop_name":"ILLINOIS ROUTE 13 @ HILLSIDE EB","stop_desc":"NEAR SIDE ILLINOIS ROUTE 13 @ HILLSIDE EB","wheelchair_boarding":2,"routes":[{"route_id":"19646","agency_id":"70006","route_short_name":"14","route_long_name":"Memorial Hosp-Westfield Plaza","route_type":3,"route_color":"#FFFFFF","route_text_color":"#000000"}],"agency_name":"Metro St. Louis"},"geometry":{"type":"Point","coordinates":[-90.05044,38.54424]}},{"type":"Feature","properties":{"stop_id":"11459","stop_code":"11459","stop_name":"ILLINOIS ROUTE 13 @ NORTH BELT WEST EB","stop_desc":"FAR SIDE ILLINOIS ROUTE 13 @ NORTH BELT WEST EB","wheelchair_boarding":2,"routes":[{"route_id":"19646","agency_id":"70006","route_short_name":"14","route_long_name":"Memorial Hosp-Westfield Plaza","route_type":3,"route_color":"#FFFFFF","route_text_color":"#000000"}],"agency_name":"Metro St. Louis"},"geometry":{"type":"Point","coordinates":[-90.04783,38.54189]}},{"type":"Feature","properties":{"stop_id":"11461","stop_code":"11461","stop_name":"ILLINOIS ROUTE 13 @ BIRCH EB","stop_desc":"MID-BLOCK ILLINOIS ROUTE 13 @ BIRCH EB","wheelchair_boarding":2,"routes":[{"route_id":"19646","agency_id":"70006","route_short_name":"14","route_long_name":"Memorial Hosp-Westfield Plaza","route_type":3,"route_color":"#FFFFFF","route_text_color":"#000000"}],"agency_name":"Metro St. Louis"},"geometry":{"type":"Point","coordinates":[-90.0436,38.53724]}},{"type":"Feature","properties":{"stop_id":"11462","stop_code":"11462","stop_name":"ILLINOIS ROUTE 13 @ JONATHON LEE EB","stop_desc":"NEAR SIDE ILLINOIS ROUTE 13 @ JONATHON LEE EB","wheelchair_boarding":2,"routes":[{"route_id":"19646","agency_id":"70006","route_short_name":"14","route_long_name":"Memorial Hosp-Westfield Plaza","route_type":3,"route_color":"#FFFFFF","route_text_color":"#000000"}],"agency_name":"Metro St. Louis"},"geometry":{"type":"Point","coordinates":[-90.04203,38.53639]}},{"type":"Feature","properties":{"stop_id":"11463","stop_code":"11463","stop_name":"ILLINOIS ROUTE 13 @ HICKORY EB","stop_desc":"NEAR SIDE ILLINOIS ROUTE 13 @ HICKORY EB","wheelchair_boarding":2,"routes":[{"route_id":"19646","agency_id":"70006","route_short_name":"14","route_long_name":"Memorial Hosp-Westfield Plaza","route_type":3,"route_color":"#FFFFFF","route_text_color":"#000000"}],"agency_name":"Metro St. Louis"},"geometry":{"type":"Point","coordinates":[-90.0384,38.53528]}},{"type":"Feature","properties":{"stop_id":"11464","stop_code":"11464","stop_name":"FRANK SCOTT PARKWAY @ SOUTH BELT WEST NB","stop_desc":"FAR SIDE FRANK SCOTT PARKWAY @ SOUTH BELT WEST NB","wheelchair_boarding":2,"routes":[{"route_id":"19646","agency_id":"70006","route_short_name":"14","route_long_name":"Memorial Hosp-Westfield Plaza","route_type":3,"route_color":"#FFFFFF","route_text_color":"#000000"}],"agency_name":"Metro St. Louis"},"geometry":{"type":"Point","coordinates":[-90.03618,38.53546]}},{"type":"Feature","properties":{"stop_id":"11465","stop_code":"11465","stop_name":"FRANK SCOTT PARKWAY @ ELIZABETH NB","stop_desc":"FAR SIDE FRANK SCOTT PARKWAY @ ELIZABETH NB","wheelchair_boarding":2,"routes":[{"route_id":"19646","agency_id":"70006","route_short_name":"14","route_long_name":"Memorial Hosp-Westfield Plaza","route_type":3,"route_color":"#FFFFFF","route_text_color":"#000000"}],"agency_name":"Metro St. Louis"},"geometry":{"type":"Point","coordinates":[-90.03669,38.53716]}},{"type":"Feature","properties":{"stop_id":"11466","stop_code":"11466","stop_name":"FRANK SCOTT PARKWAY @ MEMORY NB","stop_desc":"NEAR SIDE FRANK SCOTT PARKWAY @ MEMORY NB","wheelchair_boarding":2,"routes":[{"route_id":"19646","agency_id":"70006","route_short_name":"14","route_long_name":"Memorial Hosp-Westfield Plaza","route_type":3,"route_color":"#FFFFFF","route_text_color":"#000000"}],"agency_name":"Metro St. Louis"},"geometry":{"type":"Point","coordinates":[-90.03688,38.53907]}},{"type":"Feature","properties":{"stop_id":"11467","stop_code":"11467","stop_name":"FRANK SCOTT PARKWAY @ NORTH BELT WEST NB","stop_desc":"NEAR SIDE FRANK SCOTT PARKWAY @ NORTH BELT WEST NB","wheelchair_boarding":2,"routes":[{"route_id":"19646","agency_id":"70006","route_short_name":"14","route_long_name":"Memorial Hosp-Westfield Plaza","route_type":3,"route_color":"#FFFFFF","route_text_color":"#000000"}],"agency_name":"Metro St. Louis"},"geometry":{"type":"Point","coordinates":[-90.03674,38.54128]}},{"type":"Feature","properties":{"stop_id":"11468","stop_code":"11468","stop_name":"NORTH BELT WEST @ 47TH STREET EB","stop_desc":"FAR SIDE NORTH BELT WEST @ 47TH STREET EB","wheelchair_boarding":2,"routes":[{"route_id":"19646","agency_id":"70006","route_short_name":"14","route_long_name":"Memorial Hosp-Westfield Plaza","route_type":3,"route_color":"#FFFFFF","route_text_color":"#000000"}],"agency_name":"Metro St. Louis"},"geometry":{"type":"Point","coordinates":[-90.03459,38.54159]}},{"type":"Feature","properties":{"stop_id":"11469","stop_code":"11469","stop_name":"5610 NORTH BELT WEST EB","stop_desc":"MID-BLOCK 5610 NORTH BELT WEST EB","wheelchair_boarding":2,"routes":[{"route_id":"19646","agency_id":"70006","route_short_name":"14","route_long_name":"Memorial Hosp-Westfield Plaza","route_type":3,"route_color":"#FFFFFF","route_text_color":"#000000"}],"agency_name":"Metro St. Louis"},"geometry":{"type":"Point","coordinates":[-90.03206,38.54153]}},{"type":"Feature","properties":{"stop_id":"11470","stop_code":"11470","stop_name":"NORTH BELT WEST @ FREEDOM EB","stop_desc":"FAR SIDE NORTH BELT WEST @ FREEDOM EB","wheelchair_boarding":2,"routes":[{"route_id":"19646","agency_id":"70006","route_short_name":"14","route_long_name":"Memorial Hosp-Westfield Plaza","route_type":3,"route_color":"#FFFFFF","route_text_color":"#000000"}],"agency_name":"Metro St. Louis"},"geometry":{"type":"Point","coordinates":[-90.02945,38.54147]}},{"type":"Feature","properties":{"stop_id":"11471","stop_code":"11471","stop_name":"NORTH BELT WEST @ WASHINGTON EB","stop_desc":"FAR SIDE NORTH BELT WEST @ WASHINGTON EB","wheelchair_boarding":2,"routes":[{"route_id":"19646","agency_id":"70006","route_short_name":"14","route_long_name":"Memorial Hosp-Westfield Plaza","route_type":3,"route_color":"#FFFFFF","route_text_color":"#000000"}],"agency_name":"Metro St. Louis"},"geometry":{"type":"Point","coordinates":[-90.02693,38.54146]}},{"type":"Feature","properties":{"stop_id":"11472","stop_code":"11472","stop_name":"NORTH BELT WEST @ MAIN EB","stop_desc":"FAR SIDE NORTH BELT WEST @ MAIN EB","wheelchair_boarding":2,"routes":[{"route_id":"19646","agency_id":"70006","route_short_name":"14","route_long_name":"Memorial Hosp-Westfield Plaza","route_type":3,"route_color":"#FFFFFF","route_text_color":"#000000"}],"agency_name":"Metro St. Louis"},"geometry":{"type":"Point","coordinates":[-90.02405,38.54152]}},{"type":"Feature","properties":{"stop_id":"11473","stop_code":"11473","stop_name":"NORTH BELT WEST @ 46TH STREET EB","stop_desc":"FAR SIDE NORTH BELT WEST @ 46TH STREET EB","wheelchair_boarding":2,"routes":[{"route_id":"19646","agency_id":"70006","route_short_name":"14","route_long_name":"Memorial Hosp-Westfield Plaza","route_type":3,"route_color":"#FFFFFF","route_text_color":"#000000"}],"agency_name":"Metro St. Louis"},"geometry":{"type":"Point","coordinates":[-90.02252,38.5415]}},{"type":"Feature","properties":{"stop_id":"11474","stop_code":"11474","stop_name":"NORTH BELT WEST @ 44TH STREET EB","stop_desc":"NEAR SIDE NORTH BELT WEST @ 44TH STREET EB","wheelchair_boarding":2,"routes":[{"route_id":"19646","agency_id":"70006","route_short_name":"14","route_long_name":"Memorial Hosp-Westfield Plaza","route_type":3,"route_color":"#FFFFFF","route_text_color":"#000000"}],"agency_name":"Metro St. Louis"},"geometry":{"type":"Point","coordinates":[-90.02071,38.54148]}},{"type":"Feature","properties":{"stop_id":"11475","stop_code":"11475","stop_name":"NORTH BELT WEST @ 43RD STREET EB","stop_desc":"FAR SIDE NORTH BELT WEST @ 43RD STREET EB","wheelchair_boarding":2,"routes":[{"route_id":"19646","agency_id":"70006","route_short_name":"14","route_long_name":"Memorial Hosp-Westfield Plaza","route_type":3,"route_color":"#FFFFFF","route_text_color":"#000000"}],"agency_name":"Metro St. Louis"},"geometry":{"type":"Point","coordinates":[-90.01802,38.54146]}},{"type":"Feature","properties":{"stop_id":"11476","stop_code":"11476","stop_name":"NORTH BELT WEST @ 42ND STREET EB","stop_desc":"FAR SIDE NORTH BELT WEST @ 42ND STREET EB","wheelchair_boarding":2,"routes":[{"route_id":"19646","agency_id":"70006","route_short_name":"14","route_long_name":"Memorial Hosp-Westfield Plaza","route_type":3,"route_color":"#FFFFFF","route_text_color":"#000000"}],"agency_name":"Metro St. Louis"},"geometry":{"type":"Point","coordinates":[-90.0167,38.54145]}},{"type":"Feature","properties":{"stop_id":"11477","stop_code":"11477","stop_name":"NORTH BELT WEST @ 41ST STREET EB","stop_desc":"FAR SIDE NORTH BELT WEST @ 41ST STREET EB","wheelchair_boarding":2,"routes":[{"route_id":"19646","agency_id":"70006","route_short_name":"14","route_long_name":"Memorial Hosp-Westfield Plaza","route_type":3,"route_color":"#FFFFFF","route_text_color":"#000000"}],"agency_name":"Metro St. Louis"},"geometry":{"type":"Point","coordinates":[-90.01548,38.54144]}},{"type":"Feature","properties":{"stop_id":"11478","stop_code":"11478","stop_name":"NORTH BELT WEST @ 40TH STREET EB","stop_desc":"FAR SIDE NORTH BELT WEST @ 40TH STREET EB","wheelchair_boarding":2,"routes":[{"route_id":"19646","agency_id":"70006","route_short_name":"14","route_long_name":"Memorial Hosp-Westfield Plaza","route_type":3,"route_color":"#FFFFFF","route_text_color":"#000000"}],"agency_name":"Metro St. Louis"},"geometry":{"type":"Point","coordinates":[-90.01425,38.54142]}},{"type":"Feature","properties":{"stop_id":"11479","stop_code":"11479","stop_name":"NORTH BELT WEST @ 39TH STREET EB","stop_desc":"FAR SIDE NORTH BELT WEST @ 39TH STREET EB","wheelchair_boarding":2,"routes":[{"route_id":"19646","agency_id":"70006","route_short_name":"14","route_long_name":"Memorial Hosp-Westfield Plaza","route_type":3,"route_color":"#FFFFFF","route_text_color":"#000000"}],"agency_name":"Metro St. Louis"},"geometry":{"type":"Point","coordinates":[-90.01297,38.54141]}},{"type":"Feature","properties":{"stop_id":"11480","stop_code":"11480","stop_name":"ROYAL HEIGHTS @ NORTH BELT WEST NB","stop_desc":"FAR SIDE ROYAL HEIGHTS @ NORTH BELT WEST NB","wheelchair_boarding":2,"routes":[{"route_id":"19646","agency_id":"70006","route_short_name":"14","route_long_name":"Memorial Hosp-Westfield Plaza","route_type":3,"route_color":"#FFFFFF","route_text_color":"#000000"}],"agency_name":"Metro St. Louis"},"geometry":{"type":"Point","coordinates":[-90.0111,38.54197]}},{"type":"Feature","properties":{"stop_id":"11522","stop_code":"11522","stop_name":"WESTCHESTER @ 74TH STREET EB","stop_desc":"NEAR SIDE WESTCHESTER @ 74TH STREET EB","wheelchair_boarding":2,"routes":[{"route_id":"19646","agency_id":"70006","route_short_name":"14","route_long_name":"Memorial Hosp-Westfield Plaza","route_type":3,"route_color":"#FFFFFF","route_text_color":"#000000"}],"agency_name":"Metro St. Louis"},"geometry":{"type":"Point","coordinates":[-90.05443,38.54775]}},{"type":"Feature","properties":{"stop_id":"11538","stop_code":"11538","stop_name":"MEMORIAL @ MEMORIAL HOSPITAL MAIN ENTRANCE WB","stop_desc":"MID-BLOCK MEMORIAL @ MEMORIAL HOSPITAL MAIN ENTRANCE WB","wheelchair_boarding":2,"routes":[{"route_id":"19646","agency_id":"70006","route_short_name":"14","route_long_name":"Memorial Hosp-Westfield Plaza","route_type":3,"route_color":"#FFFFFF","route_text_color":"#000000"}],"agency_name":"Metro St. Louis"},"geometry":{"type":"Point","coordinates":[-90.0212,38.55057]}},{"type":"Feature","properties":{"stop_id":"11545","stop_code":"11545","stop_name":"FRANK SCOTT @ IDA NB","stop_desc":"FAR SIDE FRANK SCOTT @ IDA NB","wheelchair_boarding":2,"routes":[{"route_id":"19646","agency_id":"70006","route_short_name":"14","route_long_name":"Memorial Hosp-Westfield Plaza","route_type":3,"route_color":"#FFFFFF","route_text_color":"#000000"}],"agency_name":"Metro St. Louis"},"geometry":{"type":"Point","coordinates":[-90.01827,38.55622]}},{"type":"Feature","properties":{"stop_id":"15358","stop_code":"15358","stop_name":"ILLINOIS ROUTE 13 @ HICKORY RIDGE EB","stop_desc":"FAR SIDE ILLINOIS ROUTE 13 @ HICKORY RIDGE EB","wheelchair_boarding":2,"routes":[{"route_id":"19646","agency_id":"70006","route_short_name":"14","route_long_name":"Memorial Hosp-Westfield Plaza","route_type":3,"route_color":"#FFFFFF","route_text_color":"#000000"}],"agency_name":"Metro St. Louis"},"geometry":{"type":"Point","coordinates":[-90.03695,38.53498]}},{"type":"Feature","properties":{"stop_id":"15359","stop_code":"15359","stop_name":"ROYAL HEIGHTS @ MARIKNOLL NB","stop_desc":"NEAR SIDE ROYAL HEIGHTS @ MARIKNOLL NB","wheelchair_boarding":2,"routes":[{"route_id":"19646","agency_id":"70006","route_short_name":"14","route_long_name":"Memorial Hosp-Westfield Plaza","route_type":3,"route_color":"#FFFFFF","route_text_color":"#000000"}],"agency_name":"Metro St. Louis"},"geometry":{"type":"Point","coordinates":[-90.0111,38.54393]}},{"type":"Feature","properties":{"stop_id":"15360","stop_code":"15360","stop_name":"ROYAL HEIGHTS @ NORTH NB","stop_desc":"NEAR SIDE ROYAL HEIGHTS @ NORTH NB","wheelchair_boarding":2,"routes":[{"route_id":"19646","agency_id":"70006","route_short_name":"14","route_long_name":"Memorial Hosp-Westfield Plaza","route_type":3,"route_color":"#FFFFFF","route_text_color":"#000000"}],"agency_name":"Metro St. Louis"},"geometry":{"type":"Point","coordinates":[-90.01109,38.54504]}},{"type":"Feature","properties":{"stop_id":"15361","stop_code":"15361","stop_name":"ROYAL HEIGHTS @ PARK NB","stop_desc":"NEAR SIDE ROYAL HEIGHTS @ PARK NB","wheelchair_boarding":2,"routes":[{"route_id":"19646","agency_id":"70006","route_short_name":"14","route_long_name":"Memorial Hosp-Westfield Plaza","route_type":3,"route_color":"#FFFFFF","route_text_color":"#000000"}],"agency_name":"Metro St. Louis"},"geometry":{"type":"Point","coordinates":[-90.01109,38.54679]}},{"type":"Feature","properties":{"stop_id":"15362","stop_code":"15362","stop_name":"DAPRON @ HOPE CHURCH WB","stop_desc":"FAR SIDE DAPRON @ HOPE CHURCH WB","wheelchair_boarding":2,"routes":[{"route_id":"19646","agency_id":"70006","route_short_name":"14","route_long_name":"Memorial Hosp-Westfield Plaza","route_type":3,"route_color":"#FFFFFF","route_text_color":"#000000"}],"agency_name":"Metro St. Louis"},"geometry":{"type":"Point","coordinates":[-90.02553,38.55023]}},{"type":"Feature","properties":{"stop_id":"15363","stop_code":"15363","stop_name":"DAPRON @ FRANK SCOTT PARKWAY WB","stop_desc":"NEAR SIDE DAPRON @ FRANK SCOTT PARKWAY WB","wheelchair_boarding":2,"routes":[{"route_id":"19646","agency_id":"70006","route_short_name":"14","route_long_name":"Memorial Hosp-Westfield Plaza","route_type":3,"route_color":"#FFFFFF","route_text_color":"#000000"}],"agency_name":"Metro St. Louis"},"geometry":{"type":"Point","coordinates":[-90.02724,38.55052]}},{"type":"Feature","properties":{"stop_id":"15364","stop_code":"15364","stop_name":"FRANK SCOTT PARKWAY @ GETTYSBURG NB","stop_desc":"NEAR SIDE FRANK SCOTT PARKWAY @ GETTYSBURG NB","wheelchair_boarding":2,"routes":[{"route_id":"19646","agency_id":"70006","route_short_name":"14","route_long_name":"Memorial Hosp-Westfield Plaza","route_type":3,"route_color":"#FFFFFF","route_text_color":"#000000"}],"agency_name":"Metro St. Louis"},"geometry":{"type":"Point","coordinates":[-90.02003,38.5552]}},{"type":"Feature","properties":{"stop_id":"16346","stop_code":"16346","stop_name":"FRANK SCOTT @ HICKORY BEND SB","stop_desc":"FAR SIDE FRANK SCOTT @ HICKORY BEND SB","wheelchair_boarding":2,"routes":[{"route_id":"19646","agency_id":"70006","route_short_name":"14","route_long_name":"Memorial Hosp-Westfield Plaza","route_type":3,"route_color":"#FFFFFF","route_text_color":"#000000"}],"agency_name":"Metro St. Louis"},"geometry":{"type":"Point","coordinates":[-90.03612,38.53355]}},{"type":"Feature","properties":{"stop_id":"16347","stop_code":"16347","stop_name":"FRANK SCOTT @ HICKORY MANOR SB","stop_desc":"FAR SIDE FRANK SCOTT @ HICKORY MANOR SB","wheelchair_boarding":2,"routes":[{"route_id":"19646","agency_id":"70006","route_short_name":"14","route_long_name":"Memorial Hosp-Westfield Plaza","route_type":3,"route_color":"#FFFFFF","route_text_color":"#000000"}],"agency_name":"Metro St. Louis"},"geometry":{"type":"Point","coordinates":[-90.03612,38.53183]}},{"type":"Feature","properties":{"stop_id":"16348","stop_code":"16348","stop_name":"BELLEVILLE CROSSING @ SHOPPING CENTER SB","stop_desc":"MID-BLOCK BELLEVILLE CROSSING @ SHOPPING CENTER SB","wheelchair_boarding":2,"routes":[{"route_id":"19646","agency_id":"70006","route_short_name":"14","route_long_name":"Memorial Hosp-Westfield Plaza","route_type":3,"route_color":"#FFFFFF","route_text_color":"#000000"}],"agency_name":"Metro St. Louis"},"geometry":{"type":"Point","coordinates":[-90.03483,38.52884]}},{"type":"Feature","properties":{"stop_id":"16350","stop_code":"16350","stop_name":"FRANK SCOTT PKWY @ HICKORY BEND NB","stop_desc":"NEAR SIDE FRANK SCOTT PKWY @ HICKORY BEND NB","wheelchair_boarding":2,"routes":[{"route_id":"19646","agency_id":"70006","route_short_name":"14","route_long_name":"Memorial Hosp-Westfield Plaza","route_type":3,"route_color":"#FFFFFF","route_text_color":"#000000"}],"agency_name":"Metro St. Louis"},"geometry":{"type":"Point","coordinates":[-90.03602,38.5337]}}]}