{"type":"FeatureCollection","features":[{"type":"Feature","properties":{"agency_name":"Metro St. Louis","route_id":"19616","agency_id":"70006","route_short_name":"57","route_long_name":"Manchester","route_type":3,"route_color":"#FFFFFF","route_text_color":"#000000"},"geometry":{"type":"MultiLineString","coordinates":[[[-90.44487,38.60092],[-90.44501,38.60095],[-90.44487,38.60092],[-90.44405,38.6009],[-90.44381,38.60087],[-90.44401,38.60194],[-90.44406,38.60236],[-90.44407,38.60251],[-90.44406,38.60325],[-90.4436,38.60354],[-90.44319,38.60351],[-90.4428,38.60346],[-90.44139,38.60319],[-90.43464,38.60166],[-90.42991,38.60063],[-90.42775,38.60014],[-90.42445,38.59943],[-90.42415,38.59939],[-90.41772,38.59893],[-90.41642,38.5988],[-90.41583,38.59879],[-90.41529,38.59882],[-90.41477,38.59888],[-90.41333,38.59911],[-90.40551,38.60026],[-90.40388,38.60053],[-90.40334,38.60056],[-90.40186,38.60058],[-90.40074,38.60064],[-90.39683,38.60079],[-90.39475,38.60081],[-90.39435,38.60084],[-90.39387,38.60094],[-90.38912,38.60234],[-90.3885,38.60249],[-90.38632,38.60292],[-90.38558,38.6031],[-90.38461,38.60339],[-90.38284,38.60387],[-90.3804,38.60456],[-90.37859,38.60503],[-90.3778,38.6053],[-90.37137,38.60771],[-90.36973,38.60816],[-90.36541,38.60909],[-90.36411,38.6094],[-90.36309,38.60961],[-90.36286,38.60967],[-90.36261,38.60975],[-90.36217,38.60995],[-90.36113,38.61038],[-90.36007,38.6108],[-90.35938,38.61103],[-90.35561,38.6122],[-90.35472,38.61245],[-90.35433,38.61251],[-90.3536,38.61255],[-90.35159,38.6126],[-90.34683,38.61252],[-90.34283,38.61225],[-90.34161,38.61207],[-90.34041,38.61184],[-90.33997,38.6118],[-90.33706,38.61177],[-90.33633,38.61178],[-90.3359,38.61181],[-90.33525,38.61192],[-90.33497,38.61201],[-90.33476,38.6121],[-90.33436,38.61229],[-90.33357,38.6128],[-90.3331,38.61307],[-90.33257,38.6133],[-90.33237,38.61337],[-90.3321,38.61345],[-90.33132,38.61358],[-90.33096,38.61361],[-90.3307,38.6136],[-90.33077,38.61387],[-90.33097,38.61419],[-90.331,38.61428],[-90.331,38.61438],[-90.33099,38.61447],[-90.33095,38.61456],[-90.33088,38.61465],[-90.3309,38.61472],[-90.33096,38.61476],[-90.33102,38.61476],[-90.33112,38.61469],[-90.33117,38.61458],[-90.33115,38.61447]],[[-90.62749,38.58139],[-90.62749,38.58126],[-90.62748,38.58178],[-90.6248,38.5823],[-90.6215,38.58209],[-90.62062,38.58205],[-90.6198,38.58206],[-90.61899,38.58214],[-90.61811,38.58231],[-90.61768,38.58242],[-90.61678,38.58272],[-90.61637,38.58289],[-90.61564,38.58327],[-90.61349,38.58446],[-90.61238,38.58511],[-90.61137,38.58568],[-90.61041,38.5862],[-90.60993,38.58642],[-90.60924,38.5867],[-90.60864,38.5869],[-90.6033,38.58832],[-90.60185,38.58872],[-90.60022,38.5892],[-90.59734,38.58997],[-90.59717,38.59002],[-90.59692,38.59016],[-90.59628,38.59032],[-90.59539,38.59059],[-90.59374,38.59101],[-90.58909,38.59224],[-90.58794,38.59252],[-90.58759,38.59257],[-90.58731,38.5926],[-90.58694,38.59261],[-90.5847,38.59262],[-90.57961,38.59268],[-90.57382,38.59271],[-90.56617,38.59278],[-90.56216,38.59279],[-90.55759,38.59286],[-90.55175,38.59287],[-90.54834,38.59291],[-90.54632,38.59296],[-90.53985,38.59299],[-90.53585,38.59296],[-90.52797,38.59298],[-90.52521,38.59303],[-90.5208,38.5932],[-90.51925,38.59323],[-90.51804,38.59319],[-90.5132,38.59293],[-90.51118,38.59288],[-90.50967,38.59281],[-90.50269,38.59261],[-90.50192,38.59264],[-90.50121,38.59273],[-90.50035,38.59292],[-90.49185,38.59526],[-90.48985,38.59579],[-90.4888,38.5961],[-90.48793,38.59633],[-90.48699,38.59651],[-90.48646,38.59657],[-90.48594,38.5966],[-90.48489,38.59659],[-90.48131,38.59619],[-90.4802,38.59609],[-90.47951,38.59607],[-90.47858,38.59608],[-90.47785,38.59616],[-90.47394,38.59671],[-90.47374,38.59669],[-90.47264,38.59682],[-90.47188,38.59693],[-90.47137,38.59705],[-90.47073,38.59727],[-90.47037,38.59746],[-90.47007,38.59765],[-90.4698,38.59786],[-90.46955,38.5981],[-90.46919,38.59852],[-90.46881,38.599],[-90.46832,38.59949],[-90.46809,38.59969],[-90.46764,38.60004],[-90.46695,38.6005],[-90.46551,38.60128],[-90.4643,38.60196],[-90.46357,38.60219],[-90.46282,38.60235],[-90.46207,38.60249],[-90.46157,38.60255],[-90.46105,38.60258],[-90.46012,38.60256],[-90.45976,38.60253],[-90.45884,38.60241],[-90.4584,38.60231],[-90.45798,38.60221],[-90.45551,38.60155],[-90.45529,38.60152],[-90.4546,38.60151],[-90.45378,38.60157],[-90.45311,38.60172],[-90.45069,38.60254],[-90.44923,38.60301],[-90.44918,38.60305],[-90.44812,38.60335],[-90.44739,38.60347],[-90.44688,38.60351],[-90.44652,38.60358],[-90.44404,38.60356]],[[-90.44475,38.60193],[-90.44401,38.60194],[-90.44475,38.60193],[-90.44486,38.60156],[-90.44523,38.60105]]]}},{"type":"Feature","properties":{"stop_id":"14148","stop_code":"14148","stop_name":"MANCHESTER @  BARRETT STATION ROAD EB","stop_desc":"FAR SIDE MANCHESTER @  BARRETT STATION ROAD EB","wheelchair_boarding":2,"routes":[{"route_id":"19616","agency_id":"70006","route_short_name":"57","route_long_name":"Manchester","route_type":3,"route_color":"#FFFFFF","route_text_color":"#000000"}],"agency_name":"Metro St. Louis"},"geometry":{"type":"Point","coordinates":[-90.47316,38.59673]}},{"type":"Feature","properties":{"stop_id":"14766","stop_code":"14766","stop_name":"MANCHESTER @ MAPLEWOOD METROLINK EB","stop_desc":"MID-BLOCK MANCHESTER @ MAPLEWOOD METROLINK EB","wheelchair_boarding":1,"routes":[{"route_id":"19606","agency_id":"70006","route_short_name":"31","route_long_name":"Chouteau","route_type":3,"route_color":"#FFFFFF","route_text_color":"#000000"},{"route_id":"19616","agency_id":"70006","route_short_name":"57","route_long_name":"Manchester","route_type":3,"route_color":"#FFFFFF","route_text_color":"#000000"}],"agency_name":"Metro St. Louis"},"geometry":{"type":"Point","coordinates":[-90.33216,38.61338]}},{"type":"Feature","properties":{"stop_id":"14938","stop_code":"14938","stop_name":"TAYLOR @ WILDWOOD SHOPPING CENTER NB","stop_desc":"MID-BLOCK TAYLOR @ WILDWOOD SHOPPING CENTER NB","wheelchair_boarding":1,"routes":[{"route_id":"19616","agency_id":"70006","route_short_name":"57","route_long_name":"Manchester","route_type":3,"route_color":"#FFFFFF","route_text_color":"#000000"}],"agency_name":"Metro St. Louis"},"geometry":{"type":"Point","coordinates":[-90.62746,38.58038]}},{"type":"Feature","properties":{"stop_id":"15217","stop_code":"15217","stop_name":"MANCHESTER @ WESTGLEN FARMS  EB","stop_desc":"FAR SIDE MANCHESTER @ WESTGLEN FARMS  EB","wheelchair_boarding":1,"routes":[{"route_id":"19616","agency_id":"70006","route_short_name":"57","route_long_name":"Manchester","route_type":3,"route_color":"#FFFFFF","route_text_color":"#000000"}],"agency_name":"Metro St. Louis"},"geometry":{"type":"Point","coordinates":[-90.61442,38.58391]}},{"type":"Feature","properties":{"stop_id":"15218","stop_code":"15218","stop_name":"MANCHESTER @ TOWNE CENTER EB","stop_desc":"NEAR SIDE MANCHESTER @ TOWNE CENTER EB","wheelchair_boarding":1,"routes":[{"route_id":"19616","agency_id":"70006","route_short_name":"57","route_long_name":"Manchester","route_type":3,"route_color":"#FFFFFF","route_text_color":"#000000"}],"agency_name":"Metro St. Louis"},"geometry":{"type":"Point","coordinates":[-90.6081,38.58703]}},{"type":"Feature","properties":{"stop_id":"15219","stop_code":"15219","stop_name":"MANCHESTER @ RUCK EB","stop_desc":"NEAR SIDE MANCHESTER @ RUCK EB","wheelchair_boarding":1,"routes":[{"route_id":"19616","agency_id":"70006","route_short_name":"57","route_long_name":"Manchester","route_type":3,"route_color":"#FFFFFF","route_text_color":"#000000"}],"agency_name":"Metro St. Louis"},"geometry":{"type":"Point","coordinates":[-90.59963,38.58933]}},{"type":"Feature","properties":{"stop_id":"4969","stop_code":"4969","stop_name":"MAPLEWOOD-MANCHESTER TRANSIT CENTER","wheelchair_boarding":1,"routes":[{"route_id":"19616","agency_id":"70006","route_short_name":"57","route_long_name":"Manchester","route_type":3,"route_color":"#FFFFFF","route_text_color":"#000000"}],"agency_name":"Metro St. Louis"},"geometry":{"type":"Point","coordinates":[-90.33101,38.61408]}},{"type":"Feature","properties":{"stop_id":"5016","stop_code":"5016","stop_name":"WEST COUNTY MALL LOOP WB","stop_desc":"NEAR SIDE WEST COUNTY MALL LOOP WB","wheelchair_boarding":2,"routes":[{"route_id":"19616","agency_id":"70006","route_short_name":"57","route_long_name":"Manchester","route_type":3,"route_color":"#FFFFFF","route_text_color":"#000000"}],"agency_name":"Metro St. Louis"},"geometry":{"type":"Point","coordinates":[-90.4449,38.60158]}},{"type":"Feature","properties":{"stop_id":"5019","stop_code":"5019","stop_name":"MANCHESTER @ SARALA EB","stop_desc":"NEAR SIDE MANCHESTER @ SARALA EB","wheelchair_boarding":2,"routes":[{"route_id":"19616","agency_id":"70006","route_short_name":"57","route_long_name":"Manchester","route_type":3,"route_color":"#FFFFFF","route_text_color":"#000000"}],"agency_name":"Metro St. Louis"},"geometry":{"type":"Point","coordinates":[-90.45851,38.60225]}},{"type":"Feature","properties":{"stop_id":"5062","stop_code":"5062","stop_name":"MANCHESTER @ MASON EB","stop_desc":"FAR SIDE MANCHESTER @ MASON EB","wheelchair_boarding":2,"routes":[{"route_id":"19616","agency_id":"70006","route_short_name":"57","route_long_name":"Manchester","route_type":3,"route_color":"#FFFFFF","route_text_color":"#000000"}],"agency_name":"Metro St. Louis"},"geometry":{"type":"Point","coordinates":[-90.47865,38.59603]}},{"type":"Feature","properties":{"stop_id":"5064","stop_code":"5064","stop_name":"MANCHESTER @ BALLAS EB","stop_desc":"FAR SIDE MANCHESTER @ BALLAS EB","wheelchair_boarding":1,"routes":[{"route_id":"19616","agency_id":"70006","route_short_name":"57","route_long_name":"Manchester","route_type":3,"route_color":"#FFFFFF","route_text_color":"#000000"}],"agency_name":"Metro St. Louis"},"geometry":{"type":"Point","coordinates":[-90.44334,38.60343]}},{"type":"Feature","properties":{"stop_id":"5065","stop_code":"5065","stop_name":"MANCHESTER @ GRUPP EB","stop_desc":"NEAR SIDE MANCHESTER @ GRUPP EB","wheelchair_boarding":1,"routes":[{"route_id":"19616","agency_id":"70006","route_short_name":"57","route_long_name":"Manchester","route_type":3,"route_color":"#FFFFFF","route_text_color":"#000000"}],"agency_name":"Metro St. Louis"},"geometry":{"type":"Point","coordinates":[-90.43993,38.60276]}},{"type":"Feature","properties":{"stop_id":"5069","stop_code":"5069","stop_name":"MANCHESTER @ TALLIE EB","stop_desc":"NEAR SIDE MANCHESTER @ TALLIE EB","wheelchair_boarding":1,"routes":[{"route_id":"19616","agency_id":"70006","route_short_name":"57","route_long_name":"Manchester","route_type":3,"route_color":"#FFFFFF","route_text_color":"#000000"}],"agency_name":"Metro St. Louis"},"geometry":{"type":"Point","coordinates":[-90.43232,38.60107]}},{"type":"Feature","properties":{"stop_id":"5072","stop_code":"5072","stop_name":"MANCHESTER @ WOODGATE EB","stop_desc":"FAR SIDE MANCHESTER @ WOODGATE EB","wheelchair_boarding":1,"routes":[{"route_id":"19616","agency_id":"70006","route_short_name":"57","route_long_name":"Manchester","route_type":3,"route_color":"#FFFFFF","route_text_color":"#000000"}],"agency_name":"Metro St. Louis"},"geometry":{"type":"Point","coordinates":[-90.42381,38.59929]}},{"type":"Feature","properties":{"stop_id":"5074","stop_code":"5074","stop_name":"MANCHESTER @ GEYER EB","stop_desc":"FAR SIDE MANCHESTER @ GEYER EB","wheelchair_boarding":1,"routes":[{"route_id":"19616","agency_id":"70006","route_short_name":"57","route_long_name":"Manchester","route_type":3,"route_color":"#FFFFFF","route_text_color":"#000000"}],"agency_name":"Metro St. Louis"},"geometry":{"type":"Point","coordinates":[-90.41488,38.59877]}},{"type":"Feature","properties":{"stop_id":"5077","stop_code":"5077","stop_name":"MANCHESTER @ CLAY EB","stop_desc":"FAR SIDE MANCHESTER @ CLAY EB","wheelchair_boarding":1,"routes":[{"route_id":"19616","agency_id":"70006","route_short_name":"57","route_long_name":"Manchester","route_type":3,"route_color":"#FFFFFF","route_text_color":"#000000"}],"agency_name":"Metro St. Louis"},"geometry":{"type":"Point","coordinates":[-90.40878,38.59968]}},{"type":"Feature","properties":{"stop_id":"5078","stop_code":"5078","stop_name":"MANCHESTER @ KIRKWOOD EB","stop_desc":"FAR SIDE MANCHESTER @ KIRKWOOD EB","wheelchair_boarding":1,"routes":[{"route_id":"19616","agency_id":"70006","route_short_name":"57","route_long_name":"Manchester","route_type":3,"route_color":"#FFFFFF","route_text_color":"#000000"}],"agency_name":"Metro St. Louis"},"geometry":{"type":"Point","coordinates":[-90.40579,38.60012]}},{"type":"Feature","properties":{"stop_id":"5080","stop_code":"5080","stop_name":"MANCHESTER @ BERNICE EB","stop_desc":"NEAR SIDE MANCHESTER @ BERNICE EB","wheelchair_boarding":1,"routes":[{"route_id":"19616","agency_id":"70006","route_short_name":"57","route_long_name":"Manchester","route_type":3,"route_color":"#FFFFFF","route_text_color":"#000000"}],"agency_name":"Metro St. Louis"},"geometry":{"type":"Point","coordinates":[-90.40185,38.60052]}},{"type":"Feature","properties":{"stop_id":"5082","stop_code":"5082","stop_name":"MANCHESTER @ WOODLAWN EB","stop_desc":"NEAR SIDE MANCHESTER @ WOODLAWN EB","wheelchair_boarding":1,"routes":[{"route_id":"19616","agency_id":"70006","route_short_name":"57","route_long_name":"Manchester","route_type":3,"route_color":"#FFFFFF","route_text_color":"#000000"}],"agency_name":"Metro St. Louis"},"geometry":{"type":"Point","coordinates":[-90.39758,38.60068]}},{"type":"Feature","properties":{"stop_id":"5084","stop_code":"5084","stop_name":"MANCHESTER @ STURGIS EB","stop_desc":"NEAR SIDE MANCHESTER @ STURGIS EB","wheelchair_boarding":1,"routes":[{"route_id":"19616","agency_id":"70006","route_short_name":"57","route_long_name":"Manchester","route_type":3,"route_color":"#FFFFFF","route_text_color":"#000000"}],"agency_name":"Metro St. Louis"},"geometry":{"type":"Point","coordinates":[-90.39043,38.6019]}},{"type":"Feature","properties":{"stop_id":"5085","stop_code":"5085","stop_name":"MANCHESTER @ SAPPINGTON EB","stop_desc":"NEAR SIDE MANCHESTER @ SAPPINGTON EB","wheelchair_boarding":1,"routes":[{"route_id":"19616","agency_id":"70006","route_short_name":"57","route_long_name":"Manchester","route_type":3,"route_color":"#FFFFFF","route_text_color":"#000000"}],"agency_name":"Metro St. Louis"},"geometry":{"type":"Point","coordinates":[-90.38778,38.60257]}},{"type":"Feature","properties":{"stop_id":"5087","stop_code":"5087","stop_name":"MANCHESTER @ WARSON WOODS PLACE EB","stop_desc":"NEAR SIDE MANCHESTER @ WARSON WOODS PLACE EB","wheelchair_boarding":1,"routes":[{"route_id":"19616","agency_id":"70006","route_short_name":"57","route_long_name":"Manchester","route_type":3,"route_color":"#FFFFFF","route_text_color":"#000000"}],"agency_name":"Metro St. Louis"},"geometry":{"type":"Point","coordinates":[-90.38163,38.60417]}},{"type":"Feature","properties":{"stop_id":"5089","stop_code":"5089","stop_name":"MANCHESTER @ BERRY EB","stop_desc":"FAR SIDE MANCHESTER @ BERRY EB","wheelchair_boarding":1,"routes":[{"route_id":"19616","agency_id":"70006","route_short_name":"57","route_long_name":"Manchester","route_type":3,"route_color":"#FFFFFF","route_text_color":"#000000"}],"agency_name":"Metro St. Louis"},"geometry":{"type":"Point","coordinates":[-90.37731,38.60546]}},{"type":"Feature","properties":{"stop_id":"5091","stop_code":"5091","stop_name":"MANCHESTER @ KORTWRIGHT EB","stop_desc":"NEAR SIDE MANCHESTER @ KORTWRIGHT EB","wheelchair_boarding":1,"routes":[{"route_id":"19616","agency_id":"70006","route_short_name":"57","route_long_name":"Manchester","route_type":3,"route_color":"#FFFFFF","route_text_color":"#000000"}],"agency_name":"Metro St. Louis"},"geometry":{"type":"Point","coordinates":[-90.37298,38.60702]}},{"type":"Feature","properties":{"stop_id":"5092","stop_code":"5092","stop_name":"MANCHESTER @ MCKINLEY EB","stop_desc":"FAR SIDE MANCHESTER @ MCKINLEY EB","wheelchair_boarding":1,"routes":[{"route_id":"19616","agency_id":"70006","route_short_name":"57","route_long_name":"Manchester","route_type":3,"route_color":"#FFFFFF","route_text_color":"#000000"}],"agency_name":"Metro St. Louis"},"geometry":{"type":"Point","coordinates":[-90.36859,38.60834]}},{"type":"Feature","properties":{"stop_id":"5094","stop_code":"5094","stop_name":"MANCHESTER @ ROCK HILL EB","stop_desc":"NEAR SIDE MANCHESTER @ ROCK HILL EB","wheelchair_boarding":1,"routes":[{"route_id":"19616","agency_id":"70006","route_short_name":"57","route_long_name":"Manchester","route_type":3,"route_color":"#FFFFFF","route_text_color":"#000000"}],"agency_name":"Metro St. Louis"},"geometry":{"type":"Point","coordinates":[-90.36488,38.60911]}},{"type":"Feature","properties":{"stop_id":"5097","stop_code":"5097","stop_name":"MANCHESTER @ CREVE COEUR EB","stop_desc":"NEAR SIDE MANCHESTER @ CREVE COEUR EB","wheelchair_boarding":1,"routes":[{"route_id":"19616","agency_id":"70006","route_short_name":"57","route_long_name":"Manchester","route_type":3,"route_color":"#FFFFFF","route_text_color":"#000000"}],"agency_name":"Metro St. Louis"},"geometry":{"type":"Point","coordinates":[-90.35829,38.61132]}},{"type":"Feature","properties":{"stop_id":"5099","stop_code":"5099","stop_name":"MANCHESTER  @ MANDERLY EB","stop_desc":"FAR SIDE MANCHESTER  @ MANDERLY EB","wheelchair_boarding":1,"routes":[{"route_id":"19616","agency_id":"70006","route_short_name":"57","route_long_name":"Manchester","route_type":3,"route_color":"#FFFFFF","route_text_color":"#000000"}],"agency_name":"Metro St. Louis"},"geometry":{"type":"Point","coordinates":[-90.35328,38.61251]}},{"type":"Feature","properties":{"stop_id":"5101","stop_code":"5101","stop_name":"MANCHESTER @ BRENTWOOD EB","stop_desc":"FAR SIDE MANCHESTER @ BRENTWOOD EB","wheelchair_boarding":1,"routes":[{"route_id":"19616","agency_id":"70006","route_short_name":"57","route_long_name":"Manchester","route_type":3,"route_color":"#FFFFFF","route_text_color":"#000000"}],"agency_name":"Metro St. Louis"},"geometry":{"type":"Point","coordinates":[-90.34884,38.6125]}},{"type":"Feature","properties":{"stop_id":"5102","stop_code":"5102","stop_name":"MANCHESTER @ MARY EB","stop_desc":"FAR SIDE MANCHESTER @ MARY EB","wheelchair_boarding":1,"routes":[{"route_id":"19616","agency_id":"70006","route_short_name":"57","route_long_name":"Manchester","route_type":3,"route_color":"#FFFFFF","route_text_color":"#000000"}],"agency_name":"Metro St. Louis"},"geometry":{"type":"Point","coordinates":[-90.34524,38.6124]}},{"type":"Feature","properties":{"stop_id":"5104","stop_code":"5104","stop_name":"MANCHESTER @ CECELIA EB","stop_desc":"FAR SIDE MANCHESTER @ CECELIA EB","wheelchair_boarding":1,"routes":[{"route_id":"19616","agency_id":"70006","route_short_name":"57","route_long_name":"Manchester","route_type":3,"route_color":"#FFFFFF","route_text_color":"#000000"}],"agency_name":"Metro St. Louis"},"geometry":{"type":"Point","coordinates":[-90.34121,38.61194]}},{"type":"Feature","properties":{"stop_id":"5106","stop_code":"5106","stop_name":"MANCHESTER @ MERCANTILE EB","stop_desc":"FAR SIDE MANCHESTER @ MERCANTILE EB","wheelchair_boarding":1,"routes":[{"route_id":"19616","agency_id":"70006","route_short_name":"57","route_long_name":"Manchester","route_type":3,"route_color":"#FFFFFF","route_text_color":"#000000"}],"agency_name":"Metro St. Louis"},"geometry":{"type":"Point","coordinates":[-90.33775,38.61172]}},{"type":"Feature","properties":{"stop_id":"5108","stop_code":"5108","stop_name":"MANCHESTER @ HANLEY EB","stop_desc":"FAR SIDE MANCHESTER @ HANLEY EB","wheelchair_boarding":1,"routes":[{"route_id":"19616","agency_id":"70006","route_short_name":"57","route_long_name":"Manchester","route_type":3,"route_color":"#FFFFFF","route_text_color":"#000000"}],"agency_name":"Metro St. Louis"},"geometry":{"type":"Point","coordinates":[-90.33322,38.61297]}},{"type":"Feature","properties":{"stop_id":"5160","stop_code":"5160","stop_name":"MANCHESTER @ COVERT EB","stop_desc":"NEAR SIDE MANCHESTER @ COVERT EB","wheelchair_boarding":1,"routes":[{"route_id":"19616","agency_id":"70006","route_short_name":"57","route_long_name":"Manchester","route_type":3,"route_color":"#FFFFFF","route_text_color":"#000000"}],"agency_name":"Metro St. Louis"},"geometry":{"type":"Point","coordinates":[-90.59389,38.59089]}},{"type":"Feature","properties":{"stop_id":"5161","stop_code":"5161","stop_name":"MANCHESTER @ PRETORIA EB","stop_desc":"FAR SIDE MANCHESTER @ PRETORIA EB","wheelchair_boarding":1,"routes":[{"route_id":"19616","agency_id":"70006","route_short_name":"57","route_long_name":"Manchester","route_type":3,"route_color":"#FFFFFF","route_text_color":"#000000"}],"agency_name":"Metro St. Louis"},"geometry":{"type":"Point","coordinates":[-90.59103,38.59165]}},{"type":"Feature","properties":{"stop_id":"5163","stop_code":"5163","stop_name":"MANCHESTER @ DEVORE EB","stop_desc":"NEAR SIDE MANCHESTER @ DEVORE EB","wheelchair_boarding":2,"routes":[{"route_id":"19616","agency_id":"70006","route_short_name":"57","route_long_name":"Manchester","route_type":3,"route_color":"#FFFFFF","route_text_color":"#000000"}],"agency_name":"Metro St. Louis"},"geometry":{"type":"Point","coordinates":[-90.58361,38.59259]}},{"type":"Feature","properties":{"stop_id":"5164","stop_code":"5164","stop_name":"MANCHESTER @ VESPER EB","stop_desc":"FAR SIDE MANCHESTER @ VESPER EB","wheelchair_boarding":1,"routes":[{"route_id":"19616","agency_id":"70006","route_short_name":"57","route_long_name":"Manchester","route_type":3,"route_color":"#FFFFFF","route_text_color":"#000000"}],"agency_name":"Metro St. Louis"},"geometry":{"type":"Point","coordinates":[-90.58087,38.5926]}},{"type":"Feature","properties":{"stop_id":"5165","stop_code":"5165","stop_name":"MANCHESTER @ OAK HILL EB","stop_desc":"FAR SIDE MANCHESTER @ OAK HILL EB","wheelchair_boarding":1,"routes":[{"route_id":"19616","agency_id":"70006","route_short_name":"57","route_long_name":"Manchester","route_type":3,"route_color":"#FFFFFF","route_text_color":"#000000"}],"agency_name":"Metro St. Louis"},"geometry":{"type":"Point","coordinates":[-90.57795,38.59262]}},{"type":"Feature","properties":{"stop_id":"5166","stop_code":"5166","stop_name":"MANCHESTER @ BARNACLE COURT EB","stop_desc":"FAR SIDE MANCHESTER @ BARNACLE COURT EB","wheelchair_boarding":1,"routes":[{"route_id":"19616","agency_id":"70006","route_short_name":"57","route_long_name":"Manchester","route_type":3,"route_color":"#FFFFFF","route_text_color":"#000000"}],"agency_name":"Metro St. Louis"},"geometry":{"type":"Point","coordinates":[-90.57534,38.59261]}},{"type":"Feature","properties":{"stop_id":"5168","stop_code":"5168","stop_name":"MANCHESTER @ MEADOW EB","stop_desc":"FAR SIDE MANCHESTER @ MEADOW EB","wheelchair_boarding":1,"routes":[{"route_id":"19616","agency_id":"70006","route_short_name":"57","route_long_name":"Manchester","route_type":3,"route_color":"#FFFFFF","route_text_color":"#000000"}],"agency_name":"Metro St. Louis"},"geometry":{"type":"Point","coordinates":[-90.57165,38.59265]}},{"type":"Feature","properties":{"stop_id":"5171","stop_code":"5171","stop_name":"MANCHESTER @ BALLWIN PLAZA EB","stop_desc":"NEAR SIDE MANCHESTER @ BALLWIN PLAZA EB","wheelchair_boarding":1,"routes":[{"route_id":"19616","agency_id":"70006","route_short_name":"57","route_long_name":"Manchester","route_type":3,"route_color":"#FFFFFF","route_text_color":"#000000"}],"agency_name":"Metro St. Louis"},"geometry":{"type":"Point","coordinates":[-90.56473,38.59271]}},{"type":"Feature","properties":{"stop_id":"5172","stop_code":"5172","stop_name":"MANCHESTER @ QUAIL EB","stop_desc":"MID-BLOCK MANCHESTER @ QUAIL EB","wheelchair_boarding":1,"routes":[{"route_id":"19616","agency_id":"70006","route_short_name":"57","route_long_name":"Manchester","route_type":3,"route_color":"#FFFFFF","route_text_color":"#000000"}],"agency_name":"Metro St. Louis"},"geometry":{"type":"Point","coordinates":[-90.55958,38.59276]}},{"type":"Feature","properties":{"stop_id":"5173","stop_code":"5173","stop_name":"MANCHESTER @ NEW BALLWIN EB","stop_desc":"FAR SIDE MANCHESTER @ NEW BALLWIN EB","wheelchair_boarding":1,"routes":[{"route_id":"19616","agency_id":"70006","route_short_name":"57","route_long_name":"Manchester","route_type":3,"route_color":"#FFFFFF","route_text_color":"#000000"}],"agency_name":"Metro St. Louis"},"geometry":{"type":"Point","coordinates":[-90.55662,38.5928]}},{"type":"Feature","properties":{"stop_id":"5174","stop_code":"5174","stop_name":"MANCHESTER @ BIRCHWOOD EB","stop_desc":"FAR SIDE MANCHESTER @ BIRCHWOOD EB","wheelchair_boarding":2,"routes":[{"route_id":"19616","agency_id":"70006","route_short_name":"57","route_long_name":"Manchester","route_type":3,"route_color":"#FFFFFF","route_text_color":"#000000"}],"agency_name":"Metro St. Louis"},"geometry":{"type":"Point","coordinates":[-90.55426,38.5928]}},{"type":"Feature","properties":{"stop_id":"5177","stop_code":"5177","stop_name":"MANCHESTER @ HOLLOWAY EB","stop_desc":"NEAR SIDE MANCHESTER @ HOLLOWAY EB","wheelchair_boarding":1,"routes":[{"route_id":"19616","agency_id":"70006","route_short_name":"57","route_long_name":"Manchester","route_type":3,"route_color":"#FFFFFF","route_text_color":"#000000"}],"agency_name":"Metro St. Louis"},"geometry":{"type":"Point","coordinates":[-90.54738,38.59289]}},{"type":"Feature","properties":{"stop_id":"5179","stop_code":"5179","stop_name":"MANCHESTER @ ELM EB","stop_desc":"NEAR SIDE MANCHESTER @ ELM EB","wheelchair_boarding":1,"routes":[{"route_id":"19616","agency_id":"70006","route_short_name":"57","route_long_name":"Manchester","route_type":3,"route_color":"#FFFFFF","route_text_color":"#000000"}],"agency_name":"Metro St. Louis"},"geometry":{"type":"Point","coordinates":[-90.54027,38.59293]}},{"type":"Feature","properties":{"stop_id":"5180","stop_code":"5180","stop_name":"MANCHESTER @ RIES EB","stop_desc":"FAR SIDE MANCHESTER @ RIES EB","wheelchair_boarding":1,"routes":[{"route_id":"19616","agency_id":"70006","route_short_name":"57","route_long_name":"Manchester","route_type":3,"route_color":"#FFFFFF","route_text_color":"#000000"}],"agency_name":"Metro St. Louis"},"geometry":{"type":"Point","coordinates":[-90.53734,38.5929]}},{"type":"Feature","properties":{"stop_id":"5182","stop_code":"5182","stop_name":"MANCHESTER @ HENSLER CORDES EB","stop_desc":"NEAR SIDE MANCHESTER @ HENSLER CORDES EB","wheelchair_boarding":1,"routes":[{"route_id":"19616","agency_id":"70006","route_short_name":"57","route_long_name":"Manchester","route_type":3,"route_color":"#FFFFFF","route_text_color":"#000000"}],"agency_name":"Metro St. Louis"},"geometry":{"type":"Point","coordinates":[-90.53267,38.59291]}},{"type":"Feature","properties":{"stop_id":"5184","stop_code":"5184","stop_name":"MANCHESTER @ LINDY EB","stop_desc":"FAR SIDE MANCHESTER @ LINDY EB","wheelchair_boarding":2,"routes":[{"route_id":"19616","agency_id":"70006","route_short_name":"57","route_long_name":"Manchester","route_type":3,"route_color":"#FFFFFF","route_text_color":"#000000"}],"agency_name":"Metro St. Louis"},"geometry":{"type":"Point","coordinates":[-90.52614,38.59294]}},{"type":"Feature","properties":{"stop_id":"5185","stop_code":"5185","stop_name":"MANCHESTER @ SULPHUR SPRING EB","stop_desc":"FAR SIDE MANCHESTER @ SULPHUR SPRING EB","wheelchair_boarding":2,"routes":[{"route_id":"19616","agency_id":"70006","route_short_name":"57","route_long_name":"Manchester","route_type":3,"route_color":"#FFFFFF","route_text_color":"#000000"}],"agency_name":"Metro St. Louis"},"geometry":{"type":"Point","coordinates":[-90.51997,38.59317]}},{"type":"Feature","properties":{"stop_id":"5188","stop_code":"5188","stop_name":"MANCHESTER @ OLD SULPHUR SPRING EB","stop_desc":"FAR SIDE MANCHESTER @ OLD SULPHUR SPRING EB","wheelchair_boarding":2,"routes":[{"route_id":"19616","agency_id":"70006","route_short_name":"57","route_long_name":"Manchester","route_type":3,"route_color":"#FFFFFF","route_text_color":"#000000"}],"agency_name":"Metro St. Louis"},"geometry":{"type":"Point","coordinates":[-90.5131,38.59287]}},{"type":"Feature","properties":{"stop_id":"5189","stop_code":"5189","stop_name":"MANCHESTER @ OLD MERAMEC STATION ROAD EB","stop_desc":"FAR SIDE MANCHESTER @ OLD MERAMEC STATION ROAD EB","wheelchair_boarding":1,"routes":[{"route_id":"19616","agency_id":"70006","route_short_name":"57","route_long_name":"Manchester","route_type":3,"route_color":"#FFFFFF","route_text_color":"#000000"}],"agency_name":"Metro St. Louis"},"geometry":{"type":"Point","coordinates":[-90.51106,38.59277]}},{"type":"Feature","properties":{"stop_id":"5190","stop_code":"5190","stop_name":"MANCHESTER @ GAYWOOD EB","stop_desc":"FAR SIDE MANCHESTER @ GAYWOOD EB","wheelchair_boarding":2,"routes":[{"route_id":"19616","agency_id":"70006","route_short_name":"57","route_long_name":"Manchester","route_type":3,"route_color":"#FFFFFF","route_text_color":"#000000"}],"agency_name":"Metro St. Louis"},"geometry":{"type":"Point","coordinates":[-90.50625,38.59263]}},{"type":"Feature","properties":{"stop_id":"5191","stop_code":"5191","stop_name":"MANCHESTER @ HIGHLANDS BOULEVARD EB","stop_desc":"FAR SIDE MANCHESTER @ HIGHLANDS BOULEVARD EB","wheelchair_boarding":2,"routes":[{"route_id":"19616","agency_id":"70006","route_short_name":"57","route_long_name":"Manchester","route_type":3,"route_color":"#FFFFFF","route_text_color":"#000000"}],"agency_name":"Metro St. Louis"},"geometry":{"type":"Point","coordinates":[-90.5046,38.59257]}},{"type":"Feature","properties":{"stop_id":"5192","stop_code":"5192","stop_name":"MANCHESTER @ KNOLLHAVEN EB","stop_desc":"NEAR SIDE MANCHESTER @ KNOLLHAVEN EB","wheelchair_boarding":2,"routes":[{"route_id":"19616","agency_id":"70006","route_short_name":"57","route_long_name":"Manchester","route_type":3,"route_color":"#FFFFFF","route_text_color":"#000000"}],"agency_name":"Metro St. Louis"},"geometry":{"type":"Point","coordinates":[-90.50032,38.59286]}},{"type":"Feature","properties":{"stop_id":"5193","stop_code":"5193","stop_name":"MANCHESTER @ BRAESHIRE EB","stop_desc":"NEAR SIDE MANCHESTER @ BRAESHIRE EB","wheelchair_boarding":1,"routes":[{"route_id":"19616","agency_id":"70006","route_short_name":"57","route_long_name":"Manchester","route_type":3,"route_color":"#FFFFFF","route_text_color":"#000000"}],"agency_name":"Metro St. Louis"},"geometry":{"type":"Point","coordinates":[-90.49701,38.59377]}},{"type":"Feature","properties":{"stop_id":"5194","stop_code":"5194","stop_name":"MANCHESTER @ WEIDMAN EB","stop_desc":"NEAR SIDE MANCHESTER @ WEIDMAN EB","wheelchair_boarding":1,"routes":[{"route_id":"19616","agency_id":"70006","route_short_name":"57","route_long_name":"Manchester","route_type":3,"route_color":"#FFFFFF","route_text_color":"#000000"}],"agency_name":"Metro St. Louis"},"geometry":{"type":"Point","coordinates":[-90.49299,38.59487]}},{"type":"Feature","properties":{"stop_id":"5196","stop_code":"5196","stop_name":"MANCHESTER @ MANCHESTER MEADOWS EB","stop_desc":"FAR SIDE MANCHESTER @ MANCHESTER MEADOWS EB","wheelchair_boarding":1,"routes":[{"route_id":"19616","agency_id":"70006","route_short_name":"57","route_long_name":"Manchester","route_type":3,"route_color":"#FFFFFF","route_text_color":"#000000"}],"agency_name":"Metro St. Louis"},"geometry":{"type":"Point","coordinates":[-90.48461,38.59649]}},{"type":"Feature","properties":{"stop_id":"5197","stop_code":"5197","stop_name":"13358 MANCHESTER EB","stop_desc":"MID-BLOCK 13358 MANCHESTER EB","wheelchair_boarding":2,"routes":[{"route_id":"19616","agency_id":"70006","route_short_name":"57","route_long_name":"Manchester","route_type":3,"route_color":"#FFFFFF","route_text_color":"#000000"}],"agency_name":"Metro St. Louis"},"geometry":{"type":"Point","coordinates":[-90.46773,38.59992]}},{"type":"Feature","properties":{"stop_id":"5198","stop_code":"5198","stop_name":"MANCHESTER @ POINTE EB","stop_desc":"FAR SIDE MANCHESTER @ POINTE EB","wheelchair_boarding":2,"routes":[{"route_id":"19616","agency_id":"70006","route_short_name":"57","route_long_name":"Manchester","route_type":3,"route_color":"#FFFFFF","route_text_color":"#000000"}],"agency_name":"Metro St. Louis"},"geometry":{"type":"Point","coordinates":[-90.4646,38.60172]}}]}