{"type":"FeatureCollection","features":[{"type":"Feature","properties":{"agency_name":"Metro St. Louis","route_id":"19629","agency_id":"70006","route_short_name":"90","route_long_name":"Hampton","route_type":3,"route_color":"#FFFFFF","route_text_color":"#000000"},"geometry":{"type":"MultiLineString","coordinates":[[[-90.28545,38.64777],[-90.28544,38.64785],[-90.28568,38.64665],[-90.28572,38.64653],[-90.28585,38.64628],[-90.28596,38.64612],[-90.28651,38.64556],[-90.2866,38.6454],[-90.28663,38.6452],[-90.28659,38.64503],[-90.2864,38.64478],[-90.286,38.64459],[-90.28597,38.6443],[-90.28597,38.64397],[-90.28609,38.64329],[-90.28638,38.64298],[-90.28673,38.64271],[-90.28708,38.64249],[-90.28747,38.64234],[-90.28785,38.64223],[-90.28815,38.64216],[-90.28831,38.64214],[-90.28882,38.64213],[-90.28937,38.64222],[-90.28968,38.64232],[-90.29001,38.64247],[-90.29206,38.64355],[-90.29238,38.64361],[-90.2926,38.64362],[-90.29292,38.64361],[-90.29375,38.64346],[-90.29461,38.64321],[-90.2953,38.64298],[-90.29626,38.64289],[-90.29634,38.64275],[-90.29627,38.64268],[-90.2961,38.64235],[-90.29619,38.64172],[-90.29621,38.6414],[-90.29617,38.64119],[-90.29604,38.6409],[-90.29591,38.64073],[-90.29567,38.64052],[-90.29466,38.63993],[-90.29343,38.63917],[-90.29213,38.63822],[-90.29173,38.6379],[-90.29145,38.63761],[-90.29115,38.63716],[-90.29101,38.63689],[-90.28909,38.63752],[-90.28825,38.63626],[-90.28812,38.63609],[-90.28795,38.63595],[-90.28758,38.6358],[-90.28633,38.63543],[-90.28503,38.635],[-90.28492,38.63496],[-90.2849,38.63491],[-90.28486,38.63487],[-90.28509,38.63401],[-90.28522,38.63362],[-90.2853,38.63346],[-90.28536,38.63339],[-90.28546,38.6333],[-90.28555,38.63327],[-90.28563,38.63321],[-90.28566,38.63311],[-90.28563,38.63308],[-90.28578,38.63296],[-90.28585,38.63287],[-90.28595,38.63265],[-90.28606,38.63255],[-90.28626,38.63217],[-90.2864,38.63175],[-90.28687,38.63055],[-90.287,38.63018],[-90.2871,38.62977],[-90.28745,38.62753],[-90.28788,38.62524],[-90.28793,38.62485],[-90.28793,38.62469],[-90.28782,38.62393],[-90.28783,38.62367],[-90.28787,38.62335],[-90.28799,38.6227],[-90.2881,38.62222],[-90.28843,38.62058],[-90.28847,38.6202],[-90.28846,38.61965],[-90.2884,38.61918],[-90.28836,38.619],[-90.28829,38.61883],[-90.28824,38.61872],[-90.28805,38.61841],[-90.28766,38.61792],[-90.28747,38.61764],[-90.28726,38.61724],[-90.28713,38.6168],[-90.2871,38.61648],[-90.28711,38.61627],[-90.28718,38.61584],[-90.28727,38.6157],[-90.28743,38.61516],[-90.28766,38.61457],[-90.2878,38.61403],[-90.2879,38.61331],[-90.28791,38.61294],[-90.28783,38.61176],[-90.28812,38.61041],[-90.28858,38.6081],[-90.28865,38.60779],[-90.28877,38.60739],[-90.28893,38.60698],[-90.28913,38.60665],[-90.28949,38.60615],[-90.29075,38.60483],[-90.29102,38.60452],[-90.29124,38.6042],[-90.2914,38.60392],[-90.2916,38.60347],[-90.29171,38.60312],[-90.29183,38.60258],[-90.29213,38.60073],[-90.2924,38.5993],[-90.29281,38.59672],[-90.2929,38.59636],[-90.29309,38.59588],[-90.2937,38.59485],[-90.29406,38.59408],[-90.29416,38.59381],[-90.29428,38.59341],[-90.29447,38.59262],[-90.29451,38.59234],[-90.29454,38.59209],[-90.29456,38.5912],[-90.29442,38.58956],[-90.29438,38.5893],[-90.29433,38.5891],[-90.29423,38.58885],[-90.29407,38.5886],[-90.29378,38.58828],[-90.29351,38.58807],[-90.29301,38.58779],[-90.29275,38.58758],[-90.29261,38.5874],[-90.29256,38.5873],[-90.29249,38.58709],[-90.29249,38.58687],[-90.29278,38.58511],[-90.29333,38.58207],[-90.29371,38.57987],[-90.2944,38.57617],[-90.29477,38.57408],[-90.29495,38.57332],[-90.29511,38.57297],[-90.29572,38.57208],[-90.2959,38.57165],[-90.29596,38.57138],[-90.29616,38.57023],[-90.29632,38.56928],[-90.29634,38.56905],[-90.29633,38.56882],[-90.29627,38.56849],[-90.29613,38.56814],[-90.29514,38.56618],[-90.29452,38.56486],[-90.29441,38.56465],[-90.2941,38.56479],[-90.29403,38.56479],[-90.29395,38.56477]],[[-90.22447,38.72697],[-90.22412,38.72709],[-90.22451,38.72696],[-90.22458,38.72698],[-90.22462,38.72702],[-90.22463,38.72708],[-90.22461,38.72711],[-90.22394,38.72734],[-90.22388,38.7274],[-90.22386,38.72748],[-90.22406,38.72761],[-90.22596,38.72711],[-90.22664,38.72704],[-90.22696,38.72699],[-90.22792,38.72679],[-90.22873,38.72652],[-90.23006,38.72587],[-90.23428,38.72358],[-90.23463,38.7234],[-90.23505,38.72322],[-90.23535,38.72311],[-90.23566,38.72303],[-90.23607,38.72295],[-90.23638,38.72291],[-90.237,38.72285],[-90.23974,38.72266],[-90.2398,38.72277],[-90.23992,38.72285],[-90.24036,38.72287],[-90.24051,38.7228],[-90.24059,38.72272],[-90.24064,38.72259],[-90.24065,38.72248],[-90.24138,38.72234],[-90.24194,38.7222],[-90.2423,38.72207],[-90.24326,38.7217],[-90.24417,38.72131],[-90.248,38.7198],[-90.25039,38.71888],[-90.2506,38.71883],[-90.25081,38.71882],[-90.25135,38.7189],[-90.25166,38.71883],[-90.25187,38.71863],[-90.25225,38.71787],[-90.25319,38.71614],[-90.2534,38.71571],[-90.25363,38.71508],[-90.25386,38.71472],[-90.25635,38.71126],[-90.26074,38.70521],[-90.26124,38.70455],[-90.26164,38.70397],[-90.2634,38.70153],[-90.26387,38.70084],[-90.26405,38.7006],[-90.26482,38.69945],[-90.26601,38.69778],[-90.26639,38.69718],[-90.26667,38.69654],[-90.26709,38.69568],[-90.2676,38.69455],[-90.26804,38.69366],[-90.26851,38.69266],[-90.2694,38.69063],[-90.27079,38.68725],[-90.27125,38.686],[-90.27158,38.685],[-90.27266,38.68201],[-90.27282,38.68172],[-90.27411,38.67986],[-90.2746,38.67914],[-90.27488,38.6787],[-90.27569,38.67754],[-90.27939,38.67208],[-90.28496,38.66443],[-90.28523,38.66402],[-90.28532,38.66361],[-90.28557,38.6619],[-90.28668,38.65477],[-90.28677,38.65411],[-90.28514,38.65398],[-90.28444,38.6539],[-90.28454,38.65343],[-90.28512,38.64986],[-90.28529,38.64866],[-90.28542,38.64794]]]}},{"type":"Feature","properties":{"stop_id":"10278","stop_code":"10278","stop_name":"HAMPTON @ EICHELBERGER SB","stop_desc":"FAR SIDE HAMPTON @ EICHELBERGER SB","wheelchair_boarding":1,"routes":[{"route_id":"19629","agency_id":"70006","route_short_name":"90","route_long_name":"Hampton","route_type":3,"route_color":"#FFFFFF","route_text_color":"#000000"}],"agency_name":"Metro St. Louis"},"geometry":{"type":"Point","coordinates":[-90.29352,38.58143]}},{"type":"Feature","properties":{"stop_id":"10279","stop_code":"10279","stop_name":"HAMPTON @ RHODES SB","stop_desc":"NEAR SIDE HAMPTON @ RHODES SB","wheelchair_boarding":2,"routes":[{"route_id":"19629","agency_id":"70006","route_short_name":"90","route_long_name":"Hampton","route_type":3,"route_color":"#FFFFFF","route_text_color":"#000000"}],"agency_name":"Metro St. Louis"},"geometry":{"type":"Point","coordinates":[-90.29394,38.57915]}},{"type":"Feature","properties":{"stop_id":"10280","stop_code":"10280","stop_name":"HAMPTON @ HOLLY HILLS SB","stop_desc":"FAR SIDE HAMPTON @ HOLLY HILLS SB","wheelchair_boarding":2,"routes":[{"route_id":"19629","agency_id":"70006","route_short_name":"90","route_long_name":"Hampton","route_type":3,"route_color":"#FFFFFF","route_text_color":"#000000"}],"agency_name":"Metro St. Louis"},"geometry":{"type":"Point","coordinates":[-90.29418,38.57791]}},{"type":"Feature","properties":{"stop_id":"1460","stop_code":"1460","stop_name":"FOREST PARK TRANSIT CENTER SB","stop_desc":"NEAR SIDE FOREST PARK TRANSIT CENTER SB","wheelchair_boarding":1,"routes":[{"route_id":"19629","agency_id":"70006","route_short_name":"90","route_long_name":"Hampton","route_type":3,"route_color":"#FFFFFF","route_text_color":"#000000"}],"agency_name":"Metro St. Louis"},"geometry":{"type":"Point","coordinates":[-90.28552,38.64802]}},{"type":"Feature","properties":{"stop_id":"15489","stop_code":"15489","stop_name":"8937 RIVERVIEW WB","stop_desc":"MID-BLOCK 8937 RIVERVIEW WB","wheelchair_boarding":2,"routes":[{"route_id":"19601","agency_id":"70006","route_short_name":"16","route_long_name":"City Limits","route_type":3,"route_color":"#FFFFFF","route_text_color":"#000000"},{"route_id":"19611","agency_id":"70006","route_short_name":"40","route_long_name":"Broadway-Halls Ferry","route_type":3,"route_color":"#FFFFFF","route_text_color":"#000000"},{"route_id":"19612","agency_id":"70006","route_short_name":"41","route_long_name":"Lee","route_type":3,"route_color":"#FFFFFF","route_text_color":"#000000"},{"route_id":"19619","agency_id":"70006","route_short_name":"60","route_long_name":"Shepley-Lilac","route_type":3,"route_color":"#FFFFFF","route_text_color":"#000000"},{"route_id":"19620","agency_id":"70006","route_short_name":"61","route_long_name":"Chambers Rd","route_type":3,"route_color":"#FFFFFF","route_text_color":"#000000"},{"route_id":"19621","agency_id":"70006","route_short_name":"64","route_long_name":"Lucas-Hunt","route_type":3,"route_color":"#FFFFFF","route_text_color":"#000000"},{"route_id":"19627","agency_id":"70006","route_short_name":"78","route_long_name":"Bellefontaine","route_type":3,"route_color":"#FFFFFF","route_text_color":"#000000"},{"route_id":"19629","agency_id":"70006","route_short_name":"90","route_long_name":"Hampton","route_type":3,"route_color":"#FFFFFF","route_text_color":"#000000"}],"agency_name":"Metro St. Louis"},"geometry":{"type":"Point","coordinates":[-90.22641,38.72709]}},{"type":"Feature","properties":{"stop_id":"16090","stop_code":"16090","stop_name":"RIVERVIEW TRANSIT CENTER","wheelchair_boarding":1,"routes":[{"route_id":"19620","agency_id":"70006","route_short_name":"61","route_long_name":"Chambers Rd","route_type":3,"route_color":"#FFFFFF","route_text_color":"#000000"},{"route_id":"19621","agency_id":"70006","route_short_name":"64","route_long_name":"Lucas-Hunt","route_type":3,"route_color":"#FFFFFF","route_text_color":"#000000"},{"route_id":"19627","agency_id":"70006","route_short_name":"78","route_long_name":"Bellefontaine","route_type":3,"route_color":"#FFFFFF","route_text_color":"#000000"},{"route_id":"19629","agency_id":"70006","route_short_name":"90","route_long_name":"Hampton","route_type":3,"route_color":"#FFFFFF","route_text_color":"#000000"}],"agency_name":"Metro St. Louis"},"geometry":{"type":"Point","coordinates":[-90.22399,38.72717]}},{"type":"Feature","properties":{"stop_id":"16400","stop_code":"16400","stop_name":"GOODFELLOW @ VERONICA WB","stop_desc":"NEAR SIDE GOODFELLOW @ VERONICA WB","wheelchair_boarding":1,"routes":[{"route_id":"19629","agency_id":"70006","route_short_name":"90","route_long_name":"Hampton","route_type":3,"route_color":"#FFFFFF","route_text_color":"#000000"}],"agency_name":"Metro St. Louis"},"geometry":{"type":"Point","coordinates":[-90.24797,38.71986]}},{"type":"Feature","properties":{"stop_id":"2101","stop_code":"2101","stop_name":"DELMAR @ GOODFELLOW EB","stop_desc":"FAR SIDE DELMAR @ GOODFELLOW EB","wheelchair_boarding":1,"routes":[{"route_id":"19629","agency_id":"70006","route_short_name":"90","route_long_name":"Hampton","route_type":3,"route_color":"#FFFFFF","route_text_color":"#000000"},{"route_id":"19633","agency_id":"70006","route_short_name":"97","route_long_name":"Delmar","route_type":3,"route_color":"#FFFFFF","route_text_color":"#000000"}],"agency_name":"Metro St. Louis"},"geometry":{"type":"Point","coordinates":[-90.28582,38.65399]}},{"type":"Feature","properties":{"stop_id":"3174","stop_code":"3174","stop_name":"DEBALIVIERE @ DELMAR SB","stop_desc":"FAR SIDE DEBALIVIERE @ DELMAR SB","wheelchair_boarding":1,"routes":[{"route_id":"19629","agency_id":"70006","route_short_name":"90","route_long_name":"Hampton","route_type":3,"route_color":"#FFFFFF","route_text_color":"#000000"}],"agency_name":"Metro St. Louis"},"geometry":{"type":"Point","coordinates":[-90.28459,38.65326]}},{"type":"Feature","properties":{"stop_id":"3178","stop_code":"3178","stop_name":"LAGOON @ GRAND BASIN WB","stop_desc":"FAR SIDE LAGOON @ GRAND BASIN WB","wheelchair_boarding":1,"routes":[{"route_id":"19629","agency_id":"70006","route_short_name":"90","route_long_name":"Hampton","route_type":3,"route_color":"#FFFFFF","route_text_color":"#000000"}],"agency_name":"Metro St. Louis"},"geometry":{"type":"Point","coordinates":[-90.29185,38.64351]}},{"type":"Feature","properties":{"stop_id":"3179","stop_code":"3179","stop_name":"FINE ARTS @ ART MUSEUM SB","stop_desc":"MID-BLOCK FINE ARTS @ ART MUSEUM SB","wheelchair_boarding":1,"routes":[{"route_id":"19629","agency_id":"70006","route_short_name":"90","route_long_name":"Hampton","route_type":3,"route_color":"#FFFFFF","route_text_color":"#000000"}],"agency_name":"Metro St. Louis"},"geometry":{"type":"Point","coordinates":[-90.29453,38.63979]}},{"type":"Feature","properties":{"stop_id":"3180","stop_code":"3180","stop_name":"FINE ARTS @ ST. LOUIS ZOO SB","stop_desc":"NEAR SIDE FINE ARTS @ ST. LOUIS ZOO SB","wheelchair_boarding":1,"routes":[{"route_id":"19629","agency_id":"70006","route_short_name":"90","route_long_name":"Hampton","route_type":3,"route_color":"#FFFFFF","route_text_color":"#000000"}],"agency_name":"Metro St. Louis"},"geometry":{"type":"Point","coordinates":[-90.29074,38.63692]}},{"type":"Feature","properties":{"stop_id":"3182","stop_code":"3182","stop_name":"CONCOURSE @ WASHINGTON SB","stop_desc":"FAR SIDE CONCOURSE @ WASHINGTON SB","wheelchair_boarding":1,"routes":[{"route_id":"19629","agency_id":"70006","route_short_name":"90","route_long_name":"Hampton","route_type":3,"route_color":"#FFFFFF","route_text_color":"#000000"}],"agency_name":"Metro St. Louis"},"geometry":{"type":"Point","coordinates":[-90.285,38.63428]}},{"type":"Feature","properties":{"stop_id":"3184","stop_code":"3184","stop_name":"HAMPTON @ OAKLAND SB","stop_desc":"FAR SIDE HAMPTON @ OAKLAND SB","wheelchair_boarding":1,"routes":[{"route_id":"19629","agency_id":"70006","route_short_name":"90","route_long_name":"Hampton","route_type":3,"route_color":"#FFFFFF","route_text_color":"#000000"}],"agency_name":"Metro St. Louis"},"geometry":{"type":"Point","coordinates":[-90.287,38.63067]}},{"type":"Feature","properties":{"stop_id":"3185","stop_code":"3185","stop_name":"HAMPTON @ CRESCENT SB","stop_desc":"FAR SIDE HAMPTON @ CRESCENT SB","wheelchair_boarding":2,"routes":[{"route_id":"19629","agency_id":"70006","route_short_name":"90","route_long_name":"Hampton","route_type":3,"route_color":"#FFFFFF","route_text_color":"#000000"}],"agency_name":"Metro St. Louis"},"geometry":{"type":"Point","coordinates":[-90.28749,38.62808]}},{"type":"Feature","properties":{"stop_id":"3186","stop_code":"3186","stop_name":"HAMPTON @ WEST PARK SB","stop_desc":"NEAR SIDE HAMPTON @ WEST PARK SB","wheelchair_boarding":2,"routes":[{"route_id":"19629","agency_id":"70006","route_short_name":"90","route_long_name":"Hampton","route_type":3,"route_color":"#FFFFFF","route_text_color":"#000000"}],"agency_name":"Metro St. Louis"},"geometry":{"type":"Point","coordinates":[-90.2877,38.62688]}},{"type":"Feature","properties":{"stop_id":"3187","stop_code":"3187","stop_name":"HAMPTON @ ROBERTS SB","stop_desc":"FAR SIDE HAMPTON @ ROBERTS SB","wheelchair_boarding":2,"routes":[{"route_id":"19629","agency_id":"70006","route_short_name":"90","route_long_name":"Hampton","route_type":3,"route_color":"#FFFFFF","route_text_color":"#000000"}],"agency_name":"Metro St. Louis"},"geometry":{"type":"Point","coordinates":[-90.28789,38.62575]}},{"type":"Feature","properties":{"stop_id":"3188","stop_code":"3188","stop_name":"HAMPTON @ MANCHESTER SB","stop_desc":"MID-BLOCK HAMPTON @ MANCHESTER SB","wheelchair_boarding":1,"routes":[{"route_id":"19629","agency_id":"70006","route_short_name":"90","route_long_name":"Hampton","route_type":3,"route_color":"#FFFFFF","route_text_color":"#000000"}],"agency_name":"Metro St. Louis"},"geometry":{"type":"Point","coordinates":[-90.28808,38.62281]}},{"type":"Feature","properties":{"stop_id":"3189","stop_code":"3189","stop_name":"HAMPTON  @ WILSON SB","stop_desc":"FAR SIDE HAMPTON  @ WILSON SB","wheelchair_boarding":1,"routes":[{"route_id":"19629","agency_id":"70006","route_short_name":"90","route_long_name":"Hampton","route_type":3,"route_color":"#FFFFFF","route_text_color":"#000000"}],"agency_name":"Metro St. Louis"},"geometry":{"type":"Point","coordinates":[-90.2873,38.617]}},{"type":"Feature","properties":{"stop_id":"3190","stop_code":"3190","stop_name":"HAMPTON @ ELIZABETH SB","stop_desc":"FAR SIDE HAMPTON @ ELIZABETH SB","wheelchair_boarding":1,"routes":[{"route_id":"19629","agency_id":"70006","route_short_name":"90","route_long_name":"Hampton","route_type":3,"route_color":"#FFFFFF","route_text_color":"#000000"}],"agency_name":"Metro St. Louis"},"geometry":{"type":"Point","coordinates":[-90.28756,38.61499]}},{"type":"Feature","properties":{"stop_id":"3191","stop_code":"3191","stop_name":"HAMPTON @ COLUMBIA SB","stop_desc":"FAR SIDE HAMPTON @ COLUMBIA SB","wheelchair_boarding":1,"routes":[{"route_id":"19629","agency_id":"70006","route_short_name":"90","route_long_name":"Hampton","route_type":3,"route_color":"#FFFFFF","route_text_color":"#000000"}],"agency_name":"Metro St. Louis"},"geometry":{"type":"Point","coordinates":[-90.28793,38.61205]}},{"type":"Feature","properties":{"stop_id":"3192","stop_code":"3192","stop_name":"HAMPTON @ WATSON SB","stop_desc":"FAR SIDE HAMPTON @ WATSON SB","wheelchair_boarding":1,"routes":[{"route_id":"19629","agency_id":"70006","route_short_name":"90","route_long_name":"Hampton","route_type":3,"route_color":"#FFFFFF","route_text_color":"#000000"}],"agency_name":"Metro St. Louis"},"geometry":{"type":"Point","coordinates":[-90.2883,38.60993]}},{"type":"Feature","properties":{"stop_id":"3193","stop_code":"3193","stop_name":"HAMPTON @ SOUTHWEST SB","stop_desc":"FAR SIDE HAMPTON @ SOUTHWEST SB","wheelchair_boarding":2,"routes":[{"route_id":"19629","agency_id":"70006","route_short_name":"90","route_long_name":"Hampton","route_type":3,"route_color":"#FFFFFF","route_text_color":"#000000"}],"agency_name":"Metro St. Louis"},"geometry":{"type":"Point","coordinates":[-90.28857,38.60852]}},{"type":"Feature","properties":{"stop_id":"3194","stop_code":"3194","stop_name":"HAMPTON @ ARSENAL SB","stop_desc":"FAR SIDE HAMPTON @ ARSENAL SB","wheelchair_boarding":1,"routes":[{"route_id":"19629","agency_id":"70006","route_short_name":"90","route_long_name":"Hampton","route_type":3,"route_color":"#FFFFFF","route_text_color":"#000000"}],"agency_name":"Metro St. Louis"},"geometry":{"type":"Point","coordinates":[-90.28923,38.60664]}},{"type":"Feature","properties":{"stop_id":"3196","stop_code":"3196","stop_name":"HAMPTON @ SCANLAN SB","stop_desc":"NEAR SIDE HAMPTON @ SCANLAN SB","wheelchair_boarding":1,"routes":[{"route_id":"19629","agency_id":"70006","route_short_name":"90","route_long_name":"Hampton","route_type":3,"route_color":"#FFFFFF","route_text_color":"#000000"}],"agency_name":"Metro St. Louis"},"geometry":{"type":"Point","coordinates":[-90.291,38.60466]}},{"type":"Feature","properties":{"stop_id":"3197","stop_code":"3197","stop_name":"HAMPTON @ FYLER SB","stop_desc":"NEAR SIDE HAMPTON @ FYLER SB","wheelchair_boarding":2,"routes":[{"route_id":"19629","agency_id":"70006","route_short_name":"90","route_long_name":"Hampton","route_type":3,"route_color":"#FFFFFF","route_text_color":"#000000"}],"agency_name":"Metro St. Louis"},"geometry":{"type":"Point","coordinates":[-90.29197,38.6022]}},{"type":"Feature","properties":{"stop_id":"3198","stop_code":"3198","stop_name":"HAMPTON @ MARQUETTE SB","stop_desc":"FAR SIDE HAMPTON @ MARQUETTE SB","wheelchair_boarding":2,"routes":[{"route_id":"19629","agency_id":"70006","route_short_name":"90","route_long_name":"Hampton","route_type":3,"route_color":"#FFFFFF","route_text_color":"#000000"}],"agency_name":"Metro St. Louis"},"geometry":{"type":"Point","coordinates":[-90.29253,38.59889]}},{"type":"Feature","properties":{"stop_id":"3200","stop_code":"3200","stop_name":"HAMPTON @ PERNOD SB","stop_desc":"FAR SIDE HAMPTON @ PERNOD SB","wheelchair_boarding":1,"routes":[{"route_id":"19629","agency_id":"70006","route_short_name":"90","route_long_name":"Hampton","route_type":3,"route_color":"#FFFFFF","route_text_color":"#000000"}],"agency_name":"Metro St. Louis"},"geometry":{"type":"Point","coordinates":[-90.29294,38.59646]}},{"type":"Feature","properties":{"stop_id":"3231","stop_code":"3231","stop_name":"GOODFELLOW @ MCLARAN SB","stop_desc":"FAR SIDE GOODFELLOW @ MCLARAN SB","wheelchair_boarding":1,"routes":[{"route_id":"19629","agency_id":"70006","route_short_name":"90","route_long_name":"Hampton","route_type":3,"route_color":"#FFFFFF","route_text_color":"#000000"}],"agency_name":"Metro St. Louis"},"geometry":{"type":"Point","coordinates":[-90.2519,38.71868]}},{"type":"Feature","properties":{"stop_id":"3232","stop_code":"3232","stop_name":"GOODFELLOW @ SWITZER SB","stop_desc":"FAR SIDE GOODFELLOW @ SWITZER SB","wheelchair_boarding":2,"routes":[{"route_id":"19629","agency_id":"70006","route_short_name":"90","route_long_name":"Hampton","route_type":3,"route_color":"#FFFFFF","route_text_color":"#000000"}],"agency_name":"Metro St. Louis"},"geometry":{"type":"Point","coordinates":[-90.2527,38.71716]}},{"type":"Feature","properties":{"stop_id":"3234","stop_code":"3234","stop_name":"GOODFELLOW @ WEST FLORISSANT SB","stop_desc":"NEAR SIDE GOODFELLOW @ WEST FLORISSANT SB","wheelchair_boarding":1,"routes":[{"route_id":"19629","agency_id":"70006","route_short_name":"90","route_long_name":"Hampton","route_type":3,"route_color":"#FFFFFF","route_text_color":"#000000"}],"agency_name":"Metro St. Louis"},"geometry":{"type":"Point","coordinates":[-90.25482,38.71347]}},{"type":"Feature","properties":{"stop_id":"3236","stop_code":"3236","stop_name":"GOODFELLOW @ LENA SB","stop_desc":"NEAR SIDE GOODFELLOW @ LENA SB","wheelchair_boarding":1,"routes":[{"route_id":"19629","agency_id":"70006","route_short_name":"90","route_long_name":"Hampton","route_type":3,"route_color":"#FFFFFF","route_text_color":"#000000"}],"agency_name":"Metro St. Louis"},"geometry":{"type":"Point","coordinates":[-90.2575,38.70978]}},{"type":"Feature","properties":{"stop_id":"3237","stop_code":"3237","stop_name":"GOODFELLOW @ EMMA SB","stop_desc":"NEAR SIDE GOODFELLOW @ EMMA SB","wheelchair_boarding":1,"routes":[{"route_id":"19629","agency_id":"70006","route_short_name":"90","route_long_name":"Hampton","route_type":3,"route_color":"#FFFFFF","route_text_color":"#000000"}],"agency_name":"Metro St. Louis"},"geometry":{"type":"Point","coordinates":[-90.25865,38.70819]}},{"type":"Feature","properties":{"stop_id":"3238","stop_code":"3238","stop_name":"GOODFELLOW @ LUCILLE SB","stop_desc":"NEAR SIDE GOODFELLOW @ LUCILLE SB","wheelchair_boarding":1,"routes":[{"route_id":"19629","agency_id":"70006","route_short_name":"90","route_long_name":"Hampton","route_type":3,"route_color":"#FFFFFF","route_text_color":"#000000"}],"agency_name":"Metro St. Louis"},"geometry":{"type":"Point","coordinates":[-90.25962,38.70682]}},{"type":"Feature","properties":{"stop_id":"3240","stop_code":"3240","stop_name":"GOODFELLOW @ LALITE SB","stop_desc":"NEAR SIDE GOODFELLOW @ LALITE SB","wheelchair_boarding":1,"routes":[{"route_id":"19629","agency_id":"70006","route_short_name":"90","route_long_name":"Hampton","route_type":3,"route_color":"#FFFFFF","route_text_color":"#000000"}],"agency_name":"Metro St. Louis"},"geometry":{"type":"Point","coordinates":[-90.2616,38.70413]}},{"type":"Feature","properties":{"stop_id":"3242","stop_code":"3242","stop_name":"GOODFELLOW @ LILLIAN SB","stop_desc":"FAR SIDE GOODFELLOW @ LILLIAN SB","wheelchair_boarding":1,"routes":[{"route_id":"19629","agency_id":"70006","route_short_name":"90","route_long_name":"Hampton","route_type":3,"route_color":"#FFFFFF","route_text_color":"#000000"}],"agency_name":"Metro St. Louis"},"geometry":{"type":"Point","coordinates":[-90.26378,38.70115]}},{"type":"Feature","properties":{"stop_id":"3243","stop_code":"3243","stop_name":"GOODFELLOW @ WINDHAM SB","stop_desc":"FAR SIDE GOODFELLOW @ WINDHAM SB","wheelchair_boarding":2,"routes":[{"route_id":"19629","agency_id":"70006","route_short_name":"90","route_long_name":"Hampton","route_type":3,"route_color":"#FFFFFF","route_text_color":"#000000"}],"agency_name":"Metro St. Louis"},"geometry":{"type":"Point","coordinates":[-90.26516,38.6992]}},{"type":"Feature","properties":{"stop_id":"3244","stop_code":"3244","stop_name":"GOODFELLOW @ STRATFORD SB","stop_desc":"FAR SIDE GOODFELLOW @ STRATFORD SB","wheelchair_boarding":2,"routes":[{"route_id":"19629","agency_id":"70006","route_short_name":"90","route_long_name":"Hampton","route_type":3,"route_color":"#FFFFFF","route_text_color":"#000000"}],"agency_name":"Metro St. Louis"},"geometry":{"type":"Point","coordinates":[-90.26663,38.69699]}},{"type":"Feature","properties":{"stop_id":"3246","stop_code":"3246","stop_name":"GOODFELLOW @ FEDERAL CENTER SB","stop_desc":"MID-BLOCK GOODFELLOW @ FEDERAL CENTER SB","wheelchair_boarding":2,"routes":[{"route_id":"19629","agency_id":"70006","route_short_name":"90","route_long_name":"Hampton","route_type":3,"route_color":"#FFFFFF","route_text_color":"#000000"}],"agency_name":"Metro St. Louis"},"geometry":{"type":"Point","coordinates":[-90.26835,38.69329]}},{"type":"Feature","properties":{"stop_id":"3249","stop_code":"3249","stop_name":"GOODFELLOW @ MCARTHUR SB","stop_desc":"NEAR SIDE GOODFELLOW @ MCARTHUR SB","wheelchair_boarding":1,"routes":[{"route_id":"19629","agency_id":"70006","route_short_name":"90","route_long_name":"Hampton","route_type":3,"route_color":"#FFFFFF","route_text_color":"#000000"}],"agency_name":"Metro St. Louis"},"geometry":{"type":"Point","coordinates":[-90.27059,38.68816]}},{"type":"Feature","properties":{"stop_id":"3250","stop_code":"3250","stop_name":"GOODFELLOW @ NATURAL BRIDGE SB","stop_desc":"FAR SIDE GOODFELLOW @ NATURAL BRIDGE SB","wheelchair_boarding":1,"routes":[{"route_id":"19629","agency_id":"70006","route_short_name":"90","route_long_name":"Hampton","route_type":3,"route_color":"#FFFFFF","route_text_color":"#000000"}],"agency_name":"Metro St. Louis"},"geometry":{"type":"Point","coordinates":[-90.27151,38.68563]}},{"type":"Feature","properties":{"stop_id":"3251","stop_code":"3251","stop_name":"GOODFELLOW @ SELBER COURT SB","stop_desc":"NEAR SIDE GOODFELLOW @ SELBER COURT SB","wheelchair_boarding":2,"routes":[{"route_id":"19629","agency_id":"70006","route_short_name":"90","route_long_name":"Hampton","route_type":3,"route_color":"#FFFFFF","route_text_color":"#000000"}],"agency_name":"Metro St. Louis"},"geometry":{"type":"Point","coordinates":[-90.27213,38.68362]}},{"type":"Feature","properties":{"stop_id":"3252","stop_code":"3252","stop_name":"GOODFELLOW @ GREER SB","stop_desc":"NEAR SIDE GOODFELLOW @ GREER SB","wheelchair_boarding":2,"routes":[{"route_id":"19629","agency_id":"70006","route_short_name":"90","route_long_name":"Hampton","route_type":3,"route_color":"#FFFFFF","route_text_color":"#000000"}],"agency_name":"Metro St. Louis"},"geometry":{"type":"Point","coordinates":[-90.2732,38.68127]}},{"type":"Feature","properties":{"stop_id":"3253","stop_code":"3253","stop_name":"GOODFELLOW @ DR ML KING SB","stop_desc":"FAR SIDE GOODFELLOW @ DR ML KING SB","wheelchair_boarding":2,"routes":[{"route_id":"19629","agency_id":"70006","route_short_name":"90","route_long_name":"Hampton","route_type":3,"route_color":"#FFFFFF","route_text_color":"#000000"}],"agency_name":"Metro St. Louis"},"geometry":{"type":"Point","coordinates":[-90.27968,38.67174]}},{"type":"Feature","properties":{"stop_id":"3254","stop_code":"3254","stop_name":"GOODFELLOW @ RIDGE SB","stop_desc":"FAR SIDE GOODFELLOW @ RIDGE SB","wheelchair_boarding":2,"routes":[{"route_id":"19629","agency_id":"70006","route_short_name":"90","route_long_name":"Hampton","route_type":3,"route_color":"#FFFFFF","route_text_color":"#000000"}],"agency_name":"Metro St. Louis"},"geometry":{"type":"Point","coordinates":[-90.2815,38.66925]}},{"type":"Feature","properties":{"stop_id":"3256","stop_code":"3256","stop_name":"GOODFELLOW @ PAGE SB","stop_desc":"NEAR SIDE GOODFELLOW @ PAGE SB","wheelchair_boarding":1,"routes":[{"route_id":"19629","agency_id":"70006","route_short_name":"90","route_long_name":"Hampton","route_type":3,"route_color":"#FFFFFF","route_text_color":"#000000"}],"agency_name":"Metro St. Louis"},"geometry":{"type":"Point","coordinates":[-90.28309,38.66706]}},{"type":"Feature","properties":{"stop_id":"3257","stop_code":"3257","stop_name":"GOODFELLOW @ JULIAN SB","stop_desc":"FAR SIDE GOODFELLOW @ JULIAN SB","wheelchair_boarding":2,"routes":[{"route_id":"19629","agency_id":"70006","route_short_name":"90","route_long_name":"Hampton","route_type":3,"route_color":"#FFFFFF","route_text_color":"#000000"}],"agency_name":"Metro St. Louis"},"geometry":{"type":"Point","coordinates":[-90.28441,38.66527]}},{"type":"Feature","properties":{"stop_id":"3258","stop_code":"3258","stop_name":"GOODFELLOW @ ETZEL SB","stop_desc":"NEAR SIDE GOODFELLOW @ ETZEL SB","wheelchair_boarding":1,"routes":[{"route_id":"19629","agency_id":"70006","route_short_name":"90","route_long_name":"Hampton","route_type":3,"route_color":"#FFFFFF","route_text_color":"#000000"}],"agency_name":"Metro St. Louis"},"geometry":{"type":"Point","coordinates":[-90.28515,38.66421]}},{"type":"Feature","properties":{"stop_id":"3259","stop_code":"3259","stop_name":"GOODFELLOW @ BARTMER SB","stop_desc":"FAR SIDE GOODFELLOW @ BARTMER SB","wheelchair_boarding":1,"routes":[{"route_id":"19629","agency_id":"70006","route_short_name":"90","route_long_name":"Hampton","route_type":3,"route_color":"#FFFFFF","route_text_color":"#000000"}],"agency_name":"Metro St. Louis"},"geometry":{"type":"Point","coordinates":[-90.28551,38.66269]}},{"type":"Feature","properties":{"stop_id":"3260","stop_code":"3260","stop_name":"GOODFELLOW @ MAPLE SB","stop_desc":"FAR SIDE GOODFELLOW @ MAPLE SB","wheelchair_boarding":1,"routes":[{"route_id":"19629","agency_id":"70006","route_short_name":"90","route_long_name":"Hampton","route_type":3,"route_color":"#FFFFFF","route_text_color":"#000000"}],"agency_name":"Metro St. Louis"},"geometry":{"type":"Point","coordinates":[-90.2858,38.66074]}},{"type":"Feature","properties":{"stop_id":"3262","stop_code":"3262","stop_name":"GOODFELLOW @ CABANNE SB","stop_desc":"NEAR SIDE GOODFELLOW @ CABANNE SB","wheelchair_boarding":1,"routes":[{"route_id":"19629","agency_id":"70006","route_short_name":"90","route_long_name":"Hampton","route_type":3,"route_color":"#FFFFFF","route_text_color":"#000000"}],"agency_name":"Metro St. Louis"},"geometry":{"type":"Point","coordinates":[-90.28606,38.65904]}},{"type":"Feature","properties":{"stop_id":"3265","stop_code":"3265","stop_name":"GOODFELLOW @ ENRIGHT SB","stop_desc":"FAR SIDE GOODFELLOW @ ENRIGHT SB","wheelchair_boarding":1,"routes":[{"route_id":"19629","agency_id":"70006","route_short_name":"90","route_long_name":"Hampton","route_type":3,"route_color":"#FFFFFF","route_text_color":"#000000"}],"agency_name":"Metro St. Louis"},"geometry":{"type":"Point","coordinates":[-90.28671,38.65489]}},{"type":"Feature","properties":{"stop_id":"3422","stop_code":"3422","stop_name":"HAMPTON @ LOUGHBOROUGH SB","stop_desc":"NEAR SIDE HAMPTON @ LOUGHBOROUGH SB","wheelchair_boarding":1,"routes":[{"route_id":"19629","agency_id":"70006","route_short_name":"90","route_long_name":"Hampton","route_type":3,"route_color":"#FFFFFF","route_text_color":"#000000"}],"agency_name":"Metro St. Louis"},"geometry":{"type":"Point","coordinates":[-90.29467,38.57516]}},{"type":"Feature","properties":{"stop_id":"3423","stop_code":"3423","stop_name":"HAMPTON @ ROBERT SB","stop_desc":"NEAR SIDE HAMPTON @ ROBERT SB","wheelchair_boarding":2,"routes":[{"route_id":"19629","agency_id":"70006","route_short_name":"90","route_long_name":"Hampton","route_type":3,"route_color":"#FFFFFF","route_text_color":"#000000"}],"agency_name":"Metro St. Louis"},"geometry":{"type":"Point","coordinates":[-90.29554,38.57246]}},{"type":"Feature","properties":{"stop_id":"3424","stop_code":"3424","stop_name":"HAMPTON @ SUNSHINE SB","stop_desc":"FAR SIDE HAMPTON @ SUNSHINE SB","wheelchair_boarding":2,"routes":[{"route_id":"19629","agency_id":"70006","route_short_name":"90","route_long_name":"Hampton","route_type":3,"route_color":"#FFFFFF","route_text_color":"#000000"}],"agency_name":"Metro St. Louis"},"geometry":{"type":"Point","coordinates":[-90.29612,38.57087]}},{"type":"Feature","properties":{"stop_id":"3425","stop_code":"3425","stop_name":"HAMPTON @ PARKVIEW SB","stop_desc":"FAR SIDE HAMPTON @ PARKVIEW SB","wheelchair_boarding":2,"routes":[{"route_id":"19629","agency_id":"70006","route_short_name":"90","route_long_name":"Hampton","route_type":3,"route_color":"#FFFFFF","route_text_color":"#000000"}],"agency_name":"Metro St. Louis"},"geometry":{"type":"Point","coordinates":[-90.29544,38.56662]}},{"type":"Feature","properties":{"stop_id":"5211","stop_code":"5211","stop_name":"DEBALIVIERE @ KINGSBURY PLACE SB","stop_desc":"FAR SIDE DEBALIVIERE @ KINGSBURY PLACE SB","wheelchair_boarding":1,"routes":[{"route_id":"19629","agency_id":"70006","route_short_name":"90","route_long_name":"Hampton","route_type":3,"route_color":"#FFFFFF","route_text_color":"#000000"}],"agency_name":"Metro St. Louis"},"geometry":{"type":"Point","coordinates":[-90.28493,38.6513]}},{"type":"Feature","properties":{"stop_id":"6302","stop_code":"6302","stop_name":"GOODFELLOW @ HALLS FERRY CIRCLE WB","stop_desc":"FAR SIDE GOODFELLOW @ HALLS FERRY CIRCLE WB","wheelchair_boarding":1,"routes":[{"route_id":"19629","agency_id":"70006","route_short_name":"90","route_long_name":"Hampton","route_type":3,"route_color":"#FFFFFF","route_text_color":"#000000"}],"agency_name":"Metro St. Louis"},"geometry":{"type":"Point","coordinates":[-90.24151,38.72235]}},{"type":"Feature","properties":{"stop_id":"6651","stop_code":"6651","stop_name":"RIVERVIEW @ BROADWAY WB","stop_desc":"FAR SIDE RIVERVIEW @ BROADWAY WB","wheelchair_boarding":1,"routes":[{"route_id":"19611","agency_id":"70006","route_short_name":"40","route_long_name":"Broadway-Halls Ferry","route_type":3,"route_color":"#FFFFFF","route_text_color":"#000000"},{"route_id":"19612","agency_id":"70006","route_short_name":"41","route_long_name":"Lee","route_type":3,"route_color":"#FFFFFF","route_text_color":"#000000"},{"route_id":"19621","agency_id":"70006","route_short_name":"64","route_long_name":"Lucas-Hunt","route_type":3,"route_color":"#FFFFFF","route_text_color":"#000000"},{"route_id":"19629","agency_id":"70006","route_short_name":"90","route_long_name":"Hampton","route_type":3,"route_color":"#FFFFFF","route_text_color":"#000000"}],"agency_name":"Metro St. Louis"},"geometry":{"type":"Point","coordinates":[-90.22827,38.7267]}},{"type":"Feature","properties":{"stop_id":"6652","stop_code":"6652","stop_name":"RIVERVIEW @ CHURCH WB","stop_desc":"FAR SIDE RIVERVIEW @ CHURCH WB","wheelchair_boarding":2,"routes":[{"route_id":"19611","agency_id":"70006","route_short_name":"40","route_long_name":"Broadway-Halls Ferry","route_type":3,"route_color":"#FFFFFF","route_text_color":"#000000"},{"route_id":"19612","agency_id":"70006","route_short_name":"41","route_long_name":"Lee","route_type":3,"route_color":"#FFFFFF","route_text_color":"#000000"},{"route_id":"19621","agency_id":"70006","route_short_name":"64","route_long_name":"Lucas-Hunt","route_type":3,"route_color":"#FFFFFF","route_text_color":"#000000"},{"route_id":"19629","agency_id":"70006","route_short_name":"90","route_long_name":"Hampton","route_type":3,"route_color":"#FFFFFF","route_text_color":"#000000"}],"agency_name":"Metro St. Louis"},"geometry":{"type":"Point","coordinates":[-90.23187,38.72493]}},{"type":"Feature","properties":{"stop_id":"6653","stop_code":"6653","stop_name":"RIVERVIEW @ NEWBY WB","stop_desc":"NEAR SIDE RIVERVIEW @ NEWBY WB","wheelchair_boarding":2,"routes":[{"route_id":"19611","agency_id":"70006","route_short_name":"40","route_long_name":"Broadway-Halls Ferry","route_type":3,"route_color":"#FFFFFF","route_text_color":"#000000"},{"route_id":"19612","agency_id":"70006","route_short_name":"41","route_long_name":"Lee","route_type":3,"route_color":"#FFFFFF","route_text_color":"#000000"},{"route_id":"19621","agency_id":"70006","route_short_name":"64","route_long_name":"Lucas-Hunt","route_type":3,"route_color":"#FFFFFF","route_text_color":"#000000"},{"route_id":"19629","agency_id":"70006","route_short_name":"90","route_long_name":"Hampton","route_type":3,"route_color":"#FFFFFF","route_text_color":"#000000"}],"agency_name":"Metro St. Louis"},"geometry":{"type":"Point","coordinates":[-90.2345,38.72357]}},{"type":"Feature","properties":{"stop_id":"6655","stop_code":"6655","stop_name":"RIVERVIEW @ HALLS FERRY CIRCLE WB","stop_desc":"NEAR SIDE RIVERVIEW @ HALLS FERRY CIRCLE WB","wheelchair_boarding":2,"routes":[{"route_id":"19611","agency_id":"70006","route_short_name":"40","route_long_name":"Broadway-Halls Ferry","route_type":3,"route_color":"#FFFFFF","route_text_color":"#000000"},{"route_id":"19612","agency_id":"70006","route_short_name":"41","route_long_name":"Lee","route_type":3,"route_color":"#FFFFFF","route_text_color":"#000000"},{"route_id":"19621","agency_id":"70006","route_short_name":"64","route_long_name":"Lucas-Hunt","route_type":3,"route_color":"#FFFFFF","route_text_color":"#000000"},{"route_id":"19629","agency_id":"70006","route_short_name":"90","route_long_name":"Hampton","route_type":3,"route_color":"#FFFFFF","route_text_color":"#000000"}],"agency_name":"Metro St. Louis"},"geometry":{"type":"Point","coordinates":[-90.23936,38.72268]}},{"type":"Feature","properties":{"stop_id":"7213","stop_code":"7213","stop_name":"GOODFELLOW @ THEODOSIA SB","stop_desc":"NEAR SIDE GOODFELLOW @ THEODOSIA SB","wheelchair_boarding":2,"routes":[{"route_id":"19603","agency_id":"70006","route_short_name":"19","route_long_name":"St Louis Ave","route_type":3,"route_color":"#FFFFFF","route_text_color":"#000000"},{"route_id":"19629","agency_id":"70006","route_short_name":"90","route_long_name":"Hampton","route_type":3,"route_color":"#FFFFFF","route_text_color":"#000000"}],"agency_name":"Metro St. Louis"},"geometry":{"type":"Point","coordinates":[-90.27877,38.67299]}},{"type":"Feature","properties":{"stop_id":"7400","stop_code":"7400","stop_name":"GOODFELLOW @ ST. LOUIS SB","stop_desc":"FAR SIDE GOODFELLOW @ ST. LOUIS SB","wheelchair_boarding":1,"routes":[{"route_id":"19603","agency_id":"70006","route_short_name":"19","route_long_name":"St Louis Ave","route_type":3,"route_color":"#FFFFFF","route_text_color":"#000000"},{"route_id":"19629","agency_id":"70006","route_short_name":"90","route_long_name":"Hampton","route_type":3,"route_color":"#FFFFFF","route_text_color":"#000000"}],"agency_name":"Metro St. Louis"},"geometry":{"type":"Point","coordinates":[-90.27432,38.67963]}},{"type":"Feature","properties":{"stop_id":"7401","stop_code":"7401","stop_name":"GOODFELLOW @ TERRY SB","stop_desc":"NEAR SIDE GOODFELLOW @ TERRY SB","wheelchair_boarding":2,"routes":[{"route_id":"19603","agency_id":"70006","route_short_name":"19","route_long_name":"St Louis Ave","route_type":3,"route_color":"#FFFFFF","route_text_color":"#000000"},{"route_id":"19629","agency_id":"70006","route_short_name":"90","route_long_name":"Hampton","route_type":3,"route_color":"#FFFFFF","route_text_color":"#000000"}],"agency_name":"Metro St. Louis"},"geometry":{"type":"Point","coordinates":[-90.27502,38.67861]}},{"type":"Feature","properties":{"stop_id":"7402","stop_code":"7402","stop_name":"GOODFELLOW @ KENNERLY SB","stop_desc":"NEAR SIDE GOODFELLOW @ KENNERLY SB","wheelchair_boarding":1,"routes":[{"route_id":"19603","agency_id":"70006","route_short_name":"19","route_long_name":"St Louis Ave","route_type":3,"route_color":"#FFFFFF","route_text_color":"#000000"},{"route_id":"19629","agency_id":"70006","route_short_name":"90","route_long_name":"Hampton","route_type":3,"route_color":"#FFFFFF","route_text_color":"#000000"}],"agency_name":"Metro St. Louis"},"geometry":{"type":"Point","coordinates":[-90.27618,38.67691]}},{"type":"Feature","properties":{"stop_id":"7403","stop_code":"7403","stop_name":"GOODFELLOW @ HIGHLAND SB","stop_desc":"NEAR SIDE GOODFELLOW @ HIGHLAND SB","wheelchair_boarding":1,"routes":[{"route_id":"19603","agency_id":"70006","route_short_name":"19","route_long_name":"St Louis Ave","route_type":3,"route_color":"#FFFFFF","route_text_color":"#000000"},{"route_id":"19629","agency_id":"70006","route_short_name":"90","route_long_name":"Hampton","route_type":3,"route_color":"#FFFFFF","route_text_color":"#000000"}],"agency_name":"Metro St. Louis"},"geometry":{"type":"Point","coordinates":[-90.27671,38.67607]}},{"type":"Feature","properties":{"stop_id":"7404","stop_code":"7404","stop_name":"GOODFELLOW @ WABADA SB","stop_desc":"FAR SIDE GOODFELLOW @ WABADA SB","wheelchair_boarding":2,"routes":[{"route_id":"19603","agency_id":"70006","route_short_name":"19","route_long_name":"St Louis Ave","route_type":3,"route_color":"#FFFFFF","route_text_color":"#000000"},{"route_id":"19629","agency_id":"70006","route_short_name":"90","route_long_name":"Hampton","route_type":3,"route_color":"#FFFFFF","route_text_color":"#000000"}],"agency_name":"Metro St. Louis"},"geometry":{"type":"Point","coordinates":[-90.27742,38.67506]}},{"type":"Feature","properties":{"stop_id":"768","stop_code":"768","stop_name":"GRAVOIS-HAMPTON TRANSIT CENTER","wheelchair_boarding":1,"routes":[{"route_id":"19598","agency_id":"70006","route_short_name":"10","route_long_name":"Gravois-Lindell","route_type":3,"route_color":"#FFFFFF","route_text_color":"#000000"},{"route_id":"19629","agency_id":"70006","route_short_name":"90","route_long_name":"Hampton","route_type":3,"route_color":"#FFFFFF","route_text_color":"#000000"},{"route_id":"19632","agency_id":"70006","route_short_name":"95","route_long_name":"Kingshighway","route_type":3,"route_color":"#FFFFFF","route_text_color":"#000000"}],"agency_name":"Metro St. Louis"},"geometry":{"type":"Point","coordinates":[-90.29389,38.56476]}},{"type":"Feature","properties":{"stop_id":"8974","stop_code":"8974","stop_name":"HAMPTON @ CHIPPEWA SB","stop_desc":"NEAR SIDE HAMPTON @ CHIPPEWA SB","wheelchair_boarding":1,"routes":[{"route_id":"19629","agency_id":"70006","route_short_name":"90","route_long_name":"Hampton","route_type":3,"route_color":"#FFFFFF","route_text_color":"#000000"}],"agency_name":"Metro St. Louis"},"geometry":{"type":"Point","coordinates":[-90.29421,38.59393]}},{"type":"Feature","properties":{"stop_id":"8975","stop_code":"8975","stop_name":"HAMPTON @ SUTHERLAND SB","stop_desc":"NEAR SIDE HAMPTON @ SUTHERLAND SB","wheelchair_boarding":1,"routes":[{"route_id":"19629","agency_id":"70006","route_short_name":"90","route_long_name":"Hampton","route_type":3,"route_color":"#FFFFFF","route_text_color":"#000000"}],"agency_name":"Metro St. Louis"},"geometry":{"type":"Point","coordinates":[-90.29464,38.59093]}},{"type":"Feature","properties":{"stop_id":"8978","stop_code":"8978","stop_name":"HAMPTON @ DEVONSHIRE SB","stop_desc":"FAR SIDE HAMPTON @ DEVONSHIRE SB","wheelchair_boarding":1,"routes":[{"route_id":"19629","agency_id":"70006","route_short_name":"90","route_long_name":"Hampton","route_type":3,"route_color":"#FFFFFF","route_text_color":"#000000"}],"agency_name":"Metro St. Louis"},"geometry":{"type":"Point","coordinates":[-90.29424,38.58872]}},{"type":"Feature","properties":{"stop_id":"8979","stop_code":"8979","stop_name":"HAMPTON @ NOTTINGHAM SB","stop_desc":"FAR SIDE HAMPTON @ NOTTINGHAM SB","wheelchair_boarding":2,"routes":[{"route_id":"19629","agency_id":"70006","route_short_name":"90","route_long_name":"Hampton","route_type":3,"route_color":"#FFFFFF","route_text_color":"#000000"}],"agency_name":"Metro St. Louis"},"geometry":{"type":"Point","coordinates":[-90.2926,38.58666]}},{"type":"Feature","properties":{"stop_id":"8980","stop_code":"8980","stop_name":"HAMPTON @ NEOSHO SB","stop_desc":"FAR SIDE HAMPTON @ NEOSHO SB","wheelchair_boarding":2,"routes":[{"route_id":"19629","agency_id":"70006","route_short_name":"90","route_long_name":"Hampton","route_type":3,"route_color":"#FFFFFF","route_text_color":"#000000"}],"agency_name":"Metro St. Louis"},"geometry":{"type":"Point","coordinates":[-90.29276,38.58578]}},{"type":"Feature","properties":{"stop_id":"8981","stop_code":"8981","stop_name":"HAMPTON @ DELOR SB","stop_desc":"FAR SIDE HAMPTON @ DELOR SB","wheelchair_boarding":2,"routes":[{"route_id":"19629","agency_id":"70006","route_short_name":"90","route_long_name":"Hampton","route_type":3,"route_color":"#FFFFFF","route_text_color":"#000000"}],"agency_name":"Metro St. Louis"},"geometry":{"type":"Point","coordinates":[-90.29306,38.58411]}},{"type":"Feature","properties":{"stop_id":"9529","stop_code":"9529","stop_name":"GRAND @ HISTORY MUSEUM SB","stop_desc":"FAR SIDE GRAND @ HISTORY MUSEUM SB","wheelchair_boarding":1,"routes":[{"route_id":"19629","agency_id":"70006","route_short_name":"90","route_long_name":"Hampton","route_type":3,"route_color":"#FFFFFF","route_text_color":"#000000"}],"agency_name":"Metro St. Louis"},"geometry":{"type":"Point","coordinates":[-90.28601,38.64405]}}]}