{"type":"FeatureCollection","features":[{"type":"Feature","properties":{"agency_name":"Metro St. Louis","route_id":"19614","agency_id":"70006","route_short_name":"49","route_long_name":"Lindbergh","route_type":3,"route_color":"#FFFFFF","route_text_color":"#000000"},"geometry":{"type":"MultiLineString","coordinates":[[[-90.31561,38.71975],[-90.315,38.71977],[-90.31561,38.71975],[-90.31577,38.71967],[-90.31586,38.7195],[-90.31606,38.71875],[-90.3161,38.71825],[-90.31606,38.71782],[-90.31624,38.71782],[-90.31809,38.71757],[-90.31825,38.71727],[-90.31845,38.71701],[-90.31892,38.71648],[-90.31911,38.71621],[-90.31921,38.71601],[-90.31929,38.71579],[-90.31933,38.71558],[-90.31935,38.71535],[-90.31936,38.71432],[-90.31935,38.7138],[-90.31938,38.71298],[-90.31938,38.71134],[-90.31939,38.71115],[-90.3195,38.71071],[-90.32196,38.71276],[-90.32301,38.71355],[-90.32463,38.71462],[-90.32552,38.71524],[-90.32793,38.71678],[-90.32991,38.71807],[-90.33045,38.71852],[-90.33157,38.71939],[-90.33265,38.72027],[-90.3329,38.72044],[-90.33301,38.72054],[-90.33328,38.72073],[-90.3334,38.72093],[-90.33453,38.72183],[-90.33476,38.72205],[-90.33618,38.72366],[-90.33647,38.72397],[-90.33687,38.72434],[-90.33731,38.72465],[-90.33773,38.72489],[-90.33934,38.72575],[-90.34021,38.72629],[-90.34102,38.72682],[-90.34282,38.72804],[-90.3444,38.72907],[-90.3457,38.72995],[-90.3469,38.73071],[-90.34793,38.73139],[-90.34857,38.73152],[-90.34863,38.73146],[-90.34875,38.73141],[-90.34888,38.73144],[-90.34907,38.73152],[-90.35655,38.73547],[-90.357,38.73571],[-90.35719,38.73583],[-90.35843,38.73648],[-90.35882,38.7367],[-90.36122,38.73788],[-90.36213,38.73828],[-90.36267,38.73847],[-90.36304,38.73856],[-90.36333,38.7386],[-90.36362,38.7386],[-90.36384,38.73857],[-90.3646,38.73838],[-90.36475,38.73832],[-90.36507,38.73824],[-90.36586,38.7382],[-90.36627,38.73834],[-90.36639,38.73848],[-90.3663,38.73905],[-90.36628,38.73934],[-90.36621,38.73976],[-90.36743,38.73988],[-90.36905,38.73992],[-90.37023,38.73991],[-90.37131,38.74004],[-90.37195,38.74017],[-90.37259,38.74034],[-90.3737,38.74072],[-90.37486,38.74126],[-90.37586,38.74177],[-90.37731,38.74248],[-90.37795,38.74274],[-90.37833,38.74286],[-90.37916,38.74307],[-90.38011,38.7432],[-90.38113,38.74321],[-90.38159,38.74318],[-90.38272,38.74315],[-90.38343,38.74321],[-90.38573,38.74328],[-90.38595,38.7433],[-90.3862,38.74335],[-90.38639,38.74343],[-90.38651,38.74352],[-90.3866,38.74363],[-90.38667,38.74377],[-90.38669,38.7439],[-90.38666,38.74406],[-90.38662,38.74417],[-90.38649,38.74436],[-90.38638,38.74444],[-90.38624,38.74449],[-90.38606,38.74452],[-90.3855,38.74447],[-90.38499,38.74431],[-90.38547,38.74327],[-90.38567,38.7429],[-90.38662,38.74101],[-90.38779,38.73858],[-90.38813,38.73793],[-90.38906,38.73604],[-90.38966,38.73475],[-90.39042,38.7332],[-90.39058,38.73311],[-90.39075,38.73307],[-90.39092,38.73306],[-90.39393,38.73475],[-90.39527,38.73553],[-90.39932,38.73783],[-90.39985,38.7378],[-90.40028,38.73729],[-90.40105,38.73646],[-90.40174,38.73583],[-90.40185,38.73569],[-90.40216,38.7355],[-90.40241,38.73532],[-90.40263,38.73513],[-90.40288,38.73487],[-90.40319,38.73453],[-90.40358,38.73402],[-90.40377,38.73372],[-90.40394,38.73341],[-90.40418,38.73286],[-90.40481,38.73077],[-90.40499,38.73007],[-90.40585,38.72724],[-90.40656,38.72497],[-90.40683,38.724],[-90.40743,38.72204],[-90.4076,38.72142],[-90.40765,38.72117],[-90.40777,38.72022],[-90.40837,38.71363],[-90.40841,38.71307],[-90.40857,38.71175],[-90.40882,38.70902],[-90.40891,38.70887],[-90.40944,38.70781],[-90.40949,38.70766],[-90.40883,38.70744],[-90.40828,38.70723],[-90.40775,38.70696],[-90.40698,38.70644],[-90.40579,38.70536],[-90.40546,38.7051],[-90.4049,38.70475],[-90.4046,38.70459],[-90.40433,38.70445],[-90.40385,38.70424],[-90.40125,38.70313],[-90.40055,38.7029],[-90.40005,38.7028],[-90.39966,38.70275],[-90.39931,38.70273],[-90.39897,38.70273],[-90.39865,38.70275],[-90.39822,38.70281],[-90.39757,38.70297],[-90.39403,38.70404],[-90.39342,38.70419],[-90.39287,38.70427],[-90.39208,38.70423],[-90.3907,38.70423],[-90.3903,38.70383],[-90.39037,38.70346],[-90.39074,38.70194],[-90.39095,38.70062],[-90.39132,38.69792],[-90.39137,38.69744],[-90.39138,38.69723],[-90.3913,38.69685],[-90.39128,38.69666],[-90.39129,38.69648],[-90.39174,38.69362],[-90.39269,38.68784],[-90.39283,38.68707],[-90.39291,38.68673],[-90.39305,38.6863],[-90.39338,38.68561],[-90.3937,38.685],[-90.39455,38.6852],[-90.39484,38.68523],[-90.39696,38.68527],[-90.39728,38.68529],[-90.3987,38.68548],[-90.40157,38.68553],[-90.40178,38.68552],[-90.40199,38.68548],[-90.40261,38.68525],[-90.4027,38.6852],[-90.40287,38.68507],[-90.40317,38.68475],[-90.40336,38.68461],[-90.40357,38.68451],[-90.40379,38.68445],[-90.40402,38.68442],[-90.40468,38.68441],[-90.40813,38.68443],[-90.4082,38.68034],[-90.40822,38.67645],[-90.40821,38.67547],[-90.41086,38.67565],[-90.41133,38.6756],[-90.41159,38.67553],[-90.41195,38.67535],[-90.41214,38.67522],[-90.41231,38.67508],[-90.41274,38.67462],[-90.41311,38.6742],[-90.41322,38.67404],[-90.41329,38.67386],[-90.41333,38.67366],[-90.41336,38.67328],[-90.41305,38.67322],[-90.41137,38.67322],[-90.41026,38.67319],[-90.40697,38.67315],[-90.4069,38.67286],[-90.40661,38.67257],[-90.40579,38.67188],[-90.40556,38.67167],[-90.40544,38.67153],[-90.40534,38.67138],[-90.40518,38.67108],[-90.40508,38.67077],[-90.405,38.67029],[-90.40531,38.66236],[-90.40536,38.65745],[-90.40541,38.65505],[-90.4054,38.6531],[-90.40549,38.64726],[-90.40552,38.64564],[-90.40557,38.64431],[-90.40557,38.64319],[-90.40561,38.64108],[-90.40568,38.639],[-90.40577,38.6373],[-90.40582,38.6348],[-90.40584,38.63299],[-90.40583,38.63224],[-90.40591,38.6297],[-90.40592,38.62565],[-90.40597,38.62282],[-90.406,38.62195],[-90.40601,38.61934],[-90.4061,38.61388],[-90.40615,38.61199],[-90.40627,38.60529],[-90.40637,38.60227],[-90.40639,38.59915],[-90.40634,38.59901],[-90.40637,38.59603],[-90.40635,38.59535],[-90.4063,38.58983],[-90.40627,38.58887],[-90.4063,38.58434],[-90.40633,38.58263],[-90.40638,38.58131],[-90.40638,38.58078],[-90.40641,38.57986],[-90.40641,38.57885],[-90.40645,38.57782],[-90.40648,38.57606],[-90.40654,38.57433],[-90.40655,38.57314],[-90.4066,38.57078],[-90.40664,38.56941],[-90.40671,38.56872],[-90.40674,38.56795],[-90.40674,38.56754],[-90.40686,38.56362],[-90.40693,38.55946],[-90.407,38.55762],[-90.40699,38.55548],[-90.40706,38.55106],[-90.40704,38.55068],[-90.407,38.55043],[-90.40688,38.55013],[-90.40666,38.54981],[-90.40653,38.54966],[-90.40418,38.5472],[-90.39732,38.54012],[-90.39697,38.53979],[-90.39664,38.53953],[-90.39646,38.53941],[-90.39608,38.53918],[-90.39579,38.53903],[-90.3949,38.53867],[-90.39073,38.53717],[-90.39019,38.53696],[-90.3893,38.53657],[-90.3884,38.53608],[-90.38742,38.53546],[-90.38683,38.53501],[-90.38639,38.53463],[-90.38588,38.53416],[-90.38472,38.533],[-90.38166,38.53],[-90.38136,38.52975],[-90.38098,38.52951],[-90.38055,38.52933],[-90.38012,38.52919],[-90.37548,38.5282],[-90.37362,38.52783],[-90.37017,38.52707],[-90.36391,38.52574],[-90.3615,38.52521],[-90.35618,38.5241],[-90.35449,38.52372],[-90.3549,38.52314],[-90.35528,38.52267],[-90.35569,38.52231],[-90.35614,38.522],[-90.35662,38.52175],[-90.35713,38.52155],[-90.35763,38.52141],[-90.36096,38.52052],[-90.3618,38.52031],[-90.36209,38.52022],[-90.36258,38.52002],[-90.36285,38.51988],[-90.36309,38.51975],[-90.3634,38.51954],[-90.36432,38.51876],[-90.3648,38.51838],[-90.36608,38.51731],[-90.36937,38.51464],[-90.37225,38.51226],[-90.37297,38.51171],[-90.3741,38.51075],[-90.37672,38.50864],[-90.37733,38.50811],[-90.37798,38.50746],[-90.37821,38.50719],[-90.3787,38.50653],[-90.37892,38.50616],[-90.37933,38.50537],[-90.3797,38.5045],[-90.37992,38.50406],[-90.38042,38.5041],[-90.38096,38.50408],[-90.3818,38.50392],[-90.38179,38.50416],[-90.38174,38.50428],[-90.38073,38.50509],[-90.38112,38.50538],[-90.38151,38.50585],[-90.38266,38.5067],[-90.3824,38.50692],[-90.38335,38.50803],[-90.3834,38.50816],[-90.38336,38.50828],[-90.38212,38.50926],[-90.38073,38.51042],[-90.37831,38.5103],[-90.37735,38.50925],[-90.37672,38.50864]],[[-90.3535,38.52352],[-90.3549,38.52314],[-90.3535,38.52352],[-90.34953,38.52273],[-90.34869,38.52253],[-90.34815,38.52231],[-90.34768,38.52208],[-90.34428,38.52036],[-90.34405,38.52022],[-90.34388,38.52011],[-90.34359,38.51985],[-90.34336,38.5196],[-90.34319,38.51936],[-90.34297,38.51892],[-90.3429,38.51865],[-90.34285,38.51835],[-90.34284,38.51806],[-90.34287,38.51624],[-90.34283,38.51566],[-90.3428,38.51553],[-90.34266,38.51515],[-90.34251,38.51489],[-90.34237,38.51468],[-90.34198,38.51427],[-90.34155,38.51398],[-90.34105,38.51374],[-90.33753,38.51217],[-90.33724,38.51198],[-90.33632,38.51151],[-90.33443,38.51065],[-90.33426,38.51062],[-90.33347,38.51023],[-90.33205,38.50956],[-90.32807,38.50721],[-90.32601,38.50596],[-90.32677,38.5053],[-90.32828,38.5041],[-90.32884,38.50464],[-90.32929,38.5051],[-90.32932,38.50522],[-90.33006,38.50502],[-90.3306,38.50449],[-90.33129,38.50473],[-90.33143,38.50485],[-90.33151,38.50489],[-90.33234,38.50519],[-90.33245,38.50542],[-90.33238,38.50558],[-90.33251,38.50566]],[[-90.38929,38.68919],[-90.39242,38.68952],[-90.38929,38.68919],[-90.38909,38.69039]]]}},{"type":"Feature","properties":{"stop_id":"10030","stop_code":"10030","stop_name":"LINDBERGH @ TESSON FERRY EB","stop_desc":"FAR SIDE LINDBERGH @ TESSON FERRY EB","wheelchair_boarding":1,"routes":[{"route_id":"19614","agency_id":"70006","route_short_name":"49","route_long_name":"Lindbergh","route_type":3,"route_color":"#FFFFFF","route_text_color":"#000000"}],"agency_name":"Metro St. Louis"},"geometry":{"type":"Point","coordinates":[-90.35366,38.52346]}},{"type":"Feature","properties":{"stop_id":"10031","stop_code":"10031","stop_name":"LINDBERGH @ BOHRER PARK EB","stop_desc":"FAR SIDE LINDBERGH @ BOHRER PARK EB","wheelchair_boarding":1,"routes":[{"route_id":"19614","agency_id":"70006","route_short_name":"49","route_long_name":"Lindbergh","route_type":3,"route_color":"#FFFFFF","route_text_color":"#000000"}],"agency_name":"Metro St. Louis"},"geometry":{"type":"Point","coordinates":[-90.35165,38.52308]}},{"type":"Feature","properties":{"stop_id":"10032","stop_code":"10032","stop_name":"LINDBERGH @ MUELLER EB","stop_desc":"NEAR SIDE LINDBERGH @ MUELLER EB","wheelchair_boarding":1,"routes":[{"route_id":"19614","agency_id":"70006","route_short_name":"49","route_long_name":"Lindbergh","route_type":3,"route_color":"#FFFFFF","route_text_color":"#000000"}],"agency_name":"Metro St. Louis"},"geometry":{"type":"Point","coordinates":[-90.3479,38.52209]}},{"type":"Feature","properties":{"stop_id":"10033","stop_code":"10033","stop_name":"LINDBERGH @ FLORI EB","stop_desc":"NEAR SIDE LINDBERGH @ FLORI EB","wheelchair_boarding":1,"routes":[{"route_id":"19614","agency_id":"70006","route_short_name":"49","route_long_name":"Lindbergh","route_type":3,"route_color":"#FFFFFF","route_text_color":"#000000"}],"agency_name":"Metro St. Louis"},"geometry":{"type":"Point","coordinates":[-90.34355,38.51967]}},{"type":"Feature","properties":{"stop_id":"10035","stop_code":"10035","stop_name":"LINDBERGH @ CONCORD EB","stop_desc":"NEAR SIDE LINDBERGH @ CONCORD EB","wheelchair_boarding":1,"routes":[{"route_id":"19614","agency_id":"70006","route_short_name":"49","route_long_name":"Lindbergh","route_type":3,"route_color":"#FFFFFF","route_text_color":"#000000"}],"agency_name":"Metro St. Louis"},"geometry":{"type":"Point","coordinates":[-90.34252,38.51471]}},{"type":"Feature","properties":{"stop_id":"10344","stop_code":"10344","stop_name":"LINDBERGH @ CLAYTON SB","stop_desc":"FAR SIDE LINDBERGH @ CLAYTON SB","wheelchair_boarding":1,"routes":[{"route_id":"19614","agency_id":"70006","route_short_name":"49","route_long_name":"Lindbergh","route_type":3,"route_color":"#FFFFFF","route_text_color":"#000000"}],"agency_name":"Metro St. Louis"},"geometry":{"type":"Point","coordinates":[-90.40584,38.63266]}},{"type":"Feature","properties":{"stop_id":"10345","stop_code":"10345","stop_name":"LINDBERGH @ COUNTY LIBRARY SB","stop_desc":"FAR SIDE LINDBERGH @ COUNTY LIBRARY SB","wheelchair_boarding":2,"routes":[{"route_id":"19614","agency_id":"70006","route_short_name":"49","route_long_name":"Lindbergh","route_type":3,"route_color":"#FFFFFF","route_text_color":"#000000"}],"agency_name":"Metro St. Louis"},"geometry":{"type":"Point","coordinates":[-90.40592,38.62889]}},{"type":"Feature","properties":{"stop_id":"10346","stop_code":"10346","stop_name":"LINDBERGH @ LITZSINGER SB","stop_desc":"FAR SIDE LINDBERGH @ LITZSINGER SB","wheelchair_boarding":2,"routes":[{"route_id":"19614","agency_id":"70006","route_short_name":"49","route_long_name":"Lindbergh","route_type":3,"route_color":"#FFFFFF","route_text_color":"#000000"}],"agency_name":"Metro St. Louis"},"geometry":{"type":"Point","coordinates":[-90.40595,38.62634]}},{"type":"Feature","properties":{"stop_id":"10347","stop_code":"10347","stop_name":"LINDBERGH @ HUNTLEIGH WOODS SB","stop_desc":"NEAR SIDE LINDBERGH @ HUNTLEIGH WOODS SB","wheelchair_boarding":2,"routes":[{"route_id":"19614","agency_id":"70006","route_short_name":"49","route_long_name":"Lindbergh","route_type":3,"route_color":"#FFFFFF","route_text_color":"#000000"}],"agency_name":"Metro St. Louis"},"geometry":{"type":"Point","coordinates":[-90.40602,38.62273]}},{"type":"Feature","properties":{"stop_id":"13330","stop_code":"13330","stop_name":"NORTH HANLEY TRANSIT CENTER","wheelchair_boarding":1,"routes":[{"route_id":"19594","agency_id":"70006","route_short_name":"4","route_long_name":"Natural Bridge","route_type":3,"route_color":"#FFFFFF","route_text_color":"#000000"},{"route_id":"19609","agency_id":"70006","route_short_name":"34","route_long_name":"Earth City","route_type":3,"route_color":"#FFFFFF","route_text_color":"#000000"},{"route_id":"19614","agency_id":"70006","route_short_name":"49","route_long_name":"Lindbergh","route_type":3,"route_color":"#FFFFFF","route_text_color":"#000000"},{"route_id":"19620","agency_id":"70006","route_short_name":"61","route_long_name":"Chambers Rd","route_type":3,"route_color":"#FFFFFF","route_text_color":"#000000"},{"route_id":"19625","agency_id":"70006","route_short_name":"76","route_long_name":"N Hanley Shuttle","route_type":3,"route_color":"#FFFFFF","route_text_color":"#000000"},{"route_id":"19626","agency_id":"70006","route_short_name":"77","route_long_name":"Village Square","route_type":3,"route_color":"#FFFFFF","route_text_color":"#000000"},{"route_id":"19628","agency_id":"70006","route_short_name":"79","route_long_name":"Ferguson-Clayton","route_type":3,"route_color":"#FFFFFF","route_text_color":"#000000"}],"agency_name":"Metro St. Louis"},"geometry":{"type":"Point","coordinates":[-90.31495,38.71976]}},{"type":"Feature","properties":{"stop_id":"13964","stop_code":"13964","stop_name":"ST. CHARLES ROCK ROAD @ ADIE WB","stop_desc":"NEAR SIDE ST. CHARLES ROCK ROAD @ ADIE WB","wheelchair_boarding":1,"routes":[{"route_id":"19610","agency_id":"70006","route_short_name":"35","route_long_name":"Rock Road","route_type":3,"route_color":"#FFFFFF","route_text_color":"#000000"},{"route_id":"19614","agency_id":"70006","route_short_name":"49","route_long_name":"Lindbergh","route_type":3,"route_color":"#FFFFFF","route_text_color":"#000000"}],"agency_name":"Metro St. Louis"},"geometry":{"type":"Point","coordinates":[-90.39317,38.73443]}},{"type":"Feature","properties":{"stop_id":"13966","stop_code":"13966","stop_name":"LIGHT HOUSE FOR THE BLIND EB","stop_desc":"MID-BLOCK LIGHT HOUSE FOR THE BLIND EB","wheelchair_boarding":2,"routes":[{"route_id":"19614","agency_id":"70006","route_short_name":"49","route_long_name":"Lindbergh","route_type":3,"route_color":"#FFFFFF","route_text_color":"#000000"},{"route_id":"19631","agency_id":"70006","route_short_name":"94","route_long_name":"Page","route_type":3,"route_color":"#FFFFFF","route_text_color":"#000000"}],"agency_name":"Metro St. Louis"},"geometry":{"type":"Point","coordinates":[-90.39165,38.68939]}},{"type":"Feature","properties":{"stop_id":"14458","stop_code":"14458","stop_name":"CYPRESS @ ST. CLEMENT SB","stop_desc":"NEAR SIDE CYPRESS @ ST. CLEMENT SB","wheelchair_boarding":2,"routes":[{"route_id":"19614","agency_id":"70006","route_short_name":"49","route_long_name":"Lindbergh","route_type":3,"route_color":"#FFFFFF","route_text_color":"#000000"}],"agency_name":"Metro St. Louis"},"geometry":{"type":"Point","coordinates":[-90.38728,38.7398]}},{"type":"Feature","properties":{"stop_id":"14745","stop_code":"14745","stop_name":"LINDBERGH @ BONANZA SB","stop_desc":"NEAR SIDE LINDBERGH @ BONANZA SB","wheelchair_boarding":2,"routes":[{"route_id":"19614","agency_id":"70006","route_short_name":"49","route_long_name":"Lindbergh","route_type":3,"route_color":"#FFFFFF","route_text_color":"#000000"}],"agency_name":"Metro St. Louis"},"geometry":{"type":"Point","coordinates":[-90.40848,38.71262]}},{"type":"Feature","properties":{"stop_id":"14746","stop_code":"14746","stop_name":"LINDBERGH @ SAPPINGTON SB","stop_desc":"FAR SIDE LINDBERGH @ SAPPINGTON SB","wheelchair_boarding":1,"routes":[{"route_id":"19614","agency_id":"70006","route_short_name":"49","route_long_name":"Lindbergh","route_type":3,"route_color":"#FFFFFF","route_text_color":"#000000"}],"agency_name":"Metro St. Louis"},"geometry":{"type":"Point","coordinates":[-90.37962,38.529]}},{"type":"Feature","properties":{"stop_id":"14747","stop_code":"14747","stop_name":"LINDBERGH @ SOUTH COUNTY CENTER WAY EB","stop_desc":"FAR SIDE LINDBERGH @ SOUTH COUNTY CENTER WAY EB","wheelchair_boarding":1,"routes":[{"route_id":"19614","agency_id":"70006","route_short_name":"49","route_long_name":"Lindbergh","route_type":3,"route_color":"#FFFFFF","route_text_color":"#000000"}],"agency_name":"Metro St. Louis"},"geometry":{"type":"Point","coordinates":[-90.32928,38.50781]}},{"type":"Feature","properties":{"stop_id":"15155","stop_code":"15155","stop_name":"OLIVE @ OLD OLIVE STREET EB","stop_desc":"FAR SIDE OLIVE @ OLD OLIVE STREET EB","wheelchair_boarding":2,"routes":[{"route_id":"19614","agency_id":"70006","route_short_name":"49","route_long_name":"Lindbergh","route_type":3,"route_color":"#FFFFFF","route_text_color":"#000000"},{"route_id":"19630","agency_id":"70006","route_short_name":"91","route_long_name":"Olive","route_type":3,"route_color":"#FFFFFF","route_text_color":"#000000"}],"agency_name":"Metro St. Louis"},"geometry":{"type":"Point","coordinates":[-90.41172,38.67316]}},{"type":"Feature","properties":{"stop_id":"15156","stop_code":"15156","stop_name":"LINDBERGH @ GRAVOIS SB","stop_desc":"MID-BLOCK LINDBERGH @ GRAVOIS SB","wheelchair_boarding":1,"routes":[{"route_id":"19614","agency_id":"70006","route_short_name":"49","route_long_name":"Lindbergh","route_type":3,"route_color":"#FFFFFF","route_text_color":"#000000"}],"agency_name":"Metro St. Louis"},"geometry":{"type":"Point","coordinates":[-90.38332,38.53148]}},{"type":"Feature","properties":{"stop_id":"16074","stop_code":"16074","stop_name":"NATURAL BRIDGE @ BRENTON WB","stop_desc":"MID-BLOCK NATURAL BRIDGE @ BRENTON WB","wheelchair_boarding":2,"routes":[{"route_id":"19614","agency_id":"70006","route_short_name":"49","route_long_name":"Lindbergh","route_type":3,"route_color":"#FFFFFF","route_text_color":"#000000"}],"agency_name":"Metro St. Louis"},"geometry":{"type":"Point","coordinates":[-90.35056,38.73237]}},{"type":"Feature","properties":{"stop_id":"16185","stop_code":"16185","stop_name":"LINDBERGH @ INVERNESS SB","stop_desc":"FAR SIDE LINDBERGH @ INVERNESS SB","wheelchair_boarding":2,"routes":[{"route_id":"19614","agency_id":"70006","route_short_name":"49","route_long_name":"Lindbergh","route_type":3,"route_color":"#FFFFFF","route_text_color":"#000000"}],"agency_name":"Metro St. Louis"},"geometry":{"type":"Point","coordinates":[-90.40823,38.71535]}},{"type":"Feature","properties":{"stop_id":"16306","stop_code":"16306","stop_name":"MIDLAND @ BRUNO EB","stop_desc":"FAR SIDE MIDLAND @ BRUNO EB","wheelchair_boarding":1,"routes":[{"route_id":"19608","agency_id":"70006","route_short_name":"33","route_long_name":"Midland","route_type":3,"route_color":"#FFFFFF","route_text_color":"#000000"},{"route_id":"19614","agency_id":"70006","route_short_name":"49","route_long_name":"Lindbergh","route_type":3,"route_color":"#FFFFFF","route_text_color":"#000000"}],"agency_name":"Metro St. Louis"},"geometry":{"type":"Point","coordinates":[-90.40083,38.70292]}},{"type":"Feature","properties":{"stop_id":"16476","stop_code":"16476","stop_name":"ASHBY @ PAGE SB","stop_desc":"NEAR SIDE ASHBY @ PAGE SB","wheelchair_boarding":2,"routes":[{"route_id":"19614","agency_id":"70006","route_short_name":"49","route_long_name":"Lindbergh","route_type":3,"route_color":"#FFFFFF","route_text_color":"#000000"}],"agency_name":"Metro St. Louis"},"geometry":{"type":"Point","coordinates":[-90.39212,38.692]}},{"type":"Feature","properties":{"stop_id":"16483","stop_code":"16483","stop_name":"ASHBY @ BRISTON SB","stop_desc":"MID-BLOCK ASHBY @ BRISTON SB","wheelchair_boarding":2,"routes":[{"route_id":"19614","agency_id":"70006","route_short_name":"49","route_long_name":"Lindbergh","route_type":3,"route_color":"#FFFFFF","route_text_color":"#000000"}],"agency_name":"Metro St. Louis"},"geometry":{"type":"Point","coordinates":[-90.39085,38.70194]}},{"type":"Feature","properties":{"stop_id":"16486","stop_code":"16486","stop_name":"ASHBY @ LACKLAND SB","stop_desc":"NEAR SIDE ASHBY @ LACKLAND SB","wheelchair_boarding":2,"routes":[{"route_id":"19614","agency_id":"70006","route_short_name":"49","route_long_name":"Lindbergh","route_type":3,"route_color":"#FFFFFF","route_text_color":"#000000"}],"agency_name":"Metro St. Louis"},"geometry":{"type":"Point","coordinates":[-90.39148,38.69719]}},{"type":"Feature","properties":{"stop_id":"16519","stop_code":"16519","stop_name":"SUNSET @ CANCER CTR NB","stop_desc":"FAR SIDE SUNSET @ CANCER CTR NB","wheelchair_boarding":2,"routes":[{"route_id":"19614","agency_id":"70006","route_short_name":"49","route_long_name":"Lindbergh","route_type":3,"route_color":"#FFFFFF","route_text_color":"#000000"}],"agency_name":"Metro St. Louis"},"geometry":{"type":"Point","coordinates":[-90.38141,38.50974]}},{"type":"Feature","properties":{"stop_id":"16520","stop_code":"16520","stop_name":"NATURAL BRIDGE @ EDMUNDSON WB","stop_desc":"NEAR SIDE NATURAL BRIDGE @ EDMUNDSON WB","wheelchair_boarding":2,"routes":[{"route_id":"19614","agency_id":"70006","route_short_name":"49","route_long_name":"Lindbergh","route_type":3,"route_color":"#FFFFFF","route_text_color":"#000000"}],"agency_name":"Metro St. Louis"},"geometry":{"type":"Point","coordinates":[-90.36397,38.73862]}},{"type":"Feature","properties":{"stop_id":"236","stop_code":"236","stop_name":"MERCY HOSPITAL SOUTH NB","stop_desc":"FAR SIDE MERCY HOSPITAL SOUTH NB","wheelchair_boarding":2,"routes":[{"route_id":"19614","agency_id":"70006","route_short_name":"49","route_long_name":"Lindbergh","route_type":3,"route_color":"#FFFFFF","route_text_color":"#000000"}],"agency_name":"Metro St. Louis"},"geometry":{"type":"Point","coordinates":[-90.3824,38.50743]}},{"type":"Feature","properties":{"stop_id":"2479","stop_code":"2479","stop_name":"BAUR @ WARSON WB","stop_desc":"NEAR SIDE BAUR @ WARSON WB","wheelchair_boarding":2,"routes":[{"route_id":"19614","agency_id":"70006","route_short_name":"49","route_long_name":"Lindbergh","route_type":3,"route_color":"#FFFFFF","route_text_color":"#000000"}],"agency_name":"Metro St. Louis"},"geometry":{"type":"Point","coordinates":[-90.39531,38.68528]}},{"type":"Feature","properties":{"stop_id":"2480","stop_code":"2480","stop_name":"BAUR @ RESEARCH WB","stop_desc":"FAR SIDE BAUR @ RESEARCH WB","wheelchair_boarding":2,"routes":[{"route_id":"19614","agency_id":"70006","route_short_name":"49","route_long_name":"Lindbergh","route_type":3,"route_color":"#FFFFFF","route_text_color":"#000000"}],"agency_name":"Metro St. Louis"},"geometry":{"type":"Point","coordinates":[-90.40007,38.68553]}},{"type":"Feature","properties":{"stop_id":"2484","stop_code":"2484","stop_name":"BAUR @ LINDBERGH PLAZA CENTER WB","stop_desc":"NEAR SIDE BAUR @ LINDBERGH PLAZA CENTER WB","wheelchair_boarding":2,"routes":[{"route_id":"19614","agency_id":"70006","route_short_name":"49","route_long_name":"Lindbergh","route_type":3,"route_color":"#FFFFFF","route_text_color":"#000000"}],"agency_name":"Metro St. Louis"},"geometry":{"type":"Point","coordinates":[-90.40328,38.68474]}},{"type":"Feature","properties":{"stop_id":"2564","stop_code":"2564","stop_name":"ASHBY @ TRENTON SB","stop_desc":"NEAR SIDE ASHBY @ TRENTON SB","wheelchair_boarding":1,"routes":[{"route_id":"19614","agency_id":"70006","route_short_name":"49","route_long_name":"Lindbergh","route_type":3,"route_color":"#FFFFFF","route_text_color":"#000000"}],"agency_name":"Metro St. Louis"},"geometry":{"type":"Point","coordinates":[-90.39245,38.68997]}},{"type":"Feature","properties":{"stop_id":"2685","stop_code":"2685","stop_name":"LINDBERGH @ LADUE SB","stop_desc":"FAR SIDE LINDBERGH @ LADUE SB","wheelchair_boarding":1,"routes":[{"route_id":"19614","agency_id":"70006","route_short_name":"49","route_long_name":"Lindbergh","route_type":3,"route_color":"#FFFFFF","route_text_color":"#000000"}],"agency_name":"Metro St. Louis"},"geometry":{"type":"Point","coordinates":[-90.40546,38.65401]}},{"type":"Feature","properties":{"stop_id":"2686","stop_code":"2686","stop_name":"LINDBERGH @ CHAMINADE SB","stop_desc":"NEAR SIDE LINDBERGH @ CHAMINADE SB","wheelchair_boarding":2,"routes":[{"route_id":"19614","agency_id":"70006","route_short_name":"49","route_long_name":"Lindbergh","route_type":3,"route_color":"#FFFFFF","route_text_color":"#000000"}],"agency_name":"Metro St. Louis"},"geometry":{"type":"Point","coordinates":[-90.4055,38.6489]}},{"type":"Feature","properties":{"stop_id":"3019","stop_code":"3019","stop_name":"GUELBRETH @ SCHUETZ SB","stop_desc":"FAR SIDE GUELBRETH @ SCHUETZ SB","wheelchair_boarding":1,"routes":[{"route_id":"19614","agency_id":"70006","route_short_name":"49","route_long_name":"Lindbergh","route_type":3,"route_color":"#FFFFFF","route_text_color":"#000000"}],"agency_name":"Metro St. Louis"},"geometry":{"type":"Point","coordinates":[-90.40819,38.68406]}},{"type":"Feature","properties":{"stop_id":"3020","stop_code":"3020","stop_name":"GUELBRETH @ CHIMNEY ROCK SB","stop_desc":"FAR SIDE GUELBRETH @ CHIMNEY ROCK SB","wheelchair_boarding":1,"routes":[{"route_id":"19614","agency_id":"70006","route_short_name":"49","route_long_name":"Lindbergh","route_type":3,"route_color":"#FFFFFF","route_text_color":"#000000"}],"agency_name":"Metro St. Louis"},"geometry":{"type":"Point","coordinates":[-90.40822,38.68303]}},{"type":"Feature","properties":{"stop_id":"3023","stop_code":"3023","stop_name":"GUELBRETH @ FOREST BROOK SB","stop_desc":"FAR SIDE GUELBRETH @ FOREST BROOK SB","wheelchair_boarding":2,"routes":[{"route_id":"19614","agency_id":"70006","route_short_name":"49","route_long_name":"Lindbergh","route_type":3,"route_color":"#FFFFFF","route_text_color":"#000000"}],"agency_name":"Metro St. Louis"},"geometry":{"type":"Point","coordinates":[-90.40823,38.68016]}},{"type":"Feature","properties":{"stop_id":"3024","stop_code":"3024","stop_name":"GUELBRETH @ CORBEIL SB","stop_desc":"FAR SIDE GUELBRETH @ CORBEIL SB","wheelchair_boarding":2,"routes":[{"route_id":"19614","agency_id":"70006","route_short_name":"49","route_long_name":"Lindbergh","route_type":3,"route_color":"#FFFFFF","route_text_color":"#000000"}],"agency_name":"Metro St. Louis"},"geometry":{"type":"Point","coordinates":[-90.40823,38.67798]}},{"type":"Feature","properties":{"stop_id":"3025","stop_code":"3025","stop_name":"GUELBRETH @ BRIAREND SB","stop_desc":"NEAR SIDE GUELBRETH @ BRIAREND SB","wheelchair_boarding":2,"routes":[{"route_id":"19614","agency_id":"70006","route_short_name":"49","route_long_name":"Lindbergh","route_type":3,"route_color":"#FFFFFF","route_text_color":"#000000"}],"agency_name":"Metro St. Louis"},"geometry":{"type":"Point","coordinates":[-90.40826,38.6763]}},{"type":"Feature","properties":{"stop_id":"3912","stop_code":"3912","stop_name":"4103 LEMAY FERRY WB","stop_desc":"MID-BLOCK 4103 LEMAY FERRY WB","wheelchair_boarding":1,"routes":[{"route_id":"19614","agency_id":"70006","route_short_name":"49","route_long_name":"Lindbergh","route_type":3,"route_color":"#FFFFFF","route_text_color":"#000000"},{"route_id":"19623","agency_id":"70006","route_short_name":"73","route_long_name":"Carondelet","route_type":3,"route_color":"#FFFFFF","route_text_color":"#000000"}],"agency_name":"Metro St. Louis"},"geometry":{"type":"Point","coordinates":[-90.32709,38.5052]}},{"type":"Feature","properties":{"stop_id":"3913","stop_code":"3913","stop_name":"SOUTH COUNTY CENTER","stop_desc":"MID-BLOCK SOUTH COUNTY CENTER","wheelchair_boarding":1,"routes":[{"route_id":"19614","agency_id":"70006","route_short_name":"49","route_long_name":"Lindbergh","route_type":3,"route_color":"#FFFFFF","route_text_color":"#000000"},{"route_id":"19623","agency_id":"70006","route_short_name":"73","route_long_name":"Carondelet","route_type":3,"route_color":"#FFFFFF","route_text_color":"#000000"}],"agency_name":"Metro St. Louis"},"geometry":{"type":"Point","coordinates":[-90.33308,38.50581]}},{"type":"Feature","properties":{"stop_id":"4679","stop_code":"4679","stop_name":"MIDLAND @ PROUHET EB","stop_desc":"FAR SIDE MIDLAND @ PROUHET EB","wheelchair_boarding":2,"routes":[{"route_id":"19608","agency_id":"70006","route_short_name":"33","route_long_name":"Midland","route_type":3,"route_color":"#FFFFFF","route_text_color":"#000000"},{"route_id":"19614","agency_id":"70006","route_short_name":"49","route_long_name":"Lindbergh","route_type":3,"route_color":"#FFFFFF","route_text_color":"#000000"}],"agency_name":"Metro St. Louis"},"geometry":{"type":"Point","coordinates":[-90.3947,38.70377]}},{"type":"Feature","properties":{"stop_id":"4902","stop_code":"4902","stop_name":"LINDBERGH @ HILTON FRONTENAC SB","stop_desc":"MID-BLOCK LINDBERGH @ HILTON FRONTENAC SB","wheelchair_boarding":2,"routes":[{"route_id":"19614","agency_id":"70006","route_short_name":"49","route_long_name":"Lindbergh","route_type":3,"route_color":"#FFFFFF","route_text_color":"#000000"}],"agency_name":"Metro St. Louis"},"geometry":{"type":"Point","coordinates":[-90.40586,38.63395]}},{"type":"Feature","properties":{"stop_id":"5561","stop_code":"5561","stop_name":"LINDBERGH @ OLD ST. CHARLES SB","stop_desc":"FAR SIDE LINDBERGH @ OLD ST. CHARLES SB","wheelchair_boarding":1,"routes":[{"route_id":"19614","agency_id":"70006","route_short_name":"49","route_long_name":"Lindbergh","route_type":3,"route_color":"#FFFFFF","route_text_color":"#000000"}],"agency_name":"Metro St. Louis"},"geometry":{"type":"Point","coordinates":[-90.40479,38.73096]}},{"type":"Feature","properties":{"stop_id":"5562","stop_code":"5562","stop_name":"LINDBERGH @ WHITEHALL MANOR SB","stop_desc":"FAR SIDE LINDBERGH @ WHITEHALL MANOR SB","wheelchair_boarding":2,"routes":[{"route_id":"19614","agency_id":"70006","route_short_name":"49","route_long_name":"Lindbergh","route_type":3,"route_color":"#FFFFFF","route_text_color":"#000000"}],"agency_name":"Metro St. Louis"},"geometry":{"type":"Point","coordinates":[-90.4071,38.72325]}},{"type":"Feature","properties":{"stop_id":"5571","stop_code":"5571","stop_name":"LINDBERGH @ TEALBROOK SB","stop_desc":"FAR SIDE LINDBERGH @ TEALBROOK SB","wheelchair_boarding":1,"routes":[{"route_id":"19614","agency_id":"70006","route_short_name":"49","route_long_name":"Lindbergh","route_type":3,"route_color":"#FFFFFF","route_text_color":"#000000"}],"agency_name":"Metro St. Louis"},"geometry":{"type":"Point","coordinates":[-90.40534,38.66215]}},{"type":"Feature","properties":{"stop_id":"5572","stop_code":"5572","stop_name":"245 NORTH LINDBERGH SB","stop_desc":"MID-BLOCK 245 NORTH LINDBERGH SB","wheelchair_boarding":1,"routes":[{"route_id":"19614","agency_id":"70006","route_short_name":"49","route_long_name":"Lindbergh","route_type":3,"route_color":"#FFFFFF","route_text_color":"#000000"}],"agency_name":"Metro St. Louis"},"geometry":{"type":"Point","coordinates":[-90.4054,38.65794]}},{"type":"Feature","properties":{"stop_id":"5575","stop_code":"5575","stop_name":"LINDBERGH @ GERMAN SB","stop_desc":"FAR SIDE LINDBERGH @ GERMAN SB","wheelchair_boarding":1,"routes":[{"route_id":"19614","agency_id":"70006","route_short_name":"49","route_long_name":"Lindbergh","route_type":3,"route_color":"#FFFFFF","route_text_color":"#000000"}],"agency_name":"Metro St. Louis"},"geometry":{"type":"Point","coordinates":[-90.40563,38.64245]}},{"type":"Feature","properties":{"stop_id":"5576","stop_code":"5576","stop_name":"LINDBERGH @ MANCHESTER SB","stop_desc":"NEAR SIDE LINDBERGH @ MANCHESTER SB","wheelchair_boarding":2,"routes":[{"route_id":"19614","agency_id":"70006","route_short_name":"49","route_long_name":"Lindbergh","route_type":3,"route_color":"#FFFFFF","route_text_color":"#000000"}],"agency_name":"Metro St. Louis"},"geometry":{"type":"Point","coordinates":[-90.4064,38.60126]}},{"type":"Feature","properties":{"stop_id":"5577","stop_code":"5577","stop_name":"KIRKWOOD @ GARDEN SB","stop_desc":"FAR SIDE KIRKWOOD @ GARDEN SB","wheelchair_boarding":1,"routes":[{"route_id":"19614","agency_id":"70006","route_short_name":"49","route_long_name":"Lindbergh","route_type":3,"route_color":"#FFFFFF","route_text_color":"#000000"}],"agency_name":"Metro St. Louis"},"geometry":{"type":"Point","coordinates":[-90.40643,38.59585]}},{"type":"Feature","properties":{"stop_id":"5583","stop_code":"5583","stop_name":"KIRKWOOD @ ESSEX SB","stop_desc":"FAR SIDE KIRKWOOD @ ESSEX SB","wheelchair_boarding":2,"routes":[{"route_id":"19614","agency_id":"70006","route_short_name":"49","route_long_name":"Lindbergh","route_type":3,"route_color":"#FFFFFF","route_text_color":"#000000"}],"agency_name":"Metro St. Louis"},"geometry":{"type":"Point","coordinates":[-90.40634,38.58865]}},{"type":"Feature","properties":{"stop_id":"5584","stop_code":"5584","stop_name":"KIRKWOOD @ WALGREENS SB","stop_desc":"MID-BLOCK KIRKWOOD @ WALGREENS SB","wheelchair_boarding":2,"routes":[{"route_id":"19614","agency_id":"70006","route_short_name":"49","route_long_name":"Lindbergh","route_type":3,"route_color":"#FFFFFF","route_text_color":"#000000"}],"agency_name":"Metro St. Louis"},"geometry":{"type":"Point","coordinates":[-90.40634,38.58607]}},{"type":"Feature","properties":{"stop_id":"5586","stop_code":"5586","stop_name":"KIRKWOOD @ ADAMS SB","stop_desc":"FAR SIDE KIRKWOOD @ ADAMS SB","wheelchair_boarding":1,"routes":[{"route_id":"19614","agency_id":"70006","route_short_name":"49","route_long_name":"Lindbergh","route_type":3,"route_color":"#FFFFFF","route_text_color":"#000000"}],"agency_name":"Metro St. Louis"},"geometry":{"type":"Point","coordinates":[-90.4064,38.58302]}},{"type":"Feature","properties":{"stop_id":"5590","stop_code":"5590","stop_name":"KIRKWOOD @ MONROE SB","stop_desc":"FAR SIDE KIRKWOOD @ MONROE SB","wheelchair_boarding":1,"routes":[{"route_id":"19614","agency_id":"70006","route_short_name":"49","route_long_name":"Lindbergh","route_type":3,"route_color":"#FFFFFF","route_text_color":"#000000"}],"agency_name":"Metro St. Louis"},"geometry":{"type":"Point","coordinates":[-90.4065,38.57833]}},{"type":"Feature","properties":{"stop_id":"5591","stop_code":"5591","stop_name":"KIRKWOOD @ CLINTON PLACE SB","stop_desc":"FAR SIDE KIRKWOOD @ CLINTON PLACE SB","wheelchair_boarding":2,"routes":[{"route_id":"19614","agency_id":"70006","route_short_name":"49","route_long_name":"Lindbergh","route_type":3,"route_color":"#FFFFFF","route_text_color":"#000000"}],"agency_name":"Metro St. Louis"},"geometry":{"type":"Point","coordinates":[-90.40655,38.5763]}},{"type":"Feature","properties":{"stop_id":"5592","stop_code":"5592","stop_name":"KIRKWOOD @ WOODBINE SB","stop_desc":"NEAR SIDE KIRKWOOD @ WOODBINE SB","wheelchair_boarding":2,"routes":[{"route_id":"19614","agency_id":"70006","route_short_name":"49","route_long_name":"Lindbergh","route_type":3,"route_color":"#FFFFFF","route_text_color":"#000000"}],"agency_name":"Metro St. Louis"},"geometry":{"type":"Point","coordinates":[-90.4066,38.57438]}},{"type":"Feature","properties":{"stop_id":"5594","stop_code":"5594","stop_name":"KIRKWOOD @ ROSE HILL SB","stop_desc":"NEAR SIDE KIRKWOOD @ ROSE HILL SB","wheelchair_boarding":2,"routes":[{"route_id":"19614","agency_id":"70006","route_short_name":"49","route_long_name":"Lindbergh","route_type":3,"route_color":"#FFFFFF","route_text_color":"#000000"}],"agency_name":"Metro St. Louis"},"geometry":{"type":"Point","coordinates":[-90.40667,38.57075]}},{"type":"Feature","properties":{"stop_id":"5595","stop_code":"5595","stop_name":"KIRKWOOD @ PROSPECT SB","stop_desc":"NEAR SIDE KIRKWOOD @ PROSPECT SB","wheelchair_boarding":1,"routes":[{"route_id":"19614","agency_id":"70006","route_short_name":"49","route_long_name":"Lindbergh","route_type":3,"route_color":"#FFFFFF","route_text_color":"#000000"}],"agency_name":"Metro St. Louis"},"geometry":{"type":"Point","coordinates":[-90.40685,38.56795]}},{"type":"Feature","properties":{"stop_id":"5596","stop_code":"5596","stop_name":"KIRKWOOD @ BIG BEND SB","stop_desc":"FAR SIDE KIRKWOOD @ BIG BEND SB","wheelchair_boarding":1,"routes":[{"route_id":"19604","agency_id":"70006","route_short_name":"21","route_long_name":"Watson Rd","route_type":3,"route_color":"#FFFFFF","route_text_color":"#000000"},{"route_id":"19614","agency_id":"70006","route_short_name":"49","route_long_name":"Lindbergh","route_type":3,"route_color":"#FFFFFF","route_text_color":"#000000"}],"agency_name":"Metro St. Louis"},"geometry":{"type":"Point","coordinates":[-90.40691,38.5653]}},{"type":"Feature","properties":{"stop_id":"5597","stop_code":"5597","stop_name":"LINDBERGH @ KIRKWOOD CROSSING SB","stop_desc":"FAR SIDE LINDBERGH @ KIRKWOOD CROSSING SB","wheelchair_boarding":1,"routes":[{"route_id":"19604","agency_id":"70006","route_short_name":"21","route_long_name":"Watson Rd","route_type":3,"route_color":"#FFFFFF","route_text_color":"#000000"},{"route_id":"19614","agency_id":"70006","route_short_name":"49","route_long_name":"Lindbergh","route_type":3,"route_color":"#FFFFFF","route_text_color":"#000000"}],"agency_name":"Metro St. Louis"},"geometry":{"type":"Point","coordinates":[-90.40699,38.56307]}},{"type":"Feature","properties":{"stop_id":"5599","stop_code":"5599","stop_name":"LINDBERGH @ SUNSET OFFICE SB","stop_desc":"FAR SIDE LINDBERGH @ SUNSET OFFICE SB","wheelchair_boarding":1,"routes":[{"route_id":"19604","agency_id":"70006","route_short_name":"21","route_long_name":"Watson Rd","route_type":3,"route_color":"#FFFFFF","route_text_color":"#000000"},{"route_id":"19614","agency_id":"70006","route_short_name":"49","route_long_name":"Lindbergh","route_type":3,"route_color":"#FFFFFF","route_text_color":"#000000"}],"agency_name":"Metro St. Louis"},"geometry":{"type":"Point","coordinates":[-90.40711,38.55723]}},{"type":"Feature","properties":{"stop_id":"5600","stop_code":"5600","stop_name":"LINDBERGH @ ROTT SB","stop_desc":"FAR SIDE LINDBERGH @ ROTT SB","wheelchair_boarding":1,"routes":[{"route_id":"19614","agency_id":"70006","route_short_name":"49","route_long_name":"Lindbergh","route_type":3,"route_color":"#FFFFFF","route_text_color":"#000000"}],"agency_name":"Metro St. Louis"},"geometry":{"type":"Point","coordinates":[-90.40717,38.55067]}},{"type":"Feature","properties":{"stop_id":"5601","stop_code":"5601","stop_name":"LINDBERGH @ WATSON SB","stop_desc":"FAR SIDE LINDBERGH @ WATSON SB","wheelchair_boarding":1,"routes":[{"route_id":"19614","agency_id":"70006","route_short_name":"49","route_long_name":"Lindbergh","route_type":3,"route_color":"#FFFFFF","route_text_color":"#000000"}],"agency_name":"Metro St. Louis"},"geometry":{"type":"Point","coordinates":[-90.40355,38.54643]}},{"type":"Feature","properties":{"stop_id":"5602","stop_code":"5602","stop_name":"LINDBERGH @ RONNIE SB","stop_desc":"FAR SIDE LINDBERGH @ RONNIE SB","wheelchair_boarding":1,"routes":[{"route_id":"19614","agency_id":"70006","route_short_name":"49","route_long_name":"Lindbergh","route_type":3,"route_color":"#FFFFFF","route_text_color":"#000000"}],"agency_name":"Metro St. Louis"},"geometry":{"type":"Point","coordinates":[-90.4003,38.54305]}},{"type":"Feature","properties":{"stop_id":"5605","stop_code":"5605","stop_name":"LINDBERGH @ GEYER SB","stop_desc":"FAR SIDE LINDBERGH @ GEYER SB","wheelchair_boarding":1,"routes":[{"route_id":"19614","agency_id":"70006","route_short_name":"49","route_long_name":"Lindbergh","route_type":3,"route_color":"#FFFFFF","route_text_color":"#000000"}],"agency_name":"Metro St. Louis"},"geometry":{"type":"Point","coordinates":[-90.38874,38.53617]}},{"type":"Feature","properties":{"stop_id":"5606","stop_code":"5606","stop_name":"LINDBERGH @ ROXANNA SB","stop_desc":"NEAR SIDE LINDBERGH @ ROXANNA SB","wheelchair_boarding":1,"routes":[{"route_id":"19614","agency_id":"70006","route_short_name":"49","route_long_name":"Lindbergh","route_type":3,"route_color":"#FFFFFF","route_text_color":"#000000"}],"agency_name":"Metro St. Louis"},"geometry":{"type":"Point","coordinates":[-90.37592,38.52821]}},{"type":"Feature","properties":{"stop_id":"5607","stop_code":"5607","stop_name":"LINDBERGH @ CONCORD SB","stop_desc":"FAR SIDE LINDBERGH @ CONCORD SB","wheelchair_boarding":1,"routes":[{"route_id":"19614","agency_id":"70006","route_short_name":"49","route_long_name":"Lindbergh","route_type":3,"route_color":"#FFFFFF","route_text_color":"#000000"}],"agency_name":"Metro St. Louis"},"geometry":{"type":"Point","coordinates":[-90.36997,38.52694]}},{"type":"Feature","properties":{"stop_id":"5608","stop_code":"5608","stop_name":"LINDBERGH @ HACKBERRY SB","stop_desc":"FAR SIDE LINDBERGH @ HACKBERRY SB","wheelchair_boarding":1,"routes":[{"route_id":"19614","agency_id":"70006","route_short_name":"49","route_long_name":"Lindbergh","route_type":3,"route_color":"#FFFFFF","route_text_color":"#000000"}],"agency_name":"Metro St. Louis"},"geometry":{"type":"Point","coordinates":[-90.36576,38.52603]}},{"type":"Feature","properties":{"stop_id":"5609","stop_code":"5609","stop_name":"LINDBERGH @ BAPTIST CHURCH SB","stop_desc":"NEAR SIDE LINDBERGH @ BAPTIST CHURCH SB","wheelchair_boarding":1,"routes":[{"route_id":"19614","agency_id":"70006","route_short_name":"49","route_long_name":"Lindbergh","route_type":3,"route_color":"#FFFFFF","route_text_color":"#000000"}],"agency_name":"Metro St. Louis"},"geometry":{"type":"Point","coordinates":[-90.36254,38.52535]}},{"type":"Feature","properties":{"stop_id":"5610","stop_code":"5610","stop_name":"LINDBERGH @ CONCORD VILLAGE SB","stop_desc":"NEAR SIDE LINDBERGH @ CONCORD VILLAGE SB","wheelchair_boarding":1,"routes":[{"route_id":"19614","agency_id":"70006","route_short_name":"49","route_long_name":"Lindbergh","route_type":3,"route_color":"#FFFFFF","route_text_color":"#000000"}],"agency_name":"Metro St. Louis"},"geometry":{"type":"Point","coordinates":[-90.35842,38.52447]}},{"type":"Feature","properties":{"stop_id":"5628","stop_code":"5628","stop_name":"OLD OLIVE WAY @ WILLOW BROOK WB","stop_desc":"FAR SIDE OLD OLIVE WAY @ WILLOW BROOK WB","wheelchair_boarding":2,"routes":[{"route_id":"19614","agency_id":"70006","route_short_name":"49","route_long_name":"Lindbergh","route_type":3,"route_color":"#FFFFFF","route_text_color":"#000000"}],"agency_name":"Metro St. Louis"},"geometry":{"type":"Point","coordinates":[-90.41242,38.67507]}},{"type":"Feature","properties":{"stop_id":"5696","stop_code":"5696","stop_name":"KIRKWOOD @ MANCHESTER SB","stop_desc":"FAR SIDE KIRKWOOD @ MANCHESTER SB","wheelchair_boarding":2,"routes":[{"route_id":"19614","agency_id":"70006","route_short_name":"49","route_long_name":"Lindbergh","route_type":3,"route_color":"#FFFFFF","route_text_color":"#000000"}],"agency_name":"Metro St. Louis"},"geometry":{"type":"Point","coordinates":[-90.40643,38.59954]}},{"type":"Feature","properties":{"stop_id":"5902","stop_code":"5902","stop_name":"4215 NORTH HANLEY SB","stop_desc":"MID-BLOCK 4215 NORTH HANLEY SB","wheelchair_boarding":2,"routes":[{"route_id":"19594","agency_id":"70006","route_short_name":"4","route_long_name":"Natural Bridge","route_type":3,"route_color":"#FFFFFF","route_text_color":"#000000"},{"route_id":"19614","agency_id":"70006","route_short_name":"49","route_long_name":"Lindbergh","route_type":3,"route_color":"#FFFFFF","route_text_color":"#000000"},{"route_id":"19628","agency_id":"70006","route_short_name":"79","route_long_name":"Ferguson-Clayton","route_type":3,"route_color":"#FFFFFF","route_text_color":"#000000"}],"agency_name":"Metro St. Louis"},"geometry":{"type":"Point","coordinates":[-90.319,38.71649]}},{"type":"Feature","properties":{"stop_id":"5904","stop_code":"5904","stop_name":"NORTH HANLEY @ NATURAL BRIDGE SB","stop_desc":"NEAR SIDE NORTH HANLEY @ NATURAL BRIDGE SB","wheelchair_boarding":2,"routes":[{"route_id":"19594","agency_id":"70006","route_short_name":"4","route_long_name":"Natural Bridge","route_type":3,"route_color":"#FFFFFF","route_text_color":"#000000"},{"route_id":"19614","agency_id":"70006","route_short_name":"49","route_long_name":"Lindbergh","route_type":3,"route_color":"#FFFFFF","route_text_color":"#000000"},{"route_id":"19628","agency_id":"70006","route_short_name":"79","route_long_name":"Ferguson-Clayton","route_type":3,"route_color":"#FFFFFF","route_text_color":"#000000"}],"agency_name":"Metro St. Louis"},"geometry":{"type":"Point","coordinates":[-90.31942,38.71222]}},{"type":"Feature","properties":{"stop_id":"6980","stop_code":"6980","stop_name":"MIDLAND @ BROUSTER EB","stop_desc":"NEAR SIDE MIDLAND @ BROUSTER EB","wheelchair_boarding":2,"routes":[{"route_id":"19608","agency_id":"70006","route_short_name":"33","route_long_name":"Midland","route_type":3,"route_color":"#FFFFFF","route_text_color":"#000000"},{"route_id":"19614","agency_id":"70006","route_short_name":"49","route_long_name":"Lindbergh","route_type":3,"route_color":"#FFFFFF","route_text_color":"#000000"}],"agency_name":"Metro St. Louis"},"geometry":{"type":"Point","coordinates":[-90.40747,38.70665]}},{"type":"Feature","properties":{"stop_id":"6981","stop_code":"6981","stop_name":"MIDLAND @ LINK EB","stop_desc":"FAR SIDE MIDLAND @ LINK EB","wheelchair_boarding":2,"routes":[{"route_id":"19608","agency_id":"70006","route_short_name":"33","route_long_name":"Midland","route_type":3,"route_color":"#FFFFFF","route_text_color":"#000000"},{"route_id":"19614","agency_id":"70006","route_short_name":"49","route_long_name":"Lindbergh","route_type":3,"route_color":"#FFFFFF","route_text_color":"#000000"}],"agency_name":"Metro St. Louis"},"geometry":{"type":"Point","coordinates":[-90.40571,38.70517]}},{"type":"Feature","properties":{"stop_id":"7642","stop_code":"7642","stop_name":"TESSON FERRY @ LINDBERGH SB","stop_desc":"FAR SIDE TESSON FERRY @ LINDBERGH SB","wheelchair_boarding":1,"routes":[{"route_id":"19614","agency_id":"70006","route_short_name":"49","route_long_name":"Lindbergh","route_type":3,"route_color":"#FFFFFF","route_text_color":"#000000"}],"agency_name":"Metro St. Louis"},"geometry":{"type":"Point","coordinates":[-90.35498,38.52325]}},{"type":"Feature","properties":{"stop_id":"7643","stop_code":"7643","stop_name":"TESSON FERRY @ BAPTIST CHURCH SB","stop_desc":"FAR SIDE TESSON FERRY @ BAPTIST CHURCH SB","wheelchair_boarding":1,"routes":[{"route_id":"19614","agency_id":"70006","route_short_name":"49","route_long_name":"Lindbergh","route_type":3,"route_color":"#FFFFFF","route_text_color":"#000000"}],"agency_name":"Metro St. Louis"},"geometry":{"type":"Point","coordinates":[-90.36311,38.51982]}},{"type":"Feature","properties":{"stop_id":"7644","stop_code":"7644","stop_name":"TESSON FERRY @ CONCORD SCHOOL SB","stop_desc":"FAR SIDE TESSON FERRY @ CONCORD SCHOOL SB","wheelchair_boarding":1,"routes":[{"route_id":"19614","agency_id":"70006","route_short_name":"49","route_long_name":"Lindbergh","route_type":3,"route_color":"#FFFFFF","route_text_color":"#000000"}],"agency_name":"Metro St. Louis"},"geometry":{"type":"Point","coordinates":[-90.36635,38.51721]}},{"type":"Feature","properties":{"stop_id":"7646","stop_code":"7646","stop_name":"SCHUESSLER @ TESSON FERRY WB","stop_desc":"FAR SIDE SCHUESSLER @ TESSON FERRY WB","wheelchair_boarding":2,"routes":[{"route_id":"19614","agency_id":"70006","route_short_name":"49","route_long_name":"Lindbergh","route_type":3,"route_color":"#FFFFFF","route_text_color":"#000000"}],"agency_name":"Metro St. Louis"},"geometry":{"type":"Point","coordinates":[-90.38063,38.50416]}},{"type":"Feature","properties":{"stop_id":"7727","stop_code":"7727","stop_name":"TESSON FERRY @ POINTE SOUTH SB","stop_desc":"MID-BLOCK TESSON FERRY @ POINTE SOUTH SB","wheelchair_boarding":1,"routes":[{"route_id":"19614","agency_id":"70006","route_short_name":"49","route_long_name":"Lindbergh","route_type":3,"route_color":"#FFFFFF","route_text_color":"#000000"}],"agency_name":"Metro St. Louis"},"geometry":{"type":"Point","coordinates":[-90.35921,38.52105]}},{"type":"Feature","properties":{"stop_id":"7729","stop_code":"7729","stop_name":"TESSON FERRY @ WEST BEND SB","stop_desc":"FAR SIDE TESSON FERRY @ WEST BEND SB","wheelchair_boarding":1,"routes":[{"route_id":"19614","agency_id":"70006","route_short_name":"49","route_long_name":"Lindbergh","route_type":3,"route_color":"#FFFFFF","route_text_color":"#000000"}],"agency_name":"Metro St. Louis"},"geometry":{"type":"Point","coordinates":[-90.37482,38.51033]}},{"type":"Feature","properties":{"stop_id":"7730","stop_code":"7730","stop_name":"TESSON FERRY @ KENNERLY SB","stop_desc":"FAR SIDE TESSON FERRY @ KENNERLY SB","wheelchair_boarding":1,"routes":[{"route_id":"19614","agency_id":"70006","route_short_name":"49","route_long_name":"Lindbergh","route_type":3,"route_color":"#FFFFFF","route_text_color":"#000000"}],"agency_name":"Metro St. Louis"},"geometry":{"type":"Point","coordinates":[-90.37764,38.50799]}},{"type":"Feature","properties":{"stop_id":"7861","stop_code":"7861","stop_name":"TESSON FERRY @ KENNERLY NB","stop_desc":"FAR SIDE TESSON FERRY @ KENNERLY NB","wheelchair_boarding":1,"routes":[{"route_id":"19614","agency_id":"70006","route_short_name":"49","route_long_name":"Lindbergh","route_type":3,"route_color":"#FFFFFF","route_text_color":"#000000"}],"agency_name":"Metro St. Louis"},"geometry":{"type":"Point","coordinates":[-90.37613,38.50895]}},{"type":"Feature","properties":{"stop_id":"7862","stop_code":"7862","stop_name":"TESSON FERRY @ MATTIS NB","stop_desc":"FAR SIDE TESSON FERRY @ MATTIS NB","wheelchair_boarding":1,"routes":[{"route_id":"19614","agency_id":"70006","route_short_name":"49","route_long_name":"Lindbergh","route_type":3,"route_color":"#FFFFFF","route_text_color":"#000000"}],"agency_name":"Metro St. Louis"},"geometry":{"type":"Point","coordinates":[-90.37372,38.51089]}},{"type":"Feature","properties":{"stop_id":"7864","stop_code":"7864","stop_name":"TESSON FERRY @ CONCORD SCHOOL NB","stop_desc":"FAR SIDE TESSON FERRY @ CONCORD SCHOOL NB","wheelchair_boarding":1,"routes":[{"route_id":"19614","agency_id":"70006","route_short_name":"49","route_long_name":"Lindbergh","route_type":3,"route_color":"#FFFFFF","route_text_color":"#000000"}],"agency_name":"Metro St. Louis"},"geometry":{"type":"Point","coordinates":[-90.36579,38.51747]}},{"type":"Feature","properties":{"stop_id":"7866","stop_code":"7866","stop_name":"TESSON FERRY @ BAPTIST CHURCH NB","stop_desc":"NEAR SIDE TESSON FERRY @ BAPTIST CHURCH NB","wheelchair_boarding":1,"routes":[{"route_id":"19614","agency_id":"70006","route_short_name":"49","route_long_name":"Lindbergh","route_type":3,"route_color":"#FFFFFF","route_text_color":"#000000"}],"agency_name":"Metro St. Louis"},"geometry":{"type":"Point","coordinates":[-90.36259,38.51994]}},{"type":"Feature","properties":{"stop_id":"7867","stop_code":"7867","stop_name":"TESSON FERRY @ POINTE SOUTH NB","stop_desc":"FAR SIDE TESSON FERRY @ POINTE SOUTH NB","wheelchair_boarding":1,"routes":[{"route_id":"19614","agency_id":"70006","route_short_name":"49","route_long_name":"Lindbergh","route_type":3,"route_color":"#FFFFFF","route_text_color":"#000000"}],"agency_name":"Metro St. Louis"},"geometry":{"type":"Point","coordinates":[-90.35878,38.52106]}},{"type":"Feature","properties":{"stop_id":"7868","stop_code":"7868","stop_name":"TESSON FERRY @ LINDBERGH NB","stop_desc":"NEAR SIDE TESSON FERRY @ LINDBERGH NB","wheelchair_boarding":1,"routes":[{"route_id":"19614","agency_id":"70006","route_short_name":"49","route_long_name":"Lindbergh","route_type":3,"route_color":"#FFFFFF","route_text_color":"#000000"}],"agency_name":"Metro St. Louis"},"geometry":{"type":"Point","coordinates":[-90.355,38.5228]}},{"type":"Feature","properties":{"stop_id":"8741","stop_code":"8741","stop_name":"LINDBERGH @ SUNSET PLAZA SB","stop_desc":"MID-BLOCK LINDBERGH @ SUNSET PLAZA SB","wheelchair_boarding":1,"routes":[{"route_id":"19614","agency_id":"70006","route_short_name":"49","route_long_name":"Lindbergh","route_type":3,"route_color":"#FFFFFF","route_text_color":"#000000"}],"agency_name":"Metro St. Louis"},"geometry":{"type":"Point","coordinates":[-90.40716,38.55306]}},{"type":"Feature","properties":{"stop_id":"9165","stop_code":"9165","stop_name":"8639 NATURAL BRIDGE WB","stop_desc":"MID-BLOCK 8639 NATURAL BRIDGE WB","wheelchair_boarding":2,"routes":[{"route_id":"19614","agency_id":"70006","route_short_name":"49","route_long_name":"Lindbergh","route_type":3,"route_color":"#FFFFFF","route_text_color":"#000000"}],"agency_name":"Metro St. Louis"},"geometry":{"type":"Point","coordinates":[-90.32044,38.71159]}},{"type":"Feature","properties":{"stop_id":"9166","stop_code":"9166","stop_name":"NATURAL BRIDGE @ LADA WB","stop_desc":"NEAR SIDE NATURAL BRIDGE @ LADA WB","wheelchair_boarding":2,"routes":[{"route_id":"19614","agency_id":"70006","route_short_name":"49","route_long_name":"Lindbergh","route_type":3,"route_color":"#FFFFFF","route_text_color":"#000000"}],"agency_name":"Metro St. Louis"},"geometry":{"type":"Point","coordinates":[-90.32329,38.71382]}},{"type":"Feature","properties":{"stop_id":"9168","stop_code":"9168","stop_name":"8865 NATURAL BRIDGE WB","stop_desc":"MID-BLOCK 8865 NATURAL BRIDGE WB","wheelchair_boarding":2,"routes":[{"route_id":"19614","agency_id":"70006","route_short_name":"49","route_long_name":"Lindbergh","route_type":3,"route_color":"#FFFFFF","route_text_color":"#000000"}],"agency_name":"Metro St. Louis"},"geometry":{"type":"Point","coordinates":[-90.32586,38.71557]}},{"type":"Feature","properties":{"stop_id":"9170","stop_code":"9170","stop_name":"NATURAL BRIDGE @ SPRINGDALE WB","stop_desc":"NEAR SIDE NATURAL BRIDGE @ SPRINGDALE WB","wheelchair_boarding":1,"routes":[{"route_id":"19614","agency_id":"70006","route_short_name":"49","route_long_name":"Lindbergh","route_type":3,"route_color":"#FFFFFF","route_text_color":"#000000"}],"agency_name":"Metro St. Louis"},"geometry":{"type":"Point","coordinates":[-90.32987,38.71824]}},{"type":"Feature","properties":{"stop_id":"9171","stop_code":"9171","stop_name":"NATURAL BRIDGE @ ENGLER WB","stop_desc":"FAR SIDE NATURAL BRIDGE @ ENGLER WB","wheelchair_boarding":2,"routes":[{"route_id":"19614","agency_id":"70006","route_short_name":"49","route_long_name":"Lindbergh","route_type":3,"route_color":"#FFFFFF","route_text_color":"#000000"}],"agency_name":"Metro St. Louis"},"geometry":{"type":"Point","coordinates":[-90.33323,38.72085]}},{"type":"Feature","properties":{"stop_id":"9172","stop_code":"9172","stop_name":"NATURAL BRIDGE @ KOENING CIRCLE WB","stop_desc":"FAR SIDE NATURAL BRIDGE @ KOENING CIRCLE WB","wheelchair_boarding":1,"routes":[{"route_id":"19614","agency_id":"70006","route_short_name":"49","route_long_name":"Lindbergh","route_type":3,"route_color":"#FFFFFF","route_text_color":"#000000"}],"agency_name":"Metro St. Louis"},"geometry":{"type":"Point","coordinates":[-90.3353,38.72273]}},{"type":"Feature","properties":{"stop_id":"9173","stop_code":"9173","stop_name":"NATURAL BRIDGE @ LA GUARDIA WB","stop_desc":"FAR SIDE NATURAL BRIDGE @ LA GUARDIA WB","wheelchair_boarding":2,"routes":[{"route_id":"19614","agency_id":"70006","route_short_name":"49","route_long_name":"Lindbergh","route_type":3,"route_color":"#FFFFFF","route_text_color":"#000000"}],"agency_name":"Metro St. Louis"},"geometry":{"type":"Point","coordinates":[-90.3382,38.72519]}},{"type":"Feature","properties":{"stop_id":"9174","stop_code":"9174","stop_name":"NATURAL BRIDGE @ MCKIBBON WB","stop_desc":"FAR SIDE NATURAL BRIDGE @ MCKIBBON WB","wheelchair_boarding":2,"routes":[{"route_id":"19614","agency_id":"70006","route_short_name":"49","route_long_name":"Lindbergh","route_type":3,"route_color":"#FFFFFF","route_text_color":"#000000"}],"agency_name":"Metro St. Louis"},"geometry":{"type":"Point","coordinates":[-90.34105,38.7269]}},{"type":"Feature","properties":{"stop_id":"9175","stop_code":"9175","stop_name":"NATURAL BRIDGE @ MARSHALL WB","stop_desc":"NEAR SIDE NATURAL BRIDGE @ MARSHALL WB","wheelchair_boarding":2,"routes":[{"route_id":"19614","agency_id":"70006","route_short_name":"49","route_long_name":"Lindbergh","route_type":3,"route_color":"#FFFFFF","route_text_color":"#000000"}],"agency_name":"Metro St. Louis"},"geometry":{"type":"Point","coordinates":[-90.34256,38.7279]}},{"type":"Feature","properties":{"stop_id":"9177","stop_code":"9177","stop_name":"NATURAL BRIDGE @ FAIRFIELD WB","stop_desc":"NEAR SIDE NATURAL BRIDGE @ FAIRFIELD WB","wheelchair_boarding":2,"routes":[{"route_id":"19614","agency_id":"70006","route_short_name":"49","route_long_name":"Lindbergh","route_type":3,"route_color":"#FFFFFF","route_text_color":"#000000"}],"agency_name":"Metro St. Louis"},"geometry":{"type":"Point","coordinates":[-90.34564,38.72994]}},{"type":"Feature","properties":{"stop_id":"9178","stop_code":"9178","stop_name":"10043 NATURAL BRIDGE WB","stop_desc":"NEAR SIDE 10043 NATURAL BRIDGE WB","wheelchair_boarding":2,"routes":[{"route_id":"19614","agency_id":"70006","route_short_name":"49","route_long_name":"Lindbergh","route_type":3,"route_color":"#FFFFFF","route_text_color":"#000000"}],"agency_name":"Metro St. Louis"},"geometry":{"type":"Point","coordinates":[-90.35263,38.73347]}},{"type":"Feature","properties":{"stop_id":"9179","stop_code":"9179","stop_name":"NATURAL BRIDGE @ WOODSON WB","stop_desc":"NEAR SIDE NATURAL BRIDGE @ WOODSON WB","wheelchair_boarding":2,"routes":[{"route_id":"19614","agency_id":"70006","route_short_name":"49","route_long_name":"Lindbergh","route_type":3,"route_color":"#FFFFFF","route_text_color":"#000000"}],"agency_name":"Metro St. Louis"},"geometry":{"type":"Point","coordinates":[-90.35599,38.73522]}},{"type":"Feature","properties":{"stop_id":"9180","stop_code":"9180","stop_name":"NATURAL BRIDGE @ HILTON ST. LOUIS AIRPORT WB","stop_desc":"MID-BLOCK NATURAL BRIDGE @ HILTON ST. LOUIS AIRPORT WB","wheelchair_boarding":2,"routes":[{"route_id":"19614","agency_id":"70006","route_short_name":"49","route_long_name":"Lindbergh","route_type":3,"route_color":"#FFFFFF","route_text_color":"#000000"}],"agency_name":"Metro St. Louis"},"geometry":{"type":"Point","coordinates":[-90.35887,38.73678]}},{"type":"Feature","properties":{"stop_id":"9181","stop_code":"9181","stop_name":"NATURAL BRIDGE @ AERO SPACE WB","stop_desc":"NEAR SIDE NATURAL BRIDGE @ AERO SPACE WB","wheelchair_boarding":2,"routes":[{"route_id":"19614","agency_id":"70006","route_short_name":"49","route_long_name":"Lindbergh","route_type":3,"route_color":"#FFFFFF","route_text_color":"#000000"}],"agency_name":"Metro St. Louis"},"geometry":{"type":"Point","coordinates":[-90.3616,38.73814]}},{"type":"Feature","properties":{"stop_id":"9186","stop_code":"9186","stop_name":"CYPRESS @ ST DAMIEN SB","stop_desc":"NEAR SIDE CYPRESS @ ST DAMIEN SB","wheelchair_boarding":2,"routes":[{"route_id":"19614","agency_id":"70006","route_short_name":"49","route_long_name":"Lindbergh","route_type":3,"route_color":"#FFFFFF","route_text_color":"#000000"}],"agency_name":"Metro St. Louis"},"geometry":{"type":"Point","coordinates":[-90.38636,38.74168]}},{"type":"Feature","properties":{"stop_id":"9187","stop_code":"9187","stop_name":"CYPRESS @ CYPRESS VILLAGE SB","stop_desc":"NEAR SIDE CYPRESS @ CYPRESS VILLAGE SB","wheelchair_boarding":2,"routes":[{"route_id":"19614","agency_id":"70006","route_short_name":"49","route_long_name":"Lindbergh","route_type":3,"route_color":"#FFFFFF","route_text_color":"#000000"}],"agency_name":"Metro St. Louis"},"geometry":{"type":"Point","coordinates":[-90.38805,38.73823]}},{"type":"Feature","properties":{"stop_id":"9189","stop_code":"9189","stop_name":"CYPRESS @ SPRING SB","stop_desc":"FAR SIDE CYPRESS @ SPRING SB","wheelchair_boarding":2,"routes":[{"route_id":"19614","agency_id":"70006","route_short_name":"49","route_long_name":"Lindbergh","route_type":3,"route_color":"#FFFFFF","route_text_color":"#000000"}],"agency_name":"Metro St. Louis"},"geometry":{"type":"Point","coordinates":[-90.3899,38.73446]}},{"type":"Feature","properties":{"stop_id":"9191","stop_code":"9191","stop_name":"ST. CHARLES ROCK ROAD @ BANKS WB","stop_desc":"NEAR SIDE ST. CHARLES ROCK ROAD @ BANKS WB","wheelchair_boarding":1,"routes":[{"route_id":"19610","agency_id":"70006","route_short_name":"35","route_long_name":"Rock Road","route_type":3,"route_color":"#FFFFFF","route_text_color":"#000000"},{"route_id":"19614","agency_id":"70006","route_short_name":"49","route_long_name":"Lindbergh","route_type":3,"route_color":"#FFFFFF","route_text_color":"#000000"}],"agency_name":"Metro St. Louis"},"geometry":{"type":"Point","coordinates":[-90.39603,38.73604]}},{"type":"Feature","properties":{"stop_id":"9192","stop_code":"9192","stop_name":"LINDBERGH @ BLAKE SB","stop_desc":"FAR SIDE LINDBERGH @ BLAKE SB","wheelchair_boarding":1,"routes":[{"route_id":"19614","agency_id":"70006","route_short_name":"49","route_long_name":"Lindbergh","route_type":3,"route_color":"#FFFFFF","route_text_color":"#000000"}],"agency_name":"Metro St. Louis"},"geometry":{"type":"Point","coordinates":[-90.40346,38.73427]}},{"type":"Feature","properties":{"stop_id":"9406","stop_code":"9406","stop_name":"LINDBERGH @ UNION EB","stop_desc":"FAR SIDE LINDBERGH @ UNION EB","wheelchair_boarding":1,"routes":[{"route_id":"19614","agency_id":"70006","route_short_name":"49","route_long_name":"Lindbergh","route_type":3,"route_color":"#FFFFFF","route_text_color":"#000000"}],"agency_name":"Metro St. Louis"},"geometry":{"type":"Point","coordinates":[-90.33156,38.50914]}}]}