{"type":"FeatureCollection","features":[{"type":"Feature","properties":{"agency_name":"Metro St. Louis","route_id":"19616","agency_id":"70006","route_short_name":"57","route_long_name":"Manchester","route_type":3,"route_color":"#FFFFFF","route_text_color":"#000000"},"geometry":{"type":"MultiLineString","coordinates":[[[-90.33082,38.61394],[-90.3311,38.61437],[-90.33079,38.6139],[-90.3307,38.6136],[-90.33096,38.61361],[-90.33132,38.61358],[-90.3321,38.61345],[-90.33237,38.61337],[-90.33257,38.6133],[-90.3331,38.61307],[-90.33357,38.6128],[-90.33436,38.61229],[-90.33497,38.61201],[-90.33525,38.61192],[-90.33558,38.61186],[-90.3359,38.61181],[-90.33633,38.61178],[-90.3378,38.61177],[-90.33997,38.6118],[-90.34041,38.61184],[-90.34161,38.61207],[-90.34283,38.61225],[-90.34683,38.61252],[-90.35159,38.6126],[-90.3536,38.61255],[-90.35433,38.61251],[-90.35472,38.61245],[-90.35561,38.6122],[-90.35938,38.61103],[-90.36007,38.6108],[-90.36113,38.61038],[-90.36217,38.60995],[-90.36261,38.60975],[-90.36286,38.60967],[-90.36309,38.60961],[-90.36411,38.6094],[-90.36541,38.60909],[-90.36973,38.60816],[-90.37137,38.60771],[-90.3778,38.6053],[-90.37859,38.60503],[-90.3804,38.60456],[-90.38284,38.60387],[-90.38461,38.60339],[-90.38558,38.6031],[-90.38632,38.60292],[-90.3885,38.60249],[-90.38912,38.60234],[-90.39387,38.60094],[-90.39435,38.60084],[-90.39475,38.60081],[-90.39683,38.60079],[-90.40074,38.60064],[-90.40186,38.60058],[-90.40334,38.60056],[-90.40388,38.60053],[-90.40551,38.60026],[-90.41333,38.59911],[-90.41477,38.59888],[-90.41529,38.59882],[-90.41583,38.59879],[-90.41642,38.5988],[-90.41772,38.59893],[-90.42415,38.59939],[-90.42445,38.59943],[-90.42775,38.60014],[-90.42991,38.60063],[-90.43464,38.60166],[-90.44139,38.60319],[-90.4428,38.60346],[-90.44319,38.60351],[-90.4436,38.60354],[-90.44406,38.60325],[-90.44407,38.60251],[-90.44401,38.60194],[-90.44475,38.60193],[-90.44486,38.60156],[-90.44523,38.60105],[-90.44501,38.60095],[-90.44487,38.60092],[-90.44405,38.6009],[-90.44381,38.60087]],[[-90.44404,38.60356],[-90.44406,38.60325],[-90.44404,38.60356],[-90.44652,38.60358],[-90.447,38.60365],[-90.44835,38.60355],[-90.44878,38.60355],[-90.44908,38.60357],[-90.45054,38.60378],[-90.45145,38.60387],[-90.45398,38.60394],[-90.45511,38.60394],[-90.45574,38.60396],[-90.45725,38.60406],[-90.4591,38.60422],[-90.4607,38.60425],[-90.46156,38.6042],[-90.46218,38.60412],[-90.46469,38.6037],[-90.46512,38.60359],[-90.46554,38.60344],[-90.46591,38.60328],[-90.4663,38.60305],[-90.46657,38.60286],[-90.46677,38.60268],[-90.46696,38.60249],[-90.46712,38.6023],[-90.46728,38.60206],[-90.46869,38.59961],[-90.46925,38.59867],[-90.46954,38.59828],[-90.46992,38.59789],[-90.47017,38.5977],[-90.47036,38.59758],[-90.47074,38.59739],[-90.47119,38.59721],[-90.47167,38.5971],[-90.47339,38.59686],[-90.47365,38.59681],[-90.47394,38.59671],[-90.47785,38.59616],[-90.47858,38.59608],[-90.47951,38.59607],[-90.4802,38.59609],[-90.48131,38.59619],[-90.48489,38.59659],[-90.48594,38.5966],[-90.48646,38.59657],[-90.48699,38.59651],[-90.48793,38.59633],[-90.4888,38.5961],[-90.48985,38.59579],[-90.49185,38.59526],[-90.50035,38.59292],[-90.50121,38.59273],[-90.50192,38.59264],[-90.50269,38.59261],[-90.50967,38.59281],[-90.51118,38.59288],[-90.5132,38.59293],[-90.51804,38.59319],[-90.51925,38.59323],[-90.5208,38.5932],[-90.52521,38.59303],[-90.52797,38.59298],[-90.53585,38.59296],[-90.53985,38.59299],[-90.54632,38.59296],[-90.54834,38.59291],[-90.55175,38.59287],[-90.55759,38.59286],[-90.56216,38.59279],[-90.56617,38.59278],[-90.57382,38.59271],[-90.57961,38.59268],[-90.5847,38.59262],[-90.58694,38.59261],[-90.58731,38.5926],[-90.58759,38.59257],[-90.58794,38.59252],[-90.58909,38.59224],[-90.59374,38.59101],[-90.59539,38.59059],[-90.59643,38.59028],[-90.59692,38.59016],[-90.59724,38.59012],[-90.60371,38.58841],[-90.60856,38.58711],[-90.60955,38.58678],[-90.61018,38.58651],[-90.6107,38.58625],[-90.6125,38.58526],[-90.61534,38.58365],[-90.61511,38.58342],[-90.61501,38.58326],[-90.61494,38.58308],[-90.61491,38.58288],[-90.61493,38.58272],[-90.61502,38.58245],[-90.61514,38.58228],[-90.61537,38.58208],[-90.61575,38.58191],[-90.61622,38.58184],[-90.61654,38.58188],[-90.61706,38.582],[-90.61747,38.58199],[-90.61767,38.58194],[-90.61797,38.58183],[-90.61923,38.58104],[-90.61984,38.58073],[-90.62193,38.57974],[-90.62252,38.5795],[-90.62309,38.57932],[-90.62416,38.57901],[-90.62729,38.57824],[-90.62735,38.57831],[-90.62742,38.57835],[-90.62754,38.57837],[-90.62758,38.57864],[-90.62752,38.57912],[-90.62749,38.58051]],[[-90.62762,38.57833],[-90.62742,38.57835],[-90.62762,38.57833],[-90.62768,38.57823],[-90.62767,38.57816],[-90.63421,38.57647],[-90.63528,38.57623],[-90.63556,38.57618],[-90.6362,38.57612],[-90.63841,38.57612],[-90.64078,38.57614],[-90.6416,38.57616],[-90.6418,38.5755],[-90.64183,38.57485],[-90.64378,38.57494],[-90.64503,38.57508],[-90.64413,38.57739],[-90.64373,38.57723],[-90.64247,38.57648],[-90.6421,38.5763],[-90.64178,38.5762]],[[-90.62763,38.5781],[-90.6337,38.5766],[-90.62763,38.5781],[-90.62752,38.57806],[-90.6274,38.57806],[-90.62732,38.57815]]]}},{"type":"Feature","properties":{"stop_id":"13868","stop_code":"13868","stop_name":"MANCHESTER @ HUTCHINSON WB","stop_desc":"NEAR SIDE MANCHESTER @ HUTCHINSON WB","wheelchair_boarding":2,"routes":[{"route_id":"19616","agency_id":"70006","route_short_name":"57","route_long_name":"Manchester","route_type":3,"route_color":"#FFFFFF","route_text_color":"#000000"}],"agency_name":"Metro St. Louis"},"geometry":{"type":"Point","coordinates":[-90.59479,38.59082]}},{"type":"Feature","properties":{"stop_id":"14938","stop_code":"14938","stop_name":"TAYLOR @ WILDWOOD SHOPPING CENTER NB","stop_desc":"MID-BLOCK TAYLOR @ WILDWOOD SHOPPING CENTER NB","wheelchair_boarding":1,"routes":[{"route_id":"19616","agency_id":"70006","route_short_name":"57","route_long_name":"Manchester","route_type":3,"route_color":"#FFFFFF","route_text_color":"#000000"}],"agency_name":"Metro St. Louis"},"geometry":{"type":"Point","coordinates":[-90.62746,38.58038]}},{"type":"Feature","properties":{"stop_id":"15226","stop_code":"15226","stop_name":"MANCHESTER @ STRECKER WB","stop_desc":"FAR SIDE MANCHESTER @ STRECKER WB","wheelchair_boarding":1,"routes":[{"route_id":"19616","agency_id":"70006","route_short_name":"57","route_long_name":"Manchester","route_type":3,"route_color":"#FFFFFF","route_text_color":"#000000"}],"agency_name":"Metro St. Louis"},"geometry":{"type":"Point","coordinates":[-90.59963,38.58958]}},{"type":"Feature","properties":{"stop_id":"15227","stop_code":"15227","stop_name":"MANCHESTER @ TOWNE CENTER WB","stop_desc":"FAR SIDE MANCHESTER @ TOWNE CENTER WB","wheelchair_boarding":2,"routes":[{"route_id":"19616","agency_id":"70006","route_short_name":"57","route_long_name":"Manchester","route_type":3,"route_color":"#FFFFFF","route_text_color":"#000000"}],"agency_name":"Metro St. Louis"},"geometry":{"type":"Point","coordinates":[-90.6081,38.5873]}},{"type":"Feature","properties":{"stop_id":"15507","stop_code":"15507","stop_name":"16555 MANCHESTER WB","stop_desc":"MID-BLOCK 16555 MANCHESTER WB","wheelchair_boarding":1,"routes":[{"route_id":"19616","agency_id":"70006","route_short_name":"57","route_long_name":"Manchester","route_type":3,"route_color":"#FFFFFF","route_text_color":"#000000"}],"agency_name":"Metro St. Louis"},"geometry":{"type":"Point","coordinates":[-90.61819,38.58182]}},{"type":"Feature","properties":{"stop_id":"16246","stop_code":"16246","stop_name":"MO-109 @ NEW COLLEGE NB","stop_desc":"FAR SIDE MO-109 @ NEW COLLEGE NB","wheelchair_boarding":1,"routes":[{"route_id":"19616","agency_id":"70006","route_short_name":"57","route_long_name":"Manchester","route_type":3,"route_color":"#FFFFFF","route_text_color":"#000000"}],"agency_name":"Metro St. Louis"},"geometry":{"type":"Point","coordinates":[-90.64487,38.57578]}},{"type":"Feature","properties":{"stop_id":"16252","stop_code":"16252","stop_name":"MANCHESTER @ EATHERTON WB","stop_desc":"FAR SIDE MANCHESTER @ EATHERTON WB","wheelchair_boarding":1,"routes":[{"route_id":"19616","agency_id":"70006","route_short_name":"57","route_long_name":"Manchester","route_type":3,"route_color":"#FFFFFF","route_text_color":"#000000"}],"agency_name":"Metro St. Louis"},"geometry":{"type":"Point","coordinates":[-90.63778,38.57617]}},{"type":"Feature","properties":{"stop_id":"16253","stop_code":"16253","stop_name":"MANCHESTER @ EATHERTON EB","stop_desc":"NEAR SIDE MANCHESTER @ EATHERTON EB","wheelchair_boarding":1,"routes":[{"route_id":"19616","agency_id":"70006","route_short_name":"57","route_long_name":"Manchester","route_type":3,"route_color":"#FFFFFF","route_text_color":"#000000"}],"agency_name":"Metro St. Louis"},"geometry":{"type":"Point","coordinates":[-90.63758,38.57611]}},{"type":"Feature","properties":{"stop_id":"16296","stop_code":"16296","stop_name":"MANCHESTER @ TAYLOR WB","stop_desc":"NEAR SIDE MANCHESTER @ TAYLOR WB","wheelchair_boarding":1,"routes":[{"route_id":"19616","agency_id":"70006","route_short_name":"57","route_long_name":"Manchester","route_type":3,"route_color":"#FFFFFF","route_text_color":"#000000"}],"agency_name":"Metro St. Louis"},"geometry":{"type":"Point","coordinates":[-90.62651,38.57846]}},{"type":"Feature","properties":{"stop_id":"4969","stop_code":"4969","stop_name":"MAPLEWOOD-MANCHESTER TRANSIT CENTER","wheelchair_boarding":1,"routes":[{"route_id":"19616","agency_id":"70006","route_short_name":"57","route_long_name":"Manchester","route_type":3,"route_color":"#FFFFFF","route_text_color":"#000000"}],"agency_name":"Metro St. Louis"},"geometry":{"type":"Point","coordinates":[-90.33101,38.61408]}},{"type":"Feature","properties":{"stop_id":"4970","stop_code":"4970","stop_name":"MANCHESTER @ HANLEY WB","stop_desc":"NEAR SIDE MANCHESTER @ HANLEY WB","wheelchair_boarding":1,"routes":[{"route_id":"19606","agency_id":"70006","route_short_name":"31","route_long_name":"Chouteau","route_type":3,"route_color":"#FFFFFF","route_text_color":"#000000"},{"route_id":"19616","agency_id":"70006","route_short_name":"57","route_long_name":"Manchester","route_type":3,"route_color":"#FFFFFF","route_text_color":"#000000"}],"agency_name":"Metro St. Louis"},"geometry":{"type":"Point","coordinates":[-90.33291,38.61324]}},{"type":"Feature","properties":{"stop_id":"4972","stop_code":"4972","stop_name":"MANCHESTER @ MELVIN WB","stop_desc":"NEAR SIDE MANCHESTER @ MELVIN WB","wheelchair_boarding":1,"routes":[{"route_id":"19616","agency_id":"70006","route_short_name":"57","route_long_name":"Manchester","route_type":3,"route_color":"#FFFFFF","route_text_color":"#000000"}],"agency_name":"Metro St. Louis"},"geometry":{"type":"Point","coordinates":[-90.33754,38.61181]}},{"type":"Feature","properties":{"stop_id":"4973","stop_code":"4973","stop_name":"MANCHESTER @ CECELIA WB","stop_desc":"NEAR SIDE MANCHESTER @ CECELIA WB","wheelchair_boarding":1,"routes":[{"route_id":"19616","agency_id":"70006","route_short_name":"57","route_long_name":"Manchester","route_type":3,"route_color":"#FFFFFF","route_text_color":"#000000"}],"agency_name":"Metro St. Louis"},"geometry":{"type":"Point","coordinates":[-90.34144,38.61209]}},{"type":"Feature","properties":{"stop_id":"4975","stop_code":"4975","stop_name":"MANCHESTER @ DOROTHY WB","stop_desc":"NEAR SIDE MANCHESTER @ DOROTHY WB","wheelchair_boarding":1,"routes":[{"route_id":"19616","agency_id":"70006","route_short_name":"57","route_long_name":"Manchester","route_type":3,"route_color":"#FFFFFF","route_text_color":"#000000"}],"agency_name":"Metro St. Louis"},"geometry":{"type":"Point","coordinates":[-90.3448,38.61246]}},{"type":"Feature","properties":{"stop_id":"4976","stop_code":"4976","stop_name":"MANCHESTER @ BRENTWOOD WB","stop_desc":"NEAR SIDE MANCHESTER @ BRENTWOOD WB","wheelchair_boarding":1,"routes":[{"route_id":"19616","agency_id":"70006","route_short_name":"57","route_long_name":"Manchester","route_type":3,"route_color":"#FFFFFF","route_text_color":"#000000"}],"agency_name":"Metro St. Louis"},"geometry":{"type":"Point","coordinates":[-90.34775,38.6126]}},{"type":"Feature","properties":{"stop_id":"4977","stop_code":"4977","stop_name":"MANCHESTER @ ANNALEE WB","stop_desc":"FAR SIDE MANCHESTER @ ANNALEE WB","wheelchair_boarding":1,"routes":[{"route_id":"19616","agency_id":"70006","route_short_name":"57","route_long_name":"Manchester","route_type":3,"route_color":"#FFFFFF","route_text_color":"#000000"}],"agency_name":"Metro St. Louis"},"geometry":{"type":"Point","coordinates":[-90.35062,38.61261]}},{"type":"Feature","properties":{"stop_id":"4978","stop_code":"4978","stop_name":"MANCHESTER @ MANDERLEY WB","stop_desc":"NEAR SIDE MANCHESTER @ MANDERLEY WB","wheelchair_boarding":1,"routes":[{"route_id":"19616","agency_id":"70006","route_short_name":"57","route_long_name":"Manchester","route_type":3,"route_color":"#FFFFFF","route_text_color":"#000000"}],"agency_name":"Metro St. Louis"},"geometry":{"type":"Point","coordinates":[-90.35361,38.61261]}},{"type":"Feature","properties":{"stop_id":"4980","stop_code":"4980","stop_name":"MANCHESTER @ CREVE COEUR WB","stop_desc":"FAR SIDE MANCHESTER @ CREVE COEUR WB","wheelchair_boarding":1,"routes":[{"route_id":"19616","agency_id":"70006","route_short_name":"57","route_long_name":"Manchester","route_type":3,"route_color":"#FFFFFF","route_text_color":"#000000"}],"agency_name":"Metro St. Louis"},"geometry":{"type":"Point","coordinates":[-90.35854,38.61134]}},{"type":"Feature","properties":{"stop_id":"4983","stop_code":"4983","stop_name":"MANCHESTER @ MCKNIGHT WB","stop_desc":"FAR SIDE MANCHESTER @ MCKNIGHT WB","wheelchair_boarding":1,"routes":[{"route_id":"19616","agency_id":"70006","route_short_name":"57","route_long_name":"Manchester","route_type":3,"route_color":"#FFFFFF","route_text_color":"#000000"}],"agency_name":"Metro St. Louis"},"geometry":{"type":"Point","coordinates":[-90.3627,38.60977]}},{"type":"Feature","properties":{"stop_id":"4984","stop_code":"4984","stop_name":"MANCHESTER @ MCKINLEY WB","stop_desc":"NEAR SIDE MANCHESTER @ MCKINLEY WB","wheelchair_boarding":1,"routes":[{"route_id":"19616","agency_id":"70006","route_short_name":"57","route_long_name":"Manchester","route_type":3,"route_color":"#FFFFFF","route_text_color":"#000000"}],"agency_name":"Metro St. Louis"},"geometry":{"type":"Point","coordinates":[-90.36446,38.60936]}},{"type":"Feature","properties":{"stop_id":"4986","stop_code":"4986","stop_name":"MANCHESTER @ KORTWRIGHT WB","stop_desc":"FAR SIDE MANCHESTER @ KORTWRIGHT WB","wheelchair_boarding":1,"routes":[{"route_id":"19616","agency_id":"70006","route_short_name":"57","route_long_name":"Manchester","route_type":3,"route_color":"#FFFFFF","route_text_color":"#000000"}],"agency_name":"Metro St. Louis"},"geometry":{"type":"Point","coordinates":[-90.36852,38.60846]}},{"type":"Feature","properties":{"stop_id":"4989","stop_code":"4989","stop_name":"MANCHESTER @ BERRY WB","stop_desc":"FAR SIDE MANCHESTER @ BERRY WB","wheelchair_boarding":1,"routes":[{"route_id":"19616","agency_id":"70006","route_short_name":"57","route_long_name":"Manchester","route_type":3,"route_color":"#FFFFFF","route_text_color":"#000000"}],"agency_name":"Metro St. Louis"},"geometry":{"type":"Point","coordinates":[-90.37906,38.60493]}},{"type":"Feature","properties":{"stop_id":"4990","stop_code":"4990","stop_name":"MANCHESTER @ WARSON WOODS WB","stop_desc":"NEAR SIDE MANCHESTER @ WARSON WOODS WB","wheelchair_boarding":1,"routes":[{"route_id":"19616","agency_id":"70006","route_short_name":"57","route_long_name":"Manchester","route_type":3,"route_color":"#FFFFFF","route_text_color":"#000000"}],"agency_name":"Metro St. Louis"},"geometry":{"type":"Point","coordinates":[-90.38273,38.60399]}},{"type":"Feature","properties":{"stop_id":"4992","stop_code":"4992","stop_name":"MANCHESTER @ SAPPINGTON WB","stop_desc":"FAR SIDE MANCHESTER @ SAPPINGTON WB","wheelchair_boarding":1,"routes":[{"route_id":"19616","agency_id":"70006","route_short_name":"57","route_long_name":"Manchester","route_type":3,"route_color":"#FFFFFF","route_text_color":"#000000"}],"agency_name":"Metro St. Louis"},"geometry":{"type":"Point","coordinates":[-90.38656,38.60295]}},{"type":"Feature","properties":{"stop_id":"4995","stop_code":"4995","stop_name":"MANCHESTER @ STURGIS WB","stop_desc":"NEAR SIDE MANCHESTER @ STURGIS WB","wheelchair_boarding":1,"routes":[{"route_id":"19616","agency_id":"70006","route_short_name":"57","route_long_name":"Manchester","route_type":3,"route_color":"#FFFFFF","route_text_color":"#000000"}],"agency_name":"Metro St. Louis"},"geometry":{"type":"Point","coordinates":[-90.3913,38.60177]}},{"type":"Feature","properties":{"stop_id":"4997","stop_code":"4997","stop_name":"MANCHESTER @ WOODLAWN WB","stop_desc":"FAR SIDE MANCHESTER @ WOODLAWN WB","wheelchair_boarding":1,"routes":[{"route_id":"19616","agency_id":"70006","route_short_name":"57","route_long_name":"Manchester","route_type":3,"route_color":"#FFFFFF","route_text_color":"#000000"}],"agency_name":"Metro St. Louis"},"geometry":{"type":"Point","coordinates":[-90.39749,38.60084]}},{"type":"Feature","properties":{"stop_id":"4999","stop_code":"4999","stop_name":"MANCHESTER @ LYNCHESTER WB","stop_desc":"NEAR SIDE MANCHESTER @ LYNCHESTER WB","wheelchair_boarding":1,"routes":[{"route_id":"19616","agency_id":"70006","route_short_name":"57","route_long_name":"Manchester","route_type":3,"route_color":"#FFFFFF","route_text_color":"#000000"}],"agency_name":"Metro St. Louis"},"geometry":{"type":"Point","coordinates":[-90.40143,38.60065]}},{"type":"Feature","properties":{"stop_id":"5000","stop_code":"5000","stop_name":"MANCHESTER @ KIRKWOOD WB","stop_desc":"NEAR SIDE MANCHESTER @ KIRKWOOD WB","wheelchair_boarding":1,"routes":[{"route_id":"19616","agency_id":"70006","route_short_name":"57","route_long_name":"Manchester","route_type":3,"route_color":"#FFFFFF","route_text_color":"#000000"}],"agency_name":"Metro St. Louis"},"geometry":{"type":"Point","coordinates":[-90.40476,38.60042]}},{"type":"Feature","properties":{"stop_id":"5001","stop_code":"5001","stop_name":"MANCHESTER @ KIRKWOOD WB","stop_desc":"FAR SIDE MANCHESTER @ KIRKWOOD WB","wheelchair_boarding":1,"routes":[{"route_id":"19616","agency_id":"70006","route_short_name":"57","route_long_name":"Manchester","route_type":3,"route_color":"#FFFFFF","route_text_color":"#000000"}],"agency_name":"Metro St. Louis"},"geometry":{"type":"Point","coordinates":[-90.40732,38.60005]}},{"type":"Feature","properties":{"stop_id":"5005","stop_code":"5005","stop_name":"MANCHESTER @ GEYER WB","stop_desc":"FAR SIDE MANCHESTER @ GEYER WB","wheelchair_boarding":1,"routes":[{"route_id":"19616","agency_id":"70006","route_short_name":"57","route_long_name":"Manchester","route_type":3,"route_color":"#FFFFFF","route_text_color":"#000000"}],"agency_name":"Metro St. Louis"},"geometry":{"type":"Point","coordinates":[-90.41661,38.59891]}},{"type":"Feature","properties":{"stop_id":"5006","stop_code":"5006","stop_name":"MANCHESTER @ KIRKWOOD MIDDLE SCHOOL WB","stop_desc":"MID-BLOCK MANCHESTER @ KIRKWOOD MIDDLE SCHOOL WB","wheelchair_boarding":1,"routes":[{"route_id":"19616","agency_id":"70006","route_short_name":"57","route_long_name":"Manchester","route_type":3,"route_color":"#FFFFFF","route_text_color":"#000000"}],"agency_name":"Metro St. Louis"},"geometry":{"type":"Point","coordinates":[-90.41956,38.59912]}},{"type":"Feature","properties":{"stop_id":"5008","stop_code":"5008","stop_name":"MANCHESTER @ WOODGATE WB","stop_desc":"FAR SIDE MANCHESTER @ WOODGATE WB","wheelchair_boarding":1,"routes":[{"route_id":"19616","agency_id":"70006","route_short_name":"57","route_long_name":"Manchester","route_type":3,"route_color":"#FFFFFF","route_text_color":"#000000"}],"agency_name":"Metro St. Louis"},"geometry":{"type":"Point","coordinates":[-90.42473,38.59954]}},{"type":"Feature","properties":{"stop_id":"5011","stop_code":"5011","stop_name":"MANCHESTER @ BOPP WB","stop_desc":"FAR SIDE MANCHESTER @ BOPP WB","wheelchair_boarding":1,"routes":[{"route_id":"19616","agency_id":"70006","route_short_name":"57","route_long_name":"Manchester","route_type":3,"route_color":"#FFFFFF","route_text_color":"#000000"}],"agency_name":"Metro St. Louis"},"geometry":{"type":"Point","coordinates":[-90.43256,38.60129]}},{"type":"Feature","properties":{"stop_id":"5014","stop_code":"5014","stop_name":"MANCHESTER @ BLASE WB","stop_desc":"FAR SIDE MANCHESTER @ BLASE WB","wheelchair_boarding":1,"routes":[{"route_id":"19616","agency_id":"70006","route_short_name":"57","route_long_name":"Manchester","route_type":3,"route_color":"#FFFFFF","route_text_color":"#000000"}],"agency_name":"Metro St. Louis"},"geometry":{"type":"Point","coordinates":[-90.43941,38.60282]}},{"type":"Feature","properties":{"stop_id":"5016","stop_code":"5016","stop_name":"WEST COUNTY MALL LOOP WB","stop_desc":"NEAR SIDE WEST COUNTY MALL LOOP WB","wheelchair_boarding":2,"routes":[{"route_id":"19616","agency_id":"70006","route_short_name":"57","route_long_name":"Manchester","route_type":3,"route_color":"#FFFFFF","route_text_color":"#000000"}],"agency_name":"Metro St. Louis"},"geometry":{"type":"Point","coordinates":[-90.4449,38.60158]}},{"type":"Feature","properties":{"stop_id":"5018","stop_code":"5018","stop_name":"MANCHESTER @ BALLAS WB","stop_desc":"FAR SIDE MANCHESTER @ BALLAS WB","wheelchair_boarding":1,"routes":[{"route_id":"19616","agency_id":"70006","route_short_name":"57","route_long_name":"Manchester","route_type":3,"route_color":"#FFFFFF","route_text_color":"#000000"}],"agency_name":"Metro St. Louis"},"geometry":{"type":"Point","coordinates":[-90.44469,38.60371]}},{"type":"Feature","properties":{"stop_id":"5022","stop_code":"5022","stop_name":"MANCHESTER @ BARRETT STATION WB","stop_desc":"FAR SIDE MANCHESTER @ BARRETT STATION WB","wheelchair_boarding":2,"routes":[{"route_id":"19616","agency_id":"70006","route_short_name":"57","route_long_name":"Manchester","route_type":3,"route_color":"#FFFFFF","route_text_color":"#000000"}],"agency_name":"Metro St. Louis"},"geometry":{"type":"Point","coordinates":[-90.47493,38.59673]}},{"type":"Feature","properties":{"stop_id":"5023","stop_code":"5023","stop_name":"MANCHESTER @ MASON WB","stop_desc":"FAR SIDE MANCHESTER @ MASON WB","wheelchair_boarding":2,"routes":[{"route_id":"19616","agency_id":"70006","route_short_name":"57","route_long_name":"Manchester","route_type":3,"route_color":"#FFFFFF","route_text_color":"#000000"}],"agency_name":"Metro St. Louis"},"geometry":{"type":"Point","coordinates":[-90.48007,38.59618]}},{"type":"Feature","properties":{"stop_id":"5024","stop_code":"5024","stop_name":"MANCHESTER @ MANCHESTER MEADOWS WB","stop_desc":"FAR SIDE MANCHESTER @ MANCHESTER MEADOWS WB","wheelchair_boarding":2,"routes":[{"route_id":"19616","agency_id":"70006","route_short_name":"57","route_long_name":"Manchester","route_type":3,"route_color":"#FFFFFF","route_text_color":"#000000"}],"agency_name":"Metro St. Louis"},"geometry":{"type":"Point","coordinates":[-90.48589,38.59674]}},{"type":"Feature","properties":{"stop_id":"5026","stop_code":"5026","stop_name":"MANCHESTER @ WEIDMAN WB","stop_desc":"FAR SIDE MANCHESTER @ WEIDMAN WB","wheelchair_boarding":1,"routes":[{"route_id":"19616","agency_id":"70006","route_short_name":"57","route_long_name":"Manchester","route_type":3,"route_color":"#FFFFFF","route_text_color":"#000000"}],"agency_name":"Metro St. Louis"},"geometry":{"type":"Point","coordinates":[-90.49206,38.59532]}},{"type":"Feature","properties":{"stop_id":"5027","stop_code":"5027","stop_name":"MANCHESTER @ BRAESHIRE WB","stop_desc":"FAR SIDE MANCHESTER @ BRAESHIRE WB","wheelchair_boarding":2,"routes":[{"route_id":"19616","agency_id":"70006","route_short_name":"57","route_long_name":"Manchester","route_type":3,"route_color":"#FFFFFF","route_text_color":"#000000"}],"agency_name":"Metro St. Louis"},"geometry":{"type":"Point","coordinates":[-90.49687,38.59398]}},{"type":"Feature","properties":{"stop_id":"5028","stop_code":"5028","stop_name":"MANCHESTER @ KNOLLHAVEN WB","stop_desc":"MID-BLOCK MANCHESTER @ KNOLLHAVEN WB","wheelchair_boarding":2,"routes":[{"route_id":"19616","agency_id":"70006","route_short_name":"57","route_long_name":"Manchester","route_type":3,"route_color":"#FFFFFF","route_text_color":"#000000"}],"agency_name":"Metro St. Louis"},"geometry":{"type":"Point","coordinates":[-90.50099,38.59291]}},{"type":"Feature","properties":{"stop_id":"5029","stop_code":"5029","stop_name":"MANCHESTER @ HIGHLANDS BOULEVARD WB","stop_desc":"NEAR SIDE MANCHESTER @ HIGHLANDS BOULEVARD WB","wheelchair_boarding":2,"routes":[{"route_id":"19616","agency_id":"70006","route_short_name":"57","route_long_name":"Manchester","route_type":3,"route_color":"#FFFFFF","route_text_color":"#000000"}],"agency_name":"Metro St. Louis"},"geometry":{"type":"Point","coordinates":[-90.50411,38.59284]}},{"type":"Feature","properties":{"stop_id":"5030","stop_code":"5030","stop_name":"MANCHESTER @ WOODS MILL WB","stop_desc":"FAR SIDE MANCHESTER @ WOODS MILL WB","wheelchair_boarding":2,"routes":[{"route_id":"19616","agency_id":"70006","route_short_name":"57","route_long_name":"Manchester","route_type":3,"route_color":"#FFFFFF","route_text_color":"#000000"}],"agency_name":"Metro St. Louis"},"geometry":{"type":"Point","coordinates":[-90.5104,38.59293]}},{"type":"Feature","properties":{"stop_id":"5032","stop_code":"5032","stop_name":"MANCHESTER @ OLD SULPHUR SPRING WB","stop_desc":"FAR SIDE MANCHESTER @ OLD SULPHUR SPRING WB","wheelchair_boarding":2,"routes":[{"route_id":"19616","agency_id":"70006","route_short_name":"57","route_long_name":"Manchester","route_type":3,"route_color":"#FFFFFF","route_text_color":"#000000"}],"agency_name":"Metro St. Louis"},"geometry":{"type":"Point","coordinates":[-90.51327,38.59304]}},{"type":"Feature","properties":{"stop_id":"5035","stop_code":"5035","stop_name":"MANCHESTER @ BAXTER WB","stop_desc":"FAR SIDE MANCHESTER @ BAXTER WB","wheelchair_boarding":2,"routes":[{"route_id":"19616","agency_id":"70006","route_short_name":"57","route_long_name":"Manchester","route_type":3,"route_color":"#FFFFFF","route_text_color":"#000000"}],"agency_name":"Metro St. Louis"},"geometry":{"type":"Point","coordinates":[-90.52148,38.59327]}},{"type":"Feature","properties":{"stop_id":"5037","stop_code":"5037","stop_name":"MANCHESTER @ LINDY WB","stop_desc":"FAR SIDE MANCHESTER @ LINDY WB","wheelchair_boarding":2,"routes":[{"route_id":"19616","agency_id":"70006","route_short_name":"57","route_long_name":"Manchester","route_type":3,"route_color":"#FFFFFF","route_text_color":"#000000"}],"agency_name":"Metro St. Louis"},"geometry":{"type":"Point","coordinates":[-90.52709,38.59309]}},{"type":"Feature","properties":{"stop_id":"5038","stop_code":"5038","stop_name":"MANCHESTER @ MAPLE WB","stop_desc":"FAR SIDE MANCHESTER @ MAPLE WB","wheelchair_boarding":2,"routes":[{"route_id":"19616","agency_id":"70006","route_short_name":"57","route_long_name":"Manchester","route_type":3,"route_color":"#FFFFFF","route_text_color":"#000000"}],"agency_name":"Metro St. Louis"},"geometry":{"type":"Point","coordinates":[-90.53014,38.59307]}},{"type":"Feature","properties":{"stop_id":"5041","stop_code":"5041","stop_name":"MANCHESTER @ SEVEN TRAILS WB","stop_desc":"NEAR SIDE MANCHESTER @ SEVEN TRAILS WB","wheelchair_boarding":2,"routes":[{"route_id":"19616","agency_id":"70006","route_short_name":"57","route_long_name":"Manchester","route_type":3,"route_color":"#FFFFFF","route_text_color":"#000000"}],"agency_name":"Metro St. Louis"},"geometry":{"type":"Point","coordinates":[-90.53698,38.59307]}},{"type":"Feature","properties":{"stop_id":"5042","stop_code":"5042","stop_name":"MANCHESTER @ ELM WB","stop_desc":"NEAR SIDE MANCHESTER @ ELM WB","wheelchair_boarding":2,"routes":[{"route_id":"19616","agency_id":"70006","route_short_name":"57","route_long_name":"Manchester","route_type":3,"route_color":"#FFFFFF","route_text_color":"#000000"}],"agency_name":"Metro St. Louis"},"geometry":{"type":"Point","coordinates":[-90.53934,38.59309]}},{"type":"Feature","properties":{"stop_id":"5044","stop_code":"5044","stop_name":"MANCHESTER @ HOLLOWAY WB","stop_desc":"FAR SIDE MANCHESTER @ HOLLOWAY WB","wheelchair_boarding":2,"routes":[{"route_id":"19616","agency_id":"70006","route_short_name":"57","route_long_name":"Manchester","route_type":3,"route_color":"#FFFFFF","route_text_color":"#000000"}],"agency_name":"Metro St. Louis"},"geometry":{"type":"Point","coordinates":[-90.54667,38.59305]}},{"type":"Feature","properties":{"stop_id":"5047","stop_code":"5047","stop_name":"MANCHESTER @ BIRCHWOOD WB","stop_desc":"FAR SIDE MANCHESTER @ BIRCHWOOD WB","wheelchair_boarding":2,"routes":[{"route_id":"19616","agency_id":"70006","route_short_name":"57","route_long_name":"Manchester","route_type":3,"route_color":"#FFFFFF","route_text_color":"#000000"}],"agency_name":"Metro St. Louis"},"geometry":{"type":"Point","coordinates":[-90.55509,38.59296]}},{"type":"Feature","properties":{"stop_id":"5048","stop_code":"5048","stop_name":"MANCHESTER @ NEW BALLWIN WB","stop_desc":"FAR SIDE MANCHESTER @ NEW BALLWIN WB","wheelchair_boarding":2,"routes":[{"route_id":"19616","agency_id":"70006","route_short_name":"57","route_long_name":"Manchester","route_type":3,"route_color":"#FFFFFF","route_text_color":"#000000"}],"agency_name":"Metro St. Louis"},"geometry":{"type":"Point","coordinates":[-90.55828,38.59298]}},{"type":"Feature","properties":{"stop_id":"5049","stop_code":"5049","stop_name":"MANCHESTER @ QUAIL WB","stop_desc":"FAR SIDE MANCHESTER @ QUAIL WB","wheelchair_boarding":2,"routes":[{"route_id":"19616","agency_id":"70006","route_short_name":"57","route_long_name":"Manchester","route_type":3,"route_color":"#FFFFFF","route_text_color":"#000000"}],"agency_name":"Metro St. Louis"},"geometry":{"type":"Point","coordinates":[-90.5607,38.59291]}},{"type":"Feature","properties":{"stop_id":"5050","stop_code":"5050","stop_name":"MANCHESTER  @ BALLWIN PLAZA WB","stop_desc":"MID-BLOCK MANCHESTER  @ BALLWIN PLAZA WB","wheelchair_boarding":2,"routes":[{"route_id":"19616","agency_id":"70006","route_short_name":"57","route_long_name":"Manchester","route_type":3,"route_color":"#FFFFFF","route_text_color":"#000000"}],"agency_name":"Metro St. Louis"},"geometry":{"type":"Point","coordinates":[-90.56382,38.59291]}},{"type":"Feature","properties":{"stop_id":"5051","stop_code":"5051","stop_name":"MANCHESTER @ MIMOSA WB","stop_desc":"FAR SIDE MANCHESTER @ MIMOSA WB","wheelchair_boarding":2,"routes":[{"route_id":"19616","agency_id":"70006","route_short_name":"57","route_long_name":"Manchester","route_type":3,"route_color":"#FFFFFF","route_text_color":"#000000"}],"agency_name":"Metro St. Louis"},"geometry":{"type":"Point","coordinates":[-90.56642,38.59287]}},{"type":"Feature","properties":{"stop_id":"5052","stop_code":"5052","stop_name":"MANCHESTER @ HIGHVIEW WB","stop_desc":"FAR SIDE MANCHESTER @ HIGHVIEW WB","wheelchair_boarding":2,"routes":[{"route_id":"19616","agency_id":"70006","route_short_name":"57","route_long_name":"Manchester","route_type":3,"route_color":"#FFFFFF","route_text_color":"#000000"}],"agency_name":"Metro St. Louis"},"geometry":{"type":"Point","coordinates":[-90.57049,38.59284]}},{"type":"Feature","properties":{"stop_id":"5054","stop_code":"5054","stop_name":"MANCHESTER @ MAR-EL COURT WB","stop_desc":"FAR SIDE MANCHESTER @ MAR-EL COURT WB","wheelchair_boarding":2,"routes":[{"route_id":"19616","agency_id":"70006","route_short_name":"57","route_long_name":"Manchester","route_type":3,"route_color":"#FFFFFF","route_text_color":"#000000"}],"agency_name":"Metro St. Louis"},"geometry":{"type":"Point","coordinates":[-90.57403,38.59281]}},{"type":"Feature","properties":{"stop_id":"5055","stop_code":"5055","stop_name":"MANCHESTER @ RANCHMOOR TRAIL WB","stop_desc":"FAR SIDE MANCHESTER @ RANCHMOOR TRAIL WB","wheelchair_boarding":2,"routes":[{"route_id":"19616","agency_id":"70006","route_short_name":"57","route_long_name":"Manchester","route_type":3,"route_color":"#FFFFFF","route_text_color":"#000000"}],"agency_name":"Metro St. Louis"},"geometry":{"type":"Point","coordinates":[-90.57645,38.59278]}},{"type":"Feature","properties":{"stop_id":"5056","stop_code":"5056","stop_name":"15715 MANCHESTER WB","stop_desc":"MID-BLOCK 15715 MANCHESTER WB","wheelchair_boarding":2,"routes":[{"route_id":"19616","agency_id":"70006","route_short_name":"57","route_long_name":"Manchester","route_type":3,"route_color":"#FFFFFF","route_text_color":"#000000"}],"agency_name":"Metro St. Louis"},"geometry":{"type":"Point","coordinates":[-90.5791,38.59277]}},{"type":"Feature","properties":{"stop_id":"5057","stop_code":"5057","stop_name":"MANCHESTER @ VESPER WB","stop_desc":"FAR SIDE MANCHESTER @ VESPER WB","wheelchair_boarding":2,"routes":[{"route_id":"19616","agency_id":"70006","route_short_name":"57","route_long_name":"Manchester","route_type":3,"route_color":"#FFFFFF","route_text_color":"#000000"}],"agency_name":"Metro St. Louis"},"geometry":{"type":"Point","coordinates":[-90.58138,38.59274]}},{"type":"Feature","properties":{"stop_id":"5058","stop_code":"5058","stop_name":"MANCHESTER @ DEVORE WB","stop_desc":"FAR SIDE MANCHESTER @ DEVORE WB","wheelchair_boarding":2,"routes":[{"route_id":"19616","agency_id":"70006","route_short_name":"57","route_long_name":"Manchester","route_type":3,"route_color":"#FFFFFF","route_text_color":"#000000"}],"agency_name":"Metro St. Louis"},"geometry":{"type":"Point","coordinates":[-90.58322,38.59274]}},{"type":"Feature","properties":{"stop_id":"5059","stop_code":"5059","stop_name":"MANCHESTER @ CLARKSON WB","stop_desc":"FAR SIDE MANCHESTER @ CLARKSON WB","wheelchair_boarding":2,"routes":[{"route_id":"19616","agency_id":"70006","route_short_name":"57","route_long_name":"Manchester","route_type":3,"route_color":"#FFFFFF","route_text_color":"#000000"}],"agency_name":"Metro St. Louis"},"geometry":{"type":"Point","coordinates":[-90.58708,38.5927]}},{"type":"Feature","properties":{"stop_id":"5060","stop_code":"5060","stop_name":"MANCHESTER @ WEIS WB","stop_desc":"NEAR SIDE MANCHESTER @ WEIS WB","wheelchair_boarding":2,"routes":[{"route_id":"19616","agency_id":"70006","route_short_name":"57","route_long_name":"Manchester","route_type":3,"route_color":"#FFFFFF","route_text_color":"#000000"}],"agency_name":"Metro St. Louis"},"geometry":{"type":"Point","coordinates":[-90.59172,38.59164]}}]}