{"type":"FeatureCollection","features":[{"type":"Feature","properties":{"agency_name":"Metro St. Louis","route_id":"19611","agency_id":"70006","route_short_name":"40","route_long_name":"Broadway-Halls Ferry","route_type":3,"route_color":"#FFFFFF","route_text_color":"#000000"},"geometry":{"type":"MultiLineString","coordinates":[[[-90.2027,38.62541],[-90.20271,38.62522],[-90.20267,38.62563],[-90.20264,38.62566],[-90.20259,38.62568],[-90.20253,38.62568],[-90.20249,38.62565],[-90.20246,38.62559],[-90.20257,38.62504],[-90.20253,38.62498],[-90.20231,38.62495],[-90.20188,38.62591],[-90.20104,38.62808],[-90.20056,38.62954],[-90.20017,38.63026],[-90.199,38.63002],[-90.19784,38.62976],[-90.19703,38.62965],[-90.1957,38.62937],[-90.19353,38.62886],[-90.18787,38.62744],[-90.18755,38.62821],[-90.1872,38.62915],[-90.18696,38.62973],[-90.18671,38.6305],[-90.1865,38.63121],[-90.18631,38.63125],[-90.18618,38.63131],[-90.18594,38.63148],[-90.18582,38.6316],[-90.18584,38.6319],[-90.18583,38.63231],[-90.18573,38.63282],[-90.18569,38.63311],[-90.18571,38.63388],[-90.1857,38.63429],[-90.18575,38.63512],[-90.18572,38.63529],[-90.18572,38.63567],[-90.1858,38.63708],[-90.18587,38.63951],[-90.18593,38.64025],[-90.18607,38.64114],[-90.18624,38.64247],[-90.18639,38.64335],[-90.18647,38.64371],[-90.18692,38.64526],[-90.18703,38.64562],[-90.18715,38.6459],[-90.18814,38.64788],[-90.18854,38.64863],[-90.18926,38.65006],[-90.18974,38.65105],[-90.19052,38.65258],[-90.19128,38.65414],[-90.19282,38.65716],[-90.19315,38.65776],[-90.19457,38.66058],[-90.19502,38.66165],[-90.19524,38.66208],[-90.19586,38.66317],[-90.19654,38.66451],[-90.19729,38.66604],[-90.19746,38.66634],[-90.19776,38.66671],[-90.19965,38.66868],[-90.20189,38.67106],[-90.20216,38.67138],[-90.20296,38.67241],[-90.20364,38.67334],[-90.20433,38.67424],[-90.20505,38.67523],[-90.20577,38.67608],[-90.20676,38.67713],[-90.20735,38.67763],[-90.2104,38.68002],[-90.21111,38.68044],[-90.21774,38.6842],[-90.22126,38.68687],[-90.22162,38.68717],[-90.22178,38.68733],[-90.22226,38.68789],[-90.22261,38.68835],[-90.22293,38.68884],[-90.2232,38.68932],[-90.22522,38.69413],[-90.22562,38.69504],[-90.22608,38.69594],[-90.22768,38.69873],[-90.22798,38.69931],[-90.22954,38.7029],[-90.22984,38.70354],[-90.22998,38.70397],[-90.23003,38.70418],[-90.2301,38.70464],[-90.23016,38.70531],[-90.23018,38.70642],[-90.2303,38.70856],[-90.23042,38.71116],[-90.23042,38.71178],[-90.23039,38.7121],[-90.23019,38.71316],[-90.22992,38.71492],[-90.22976,38.71573],[-90.22956,38.71698],[-90.22857,38.72268],[-90.22841,38.72369],[-90.22825,38.72454],[-90.22813,38.72532],[-90.22794,38.72633],[-90.22586,38.72692],[-90.22471,38.72717],[-90.22461,38.72711],[-90.22394,38.72734],[-90.22388,38.7274],[-90.22386,38.72748],[-90.22406,38.72761],[-90.22596,38.72711],[-90.22664,38.72704],[-90.22696,38.72699],[-90.22792,38.72679],[-90.22873,38.72652],[-90.23006,38.72587],[-90.23428,38.72358],[-90.23463,38.7234],[-90.23505,38.72322],[-90.23535,38.72311],[-90.23566,38.72303],[-90.23607,38.72295],[-90.23638,38.72291],[-90.237,38.72285],[-90.23974,38.72266],[-90.2398,38.72277],[-90.23992,38.72285],[-90.24036,38.72287],[-90.24169,38.72502],[-90.2418,38.72523],[-90.24223,38.72591],[-90.24277,38.72671],[-90.24328,38.72761],[-90.24602,38.73185],[-90.24625,38.73228],[-90.24669,38.73303],[-90.24717,38.73379],[-90.24816,38.73534],[-90.24852,38.73584],[-90.24947,38.73726],[-90.24979,38.73778],[-90.24998,38.73805],[-90.25072,38.73922],[-90.25099,38.73967],[-90.25124,38.74013],[-90.25155,38.74078],[-90.25203,38.74185],[-90.25219,38.74229],[-90.25268,38.74411],[-90.25367,38.7474],[-90.25485,38.75123],[-90.25546,38.75328],[-90.2565,38.75661],[-90.2568,38.75765],[-90.25706,38.75843],[-90.25818,38.76219],[-90.25843,38.76288],[-90.25867,38.76336],[-90.25901,38.76394],[-90.25923,38.76424],[-90.25971,38.76484],[-90.26003,38.76519],[-90.26039,38.76551],[-90.26259,38.76735],[-90.26534,38.76961],[-90.26701,38.77093],[-90.26716,38.77107],[-90.26802,38.77136],[-90.26839,38.77138],[-90.27028,38.77141],[-90.27166,38.77146],[-90.27573,38.77147],[-90.27615,38.7715],[-90.27719,38.77167],[-90.278,38.77174],[-90.27828,38.77173],[-90.27865,38.77168],[-90.27953,38.77171],[-90.27998,38.77145],[-90.28001,38.77063],[-90.28005,38.77025],[-90.28011,38.7699],[-90.27971,38.76982],[-90.2795,38.76981],[-90.27929,38.76982],[-90.27898,38.76986],[-90.27867,38.76996],[-90.27793,38.77039],[-90.27761,38.77053],[-90.27718,38.77066],[-90.27667,38.77072],[-90.27625,38.77074],[-90.27468,38.77071]]]}},{"type":"Feature","properties":{"stop_id":"10145","stop_code":"10145","stop_name":"HALLS FERRY @ COZENS NB","stop_desc":"FAR SIDE HALLS FERRY @ COZENS NB","wheelchair_boarding":1,"routes":[{"route_id":"19611","agency_id":"70006","route_short_name":"40","route_long_name":"Broadway-Halls Ferry","route_type":3,"route_color":"#FFFFFF","route_text_color":"#000000"},{"route_id":"19621","agency_id":"70006","route_short_name":"64","route_long_name":"Lucas-Hunt","route_type":3,"route_color":"#FFFFFF","route_text_color":"#000000"}],"agency_name":"Metro St. Louis"},"geometry":{"type":"Point","coordinates":[-90.24634,38.73265]}},{"type":"Feature","properties":{"stop_id":"10146","stop_code":"10146","stop_name":"HALLS FERRY @ GLEN GARDEN NB","stop_desc":"NEAR SIDE HALLS FERRY @ GLEN GARDEN NB","wheelchair_boarding":1,"routes":[{"route_id":"19611","agency_id":"70006","route_short_name":"40","route_long_name":"Broadway-Halls Ferry","route_type":3,"route_color":"#FFFFFF","route_text_color":"#000000"},{"route_id":"19621","agency_id":"70006","route_short_name":"64","route_long_name":"Lucas-Hunt","route_type":3,"route_color":"#FFFFFF","route_text_color":"#000000"}],"agency_name":"Metro St. Louis"},"geometry":{"type":"Point","coordinates":[-90.24701,38.73366]}},{"type":"Feature","properties":{"stop_id":"10148","stop_code":"10148","stop_name":"HALLS FERRY @ ST. CYR NB","stop_desc":"NEAR SIDE HALLS FERRY @ ST. CYR NB","wheelchair_boarding":1,"routes":[{"route_id":"19611","agency_id":"70006","route_short_name":"40","route_long_name":"Broadway-Halls Ferry","route_type":3,"route_color":"#FFFFFF","route_text_color":"#000000"},{"route_id":"19621","agency_id":"70006","route_short_name":"64","route_long_name":"Lucas-Hunt","route_type":3,"route_color":"#FFFFFF","route_text_color":"#000000"}],"agency_name":"Metro St. Louis"},"geometry":{"type":"Point","coordinates":[-90.24824,38.73556]}},{"type":"Feature","properties":{"stop_id":"10150","stop_code":"10150","stop_name":"HALLS FERRY @ DORWOOD NB","stop_desc":"FAR SIDE HALLS FERRY @ DORWOOD NB","wheelchair_boarding":2,"routes":[{"route_id":"19611","agency_id":"70006","route_short_name":"40","route_long_name":"Broadway-Halls Ferry","route_type":3,"route_color":"#FFFFFF","route_text_color":"#000000"},{"route_id":"19621","agency_id":"70006","route_short_name":"64","route_long_name":"Lucas-Hunt","route_type":3,"route_color":"#FFFFFF","route_text_color":"#000000"}],"agency_name":"Metro St. Louis"},"geometry":{"type":"Point","coordinates":[-90.25065,38.73932]}},{"type":"Feature","properties":{"stop_id":"10152","stop_code":"10152","stop_name":"HALLS FERRY @ LUCAS-HUNT NB","stop_desc":"FAR SIDE HALLS FERRY @ LUCAS-HUNT NB","wheelchair_boarding":2,"routes":[{"route_id":"19611","agency_id":"70006","route_short_name":"40","route_long_name":"Broadway-Halls Ferry","route_type":3,"route_color":"#FFFFFF","route_text_color":"#000000"}],"agency_name":"Metro St. Louis"},"geometry":{"type":"Point","coordinates":[-90.25229,38.74305]}},{"type":"Feature","properties":{"stop_id":"10154","stop_code":"10154","stop_name":"HALLS FERRY @ HECHT NB","stop_desc":"FAR SIDE HALLS FERRY @ HECHT NB","wheelchair_boarding":2,"routes":[{"route_id":"19611","agency_id":"70006","route_short_name":"40","route_long_name":"Broadway-Halls Ferry","route_type":3,"route_color":"#FFFFFF","route_text_color":"#000000"}],"agency_name":"Metro St. Louis"},"geometry":{"type":"Point","coordinates":[-90.25369,38.74774]}},{"type":"Feature","properties":{"stop_id":"10155","stop_code":"10155","stop_name":"HALLS FERRY @ CHAMBERS NB","stop_desc":"FAR SIDE HALLS FERRY @ CHAMBERS NB","wheelchair_boarding":2,"routes":[{"route_id":"19611","agency_id":"70006","route_short_name":"40","route_long_name":"Broadway-Halls Ferry","route_type":3,"route_color":"#FFFFFF","route_text_color":"#000000"}],"agency_name":"Metro St. Louis"},"geometry":{"type":"Point","coordinates":[-90.25433,38.74992]}},{"type":"Feature","properties":{"stop_id":"10156","stop_code":"10156","stop_name":"HALLS FERRY @ EMPIRE NB","stop_desc":"FAR SIDE HALLS FERRY @ EMPIRE NB","wheelchair_boarding":2,"routes":[{"route_id":"19611","agency_id":"70006","route_short_name":"40","route_long_name":"Broadway-Halls Ferry","route_type":3,"route_color":"#FFFFFF","route_text_color":"#000000"}],"agency_name":"Metro St. Louis"},"geometry":{"type":"Point","coordinates":[-90.25513,38.75248]}},{"type":"Feature","properties":{"stop_id":"10157","stop_code":"10157","stop_name":"HALLS FERRY @ CAPITOL NB","stop_desc":"FAR SIDE HALLS FERRY @ CAPITOL NB","wheelchair_boarding":2,"routes":[{"route_id":"19611","agency_id":"70006","route_short_name":"40","route_long_name":"Broadway-Halls Ferry","route_type":3,"route_color":"#FFFFFF","route_text_color":"#000000"}],"agency_name":"Metro St. Louis"},"geometry":{"type":"Point","coordinates":[-90.25585,38.75491]}},{"type":"Feature","properties":{"stop_id":"10158","stop_code":"10158","stop_name":"HALLS FERRY @ HUDSON NB","stop_desc":"NEAR SIDE HALLS FERRY @ HUDSON NB","wheelchair_boarding":2,"routes":[{"route_id":"19611","agency_id":"70006","route_short_name":"40","route_long_name":"Broadway-Halls Ferry","route_type":3,"route_color":"#FFFFFF","route_text_color":"#000000"}],"agency_name":"Metro St. Louis"},"geometry":{"type":"Point","coordinates":[-90.25707,38.75885]}},{"type":"Feature","properties":{"stop_id":"10159","stop_code":"10159","stop_name":"HALLS FERRY @ IBIS COURT NB","stop_desc":"FAR SIDE HALLS FERRY @ IBIS COURT NB","wheelchair_boarding":2,"routes":[{"route_id":"19611","agency_id":"70006","route_short_name":"40","route_long_name":"Broadway-Halls Ferry","route_type":3,"route_color":"#FFFFFF","route_text_color":"#000000"}],"agency_name":"Metro St. Louis"},"geometry":{"type":"Point","coordinates":[-90.25758,38.76058]}},{"type":"Feature","properties":{"stop_id":"10160","stop_code":"10160","stop_name":"HALLS FERRY @ VORHOF NB","stop_desc":"FAR SIDE HALLS FERRY @ VORHOF NB","wheelchair_boarding":2,"routes":[{"route_id":"19611","agency_id":"70006","route_short_name":"40","route_long_name":"Broadway-Halls Ferry","route_type":3,"route_color":"#FFFFFF","route_text_color":"#000000"}],"agency_name":"Metro St. Louis"},"geometry":{"type":"Point","coordinates":[-90.25826,38.7627]}},{"type":"Feature","properties":{"stop_id":"10161","stop_code":"10161","stop_name":"NEW HALLS FERRY @ WOODWIND NB","stop_desc":"NEAR SIDE NEW HALLS FERRY @ WOODWIND NB","wheelchair_boarding":2,"routes":[{"route_id":"19611","agency_id":"70006","route_short_name":"40","route_long_name":"Broadway-Halls Ferry","route_type":3,"route_color":"#FFFFFF","route_text_color":"#000000"}],"agency_name":"Metro St. Louis"},"geometry":{"type":"Point","coordinates":[-90.26225,38.7672]}},{"type":"Feature","properties":{"stop_id":"10162","stop_code":"10162","stop_name":"NEW HALLS FERRY @ CENTRAL CITY SHOPPING CTR NB","stop_desc":"FAR SIDE NEW HALLS FERRY @ CENTRAL CITY SHOPPING CTR NB","wheelchair_boarding":2,"routes":[{"route_id":"19611","agency_id":"70006","route_short_name":"40","route_long_name":"Broadway-Halls Ferry","route_type":3,"route_color":"#FFFFFF","route_text_color":"#000000"}],"agency_name":"Metro St. Louis"},"geometry":{"type":"Point","coordinates":[-90.26356,38.76827]}},{"type":"Feature","properties":{"stop_id":"10164","stop_code":"10164","stop_name":"DUNN @ NEW HALLS FERRY WB","stop_desc":"FAR SIDE DUNN @ NEW HALLS FERRY WB","wheelchair_boarding":2,"routes":[{"route_id":"19611","agency_id":"70006","route_short_name":"40","route_long_name":"Broadway-Halls Ferry","route_type":3,"route_color":"#FFFFFF","route_text_color":"#000000"},{"route_id":"19619","agency_id":"70006","route_short_name":"60","route_long_name":"Shepley-Lilac","route_type":3,"route_color":"#FFFFFF","route_text_color":"#000000"},{"route_id":"19627","agency_id":"70006","route_short_name":"78","route_long_name":"Bellefontaine","route_type":3,"route_color":"#FFFFFF","route_text_color":"#000000"}],"agency_name":"Metro St. Louis"},"geometry":{"type":"Point","coordinates":[-90.26924,38.77142]}},{"type":"Feature","properties":{"stop_id":"13355","stop_code":"13355","stop_name":"OLIVE @ 11TH STREET EB","stop_desc":"NEAR SIDE OLIVE @ 11TH STREET EB","wheelchair_boarding":1,"routes":[{"route_id":"19611","agency_id":"70006","route_short_name":"40","route_long_name":"Broadway-Halls Ferry","route_type":3,"route_color":"#FFFFFF","route_text_color":"#000000"}],"agency_name":"Metro St. Louis"},"geometry":{"type":"Point","coordinates":[-90.19584,38.62933]}},{"type":"Feature","properties":{"stop_id":"14454","stop_code":"14454","stop_name":"OLIVE @ 9TH STREET EB","stop_desc":"FAR SIDE OLIVE @ 9TH STREET EB","wheelchair_boarding":1,"routes":[{"route_id":"19611","agency_id":"70006","route_short_name":"40","route_long_name":"Broadway-Halls Ferry","route_type":3,"route_color":"#FFFFFF","route_text_color":"#000000"}],"agency_name":"Metro St. Louis"},"geometry":{"type":"Point","coordinates":[-90.19342,38.62874]}},{"type":"Feature","properties":{"stop_id":"15073","stop_code":"15073","stop_name":"RIVERVIEW @ BROADWAY EB","stop_desc":"FAR SIDE RIVERVIEW @ BROADWAY EB","wheelchair_boarding":2,"routes":[{"route_id":"19601","agency_id":"70006","route_short_name":"16","route_long_name":"City Limits","route_type":3,"route_color":"#FFFFFF","route_text_color":"#000000"},{"route_id":"19611","agency_id":"70006","route_short_name":"40","route_long_name":"Broadway-Halls Ferry","route_type":3,"route_color":"#FFFFFF","route_text_color":"#000000"},{"route_id":"19612","agency_id":"70006","route_short_name":"41","route_long_name":"Lee","route_type":3,"route_color":"#FFFFFF","route_text_color":"#000000"},{"route_id":"19619","agency_id":"70006","route_short_name":"60","route_long_name":"Shepley-Lilac","route_type":3,"route_color":"#FFFFFF","route_text_color":"#000000"},{"route_id":"19620","agency_id":"70006","route_short_name":"61","route_long_name":"Chambers Rd","route_type":3,"route_color":"#FFFFFF","route_text_color":"#000000"},{"route_id":"19621","agency_id":"70006","route_short_name":"64","route_long_name":"Lucas-Hunt","route_type":3,"route_color":"#FFFFFF","route_text_color":"#000000"},{"route_id":"19627","agency_id":"70006","route_short_name":"78","route_long_name":"Bellefontaine","route_type":3,"route_color":"#FFFFFF","route_text_color":"#000000"},{"route_id":"19629","agency_id":"70006","route_short_name":"90","route_long_name":"Hampton","route_type":3,"route_color":"#FFFFFF","route_text_color":"#000000"}],"agency_name":"Metro St. Louis"},"geometry":{"type":"Point","coordinates":[-90.22708,38.72658]}},{"type":"Feature","properties":{"stop_id":"15489","stop_code":"15489","stop_name":"8937 RIVERVIEW WB","stop_desc":"MID-BLOCK 8937 RIVERVIEW WB","wheelchair_boarding":2,"routes":[{"route_id":"19601","agency_id":"70006","route_short_name":"16","route_long_name":"City Limits","route_type":3,"route_color":"#FFFFFF","route_text_color":"#000000"},{"route_id":"19611","agency_id":"70006","route_short_name":"40","route_long_name":"Broadway-Halls Ferry","route_type":3,"route_color":"#FFFFFF","route_text_color":"#000000"},{"route_id":"19612","agency_id":"70006","route_short_name":"41","route_long_name":"Lee","route_type":3,"route_color":"#FFFFFF","route_text_color":"#000000"},{"route_id":"19619","agency_id":"70006","route_short_name":"60","route_long_name":"Shepley-Lilac","route_type":3,"route_color":"#FFFFFF","route_text_color":"#000000"},{"route_id":"19620","agency_id":"70006","route_short_name":"61","route_long_name":"Chambers Rd","route_type":3,"route_color":"#FFFFFF","route_text_color":"#000000"},{"route_id":"19621","agency_id":"70006","route_short_name":"64","route_long_name":"Lucas-Hunt","route_type":3,"route_color":"#FFFFFF","route_text_color":"#000000"},{"route_id":"19627","agency_id":"70006","route_short_name":"78","route_long_name":"Bellefontaine","route_type":3,"route_color":"#FFFFFF","route_text_color":"#000000"},{"route_id":"19629","agency_id":"70006","route_short_name":"90","route_long_name":"Hampton","route_type":3,"route_color":"#FFFFFF","route_text_color":"#000000"}],"agency_name":"Metro St. Louis"},"geometry":{"type":"Point","coordinates":[-90.22641,38.72709]}},{"type":"Feature","properties":{"stop_id":"1571","stop_code":"1571","stop_name":"OLIVE @ 6TH STREET EB","stop_desc":"FAR SIDE OLIVE @ 6TH STREET EB","wheelchair_boarding":1,"routes":[{"route_id":"19611","agency_id":"70006","route_short_name":"40","route_long_name":"Broadway-Halls Ferry","route_type":3,"route_color":"#FFFFFF","route_text_color":"#000000"}],"agency_name":"Metro St. Louis"},"geometry":{"type":"Point","coordinates":[-90.18995,38.62785]}},{"type":"Feature","properties":{"stop_id":"15790","stop_code":"15790","stop_name":"N BROADWAY @ BIDDLE NB","stop_desc":"FAR SIDE N BROADWAY @ BIDDLE NB","wheelchair_boarding":1,"routes":[{"route_id":"19611","agency_id":"70006","route_short_name":"40","route_long_name":"Broadway-Halls Ferry","route_type":3,"route_color":"#FFFFFF","route_text_color":"#000000"}],"agency_name":"Metro St. Louis"},"geometry":{"type":"Point","coordinates":[-90.1857,38.63601]}},{"type":"Feature","properties":{"stop_id":"15951","stop_code":"15951","stop_name":"HALLS FERRY @ DAWN NB","stop_desc":"NEAR SIDE HALLS FERRY @ DAWN NB","wheelchair_boarding":1,"routes":[{"route_id":"19611","agency_id":"70006","route_short_name":"40","route_long_name":"Broadway-Halls Ferry","route_type":3,"route_color":"#FFFFFF","route_text_color":"#000000"},{"route_id":"19621","agency_id":"70006","route_short_name":"64","route_long_name":"Lucas-Hunt","route_type":3,"route_color":"#FFFFFF","route_text_color":"#000000"}],"agency_name":"Metro St. Louis"},"geometry":{"type":"Point","coordinates":[-90.24541,38.73106]}},{"type":"Feature","properties":{"stop_id":"16146","stop_code":"16146","stop_name":"NORTH COUNTY TRANSIT CENTER","wheelchair_boarding":1,"routes":[{"route_id":"19611","agency_id":"70006","route_short_name":"40","route_long_name":"Broadway-Halls Ferry","route_type":3,"route_color":"#FFFFFF","route_text_color":"#000000"},{"route_id":"19619","agency_id":"70006","route_short_name":"60","route_long_name":"Shepley-Lilac","route_type":3,"route_color":"#FFFFFF","route_text_color":"#000000"},{"route_id":"19624","agency_id":"70006","route_short_name":"74","route_long_name":"Florissant","route_type":3,"route_color":"#FFFFFF","route_text_color":"#000000"},{"route_id":"19627","agency_id":"70006","route_short_name":"78","route_long_name":"Bellefontaine","route_type":3,"route_color":"#FFFFFF","route_text_color":"#000000"}],"agency_name":"Metro St. Louis"},"geometry":{"type":"Point","coordinates":[-90.27452,38.76987]}},{"type":"Feature","properties":{"stop_id":"16297","stop_code":"16297","stop_name":"DUNN @ WEST FLORISSANT WB","stop_desc":"NEAR SIDE DUNN @ WEST FLORISSANT WB","wheelchair_boarding":2,"routes":[{"route_id":"19611","agency_id":"70006","route_short_name":"40","route_long_name":"Broadway-Halls Ferry","route_type":3,"route_color":"#FFFFFF","route_text_color":"#000000"},{"route_id":"19619","agency_id":"70006","route_short_name":"60","route_long_name":"Shepley-Lilac","route_type":3,"route_color":"#FFFFFF","route_text_color":"#000000"},{"route_id":"19627","agency_id":"70006","route_short_name":"78","route_long_name":"Bellefontaine","route_type":3,"route_color":"#FFFFFF","route_text_color":"#000000"}],"agency_name":"Metro St. Louis"},"geometry":{"type":"Point","coordinates":[-90.27903,38.77177]}},{"type":"Feature","properties":{"stop_id":"16298","stop_code":"16298","stop_name":"DUNN @ CLOCK TOWER WB","stop_desc":"FAR SIDE DUNN @ CLOCK TOWER WB","wheelchair_boarding":2,"routes":[{"route_id":"19611","agency_id":"70006","route_short_name":"40","route_long_name":"Broadway-Halls Ferry","route_type":3,"route_color":"#FFFFFF","route_text_color":"#000000"},{"route_id":"19619","agency_id":"70006","route_short_name":"60","route_long_name":"Shepley-Lilac","route_type":3,"route_color":"#FFFFFF","route_text_color":"#000000"},{"route_id":"19627","agency_id":"70006","route_short_name":"78","route_long_name":"Bellefontaine","route_type":3,"route_color":"#FFFFFF","route_text_color":"#000000"}],"agency_name":"Metro St. Louis"},"geometry":{"type":"Point","coordinates":[-90.2778,38.77181]}},{"type":"Feature","properties":{"stop_id":"1631","stop_code":"1631","stop_name":"4TH STREET @ LOCUST NB","stop_desc":"FAR SIDE 4TH STREET @ LOCUST NB","wheelchair_boarding":1,"routes":[{"route_id":"19611","agency_id":"70006","route_short_name":"40","route_long_name":"Broadway-Halls Ferry","route_type":3,"route_color":"#FFFFFF","route_text_color":"#000000"}],"agency_name":"Metro St. Louis"},"geometry":{"type":"Point","coordinates":[-90.18739,38.62859]}},{"type":"Feature","properties":{"stop_id":"1632","stop_code":"1632","stop_name":"4TH STREET @ WASHINGTON NB","stop_desc":"FAR SIDE 4TH STREET @ WASHINGTON NB","wheelchair_boarding":1,"routes":[{"route_id":"19611","agency_id":"70006","route_short_name":"40","route_long_name":"Broadway-Halls Ferry","route_type":3,"route_color":"#FFFFFF","route_text_color":"#000000"}],"agency_name":"Metro St. Louis"},"geometry":{"type":"Point","coordinates":[-90.18682,38.62989]}},{"type":"Feature","properties":{"stop_id":"16341","stop_code":"16341","stop_name":"NEW HALLS FERRY @ OLD HALLS FERRY NB","stop_desc":"FAR SIDE NEW HALLS FERRY @ OLD HALLS FERRY NB","wheelchair_boarding":2,"routes":[{"route_id":"19611","agency_id":"70006","route_short_name":"40","route_long_name":"Broadway-Halls Ferry","route_type":3,"route_color":"#FFFFFF","route_text_color":"#000000"}],"agency_name":"Metro St. Louis"},"geometry":{"type":"Point","coordinates":[-90.26034,38.76558]}},{"type":"Feature","properties":{"stop_id":"16465","stop_code":"16465","stop_name":"DUNN @ SUGARPINES WB","stop_desc":"NEAR SIDE DUNN @ SUGARPINES WB","wheelchair_boarding":2,"routes":[{"route_id":"19611","agency_id":"70006","route_short_name":"40","route_long_name":"Broadway-Halls Ferry","route_type":3,"route_color":"#FFFFFF","route_text_color":"#000000"},{"route_id":"19619","agency_id":"70006","route_short_name":"60","route_long_name":"Shepley-Lilac","route_type":3,"route_color":"#FFFFFF","route_text_color":"#000000"},{"route_id":"19627","agency_id":"70006","route_short_name":"78","route_long_name":"Bellefontaine","route_type":3,"route_color":"#FFFFFF","route_text_color":"#000000"}],"agency_name":"Metro St. Louis"},"geometry":{"type":"Point","coordinates":[-90.27105,38.77144]}},{"type":"Feature","properties":{"stop_id":"3693","stop_code":"3693","stop_name":"PERSHALL @ METRO PLAZA EB","stop_desc":"MID-BLOCK PERSHALL @ METRO PLAZA EB","wheelchair_boarding":2,"routes":[{"route_id":"19611","agency_id":"70006","route_short_name":"40","route_long_name":"Broadway-Halls Ferry","route_type":3,"route_color":"#FFFFFF","route_text_color":"#000000"},{"route_id":"19619","agency_id":"70006","route_short_name":"60","route_long_name":"Shepley-Lilac","route_type":3,"route_color":"#FFFFFF","route_text_color":"#000000"},{"route_id":"19624","agency_id":"70006","route_short_name":"74","route_long_name":"Florissant","route_type":3,"route_color":"#FFFFFF","route_text_color":"#000000"},{"route_id":"19626","agency_id":"70006","route_short_name":"77","route_long_name":"Village Square","route_type":3,"route_color":"#FFFFFF","route_text_color":"#000000"},{"route_id":"19627","agency_id":"70006","route_short_name":"78","route_long_name":"Bellefontaine","route_type":3,"route_color":"#FFFFFF","route_text_color":"#000000"},{"route_id":"19628","agency_id":"70006","route_short_name":"79","route_long_name":"Ferguson-Clayton","route_type":3,"route_color":"#FFFFFF","route_text_color":"#000000"}],"agency_name":"Metro St. Louis"},"geometry":{"type":"Point","coordinates":[-90.27873,38.77001]}},{"type":"Feature","properties":{"stop_id":"4167","stop_code":"4167","stop_name":"BROADWAY @ JOHN NB","stop_desc":"FAR SIDE BROADWAY @ JOHN NB","wheelchair_boarding":1,"routes":[{"route_id":"19611","agency_id":"70006","route_short_name":"40","route_long_name":"Broadway-Halls Ferry","route_type":3,"route_color":"#FFFFFF","route_text_color":"#000000"},{"route_id":"19622","agency_id":"70006","route_short_name":"70","route_long_name":"Grand","route_type":3,"route_color":"#FFFFFF","route_text_color":"#000000"}],"agency_name":"Metro St. Louis"},"geometry":{"type":"Point","coordinates":[-90.20439,38.67449]}},{"type":"Feature","properties":{"stop_id":"6297","stop_code":"6297","stop_name":"HALLS FERRY @ COTTONWOOD NB","stop_desc":"NEAR SIDE HALLS FERRY @ COTTONWOOD NB","wheelchair_boarding":2,"routes":[{"route_id":"19611","agency_id":"70006","route_short_name":"40","route_long_name":"Broadway-Halls Ferry","route_type":3,"route_color":"#FFFFFF","route_text_color":"#000000"},{"route_id":"19621","agency_id":"70006","route_short_name":"64","route_long_name":"Lucas-Hunt","route_type":3,"route_color":"#FFFFFF","route_text_color":"#000000"}],"agency_name":"Metro St. Louis"},"geometry":{"type":"Point","coordinates":[-90.24108,38.7242]}},{"type":"Feature","properties":{"stop_id":"6298","stop_code":"6298","stop_name":"HALLS FERRY @ EDGEWATER NB","stop_desc":"NEAR SIDE HALLS FERRY @ EDGEWATER NB","wheelchair_boarding":1,"routes":[{"route_id":"19611","agency_id":"70006","route_short_name":"40","route_long_name":"Broadway-Halls Ferry","route_type":3,"route_color":"#FFFFFF","route_text_color":"#000000"},{"route_id":"19621","agency_id":"70006","route_short_name":"64","route_long_name":"Lucas-Hunt","route_type":3,"route_color":"#FFFFFF","route_text_color":"#000000"}],"agency_name":"Metro St. Louis"},"geometry":{"type":"Point","coordinates":[-90.24267,38.72678]}},{"type":"Feature","properties":{"stop_id":"6587","stop_code":"6587","stop_name":"BROADWAY @ CASS NB","stop_desc":"NEAR SIDE BROADWAY @ CASS NB","wheelchair_boarding":2,"routes":[{"route_id":"19611","agency_id":"70006","route_short_name":"40","route_long_name":"Broadway-Halls Ferry","route_type":3,"route_color":"#FFFFFF","route_text_color":"#000000"}],"agency_name":"Metro St. Louis"},"geometry":{"type":"Point","coordinates":[-90.18578,38.6393]}},{"type":"Feature","properties":{"stop_id":"6589","stop_code":"6589","stop_name":"BROADWAY @ BROOKLYN NB","stop_desc":"NEAR SIDE BROADWAY @ BROOKLYN NB","wheelchair_boarding":1,"routes":[{"route_id":"19611","agency_id":"70006","route_short_name":"40","route_long_name":"Broadway-Halls Ferry","route_type":3,"route_color":"#FFFFFF","route_text_color":"#000000"}],"agency_name":"Metro St. Louis"},"geometry":{"type":"Point","coordinates":[-90.18631,38.64341]}},{"type":"Feature","properties":{"stop_id":"6595","stop_code":"6595","stop_name":"BROADWAY @ NORTH MARKET NB","stop_desc":"FAR SIDE BROADWAY @ NORTH MARKET NB","wheelchair_boarding":1,"routes":[{"route_id":"19611","agency_id":"70006","route_short_name":"40","route_long_name":"Broadway-Halls Ferry","route_type":3,"route_color":"#FFFFFF","route_text_color":"#000000"}],"agency_name":"Metro St. Louis"},"geometry":{"type":"Point","coordinates":[-90.18942,38.65054]}},{"type":"Feature","properties":{"stop_id":"6597","stop_code":"6597","stop_name":"BROADWAY @ ST. LOUIS NB","stop_desc":"FAR SIDE BROADWAY @ ST. LOUIS NB","wheelchair_boarding":1,"routes":[{"route_id":"19611","agency_id":"70006","route_short_name":"40","route_long_name":"Broadway-Halls Ferry","route_type":3,"route_color":"#FFFFFF","route_text_color":"#000000"}],"agency_name":"Metro St. Louis"},"geometry":{"type":"Point","coordinates":[-90.19097,38.65366]}},{"type":"Feature","properties":{"stop_id":"6600","stop_code":"6600","stop_name":"BROADWAY @ DOCK NB","stop_desc":"NEAR SIDE BROADWAY @ DOCK NB","wheelchair_boarding":1,"routes":[{"route_id":"19611","agency_id":"70006","route_short_name":"40","route_long_name":"Broadway-Halls Ferry","route_type":3,"route_color":"#FFFFFF","route_text_color":"#000000"}],"agency_name":"Metro St. Louis"},"geometry":{"type":"Point","coordinates":[-90.19268,38.65707]}},{"type":"Feature","properties":{"stop_id":"6602","stop_code":"6602","stop_name":"BROADWAY @ ANGELRODT NB","stop_desc":"MID-BLOCK BROADWAY @ ANGELRODT NB","wheelchair_boarding":1,"routes":[{"route_id":"19611","agency_id":"70006","route_short_name":"40","route_long_name":"Broadway-Halls Ferry","route_type":3,"route_color":"#FFFFFF","route_text_color":"#000000"}],"agency_name":"Metro St. Louis"},"geometry":{"type":"Point","coordinates":[-90.19418,38.66006]}},{"type":"Feature","properties":{"stop_id":"6605","stop_code":"6605","stop_name":"BROADWAY @ SALISBURY NB","stop_desc":"FAR SIDE BROADWAY @ SALISBURY NB","wheelchair_boarding":2,"routes":[{"route_id":"19611","agency_id":"70006","route_short_name":"40","route_long_name":"Broadway-Halls Ferry","route_type":3,"route_color":"#FFFFFF","route_text_color":"#000000"}],"agency_name":"Metro St. Louis"},"geometry":{"type":"Point","coordinates":[-90.19544,38.66262]}},{"type":"Feature","properties":{"stop_id":"6606","stop_code":"6606","stop_name":"BROADWAY @ BREMEN NB","stop_desc":"FAR SIDE BROADWAY @ BREMEN NB","wheelchair_boarding":2,"routes":[{"route_id":"19611","agency_id":"70006","route_short_name":"40","route_long_name":"Broadway-Halls Ferry","route_type":3,"route_color":"#FFFFFF","route_text_color":"#000000"}],"agency_name":"Metro St. Louis"},"geometry":{"type":"Point","coordinates":[-90.1966,38.66482]}},{"type":"Feature","properties":{"stop_id":"6609","stop_code":"6609","stop_name":"BROADWAY @ PENROSE NB","stop_desc":"NEAR SIDE BROADWAY @ PENROSE NB","wheelchair_boarding":1,"routes":[{"route_id":"19611","agency_id":"70006","route_short_name":"40","route_long_name":"Broadway-Halls Ferry","route_type":3,"route_color":"#FFFFFF","route_text_color":"#000000"}],"agency_name":"Metro St. Louis"},"geometry":{"type":"Point","coordinates":[-90.19945,38.66858]}},{"type":"Feature","properties":{"stop_id":"6612","stop_code":"6612","stop_name":"BROADWAY @ GRAND NB","stop_desc":"MID-BLOCK BROADWAY @ GRAND NB","wheelchair_boarding":1,"routes":[{"route_id":"19611","agency_id":"70006","route_short_name":"40","route_long_name":"Broadway-Halls Ferry","route_type":3,"route_color":"#FFFFFF","route_text_color":"#000000"}],"agency_name":"Metro St. Louis"},"geometry":{"type":"Point","coordinates":[-90.20258,38.67209]}},{"type":"Feature","properties":{"stop_id":"6614","stop_code":"6614","stop_name":"BROADWAY @ PRAIRIE NB","stop_desc":"FAR SIDE BROADWAY @ PRAIRIE NB","wheelchair_boarding":1,"routes":[{"route_id":"19611","agency_id":"70006","route_short_name":"40","route_long_name":"Broadway-Halls Ferry","route_type":3,"route_color":"#FFFFFF","route_text_color":"#000000"},{"route_id":"19622","agency_id":"70006","route_short_name":"70","route_long_name":"Grand","route_type":3,"route_color":"#FFFFFF","route_text_color":"#000000"}],"agency_name":"Metro St. Louis"},"geometry":{"type":"Point","coordinates":[-90.20588,38.67639]}},{"type":"Feature","properties":{"stop_id":"6616","stop_code":"6616","stop_name":"BROADWAY @ TALCOTT NB","stop_desc":"FAR SIDE BROADWAY @ TALCOTT NB","wheelchair_boarding":1,"routes":[{"route_id":"19611","agency_id":"70006","route_short_name":"40","route_long_name":"Broadway-Halls Ferry","route_type":3,"route_color":"#FFFFFF","route_text_color":"#000000"},{"route_id":"19622","agency_id":"70006","route_short_name":"70","route_long_name":"Grand","route_type":3,"route_color":"#FFFFFF","route_text_color":"#000000"}],"agency_name":"Metro St. Louis"},"geometry":{"type":"Point","coordinates":[-90.20815,38.67836]}},{"type":"Feature","properties":{"stop_id":"6618","stop_code":"6618","stop_name":"BROADWAY @ ADELAIDE NB","stop_desc":"FAR SIDE BROADWAY @ ADELAIDE NB","wheelchair_boarding":2,"routes":[{"route_id":"19611","agency_id":"70006","route_short_name":"40","route_long_name":"Broadway-Halls Ferry","route_type":3,"route_color":"#FFFFFF","route_text_color":"#000000"},{"route_id":"19622","agency_id":"70006","route_short_name":"70","route_long_name":"Grand","route_type":3,"route_color":"#FFFFFF","route_text_color":"#000000"}],"agency_name":"Metro St. Louis"},"geometry":{"type":"Point","coordinates":[-90.21071,38.68029]}},{"type":"Feature","properties":{"stop_id":"6621","stop_code":"6621","stop_name":"BROADWAY @ RED BUD NB","stop_desc":"NEAR SIDE BROADWAY @ RED BUD NB","wheelchair_boarding":1,"routes":[{"route_id":"19611","agency_id":"70006","route_short_name":"40","route_long_name":"Broadway-Halls Ferry","route_type":3,"route_color":"#FFFFFF","route_text_color":"#000000"},{"route_id":"19622","agency_id":"70006","route_short_name":"70","route_long_name":"Grand","route_type":3,"route_color":"#FFFFFF","route_text_color":"#000000"}],"agency_name":"Metro St. Louis"},"geometry":{"type":"Point","coordinates":[-90.21343,38.68182]}},{"type":"Feature","properties":{"stop_id":"6623","stop_code":"6623","stop_name":"BROADWAY @ CLARENCE NB","stop_desc":"FAR SIDE BROADWAY @ CLARENCE NB","wheelchair_boarding":2,"routes":[{"route_id":"19611","agency_id":"70006","route_short_name":"40","route_long_name":"Broadway-Halls Ferry","route_type":3,"route_color":"#FFFFFF","route_text_color":"#000000"},{"route_id":"19622","agency_id":"70006","route_short_name":"70","route_long_name":"Grand","route_type":3,"route_color":"#FFFFFF","route_text_color":"#000000"}],"agency_name":"Metro St. Louis"},"geometry":{"type":"Point","coordinates":[-90.21662,38.68364]}},{"type":"Feature","properties":{"stop_id":"6625","stop_code":"6625","stop_name":"BROADWAY @ NORTH BROADWAY TRANSIT CTR NB","stop_desc":"NEAR SIDE BROADWAY @ NORTH BROADWAY TRANSIT CTR NB","wheelchair_boarding":1,"routes":[{"route_id":"19611","agency_id":"70006","route_short_name":"40","route_long_name":"Broadway-Halls Ferry","route_type":3,"route_color":"#FFFFFF","route_text_color":"#000000"}],"agency_name":"Metro St. Louis"},"geometry":{"type":"Point","coordinates":[-90.22026,38.68627]}},{"type":"Feature","properties":{"stop_id":"6627","stop_code":"6627","stop_name":"BROADWAY @ SWERINGEN NB","stop_desc":"FAR SIDE BROADWAY @ SWERINGEN NB","wheelchair_boarding":2,"routes":[{"route_id":"19611","agency_id":"70006","route_short_name":"40","route_long_name":"Broadway-Halls Ferry","route_type":3,"route_color":"#FFFFFF","route_text_color":"#000000"}],"agency_name":"Metro St. Louis"},"geometry":{"type":"Point","coordinates":[-90.22319,38.68957]}},{"type":"Feature","properties":{"stop_id":"6628","stop_code":"6628","stop_name":"BROADWAY @ KEBER NB","stop_desc":"FAR SIDE BROADWAY @ KEBER NB","wheelchair_boarding":2,"routes":[{"route_id":"19611","agency_id":"70006","route_short_name":"40","route_long_name":"Broadway-Halls Ferry","route_type":3,"route_color":"#FFFFFF","route_text_color":"#000000"}],"agency_name":"Metro St. Louis"},"geometry":{"type":"Point","coordinates":[-90.22466,38.69304]}},{"type":"Feature","properties":{"stop_id":"6629","stop_code":"6629","stop_name":"BROADWAY @ HUMBOLDT NB","stop_desc":"FAR SIDE BROADWAY @ HUMBOLDT NB","wheelchair_boarding":2,"routes":[{"route_id":"19611","agency_id":"70006","route_short_name":"40","route_long_name":"Broadway-Halls Ferry","route_type":3,"route_color":"#FFFFFF","route_text_color":"#000000"}],"agency_name":"Metro St. Louis"},"geometry":{"type":"Point","coordinates":[-90.22634,38.69662]}},{"type":"Feature","properties":{"stop_id":"6632","stop_code":"6632","stop_name":"BROADWAY @ CALVARY NB","stop_desc":"FAR SIDE BROADWAY @ CALVARY NB","wheelchair_boarding":2,"routes":[{"route_id":"19611","agency_id":"70006","route_short_name":"40","route_long_name":"Broadway-Halls Ferry","route_type":3,"route_color":"#FFFFFF","route_text_color":"#000000"}],"agency_name":"Metro St. Louis"},"geometry":{"type":"Point","coordinates":[-90.22843,38.70063]}},{"type":"Feature","properties":{"stop_id":"6635","stop_code":"6635","stop_name":"BROADWAY @ BLASE NB","stop_desc":"FAR SIDE BROADWAY @ BLASE NB","wheelchair_boarding":1,"routes":[{"route_id":"19611","agency_id":"70006","route_short_name":"40","route_long_name":"Broadway-Halls Ferry","route_type":3,"route_color":"#FFFFFF","route_text_color":"#000000"}],"agency_name":"Metro St. Louis"},"geometry":{"type":"Point","coordinates":[-90.2301,38.70675]}},{"type":"Feature","properties":{"stop_id":"6637","stop_code":"6637","stop_name":"BROADWAY @ BITTNER NB","stop_desc":"NEAR SIDE BROADWAY @ BITTNER NB","wheelchair_boarding":1,"routes":[{"route_id":"19611","agency_id":"70006","route_short_name":"40","route_long_name":"Broadway-Halls Ferry","route_type":3,"route_color":"#FFFFFF","route_text_color":"#000000"}],"agency_name":"Metro St. Louis"},"geometry":{"type":"Point","coordinates":[-90.23025,38.71014]}},{"type":"Feature","properties":{"stop_id":"6640","stop_code":"6640","stop_name":"BROADWAY @ PELHAM NB","stop_desc":"FAR SIDE BROADWAY @ PELHAM NB","wheelchair_boarding":1,"routes":[{"route_id":"19611","agency_id":"70006","route_short_name":"40","route_long_name":"Broadway-Halls Ferry","route_type":3,"route_color":"#FFFFFF","route_text_color":"#000000"}],"agency_name":"Metro St. Louis"},"geometry":{"type":"Point","coordinates":[-90.23002,38.71364]}},{"type":"Feature","properties":{"stop_id":"6642","stop_code":"6642","stop_name":"BROADWAY @ DODDRIDGE NB","stop_desc":"NEAR SIDE BROADWAY @ DODDRIDGE NB","wheelchair_boarding":2,"routes":[{"route_id":"19611","agency_id":"70006","route_short_name":"40","route_long_name":"Broadway-Halls Ferry","route_type":3,"route_color":"#FFFFFF","route_text_color":"#000000"}],"agency_name":"Metro St. Louis"},"geometry":{"type":"Point","coordinates":[-90.22952,38.71679]}},{"type":"Feature","properties":{"stop_id":"6643","stop_code":"6643","stop_name":"BROADWAY @ HORNSBY NB","stop_desc":"MID-BLOCK BROADWAY @ HORNSBY NB","wheelchair_boarding":2,"routes":[{"route_id":"19611","agency_id":"70006","route_short_name":"40","route_long_name":"Broadway-Halls Ferry","route_type":3,"route_color":"#FFFFFF","route_text_color":"#000000"}],"agency_name":"Metro St. Louis"},"geometry":{"type":"Point","coordinates":[-90.22916,38.71885]}},{"type":"Feature","properties":{"stop_id":"6645","stop_code":"6645","stop_name":"BROADWAY @ HARLAN NB","stop_desc":"NEAR SIDE BROADWAY @ HARLAN NB","wheelchair_boarding":2,"routes":[{"route_id":"19611","agency_id":"70006","route_short_name":"40","route_long_name":"Broadway-Halls Ferry","route_type":3,"route_color":"#FFFFFF","route_text_color":"#000000"}],"agency_name":"Metro St. Louis"},"geometry":{"type":"Point","coordinates":[-90.22868,38.72146]}},{"type":"Feature","properties":{"stop_id":"6646","stop_code":"6646","stop_name":"BROADWAY @ LOGAN NB","stop_desc":"NEAR SIDE BROADWAY @ LOGAN NB","wheelchair_boarding":2,"routes":[{"route_id":"19611","agency_id":"70006","route_short_name":"40","route_long_name":"Broadway-Halls Ferry","route_type":3,"route_color":"#FFFFFF","route_text_color":"#000000"}],"agency_name":"Metro St. Louis"},"geometry":{"type":"Point","coordinates":[-90.2282,38.72429]}},{"type":"Feature","properties":{"stop_id":"6649","stop_code":"6649","stop_name":"RIVERVIEW TRANSIT CENTER","wheelchair_boarding":1,"routes":[{"route_id":"19601","agency_id":"70006","route_short_name":"16","route_long_name":"City Limits","route_type":3,"route_color":"#FFFFFF","route_text_color":"#000000"},{"route_id":"19611","agency_id":"70006","route_short_name":"40","route_long_name":"Broadway-Halls Ferry","route_type":3,"route_color":"#FFFFFF","route_text_color":"#000000"},{"route_id":"19612","agency_id":"70006","route_short_name":"41","route_long_name":"Lee","route_type":3,"route_color":"#FFFFFF","route_text_color":"#000000"},{"route_id":"19619","agency_id":"70006","route_short_name":"60","route_long_name":"Shepley-Lilac","route_type":3,"route_color":"#FFFFFF","route_text_color":"#000000"}],"agency_name":"Metro St. Louis"},"geometry":{"type":"Point","coordinates":[-90.22406,38.7273]}},{"type":"Feature","properties":{"stop_id":"6651","stop_code":"6651","stop_name":"RIVERVIEW @ BROADWAY WB","stop_desc":"FAR SIDE RIVERVIEW @ BROADWAY WB","wheelchair_boarding":1,"routes":[{"route_id":"19611","agency_id":"70006","route_short_name":"40","route_long_name":"Broadway-Halls Ferry","route_type":3,"route_color":"#FFFFFF","route_text_color":"#000000"},{"route_id":"19612","agency_id":"70006","route_short_name":"41","route_long_name":"Lee","route_type":3,"route_color":"#FFFFFF","route_text_color":"#000000"},{"route_id":"19621","agency_id":"70006","route_short_name":"64","route_long_name":"Lucas-Hunt","route_type":3,"route_color":"#FFFFFF","route_text_color":"#000000"},{"route_id":"19629","agency_id":"70006","route_short_name":"90","route_long_name":"Hampton","route_type":3,"route_color":"#FFFFFF","route_text_color":"#000000"}],"agency_name":"Metro St. Louis"},"geometry":{"type":"Point","coordinates":[-90.22827,38.7267]}},{"type":"Feature","properties":{"stop_id":"6652","stop_code":"6652","stop_name":"RIVERVIEW @ CHURCH WB","stop_desc":"FAR SIDE RIVERVIEW @ CHURCH WB","wheelchair_boarding":2,"routes":[{"route_id":"19611","agency_id":"70006","route_short_name":"40","route_long_name":"Broadway-Halls Ferry","route_type":3,"route_color":"#FFFFFF","route_text_color":"#000000"},{"route_id":"19612","agency_id":"70006","route_short_name":"41","route_long_name":"Lee","route_type":3,"route_color":"#FFFFFF","route_text_color":"#000000"},{"route_id":"19621","agency_id":"70006","route_short_name":"64","route_long_name":"Lucas-Hunt","route_type":3,"route_color":"#FFFFFF","route_text_color":"#000000"},{"route_id":"19629","agency_id":"70006","route_short_name":"90","route_long_name":"Hampton","route_type":3,"route_color":"#FFFFFF","route_text_color":"#000000"}],"agency_name":"Metro St. Louis"},"geometry":{"type":"Point","coordinates":[-90.23187,38.72493]}},{"type":"Feature","properties":{"stop_id":"6653","stop_code":"6653","stop_name":"RIVERVIEW @ NEWBY WB","stop_desc":"NEAR SIDE RIVERVIEW @ NEWBY WB","wheelchair_boarding":2,"routes":[{"route_id":"19611","agency_id":"70006","route_short_name":"40","route_long_name":"Broadway-Halls Ferry","route_type":3,"route_color":"#FFFFFF","route_text_color":"#000000"},{"route_id":"19612","agency_id":"70006","route_short_name":"41","route_long_name":"Lee","route_type":3,"route_color":"#FFFFFF","route_text_color":"#000000"},{"route_id":"19621","agency_id":"70006","route_short_name":"64","route_long_name":"Lucas-Hunt","route_type":3,"route_color":"#FFFFFF","route_text_color":"#000000"},{"route_id":"19629","agency_id":"70006","route_short_name":"90","route_long_name":"Hampton","route_type":3,"route_color":"#FFFFFF","route_text_color":"#000000"}],"agency_name":"Metro St. Louis"},"geometry":{"type":"Point","coordinates":[-90.2345,38.72357]}},{"type":"Feature","properties":{"stop_id":"6655","stop_code":"6655","stop_name":"RIVERVIEW @ HALLS FERRY CIRCLE WB","stop_desc":"NEAR SIDE RIVERVIEW @ HALLS FERRY CIRCLE WB","wheelchair_boarding":2,"routes":[{"route_id":"19611","agency_id":"70006","route_short_name":"40","route_long_name":"Broadway-Halls Ferry","route_type":3,"route_color":"#FFFFFF","route_text_color":"#000000"},{"route_id":"19612","agency_id":"70006","route_short_name":"41","route_long_name":"Lee","route_type":3,"route_color":"#FFFFFF","route_text_color":"#000000"},{"route_id":"19621","agency_id":"70006","route_short_name":"64","route_long_name":"Lucas-Hunt","route_type":3,"route_color":"#FFFFFF","route_text_color":"#000000"},{"route_id":"19629","agency_id":"70006","route_short_name":"90","route_long_name":"Hampton","route_type":3,"route_color":"#FFFFFF","route_text_color":"#000000"}],"agency_name":"Metro St. Louis"},"geometry":{"type":"Point","coordinates":[-90.23936,38.72268]}},{"type":"Feature","properties":{"stop_id":"7651","stop_code":"7651","stop_name":"14TH STREET @ CHESTNUT NB","stop_desc":"NEAR SIDE 14TH STREET @ CHESTNUT NB","wheelchair_boarding":1,"routes":[{"route_id":"19598","agency_id":"70006","route_short_name":"10","route_long_name":"Gravois-Lindell","route_type":3,"route_color":"#FFFFFF","route_text_color":"#000000"},{"route_id":"19607","agency_id":"70006","route_short_name":"32","route_long_name":"Dr ML King","route_type":3,"route_color":"#FFFFFF","route_text_color":"#000000"},{"route_id":"19611","agency_id":"70006","route_short_name":"40","route_long_name":"Broadway-Halls Ferry","route_type":3,"route_color":"#FFFFFF","route_text_color":"#000000"},{"route_id":"19612","agency_id":"70006","route_short_name":"41","route_long_name":"Lee","route_type":3,"route_color":"#FFFFFF","route_text_color":"#000000"},{"route_id":"19624","agency_id":"70006","route_short_name":"74","route_long_name":"Florissant","route_type":3,"route_color":"#FFFFFF","route_text_color":"#000000"},{"route_id":"19633","agency_id":"70006","route_short_name":"97","route_long_name":"Delmar","route_type":3,"route_color":"#FFFFFF","route_text_color":"#000000"}],"agency_name":"Metro St. Louis"},"geometry":{"type":"Point","coordinates":[-90.20077,38.62859]}},{"type":"Feature","properties":{"stop_id":"7852","stop_code":"7852","stop_name":"CIVIC CENTER TRANSIT CENTER","wheelchair_boarding":1,"routes":[{"route_id":"19611","agency_id":"70006","route_short_name":"40","route_long_name":"Broadway-Halls Ferry","route_type":3,"route_color":"#FFFFFF","route_text_color":"#000000"},{"route_id":"19612","agency_id":"70006","route_short_name":"41","route_long_name":"Lee","route_type":3,"route_color":"#FFFFFF","route_text_color":"#000000"},{"route_id":"19624","agency_id":"70006","route_short_name":"74","route_long_name":"Florissant","route_type":3,"route_color":"#FFFFFF","route_text_color":"#000000"}],"agency_name":"Metro St. Louis"},"geometry":{"type":"Point","coordinates":[-90.20277,38.62528]}}]}