{"type":"FeatureCollection","features":[{"type":"Feature","properties":{"agency_name":"Metro St. Louis","route_id":"19643","agency_id":"70006","route_short_name":"9","route_long_name":"Washington Park","route_type":3,"route_color":"#FFFFFF","route_text_color":"#000000"},"geometry":{"type":"MultiLineString","coordinates":[[[-90.09425,38.61389],[-90.09507,38.61413],[-90.09425,38.61389],[-90.09415,38.6139],[-90.09407,38.61396],[-90.09338,38.61433],[-90.09315,38.61431],[-90.09285,38.61431],[-90.09279,38.61442],[-90.09279,38.6148],[-90.09286,38.61577],[-90.09288,38.61949],[-90.09292,38.62114],[-90.09289,38.62146],[-90.09292,38.62239],[-90.09294,38.62249],[-90.09295,38.6228],[-90.09295,38.62308],[-90.09293,38.62316],[-90.09293,38.62369],[-90.09294,38.62381],[-90.093,38.62393],[-90.09302,38.62411],[-90.09304,38.6248],[-90.09305,38.6267],[-90.09311,38.63062],[-90.09313,38.63685],[-90.0879,38.63689],[-90.08353,38.6369],[-90.08346,38.63682],[-90.08335,38.63679],[-90.08291,38.6368],[-90.08283,38.63683],[-90.08277,38.63689],[-90.08311,38.63691]],[[-90.09427,38.63685],[-90.09313,38.63685],[-90.10631,38.6368],[-90.10861,38.63677],[-90.1086,38.63537],[-90.11452,38.63533],[-90.11785,38.63529],[-90.12137,38.63529],[-90.12139,38.63263],[-90.12144,38.63085],[-90.12147,38.62772],[-90.12152,38.62631],[-90.12151,38.62584],[-90.12196,38.62527],[-90.12233,38.62476],[-90.12254,38.62484],[-90.12269,38.62483],[-90.12315,38.62418],[-90.12323,38.62409],[-90.12333,38.62402],[-90.12422,38.62368],[-90.1242,38.62363],[-90.12413,38.62351],[-90.12407,38.62348],[-90.12399,38.62346],[-90.12361,38.62371],[-90.12337,38.62394]],[[-90.12255,38.6245],[-90.12233,38.62476],[-90.12255,38.6245],[-90.12267,38.62439],[-90.12317,38.62366],[-90.12362,38.62292],[-90.12382,38.62271],[-90.12407,38.62262],[-90.12465,38.62283],[-90.12489,38.6229],[-90.12514,38.62294],[-90.12537,38.62295],[-90.12558,38.62294],[-90.1264,38.62286],[-90.12739,38.62295],[-90.13062,38.62372],[-90.13081,38.62382],[-90.13155,38.62405],[-90.13212,38.62431],[-90.13263,38.62461],[-90.13316,38.62499],[-90.13334,38.62509],[-90.13369,38.62522],[-90.13422,38.62532],[-90.13432,38.62537],[-90.13442,38.62544],[-90.13447,38.62551],[-90.13401,38.62625],[-90.13355,38.62705],[-90.13308,38.62758],[-90.13078,38.63002],[-90.13175,38.63089],[-90.13357,38.63043],[-90.13487,38.62949],[-90.1361,38.63049],[-90.13722,38.63149],[-90.13885,38.63219],[-90.14046,38.631],[-90.14021,38.63077],[-90.14011,38.63062],[-90.13999,38.63004],[-90.13982,38.62981],[-90.13834,38.62851],[-90.13824,38.62846]],[[-90.09427,38.63685],[-90.09313,38.63637]]]}},{"type":"Feature","properties":{"stop_id":"12396","stop_code":"12396","stop_name":"FOREST @ 60TH STREET WB","stop_desc":"NEAR SIDE FOREST @ 60TH STREET WB","wheelchair_boarding":2,"routes":[{"route_id":"19643","agency_id":"70006","route_short_name":"9","route_long_name":"Washington Park","route_type":3,"route_color":"#FFFFFF","route_text_color":"#000000"}],"agency_name":"Metro St. Louis"},"geometry":{"type":"Point","coordinates":[-90.08605,38.63694]}},{"type":"Feature","properties":{"stop_id":"12397","stop_code":"12397","stop_name":"FOREST @ 58TH STREET WB","stop_desc":"FAR SIDE FOREST @ 58TH STREET WB","wheelchair_boarding":2,"routes":[{"route_id":"19643","agency_id":"70006","route_short_name":"9","route_long_name":"Washington Park","route_type":3,"route_color":"#FFFFFF","route_text_color":"#000000"}],"agency_name":"Metro St. Louis"},"geometry":{"type":"Point","coordinates":[-90.0888,38.63694]}},{"type":"Feature","properties":{"stop_id":"12399","stop_code":"12399","stop_name":"FOREST @ 56TH STREET WB","stop_desc":"NEAR SIDE FOREST @ 56TH STREET WB","wheelchair_boarding":2,"routes":[{"route_id":"19643","agency_id":"70006","route_short_name":"9","route_long_name":"Washington Park","route_type":3,"route_color":"#FFFFFF","route_text_color":"#000000"}],"agency_name":"Metro St. Louis"},"geometry":{"type":"Point","coordinates":[-90.09062,38.63694]}},{"type":"Feature","properties":{"stop_id":"12401","stop_code":"12401","stop_name":"FOREST @ KINGSHIGHWAY WB","stop_desc":"FAR SIDE FOREST @ KINGSHIGHWAY WB","wheelchair_boarding":2,"routes":[{"route_id":"19643","agency_id":"70006","route_short_name":"9","route_long_name":"Washington Park","route_type":3,"route_color":"#FFFFFF","route_text_color":"#000000"}],"agency_name":"Metro St. Louis"},"geometry":{"type":"Point","coordinates":[-90.09341,38.63695]}},{"type":"Feature","properties":{"stop_id":"12402","stop_code":"12402","stop_name":"FOREST @ 52ND STREET WB","stop_desc":"NEAR SIDE FOREST @ 52ND STREET WB","wheelchair_boarding":2,"routes":[{"route_id":"19643","agency_id":"70006","route_short_name":"9","route_long_name":"Washington Park","route_type":3,"route_color":"#FFFFFF","route_text_color":"#000000"}],"agency_name":"Metro St. Louis"},"geometry":{"type":"Point","coordinates":[-90.09518,38.63693]}},{"type":"Feature","properties":{"stop_id":"12403","stop_code":"12403","stop_name":"FOREST @ 51ST STREET WB","stop_desc":"NEAR SIDE FOREST @ 51ST STREET WB","wheelchair_boarding":2,"routes":[{"route_id":"19643","agency_id":"70006","route_short_name":"9","route_long_name":"Washington Park","route_type":3,"route_color":"#FFFFFF","route_text_color":"#000000"}],"agency_name":"Metro St. Louis"},"geometry":{"type":"Point","coordinates":[-90.0962,38.63693]}},{"type":"Feature","properties":{"stop_id":"12404","stop_code":"12404","stop_name":"FOREST @ 50TH STREET WB","stop_desc":"NEAR SIDE FOREST @ 50TH STREET WB","wheelchair_boarding":2,"routes":[{"route_id":"19643","agency_id":"70006","route_short_name":"9","route_long_name":"Washington Park","route_type":3,"route_color":"#FFFFFF","route_text_color":"#000000"}],"agency_name":"Metro St. Louis"},"geometry":{"type":"Point","coordinates":[-90.09745,38.63691]}},{"type":"Feature","properties":{"stop_id":"12405","stop_code":"12405","stop_name":"FOREST @ WASHINGTON PARK WB","stop_desc":"NEAR SIDE FOREST @ WASHINGTON PARK WB","wheelchair_boarding":2,"routes":[{"route_id":"19643","agency_id":"70006","route_short_name":"9","route_long_name":"Washington Park","route_type":3,"route_color":"#FFFFFF","route_text_color":"#000000"}],"agency_name":"Metro St. Louis"},"geometry":{"type":"Point","coordinates":[-90.09904,38.63692]}},{"type":"Feature","properties":{"stop_id":"12406","stop_code":"12406","stop_name":"FOREST @ PARK WB","stop_desc":"FAR SIDE FOREST @ PARK WB","wheelchair_boarding":2,"routes":[{"route_id":"19643","agency_id":"70006","route_short_name":"9","route_long_name":"Washington Park","route_type":3,"route_color":"#FFFFFF","route_text_color":"#000000"}],"agency_name":"Metro St. Louis"},"geometry":{"type":"Point","coordinates":[-90.10042,38.63691]}},{"type":"Feature","properties":{"stop_id":"12407","stop_code":"12407","stop_name":"FOREST @ 46TH STREET WB","stop_desc":"NEAR SIDE FOREST @ 46TH STREET WB","wheelchair_boarding":2,"routes":[{"route_id":"19643","agency_id":"70006","route_short_name":"9","route_long_name":"Washington Park","route_type":3,"route_color":"#FFFFFF","route_text_color":"#000000"}],"agency_name":"Metro St. Louis"},"geometry":{"type":"Point","coordinates":[-90.10211,38.63689]}},{"type":"Feature","properties":{"stop_id":"12408","stop_code":"12408","stop_name":"FOREST @ 43TH STREET WB","stop_desc":"NEAR SIDE FOREST @ 43TH STREET WB","wheelchair_boarding":2,"routes":[{"route_id":"19643","agency_id":"70006","route_short_name":"9","route_long_name":"Washington Park","route_type":3,"route_color":"#FFFFFF","route_text_color":"#000000"}],"agency_name":"Metro St. Louis"},"geometry":{"type":"Point","coordinates":[-90.1051,38.63689]}},{"type":"Feature","properties":{"stop_id":"12409","stop_code":"12409","stop_name":"FOREST @ 42TH STREET WB","stop_desc":"NEAR SIDE FOREST @ 42TH STREET WB","wheelchair_boarding":2,"routes":[{"route_id":"19643","agency_id":"70006","route_short_name":"9","route_long_name":"Washington Park","route_type":3,"route_color":"#FFFFFF","route_text_color":"#000000"}],"agency_name":"Metro St. Louis"},"geometry":{"type":"Point","coordinates":[-90.10619,38.63689]}},{"type":"Feature","properties":{"stop_id":"12410","stop_code":"12410","stop_name":"40TH STREET @ FOREST SB","stop_desc":"FAR SIDE 40TH STREET @ FOREST SB","wheelchair_boarding":2,"routes":[{"route_id":"19643","agency_id":"70006","route_short_name":"9","route_long_name":"Washington Park","route_type":3,"route_color":"#FFFFFF","route_text_color":"#000000"}],"agency_name":"Metro St. Louis"},"geometry":{"type":"Point","coordinates":[-90.10871,38.63665]}},{"type":"Feature","properties":{"stop_id":"12411","stop_code":"12411","stop_name":"WAVERLY @ 40TH STREET WB","stop_desc":"FAR SIDE WAVERLY @ 40TH STREET WB","wheelchair_boarding":2,"routes":[{"route_id":"19643","agency_id":"70006","route_short_name":"9","route_long_name":"Washington Park","route_type":3,"route_color":"#FFFFFF","route_text_color":"#000000"}],"agency_name":"Metro St. Louis"},"geometry":{"type":"Point","coordinates":[-90.10881,38.63544]}},{"type":"Feature","properties":{"stop_id":"12412","stop_code":"12412","stop_name":"WAVERLY @ 39TH STREET WB","stop_desc":"FAR SIDE WAVERLY @ 39TH STREET WB","wheelchair_boarding":2,"routes":[{"route_id":"19643","agency_id":"70006","route_short_name":"9","route_long_name":"Washington Park","route_type":3,"route_color":"#FFFFFF","route_text_color":"#000000"}],"agency_name":"Metro St. Louis"},"geometry":{"type":"Point","coordinates":[-90.10995,38.63543]}},{"type":"Feature","properties":{"stop_id":"12413","stop_code":"12413","stop_name":"WAVERLY @ 36TH STREET WB","stop_desc":"FAR SIDE WAVERLY @ 36TH STREET WB","wheelchair_boarding":2,"routes":[{"route_id":"19643","agency_id":"70006","route_short_name":"9","route_long_name":"Washington Park","route_type":3,"route_color":"#FFFFFF","route_text_color":"#000000"}],"agency_name":"Metro St. Louis"},"geometry":{"type":"Point","coordinates":[-90.11217,38.63543]}},{"type":"Feature","properties":{"stop_id":"12414","stop_code":"12414","stop_name":"WAVERLY @ 32ND STREET WB","stop_desc":"NEAR SIDE WAVERLY @ 32ND STREET WB","wheelchair_boarding":2,"routes":[{"route_id":"19643","agency_id":"70006","route_short_name":"9","route_long_name":"Washington Park","route_type":3,"route_color":"#FFFFFF","route_text_color":"#000000"}],"agency_name":"Metro St. Louis"},"geometry":{"type":"Point","coordinates":[-90.11438,38.63541]}},{"type":"Feature","properties":{"stop_id":"12416","stop_code":"12416","stop_name":"WAVERLY @ 29TH STREET WB","stop_desc":"NEAR SIDE WAVERLY @ 29TH STREET WB","wheelchair_boarding":2,"routes":[{"route_id":"19643","agency_id":"70006","route_short_name":"9","route_long_name":"Washington Park","route_type":3,"route_color":"#FFFFFF","route_text_color":"#000000"}],"agency_name":"Metro St. Louis"},"geometry":{"type":"Point","coordinates":[-90.11761,38.63539]}},{"type":"Feature","properties":{"stop_id":"12421","stop_code":"12421","stop_name":"2551 WAVERLY WB","stop_desc":"MID-BLOCK 2551 WAVERLY WB","wheelchair_boarding":2,"routes":[{"route_id":"19643","agency_id":"70006","route_short_name":"9","route_long_name":"Washington Park","route_type":3,"route_color":"#FFFFFF","route_text_color":"#000000"}],"agency_name":"Metro St. Louis"},"geometry":{"type":"Point","coordinates":[-90.11909,38.63537]}},{"type":"Feature","properties":{"stop_id":"12422","stop_code":"12422","stop_name":"WAVERLY @ 25TH STREET WB","stop_desc":"NEAR SIDE WAVERLY @ 25TH STREET WB","wheelchair_boarding":2,"routes":[{"route_id":"19643","agency_id":"70006","route_short_name":"9","route_long_name":"Washington Park","route_type":3,"route_color":"#FFFFFF","route_text_color":"#000000"}],"agency_name":"Metro St. Louis"},"geometry":{"type":"Point","coordinates":[-90.12114,38.63533]}},{"type":"Feature","properties":{"stop_id":"12423","stop_code":"12423","stop_name":"25TH STREET @ LINCOLN SB","stop_desc":"FAR SIDE 25TH STREET @ LINCOLN SB","wheelchair_boarding":2,"routes":[{"route_id":"19643","agency_id":"70006","route_short_name":"9","route_long_name":"Washington Park","route_type":3,"route_color":"#FFFFFF","route_text_color":"#000000"}],"agency_name":"Metro St. Louis"},"geometry":{"type":"Point","coordinates":[-90.12142,38.63408]}},{"type":"Feature","properties":{"stop_id":"12424","stop_code":"12424","stop_name":"25TH STREET @ AUDUBON SB","stop_desc":"FAR SIDE 25TH STREET @ AUDUBON SB","wheelchair_boarding":2,"routes":[{"route_id":"19643","agency_id":"70006","route_short_name":"9","route_long_name":"Washington Park","route_type":3,"route_color":"#FFFFFF","route_text_color":"#000000"}],"agency_name":"Metro St. Louis"},"geometry":{"type":"Point","coordinates":[-90.12145,38.63273]}},{"type":"Feature","properties":{"stop_id":"12425","stop_code":"12425","stop_name":"25TH STREET @ GROSS SB","stop_desc":"NEAR SIDE 25TH STREET @ GROSS SB","wheelchair_boarding":2,"routes":[{"route_id":"19643","agency_id":"70006","route_short_name":"9","route_long_name":"Washington Park","route_type":3,"route_color":"#FFFFFF","route_text_color":"#000000"}],"agency_name":"Metro St. Louis"},"geometry":{"type":"Point","coordinates":[-90.12147,38.63094]}},{"type":"Feature","properties":{"stop_id":"12426","stop_code":"12426","stop_name":"25TH STREET @ DOUGLAS SB","stop_desc":"FAR SIDE 25TH STREET @ DOUGLAS SB","wheelchair_boarding":2,"routes":[{"route_id":"19643","agency_id":"70006","route_short_name":"9","route_long_name":"Washington Park","route_type":3,"route_color":"#FFFFFF","route_text_color":"#000000"}],"agency_name":"Metro St. Louis"},"geometry":{"type":"Point","coordinates":[-90.12149,38.62955]}},{"type":"Feature","properties":{"stop_id":"12427","stop_code":"12427","stop_name":"25TH STREET @ NATALIE SB","stop_desc":"NEAR SIDE 25TH STREET @ NATALIE SB","wheelchair_boarding":2,"routes":[{"route_id":"19643","agency_id":"70006","route_short_name":"9","route_long_name":"Washington Park","route_type":3,"route_color":"#FFFFFF","route_text_color":"#000000"}],"agency_name":"Metro St. Louis"},"geometry":{"type":"Point","coordinates":[-90.12149,38.62888]}},{"type":"Feature","properties":{"stop_id":"12428","stop_code":"12428","stop_name":"25TH STREET @ CASEYVILLE SB","stop_desc":"FAR SIDE 25TH STREET @ CASEYVILLE SB","wheelchair_boarding":2,"routes":[{"route_id":"19643","agency_id":"70006","route_short_name":"9","route_long_name":"Washington Park","route_type":3,"route_color":"#FFFFFF","route_text_color":"#000000"}],"agency_name":"Metro St. Louis"},"geometry":{"type":"Point","coordinates":[-90.12151,38.62782]}},{"type":"Feature","properties":{"stop_id":"12429","stop_code":"12429","stop_name":"25TH STREET @ LYNCH SB","stop_desc":"NEAR SIDE 25TH STREET @ LYNCH SB","wheelchair_boarding":2,"routes":[{"route_id":"19643","agency_id":"70006","route_short_name":"9","route_long_name":"Washington Park","route_type":3,"route_color":"#FFFFFF","route_text_color":"#000000"}],"agency_name":"Metro St. Louis"},"geometry":{"type":"Point","coordinates":[-90.12152,38.62649]}},{"type":"Feature","properties":{"stop_id":"12499","stop_code":"12499","stop_name":"KINGSHIGHWAY @ ADELAIDE NB","stop_desc":"NEAR SIDE KINGSHIGHWAY @ ADELAIDE NB","wheelchair_boarding":2,"routes":[{"route_id":"19641","agency_id":"70006","route_short_name":"6","route_long_name":"Rosemont","route_type":3,"route_color":"#FFFFFF","route_text_color":"#000000"},{"route_id":"19643","agency_id":"70006","route_short_name":"9","route_long_name":"Washington Park","route_type":3,"route_color":"#FFFFFF","route_text_color":"#000000"}],"agency_name":"Metro St. Louis"},"geometry":{"type":"Point","coordinates":[-90.09292,38.62378]}},{"type":"Feature","properties":{"stop_id":"12500","stop_code":"12500","stop_name":"KINGSHIGHWAY @ AVON PLACE NB","stop_desc":"NEAR SIDE KINGSHIGHWAY @ AVON PLACE NB","wheelchair_boarding":2,"routes":[{"route_id":"19641","agency_id":"70006","route_short_name":"6","route_long_name":"Rosemont","route_type":3,"route_color":"#FFFFFF","route_text_color":"#000000"},{"route_id":"19643","agency_id":"70006","route_short_name":"9","route_long_name":"Washington Park","route_type":3,"route_color":"#FFFFFF","route_text_color":"#000000"}],"agency_name":"Metro St. Louis"},"geometry":{"type":"Point","coordinates":[-90.09302,38.6255]}},{"type":"Feature","properties":{"stop_id":"12501","stop_code":"12501","stop_name":"KINGSHIGHWAY @ WESTMORELAND NB","stop_desc":"NEAR SIDE KINGSHIGHWAY @ WESTMORELAND NB","wheelchair_boarding":2,"routes":[{"route_id":"19641","agency_id":"70006","route_short_name":"6","route_long_name":"Rosemont","route_type":3,"route_color":"#FFFFFF","route_text_color":"#000000"},{"route_id":"19643","agency_id":"70006","route_short_name":"9","route_long_name":"Washington Park","route_type":3,"route_color":"#FFFFFF","route_text_color":"#000000"}],"agency_name":"Metro St. Louis"},"geometry":{"type":"Point","coordinates":[-90.09301,38.62724]}},{"type":"Feature","properties":{"stop_id":"12502","stop_code":"12502","stop_name":"KINGSHIGHWAY @ WARREN NB","stop_desc":"NEAR SIDE KINGSHIGHWAY @ WARREN NB","wheelchair_boarding":2,"routes":[{"route_id":"19641","agency_id":"70006","route_short_name":"6","route_long_name":"Rosemont","route_type":3,"route_color":"#FFFFFF","route_text_color":"#000000"},{"route_id":"19643","agency_id":"70006","route_short_name":"9","route_long_name":"Washington Park","route_type":3,"route_color":"#FFFFFF","route_text_color":"#000000"}],"agency_name":"Metro St. Louis"},"geometry":{"type":"Point","coordinates":[-90.09302,38.62809]}},{"type":"Feature","properties":{"stop_id":"12503","stop_code":"12503","stop_name":"KINGSHIGHWAY @ PORTLAND PLACE NB","stop_desc":"NEAR SIDE KINGSHIGHWAY @ PORTLAND PLACE NB","wheelchair_boarding":2,"routes":[{"route_id":"19641","agency_id":"70006","route_short_name":"6","route_long_name":"Rosemont","route_type":3,"route_color":"#FFFFFF","route_text_color":"#000000"},{"route_id":"19643","agency_id":"70006","route_short_name":"9","route_long_name":"Washington Park","route_type":3,"route_color":"#FFFFFF","route_text_color":"#000000"}],"agency_name":"Metro St. Louis"},"geometry":{"type":"Point","coordinates":[-90.09302,38.62897]}},{"type":"Feature","properties":{"stop_id":"12504","stop_code":"12504","stop_name":"KINGSHIGHWAY @ CASEYVILLE NB","stop_desc":"NEAR SIDE KINGSHIGHWAY @ CASEYVILLE NB","wheelchair_boarding":2,"routes":[{"route_id":"19641","agency_id":"70006","route_short_name":"6","route_long_name":"Rosemont","route_type":3,"route_color":"#FFFFFF","route_text_color":"#000000"},{"route_id":"19643","agency_id":"70006","route_short_name":"9","route_long_name":"Washington Park","route_type":3,"route_color":"#FFFFFF","route_text_color":"#000000"}],"agency_name":"Metro St. Louis"},"geometry":{"type":"Point","coordinates":[-90.09302,38.62988]}},{"type":"Feature","properties":{"stop_id":"12523","stop_code":"12523","stop_name":"25TH STREET @ JJK CIRCLE SB","stop_desc":"NEAR SIDE 25TH STREET @ JJK CIRCLE SB","wheelchair_boarding":2,"routes":[{"route_id":"19641","agency_id":"70006","route_short_name":"6","route_long_name":"Rosemont","route_type":3,"route_color":"#FFFFFF","route_text_color":"#000000"},{"route_id":"19643","agency_id":"70006","route_short_name":"9","route_long_name":"Washington Park","route_type":3,"route_color":"#FFFFFF","route_text_color":"#000000"}],"agency_name":"Metro St. Louis"},"geometry":{"type":"Point","coordinates":[-90.12225,38.62498]}},{"type":"Feature","properties":{"stop_id":"12540","stop_code":"12540","stop_name":"WAVERLY @ 30TH STREET WB","stop_desc":"NEAR SIDE WAVERLY @ 30TH STREET WB","wheelchair_boarding":2,"routes":[{"route_id":"19643","agency_id":"70006","route_short_name":"9","route_long_name":"Washington Park","route_type":3,"route_color":"#FFFFFF","route_text_color":"#000000"}],"agency_name":"Metro St. Louis"},"geometry":{"type":"Point","coordinates":[-90.11685,38.63538]}},{"type":"Feature","properties":{"stop_id":"12555","stop_code":"12555","stop_name":"FOREST @ 55TH STREET EB","stop_desc":"NEAR SIDE FOREST @ 55TH STREET EB","wheelchair_boarding":2,"routes":[{"route_id":"19643","agency_id":"70006","route_short_name":"9","route_long_name":"Washington Park","route_type":3,"route_color":"#FFFFFF","route_text_color":"#000000"}],"agency_name":"Metro St. Louis"},"geometry":{"type":"Point","coordinates":[-90.09211,38.63683]}},{"type":"Feature","properties":{"stop_id":"12556","stop_code":"12556","stop_name":"FOREST @ 57TH STREET EB","stop_desc":"NEAR SIDE FOREST @ 57TH STREET EB","wheelchair_boarding":2,"routes":[{"route_id":"19643","agency_id":"70006","route_short_name":"9","route_long_name":"Washington Park","route_type":3,"route_color":"#FFFFFF","route_text_color":"#000000"}],"agency_name":"Metro St. Louis"},"geometry":{"type":"Point","coordinates":[-90.0898,38.63687]}},{"type":"Feature","properties":{"stop_id":"12557","stop_code":"12557","stop_name":"FOREST @ 59TH STREET EB","stop_desc":"NEAR SIDE FOREST @ 59TH STREET EB","wheelchair_boarding":2,"routes":[{"route_id":"19643","agency_id":"70006","route_short_name":"9","route_long_name":"Washington Park","route_type":3,"route_color":"#FFFFFF","route_text_color":"#000000"}],"agency_name":"Metro St. Louis"},"geometry":{"type":"Point","coordinates":[-90.08757,38.63686]}},{"type":"Feature","properties":{"stop_id":"12559","stop_code":"12559","stop_name":"SANITATION DISTRICT LOOP @ 62ND STREET EB","stop_desc":"NEAR SIDE SANITATION DISTRICT LOOP @ 62ND STREET EB","wheelchair_boarding":2,"routes":[{"route_id":"19643","agency_id":"70006","route_short_name":"9","route_long_name":"Washington Park","route_type":3,"route_color":"#FFFFFF","route_text_color":"#000000"}],"agency_name":"Metro St. Louis"},"geometry":{"type":"Point","coordinates":[-90.08335,38.6368]}},{"type":"Feature","properties":{"stop_id":"12702","stop_code":"12702","stop_name":"EMERSON PARK TRANSIT CENTER","wheelchair_boarding":1,"routes":[{"route_id":"19641","agency_id":"70006","route_short_name":"6","route_long_name":"Rosemont","route_type":3,"route_color":"#FFFFFF","route_text_color":"#000000"},{"route_id":"19642","agency_id":"70006","route_short_name":"8","route_long_name":"Alta Sita","route_type":3,"route_color":"#FFFFFF","route_text_color":"#000000"},{"route_id":"19643","agency_id":"70006","route_short_name":"9","route_long_name":"Washington Park","route_type":3,"route_color":"#FFFFFF","route_text_color":"#000000"}],"agency_name":"Metro St. Louis"},"geometry":{"type":"Point","coordinates":[-90.13787,38.6285]}},{"type":"Feature","properties":{"stop_id":"12703","stop_code":"12703","stop_name":"11TH STREET @ BOWMAN SB","stop_desc":"NEAR SIDE 11TH STREET @ BOWMAN SB","wheelchair_boarding":2,"routes":[{"route_id":"19641","agency_id":"70006","route_short_name":"6","route_long_name":"Rosemont","route_type":3,"route_color":"#FFFFFF","route_text_color":"#000000"},{"route_id":"19643","agency_id":"70006","route_short_name":"9","route_long_name":"Washington Park","route_type":3,"route_color":"#FFFFFF","route_text_color":"#000000"}],"agency_name":"Metro St. Louis"},"geometry":{"type":"Point","coordinates":[-90.13961,38.63173]}},{"type":"Feature","properties":{"stop_id":"12725","stop_code":"12725","stop_name":"18TH STREET @ PARSON NB","stop_desc":"NEAR SIDE 18TH STREET @ PARSON NB","wheelchair_boarding":2,"routes":[{"route_id":"19641","agency_id":"70006","route_short_name":"6","route_long_name":"Rosemont","route_type":3,"route_color":"#FFFFFF","route_text_color":"#000000"},{"route_id":"19643","agency_id":"70006","route_short_name":"9","route_long_name":"Washington Park","route_type":3,"route_color":"#FFFFFF","route_text_color":"#000000"}],"agency_name":"Metro St. Louis"},"geometry":{"type":"Point","coordinates":[-90.13408,38.62614]}},{"type":"Feature","properties":{"stop_id":"12726","stop_code":"12726","stop_name":"18TH STREET @ WEIMAN NB","stop_desc":"NEAR SIDE 18TH STREET @ WEIMAN NB","wheelchair_boarding":2,"routes":[{"route_id":"19641","agency_id":"70006","route_short_name":"6","route_long_name":"Rosemont","route_type":3,"route_color":"#FFFFFF","route_text_color":"#000000"},{"route_id":"19643","agency_id":"70006","route_short_name":"9","route_long_name":"Washington Park","route_type":3,"route_color":"#FFFFFF","route_text_color":"#000000"}],"agency_name":"Metro St. Louis"},"geometry":{"type":"Point","coordinates":[-90.13318,38.62747]}},{"type":"Feature","properties":{"stop_id":"12727","stop_code":"12727","stop_name":"18TH STREET @ EXCHANGE NB","stop_desc":"NEAR SIDE 18TH STREET @ EXCHANGE NB","wheelchair_boarding":2,"routes":[{"route_id":"19641","agency_id":"70006","route_short_name":"6","route_long_name":"Rosemont","route_type":3,"route_color":"#FFFFFF","route_text_color":"#000000"},{"route_id":"19643","agency_id":"70006","route_short_name":"9","route_long_name":"Washington Park","route_type":3,"route_color":"#FFFFFF","route_text_color":"#000000"}],"agency_name":"Metro St. Louis"},"geometry":{"type":"Point","coordinates":[-90.13249,38.62819]}},{"type":"Feature","properties":{"stop_id":"12728","stop_code":"12728","stop_name":"18TH STREET @ WINSTANLEY NB","stop_desc":"FAR SIDE 18TH STREET @ WINSTANLEY NB","wheelchair_boarding":2,"routes":[{"route_id":"19641","agency_id":"70006","route_short_name":"6","route_long_name":"Rosemont","route_type":3,"route_color":"#FFFFFF","route_text_color":"#000000"},{"route_id":"19643","agency_id":"70006","route_short_name":"9","route_long_name":"Washington Park","route_type":3,"route_color":"#FFFFFF","route_text_color":"#000000"}],"agency_name":"Metro St. Louis"},"geometry":{"type":"Point","coordinates":[-90.13162,38.6291]}},{"type":"Feature","properties":{"stop_id":"12729","stop_code":"12729","stop_name":"18TH STREET @ LYNCH NB","stop_desc":"NEAR SIDE 18TH STREET @ LYNCH NB","wheelchair_boarding":2,"routes":[{"route_id":"19641","agency_id":"70006","route_short_name":"6","route_long_name":"Rosemont","route_type":3,"route_color":"#FFFFFF","route_text_color":"#000000"},{"route_id":"19643","agency_id":"70006","route_short_name":"9","route_long_name":"Washington Park","route_type":3,"route_color":"#FFFFFF","route_text_color":"#000000"}],"agency_name":"Metro St. Louis"},"geometry":{"type":"Point","coordinates":[-90.131,38.62971]}},{"type":"Feature","properties":{"stop_id":"12730","stop_code":"12730","stop_name":"LYNCH @ 15TH STREET WB","stop_desc":"NEAR SIDE LYNCH @ 15TH STREET WB","wheelchair_boarding":2,"routes":[{"route_id":"19641","agency_id":"70006","route_short_name":"6","route_long_name":"Rosemont","route_type":3,"route_color":"#FFFFFF","route_text_color":"#000000"},{"route_id":"19643","agency_id":"70006","route_short_name":"9","route_long_name":"Washington Park","route_type":3,"route_color":"#FFFFFF","route_text_color":"#000000"}],"agency_name":"Metro St. Louis"},"geometry":{"type":"Point","coordinates":[-90.132,38.63113]}},{"type":"Feature","properties":{"stop_id":"12740","stop_code":"12740","stop_name":"EXCHANGE @ 13TH STREET WB","stop_desc":"NEAR SIDE EXCHANGE @ 13TH STREET WB","wheelchair_boarding":2,"routes":[{"route_id":"19641","agency_id":"70006","route_short_name":"6","route_long_name":"Rosemont","route_type":3,"route_color":"#FFFFFF","route_text_color":"#000000"},{"route_id":"19643","agency_id":"70006","route_short_name":"9","route_long_name":"Washington Park","route_type":3,"route_color":"#FFFFFF","route_text_color":"#000000"}],"agency_name":"Metro St. Louis"},"geometry":{"type":"Point","coordinates":[-90.13709,38.63138]}},{"type":"Feature","properties":{"stop_id":"14125","stop_code":"14125","stop_name":"WASHINGTON PARK TRANSIT CENTER","wheelchair_boarding":1,"routes":[{"route_id":"19641","agency_id":"70006","route_short_name":"6","route_long_name":"Rosemont","route_type":3,"route_color":"#FFFFFF","route_text_color":"#000000"},{"route_id":"19643","agency_id":"70006","route_short_name":"9","route_long_name":"Washington Park","route_type":3,"route_color":"#FFFFFF","route_text_color":"#000000"}],"agency_name":"Metro St. Louis"},"geometry":{"type":"Point","coordinates":[-90.09501,38.61409]}},{"type":"Feature","properties":{"stop_id":"14280","stop_code":"14280","stop_name":"JJK CENTER TRANSIT CENTER","wheelchair_boarding":1,"routes":[{"route_id":"19641","agency_id":"70006","route_short_name":"6","route_long_name":"Rosemont","route_type":3,"route_color":"#FFFFFF","route_text_color":"#000000"},{"route_id":"19643","agency_id":"70006","route_short_name":"9","route_long_name":"Washington Park","route_type":3,"route_color":"#FFFFFF","route_text_color":"#000000"}],"agency_name":"Metro St. Louis"},"geometry":{"type":"Point","coordinates":[-90.12413,38.62369]}},{"type":"Feature","properties":{"stop_id":"15244","stop_code":"15244","stop_name":"FOREST @ 44TH STREET WB","stop_desc":"FAR SIDE FOREST @ 44TH STREET WB","wheelchair_boarding":2,"routes":[{"route_id":"19643","agency_id":"70006","route_short_name":"9","route_long_name":"Washington Park","route_type":3,"route_color":"#FFFFFF","route_text_color":"#000000"}],"agency_name":"Metro St. Louis"},"geometry":{"type":"Point","coordinates":[-90.10428,38.6369]}},{"type":"Feature","properties":{"stop_id":"15573","stop_code":"15573","stop_name":"EXCHANGE @ 15TH STREET WB","stop_desc":"FAR SIDE EXCHANGE @ 15TH STREET WB","wheelchair_boarding":2,"routes":[{"route_id":"19641","agency_id":"70006","route_short_name":"6","route_long_name":"Rosemont","route_type":3,"route_color":"#FFFFFF","route_text_color":"#000000"},{"route_id":"19643","agency_id":"70006","route_short_name":"9","route_long_name":"Washington Park","route_type":3,"route_color":"#FFFFFF","route_text_color":"#000000"}],"agency_name":"Metro St. Louis"},"geometry":{"type":"Point","coordinates":[-90.13515,38.62969]}},{"type":"Feature","properties":{"stop_id":"16441","stop_code":"16441","stop_name":"KINGSHIGHWAY @ NORTH PARK NB","stop_desc":"NEAR SIDE KINGSHIGHWAY @ NORTH PARK NB","wheelchair_boarding":2,"routes":[{"route_id":"19643","agency_id":"70006","route_short_name":"9","route_long_name":"Washington Park","route_type":3,"route_color":"#FFFFFF","route_text_color":"#000000"}],"agency_name":"Metro St. Louis"},"geometry":{"type":"Point","coordinates":[-90.09305,38.63485]}},{"type":"Feature","properties":{"stop_id":"16448","stop_code":"16448","stop_name":"KINGSHIGHWAY @ AUDUBON NB","stop_desc":"NEAR SIDE KINGSHIGHWAY @ AUDUBON NB","wheelchair_boarding":2,"routes":[{"route_id":"19643","agency_id":"70006","route_short_name":"9","route_long_name":"Washington Park","route_type":3,"route_color":"#FFFFFF","route_text_color":"#000000"}],"agency_name":"Metro St. Louis"},"geometry":{"type":"Point","coordinates":[-90.09306,38.63227]}},{"type":"Feature","properties":{"stop_id":"16469","stop_code":"16469","stop_name":"15TH STREET @ WINSTANLEY SB","stop_desc":"NEAR SIDE 15TH STREET @ WINSTANLEY SB","wheelchair_boarding":1,"routes":[{"route_id":"19641","agency_id":"70006","route_short_name":"6","route_long_name":"Rosemont","route_type":3,"route_color":"#FFFFFF","route_text_color":"#000000"},{"route_id":"19643","agency_id":"70006","route_short_name":"9","route_long_name":"Washington Park","route_type":3,"route_color":"#FFFFFF","route_text_color":"#000000"}],"agency_name":"Metro St. Louis"},"geometry":{"type":"Point","coordinates":[-90.13357,38.63054]}}]}