{"type":"FeatureCollection","features":[{"type":"Feature","properties":{"agency_name":"Metro St. Louis","route_id":"19637","agency_id":"70006","route_short_name":"2","route_long_name":"Cahokia Heights","route_type":3,"route_color":"#FFFFFF","route_text_color":"#000000"},"geometry":{"type":"MultiLineString","coordinates":[[[-90.1592,38.62494],[-90.15903,38.62499],[-90.1592,38.62494],[-90.15959,38.62472],[-90.15961,38.62462],[-90.15959,38.62452],[-90.1595,38.62443],[-90.15897,38.62401],[-90.15982,38.62339],[-90.15966,38.62323],[-90.1581,38.62192],[-90.1615,38.61942],[-90.16522,38.61674],[-90.16793,38.61472],[-90.16814,38.61454],[-90.1685,38.61418],[-90.1688,38.61379],[-90.16906,38.61331],[-90.16929,38.61278],[-90.16942,38.61238],[-90.16982,38.61091],[-90.17032,38.60919],[-90.17082,38.60757],[-90.17104,38.60756],[-90.17104,38.60717],[-90.17118,38.60701],[-90.17143,38.60681],[-90.17156,38.60663],[-90.17152,38.60629],[-90.17151,38.60576],[-90.17161,38.60512],[-90.17184,38.6042],[-90.1729,38.60055],[-90.17319,38.59967],[-90.17378,38.59801],[-90.17652,38.59007],[-90.17469,38.58973],[-90.1741,38.58963],[-90.17383,38.5896],[-90.17354,38.58958],[-90.17326,38.58959],[-90.17288,38.58962],[-90.17217,38.58973],[-90.16925,38.58921],[-90.16946,38.5877],[-90.16972,38.58644],[-90.16994,38.58586],[-90.17049,38.5846],[-90.17106,38.58336],[-90.17176,38.58192],[-90.17214,38.58124],[-90.17245,38.58077],[-90.1728,38.58029],[-90.17404,38.57877],[-90.17477,38.5779],[-90.1751,38.57753],[-90.17544,38.57718],[-90.1762,38.57652],[-90.17983,38.57428],[-90.18219,38.57285],[-90.18268,38.57264],[-90.18389,38.57222],[-90.18462,38.57201],[-90.18641,38.57162],[-90.18668,38.5715],[-90.1869,38.57137],[-90.18628,38.57087],[-90.18494,38.56974],[-90.18423,38.56916],[-90.18351,38.56864],[-90.18242,38.5679],[-90.1801,38.56646],[-90.17701,38.56448],[-90.17673,38.56424],[-90.17648,38.56399],[-90.17629,38.56375],[-90.17603,38.56334],[-90.17581,38.56292],[-90.17616,38.56284],[-90.17649,38.56272],[-90.17683,38.56305],[-90.17792,38.564],[-90.17688,38.56455],[-90.17619,38.56482],[-90.17589,38.56487],[-90.17405,38.56502],[-90.17358,38.56507],[-90.17155,38.56502],[-90.17083,38.56499],[-90.17008,38.56493],[-90.16957,38.56493],[-90.16787,38.56506],[-90.16727,38.56512],[-90.16715,38.56518],[-90.1656,38.56637],[-90.165,38.5668],[-90.16451,38.5668],[-90.16053,38.56563],[-90.16029,38.56558],[-90.15849,38.56551],[-90.15818,38.56545],[-90.15788,38.5653],[-90.15676,38.56439],[-90.15646,38.56406],[-90.15487,38.56284],[-90.15625,38.56191],[-90.15732,38.56113],[-90.15846,38.56026],[-90.16101,38.55836],[-90.16503,38.55573],[-90.16629,38.55478]]]}},{"type":"Feature","properties":{"stop_id":"12560","stop_code":"12560","stop_name":"EAST BROADWAY @ 6TH STREET EB","stop_desc":"FAR SIDE EAST BROADWAY @ 6TH STREET EB","wheelchair_boarding":2,"routes":[{"route_id":"19637","agency_id":"70006","route_short_name":"2","route_long_name":"Cahokia Heights","route_type":3,"route_color":"#FFFFFF","route_text_color":"#000000"},{"route_id":"19638","agency_id":"70006","route_short_name":"3","route_long_name":"Sauget - Water Street","route_type":3,"route_color":"#FFFFFF","route_text_color":"#000000"},{"route_id":"19639","agency_id":"70006","route_short_name":"4","route_long_name":"19th & Central","route_type":3,"route_color":"#FFFFFF","route_text_color":"#000000"}],"agency_name":"Metro St. Louis"},"geometry":{"type":"Point","coordinates":[-90.15961,38.6231]}},{"type":"Feature","properties":{"stop_id":"12561","stop_code":"12561","stop_name":"EAST BROADWAY @ 8TH STREET EB","stop_desc":"NEAR SIDE EAST BROADWAY @ 8TH STREET EB","wheelchair_boarding":2,"routes":[{"route_id":"19637","agency_id":"70006","route_short_name":"2","route_long_name":"Cahokia Heights","route_type":3,"route_color":"#FFFFFF","route_text_color":"#000000"},{"route_id":"19638","agency_id":"70006","route_short_name":"3","route_long_name":"Sauget - Water Street","route_type":3,"route_color":"#FFFFFF","route_text_color":"#000000"},{"route_id":"19639","agency_id":"70006","route_short_name":"4","route_long_name":"19th & Central","route_type":3,"route_color":"#FFFFFF","route_text_color":"#000000"}],"agency_name":"Metro St. Louis"},"geometry":{"type":"Point","coordinates":[-90.1584,38.62209]}},{"type":"Feature","properties":{"stop_id":"12562","stop_code":"12562","stop_name":"8TH STREET @ WALNUT SB","stop_desc":"NEAR SIDE 8TH STREET @ WALNUT SB","wheelchair_boarding":2,"routes":[{"route_id":"19637","agency_id":"70006","route_short_name":"2","route_long_name":"Cahokia Heights","route_type":3,"route_color":"#FFFFFF","route_text_color":"#000000"},{"route_id":"19638","agency_id":"70006","route_short_name":"3","route_long_name":"Sauget - Water Street","route_type":3,"route_color":"#FFFFFF","route_text_color":"#000000"}],"agency_name":"Metro St. Louis"},"geometry":{"type":"Point","coordinates":[-90.1591,38.62123]}},{"type":"Feature","properties":{"stop_id":"12563","stop_code":"12563","stop_name":"8TH STREET @ JAMES R THOMPSON SB","stop_desc":"NEAR SIDE 8TH STREET @ JAMES R THOMPSON SB","wheelchair_boarding":2,"routes":[{"route_id":"19637","agency_id":"70006","route_short_name":"2","route_long_name":"Cahokia Heights","route_type":3,"route_color":"#FFFFFF","route_text_color":"#000000"},{"route_id":"19638","agency_id":"70006","route_short_name":"3","route_long_name":"Sauget - Water Street","route_type":3,"route_color":"#FFFFFF","route_text_color":"#000000"}],"agency_name":"Metro St. Louis"},"geometry":{"type":"Point","coordinates":[-90.16054,38.62021]}},{"type":"Feature","properties":{"stop_id":"12564","stop_code":"12564","stop_name":"8TH STREET @ CONVERSE SB","stop_desc":"FAR SIDE 8TH STREET @ CONVERSE SB","wheelchair_boarding":2,"routes":[{"route_id":"19637","agency_id":"70006","route_short_name":"2","route_long_name":"Cahokia Heights","route_type":3,"route_color":"#FFFFFF","route_text_color":"#000000"},{"route_id":"19638","agency_id":"70006","route_short_name":"3","route_long_name":"Sauget - Water Street","route_type":3,"route_color":"#FFFFFF","route_text_color":"#000000"}],"agency_name":"Metro St. Louis"},"geometry":{"type":"Point","coordinates":[-90.16178,38.6193]}},{"type":"Feature","properties":{"stop_id":"12961","stop_code":"12961","stop_name":"8TH STREET @ MARKET SB","stop_desc":"FAR SIDE 8TH STREET @ MARKET SB","wheelchair_boarding":2,"routes":[{"route_id":"19637","agency_id":"70006","route_short_name":"2","route_long_name":"Cahokia Heights","route_type":3,"route_color":"#FFFFFF","route_text_color":"#000000"},{"route_id":"19638","agency_id":"70006","route_short_name":"3","route_long_name":"Sauget - Water Street","route_type":3,"route_color":"#FFFFFF","route_text_color":"#000000"}],"agency_name":"Metro St. Louis"},"geometry":{"type":"Point","coordinates":[-90.16356,38.618]}},{"type":"Feature","properties":{"stop_id":"12965","stop_code":"12965","stop_name":"MISSISSIPPI @ LIBERTY SB","stop_desc":"NEAR SIDE MISSISSIPPI @ LIBERTY SB","wheelchair_boarding":2,"routes":[{"route_id":"19637","agency_id":"70006","route_short_name":"2","route_long_name":"Cahokia Heights","route_type":3,"route_color":"#FFFFFF","route_text_color":"#000000"},{"route_id":"19638","agency_id":"70006","route_short_name":"3","route_long_name":"Sauget - Water Street","route_type":3,"route_color":"#FFFFFF","route_text_color":"#000000"}],"agency_name":"Metro St. Louis"},"geometry":{"type":"Point","coordinates":[-90.17034,38.6095]}},{"type":"Feature","properties":{"stop_id":"12966","stop_code":"12966","stop_name":"ILLINOIS ROUTE 3 @ YELLOW BRICK ROAD SB","stop_desc":"NEAR SIDE ILLINOIS ROUTE 3 @ YELLOW BRICK ROAD SB","wheelchair_boarding":2,"routes":[{"route_id":"19637","agency_id":"70006","route_short_name":"2","route_long_name":"Cahokia Heights","route_type":3,"route_color":"#FFFFFF","route_text_color":"#000000"},{"route_id":"19638","agency_id":"70006","route_short_name":"3","route_long_name":"Sauget - Water Street","route_type":3,"route_color":"#FFFFFF","route_text_color":"#000000"}],"agency_name":"Metro St. Louis"},"geometry":{"type":"Point","coordinates":[-90.17266,38.60179]}},{"type":"Feature","properties":{"stop_id":"12968","stop_code":"12968","stop_name":"QUEENY @ ILLINOIS ROUTE 3 EB","stop_desc":"FAR SIDE QUEENY @ ILLINOIS ROUTE 3 EB","wheelchair_boarding":2,"routes":[{"route_id":"19637","agency_id":"70006","route_short_name":"2","route_long_name":"Cahokia Heights","route_type":3,"route_color":"#FFFFFF","route_text_color":"#000000"},{"route_id":"19638","agency_id":"70006","route_short_name":"3","route_long_name":"Sauget - Water Street","route_type":3,"route_color":"#FFFFFF","route_text_color":"#000000"}],"agency_name":"Metro St. Louis"},"geometry":{"type":"Point","coordinates":[-90.17581,38.58983]}},{"type":"Feature","properties":{"stop_id":"12970","stop_code":"12970","stop_name":"FALLING SPRINGS  @ CURTIS STEINBERG SB","stop_desc":"FAR SIDE FALLING SPRINGS  @ CURTIS STEINBERG SB","wheelchair_boarding":2,"routes":[{"route_id":"19637","agency_id":"70006","route_short_name":"2","route_long_name":"Cahokia Heights","route_type":3,"route_color":"#FFFFFF","route_text_color":"#000000"},{"route_id":"19638","agency_id":"70006","route_short_name":"3","route_long_name":"Sauget - Water Street","route_type":3,"route_color":"#FFFFFF","route_text_color":"#000000"}],"agency_name":"Metro St. Louis"},"geometry":{"type":"Point","coordinates":[-90.17005,38.58564]}},{"type":"Feature","properties":{"stop_id":"12971","stop_code":"12971","stop_name":"FALLING SPRINGS @ JUDITH SB","stop_desc":"FAR SIDE FALLING SPRINGS @ JUDITH SB","wheelchair_boarding":2,"routes":[{"route_id":"19637","agency_id":"70006","route_short_name":"2","route_long_name":"Cahokia Heights","route_type":3,"route_color":"#FFFFFF","route_text_color":"#000000"},{"route_id":"19638","agency_id":"70006","route_short_name":"3","route_long_name":"Sauget - Water Street","route_type":3,"route_color":"#FFFFFF","route_text_color":"#000000"}],"agency_name":"Metro St. Louis"},"geometry":{"type":"Point","coordinates":[-90.17171,38.58227]}},{"type":"Feature","properties":{"stop_id":"12972","stop_code":"12972","stop_name":"FALLING SPRINGS @ JULIAN SB","stop_desc":"NEAR SIDE FALLING SPRINGS @ JULIAN SB","wheelchair_boarding":2,"routes":[{"route_id":"19637","agency_id":"70006","route_short_name":"2","route_long_name":"Cahokia Heights","route_type":3,"route_color":"#FFFFFF","route_text_color":"#000000"},{"route_id":"19638","agency_id":"70006","route_short_name":"3","route_long_name":"Sauget - Water Street","route_type":3,"route_color":"#FFFFFF","route_text_color":"#000000"}],"agency_name":"Metro St. Louis"},"geometry":{"type":"Point","coordinates":[-90.17279,38.58037]}},{"type":"Feature","properties":{"stop_id":"12973","stop_code":"12973","stop_name":"FALLING SPRINGS @ KINDER SB","stop_desc":"NEAR SIDE FALLING SPRINGS @ KINDER SB","wheelchair_boarding":2,"routes":[{"route_id":"19637","agency_id":"70006","route_short_name":"2","route_long_name":"Cahokia Heights","route_type":3,"route_color":"#FFFFFF","route_text_color":"#000000"},{"route_id":"19638","agency_id":"70006","route_short_name":"3","route_long_name":"Sauget - Water Street","route_type":3,"route_color":"#FFFFFF","route_text_color":"#000000"}],"agency_name":"Metro St. Louis"},"geometry":{"type":"Point","coordinates":[-90.17466,38.57814]}},{"type":"Feature","properties":{"stop_id":"12974","stop_code":"12974","stop_name":"FALLING SPRINGS @ JEROME SB","stop_desc":"FAR SIDE FALLING SPRINGS @ JEROME SB","wheelchair_boarding":2,"routes":[{"route_id":"19637","agency_id":"70006","route_short_name":"2","route_long_name":"Cahokia Heights","route_type":3,"route_color":"#FFFFFF","route_text_color":"#000000"}],"agency_name":"Metro St. Louis"},"geometry":{"type":"Point","coordinates":[-90.17657,38.57636]}},{"type":"Feature","properties":{"stop_id":"12975","stop_code":"12975","stop_name":"FALLING SPRING @ UPPER CAHOKIA SB","stop_desc":"NEAR SIDE FALLING SPRING @ UPPER CAHOKIA SB","wheelchair_boarding":2,"routes":[{"route_id":"19637","agency_id":"70006","route_short_name":"2","route_long_name":"Cahokia Heights","route_type":3,"route_color":"#FFFFFF","route_text_color":"#000000"}],"agency_name":"Metro St. Louis"},"geometry":{"type":"Point","coordinates":[-90.17822,38.57534]}},{"type":"Feature","properties":{"stop_id":"13038","stop_code":"13038","stop_name":"OLD CAMP JACKSON @ RANGE WB","stop_desc":"NEAR SIDE OLD CAMP JACKSON @ RANGE WB","wheelchair_boarding":2,"routes":[{"route_id":"19637","agency_id":"70006","route_short_name":"2","route_long_name":"Cahokia Heights","route_type":3,"route_color":"#FFFFFF","route_text_color":"#000000"}],"agency_name":"Metro St. Louis"},"geometry":{"type":"Point","coordinates":[-90.17738,38.5635]}},{"type":"Feature","properties":{"stop_id":"13039","stop_code":"13039","stop_name":"RANGE @ ST. MICHAEL EB","stop_desc":"FAR SIDE RANGE @ ST. MICHAEL EB","wheelchair_boarding":2,"routes":[{"route_id":"19637","agency_id":"70006","route_short_name":"2","route_long_name":"Cahokia Heights","route_type":3,"route_color":"#FFFFFF","route_text_color":"#000000"}],"agency_name":"Metro St. Louis"},"geometry":{"type":"Point","coordinates":[-90.17486,38.56491]}},{"type":"Feature","properties":{"stop_id":"13040","stop_code":"13040","stop_name":"RANGE @ SPARKS EB","stop_desc":"NEAR SIDE RANGE @ SPARKS EB","wheelchair_boarding":2,"routes":[{"route_id":"19637","agency_id":"70006","route_short_name":"2","route_long_name":"Cahokia Heights","route_type":3,"route_color":"#FFFFFF","route_text_color":"#000000"}],"agency_name":"Metro St. Louis"},"geometry":{"type":"Point","coordinates":[-90.1733,38.56504]}},{"type":"Feature","properties":{"stop_id":"13042","stop_code":"13042","stop_name":"RANGE @ WILLIAMS EB","stop_desc":"FAR SIDE RANGE @ WILLIAMS EB","wheelchair_boarding":2,"routes":[{"route_id":"19637","agency_id":"70006","route_short_name":"2","route_long_name":"Cahokia Heights","route_type":3,"route_color":"#FFFFFF","route_text_color":"#000000"}],"agency_name":"Metro St. Louis"},"geometry":{"type":"Point","coordinates":[-90.16977,38.56488]}},{"type":"Feature","properties":{"stop_id":"13049","stop_code":"13049","stop_name":"FALLING SPRINGS @ CAMP JACKSON WB","stop_desc":"NEAR SIDE FALLING SPRINGS @ CAMP JACKSON WB","wheelchair_boarding":2,"routes":[{"route_id":"19637","agency_id":"70006","route_short_name":"2","route_long_name":"Cahokia Heights","route_type":3,"route_color":"#FFFFFF","route_text_color":"#000000"}],"agency_name":"Metro St. Louis"},"geometry":{"type":"Point","coordinates":[-90.18674,38.57156]}},{"type":"Feature","properties":{"stop_id":"14174","stop_code":"14174","stop_name":"MISSISSIPPI @ SYCAMORE SB","stop_desc":"NEAR SIDE MISSISSIPPI @ SYCAMORE SB","wheelchair_boarding":2,"routes":[{"route_id":"19637","agency_id":"70006","route_short_name":"2","route_long_name":"Cahokia Heights","route_type":3,"route_color":"#FFFFFF","route_text_color":"#000000"},{"route_id":"19638","agency_id":"70006","route_short_name":"3","route_long_name":"Sauget - Water Street","route_type":3,"route_color":"#FFFFFF","route_text_color":"#000000"}],"agency_name":"Metro St. Louis"},"geometry":{"type":"Point","coordinates":[-90.1697,38.61165]}},{"type":"Feature","properties":{"stop_id":"14176","stop_code":"14176","stop_name":"FALLING SPRINGS @ MILDRED WB","stop_desc":"FAR SIDE FALLING SPRINGS @ MILDRED WB","wheelchair_boarding":1,"routes":[{"route_id":"19637","agency_id":"70006","route_short_name":"2","route_long_name":"Cahokia Heights","route_type":3,"route_color":"#FFFFFF","route_text_color":"#000000"}],"agency_name":"Metro St. Louis"},"geometry":{"type":"Point","coordinates":[-90.18015,38.57414]}},{"type":"Feature","properties":{"stop_id":"14330","stop_code":"14330","stop_name":"5TH & MISSOURI TRANSIT CENTER","wheelchair_boarding":1,"routes":[{"route_id":"19636","agency_id":"70006","route_short_name":"1","route_long_name":"Main Street - State Street","route_type":3,"route_color":"#FFFFFF","route_text_color":"#000000"},{"route_id":"19637","agency_id":"70006","route_short_name":"2","route_long_name":"Cahokia Heights","route_type":3,"route_color":"#FFFFFF","route_text_color":"#000000"},{"route_id":"19638","agency_id":"70006","route_short_name":"3","route_long_name":"Sauget - Water Street","route_type":3,"route_color":"#FFFFFF","route_text_color":"#000000"},{"route_id":"19639","agency_id":"70006","route_short_name":"4","route_long_name":"19th & Central","route_type":3,"route_color":"#FFFFFF","route_text_color":"#000000"},{"route_id":"19640","agency_id":"70006","route_short_name":"5","route_long_name":"Missouri Ave - ML King","route_type":3,"route_color":"#FFFFFF","route_text_color":"#000000"}],"agency_name":"Metro St. Louis"},"geometry":{"type":"Point","coordinates":[-90.15906,38.62501]}},{"type":"Feature","properties":{"stop_id":"14881","stop_code":"14881","stop_name":"NICKELL @ FALLING SPRINGS SB","stop_desc":"NEAR SIDE NICKELL @ FALLING SPRINGS SB","wheelchair_boarding":2,"routes":[{"route_id":"19637","agency_id":"70006","route_short_name":"2","route_long_name":"Cahokia Heights","route_type":3,"route_color":"#FFFFFF","route_text_color":"#000000"},{"route_id":"19638","agency_id":"70006","route_short_name":"3","route_long_name":"Sauget - Water Street","route_type":3,"route_color":"#FFFFFF","route_text_color":"#000000"}],"agency_name":"Metro St. Louis"},"geometry":{"type":"Point","coordinates":[-90.16951,38.58934]}},{"type":"Feature","properties":{"stop_id":"16166","stop_code":"16166","stop_name":"CAMP JACKSON @ SAINT PAUL EB","stop_desc":"NEAR SIDE CAMP JACKSON @ SAINT PAUL EB","wheelchair_boarding":2,"routes":[{"route_id":"19637","agency_id":"70006","route_short_name":"2","route_long_name":"Cahokia Heights","route_type":3,"route_color":"#FFFFFF","route_text_color":"#000000"}],"agency_name":"Metro St. Louis"},"geometry":{"type":"Point","coordinates":[-90.18142,38.56714]}},{"type":"Feature","properties":{"stop_id":"16424","stop_code":"16424","stop_name":"RANGE @ CAHOKIA HIGH EB","stop_desc":"MID-BLOCK RANGE @ CAHOKIA HIGH EB","wheelchair_boarding":2,"routes":[{"route_id":"19637","agency_id":"70006","route_short_name":"2","route_long_name":"Cahokia Heights","route_type":3,"route_color":"#FFFFFF","route_text_color":"#000000"}],"agency_name":"Metro St. Louis"},"geometry":{"type":"Point","coordinates":[-90.16606,38.56592]}},{"type":"Feature","properties":{"stop_id":"16425","stop_code":"16425","stop_name":"PARIS @ CAMP JACKSON SB","stop_desc":"NEAR SIDE PARIS @ CAMP JACKSON SB","wheelchair_boarding":2,"routes":[{"route_id":"19637","agency_id":"70006","route_short_name":"2","route_long_name":"Cahokia Heights","route_type":3,"route_color":"#FFFFFF","route_text_color":"#000000"}],"agency_name":"Metro St. Louis"},"geometry":{"type":"Point","coordinates":[-90.16658,38.55467]}},{"type":"Feature","properties":{"stop_id":"16426","stop_code":"16426","stop_name":"PARIS @ JEROME SB","stop_desc":"FAR SIDE PARIS @ JEROME SB","wheelchair_boarding":2,"routes":[{"route_id":"19637","agency_id":"70006","route_short_name":"2","route_long_name":"Cahokia Heights","route_type":3,"route_color":"#FFFFFF","route_text_color":"#000000"}],"agency_name":"Metro St. Louis"},"geometry":{"type":"Point","coordinates":[-90.15527,38.56253]}},{"type":"Feature","properties":{"stop_id":"16427","stop_code":"16427","stop_name":"PARIS @ HARVEST SB","stop_desc":"NEAR SIDE PARIS @ HARVEST SB","wheelchair_boarding":2,"routes":[{"route_id":"19637","agency_id":"70006","route_short_name":"2","route_long_name":"Cahokia Heights","route_type":3,"route_color":"#FFFFFF","route_text_color":"#000000"}],"agency_name":"Metro St. Louis"},"geometry":{"type":"Point","coordinates":[-90.15714,38.56122]}},{"type":"Feature","properties":{"stop_id":"16428","stop_code":"16428","stop_name":"PARIS @ DORIS SB","stop_desc":"NEAR SIDE PARIS @ DORIS SB","wheelchair_boarding":2,"routes":[{"route_id":"19637","agency_id":"70006","route_short_name":"2","route_long_name":"Cahokia Heights","route_type":3,"route_color":"#FFFFFF","route_text_color":"#000000"}],"agency_name":"Metro St. Louis"},"geometry":{"type":"Point","coordinates":[-90.1601,38.55903]}},{"type":"Feature","properties":{"stop_id":"16429","stop_code":"16429","stop_name":"JEROME @ WESLEY EB","stop_desc":"FAR SIDE JEROME @ WESLEY EB","wheelchair_boarding":2,"routes":[{"route_id":"19637","agency_id":"70006","route_short_name":"2","route_long_name":"Cahokia Heights","route_type":3,"route_color":"#FFFFFF","route_text_color":"#000000"}],"agency_name":"Metro St. Louis"},"geometry":{"type":"Point","coordinates":[-90.15868,38.56544]}},{"type":"Feature","properties":{"stop_id":"16446","stop_code":"16446","stop_name":"CAMP JACKSON @ CAHOKIA SPORTS COMPLEX EB","stop_desc":"FAR SIDE CAMP JACKSON @ CAHOKIA SPORTS COMPLEX EB","wheelchair_boarding":2,"routes":[{"route_id":"19637","agency_id":"70006","route_short_name":"2","route_long_name":"Cahokia Heights","route_type":3,"route_color":"#FFFFFF","route_text_color":"#000000"}],"agency_name":"Metro St. Louis"},"geometry":{"type":"Point","coordinates":[-90.18442,38.56914]}}]}