{"type":"FeatureCollection","features":[{"type":"Feature","properties":{"agency_name":"Metro St. Louis","route_id":"19619","agency_id":"70006","route_short_name":"60","route_long_name":"Shepley-Lilac","route_type":3,"route_color":"#FFFFFF","route_text_color":"#000000"},"geometry":{"type":"MultiLineString","coordinates":[[[-90.2751,38.76913],[-90.27464,38.76915],[-90.27512,38.76913],[-90.27518,38.76916],[-90.27521,38.7692],[-90.27523,38.77072],[-90.26896,38.77062],[-90.26854,38.77053],[-90.26823,38.77043],[-90.26741,38.7703],[-90.26671,38.77037],[-90.26639,38.77045],[-90.26701,38.77093],[-90.26753,38.77137],[-90.26791,38.77165],[-90.26972,38.77308],[-90.27088,38.77403],[-90.27062,38.77421],[-90.27044,38.77431],[-90.27024,38.77438],[-90.26993,38.77444],[-90.26389,38.77437],[-90.26371,38.77435],[-90.26352,38.7743],[-90.26334,38.77422],[-90.26299,38.77397],[-90.26279,38.77391],[-90.26259,38.7739],[-90.26221,38.77405],[-90.26272,38.77486],[-90.26314,38.77549],[-90.26458,38.77759],[-90.2648,38.77793],[-90.26526,38.77872],[-90.26247,38.77873],[-90.25585,38.77865],[-90.25547,38.77867],[-90.25525,38.7787],[-90.25472,38.77883],[-90.25421,38.77903],[-90.25091,38.78078],[-90.2504,38.78102],[-90.24997,38.78117],[-90.24954,38.7813],[-90.24809,38.7816],[-90.24664,38.78199],[-90.23727,38.78456],[-90.2357,38.78502],[-90.23501,38.78493],[-90.23562,38.78332],[-90.23698,38.78034],[-90.23743,38.77928],[-90.23764,38.77934],[-90.23783,38.77933],[-90.23806,38.77928],[-90.23826,38.77913],[-90.23836,38.77896],[-90.23833,38.77871],[-90.23824,38.77838],[-90.23818,38.77795],[-90.23821,38.77756],[-90.23841,38.77708],[-90.23865,38.77642],[-90.23901,38.77575],[-90.23977,38.77454],[-90.24011,38.77466],[-90.24015,38.7747],[-90.24016,38.77473],[-90.23978,38.77527],[-90.23901,38.77575]],[[-90.23763,38.77889],[-90.23764,38.77934],[-90.23763,38.77889],[-90.2379,38.77803],[-90.23805,38.777],[-90.23815,38.77659],[-90.23825,38.77631],[-90.23835,38.77589],[-90.23845,38.77562],[-90.23865,38.77495],[-90.2388,38.77423],[-90.23885,38.7739],[-90.23891,38.77313],[-90.23887,38.77115],[-90.23887,38.76754],[-90.2389,38.76712],[-90.23889,38.76646],[-90.23886,38.76589],[-90.23877,38.76552],[-90.23881,38.76382],[-90.23712,38.76382],[-90.23694,38.76378],[-90.2368,38.7637],[-90.23668,38.76354],[-90.23659,38.76338],[-90.23657,38.76322],[-90.23661,38.76302],[-90.237,38.76267],[-90.23717,38.76257],[-90.23734,38.7624],[-90.23739,38.76233],[-90.23744,38.7622],[-90.23742,38.76208],[-90.23737,38.762],[-90.23731,38.76195],[-90.23721,38.76192],[-90.23713,38.76193],[-90.23693,38.7621],[-90.2369,38.76214],[-90.23689,38.76219],[-90.23692,38.76226],[-90.23718,38.76246],[-90.23719,38.7625]],[[-90.23877,38.76552],[-90.23881,38.76382],[-90.23877,38.76552],[-90.23872,38.76579],[-90.23871,38.7667],[-90.23876,38.77027],[-90.23876,38.77314],[-90.23873,38.77359],[-90.23866,38.77412],[-90.23851,38.77486],[-90.23836,38.77511],[-90.23808,38.77587],[-90.23788,38.77627],[-90.23758,38.77679],[-90.23722,38.77737],[-90.23713,38.77756],[-90.23677,38.77815],[-90.23658,38.77852],[-90.23568,38.7788],[-90.23579,38.77865],[-90.23582,38.77842],[-90.23595,38.77825],[-90.23618,38.77809],[-90.23651,38.77794],[-90.23676,38.7777],[-90.23704,38.77725],[-90.2376,38.77552],[-90.23767,38.77522],[-90.23771,38.77479],[-90.23769,38.77436],[-90.23747,38.77318],[-90.23732,38.77279],[-90.23722,38.77259],[-90.2371,38.7724],[-90.23689,38.77214],[-90.23673,38.77198],[-90.23639,38.77169],[-90.236,38.77147],[-90.23549,38.77125],[-90.23495,38.77111],[-90.2344,38.77104],[-90.22997,38.77104],[-90.22996,38.77173],[-90.22948,38.77187],[-90.22943,38.77184],[-90.22942,38.77179],[-90.22945,38.77174],[-90.22951,38.77173]],[[-90.22401,38.77102],[-90.22997,38.77104],[-90.22401,38.77102],[-90.2236,38.77098],[-90.22327,38.77092],[-90.22074,38.77023],[-90.22064,38.77057],[-90.22043,38.77169],[-90.22025,38.77252],[-90.21914,38.77277],[-90.21821,38.77263],[-90.218,38.77257],[-90.21744,38.7723],[-90.21722,38.77224],[-90.21684,38.77216],[-90.21634,38.77208],[-90.21603,38.77207],[-90.21494,38.77213],[-90.21148,38.7724],[-90.20892,38.77235],[-90.20883,38.77237],[-90.20867,38.77244],[-90.20586,38.77466],[-90.20563,38.77487],[-90.20546,38.77509],[-90.2043,38.77642],[-90.20133,38.77612],[-90.20204,38.77192],[-90.20228,38.77111],[-90.20248,38.76987],[-90.20196,38.76982],[-90.2017,38.76981],[-90.20148,38.76983],[-90.2011,38.76951],[-90.20109,38.76931],[-90.2011,38.76911],[-90.20116,38.76882],[-90.20144,38.76821],[-90.20182,38.76835],[-90.20203,38.76841],[-90.20245,38.76848],[-90.20281,38.76784],[-90.20287,38.76732],[-90.203,38.76663],[-90.20322,38.76528],[-90.20337,38.76474],[-90.20349,38.76445],[-90.20359,38.76426],[-90.20383,38.76397],[-90.20407,38.76373],[-90.20434,38.76353],[-90.20498,38.76315],[-90.20894,38.76099],[-90.20933,38.76074],[-90.20953,38.76059],[-90.20975,38.76039],[-90.20995,38.76014],[-90.21016,38.75977],[-90.21033,38.75938],[-90.21066,38.75738],[-90.2108,38.75643],[-90.21054,38.75642],[-90.2104,38.75633],[-90.21019,38.75608],[-90.20982,38.75573],[-90.20965,38.75564],[-90.20945,38.75558],[-90.20924,38.75556],[-90.20884,38.75563],[-90.20865,38.75573],[-90.20841,38.75594],[-90.20822,38.75607],[-90.20778,38.75627],[-90.20747,38.75643],[-90.20608,38.7563],[-90.20588,38.75631],[-90.20557,38.75637],[-90.20497,38.75658],[-90.20445,38.75673],[-90.20413,38.75679],[-90.2037,38.75684],[-90.20304,38.75687],[-90.20249,38.75685],[-90.20214,38.75682],[-90.2006,38.75658],[-90.19935,38.75628],[-90.19876,38.75608],[-90.19713,38.75542],[-90.19455,38.75417],[-90.19434,38.75409],[-90.19487,38.75314],[-90.19516,38.75272],[-90.19552,38.75226],[-90.19797,38.75343],[-90.19819,38.75351],[-90.19878,38.75359],[-90.19899,38.75359],[-90.19931,38.75354],[-90.19962,38.75345],[-90.19992,38.75333],[-90.20057,38.75297],[-90.20099,38.75269],[-90.20126,38.75247],[-90.20149,38.75224],[-90.2017,38.752],[-90.20184,38.75171],[-90.20197,38.75149],[-90.20211,38.75134],[-90.2023,38.75124],[-90.2025,38.75117],[-90.20271,38.75113],[-90.20359,38.75117],[-90.20414,38.75109],[-90.20407,38.75079],[-90.20405,38.75059],[-90.20406,38.75035],[-90.20411,38.74992],[-90.20451,38.74753],[-90.20621,38.74768],[-90.21258,38.74829],[-90.21367,38.74841],[-90.21493,38.74852],[-90.22352,38.74943],[-90.22414,38.74892],[-90.22486,38.74553],[-90.22512,38.74419],[-90.22552,38.74237],[-90.22609,38.73994],[-90.22615,38.7396],[-90.22621,38.73903],[-90.22618,38.73765],[-90.2262,38.73728],[-90.22624,38.73708],[-90.22639,38.73665],[-90.22667,38.73549],[-90.22714,38.73371],[-90.22744,38.73261],[-90.22786,38.73119],[-90.22793,38.73084],[-90.22808,38.73026],[-90.22816,38.72958],[-90.22815,38.72912],[-90.22805,38.72824],[-90.22792,38.72679],[-90.22792,38.72652],[-90.22794,38.72633],[-90.22586,38.72692],[-90.22471,38.72717],[-90.22461,38.72711]],[[-90.23701,38.77917],[-90.23764,38.77934],[-90.23701,38.77917],[-90.2364,38.77904]],[[-90.22401,38.77102],[-90.2344,38.77104]]]}},{"type":"Feature","properties":{"stop_id":"10163","stop_code":"10163","stop_name":"NEW HALLS FERRY @ DUNN NB","stop_desc":"FAR SIDE NEW HALLS FERRY @ DUNN NB","wheelchair_boarding":2,"routes":[{"route_id":"19619","agency_id":"70006","route_short_name":"60","route_long_name":"Shepley-Lilac","route_type":3,"route_color":"#FFFFFF","route_text_color":"#000000"}],"agency_name":"Metro St. Louis"},"geometry":{"type":"Point","coordinates":[-90.26844,38.77218]}},{"type":"Feature","properties":{"stop_id":"10390","stop_code":"10390","stop_name":"WISKOW @ DUNKLIN EB","stop_desc":"NEAR SIDE WISKOW @ DUNKLIN EB","wheelchair_boarding":1,"routes":[{"route_id":"19619","agency_id":"70006","route_short_name":"60","route_long_name":"Shepley-Lilac","route_type":3,"route_color":"#FFFFFF","route_text_color":"#000000"}],"agency_name":"Metro St. Louis"},"geometry":{"type":"Point","coordinates":[-90.20145,38.76983]}},{"type":"Feature","properties":{"stop_id":"10392","stop_code":"10392","stop_name":"LILAC @ KENRAN INDUSTRIAL SB","stop_desc":"NEAR SIDE LILAC @ KENRAN INDUSTRIAL SB","wheelchair_boarding":1,"routes":[{"route_id":"19619","agency_id":"70006","route_short_name":"60","route_long_name":"Shepley-Lilac","route_type":3,"route_color":"#FFFFFF","route_text_color":"#000000"}],"agency_name":"Metro St. Louis"},"geometry":{"type":"Point","coordinates":[-90.204,38.76392]}},{"type":"Feature","properties":{"stop_id":"10393","stop_code":"10393","stop_name":"LILAC @ FOXLAIR SB","stop_desc":"NEAR SIDE LILAC @ FOXLAIR SB","wheelchair_boarding":1,"routes":[{"route_id":"19619","agency_id":"70006","route_short_name":"60","route_long_name":"Shepley-Lilac","route_type":3,"route_color":"#FFFFFF","route_text_color":"#000000"}],"agency_name":"Metro St. Louis"},"geometry":{"type":"Point","coordinates":[-90.20756,38.76181]}},{"type":"Feature","properties":{"stop_id":"10395","stop_code":"10395","stop_name":"LILAC @ SHEPLEY SB","stop_desc":"NEAR SIDE LILAC @ SHEPLEY SB","wheelchair_boarding":1,"routes":[{"route_id":"19619","agency_id":"70006","route_short_name":"60","route_long_name":"Shepley-Lilac","route_type":3,"route_color":"#FFFFFF","route_text_color":"#000000"}],"agency_name":"Metro St. Louis"},"geometry":{"type":"Point","coordinates":[-90.21072,38.75751]}},{"type":"Feature","properties":{"stop_id":"10396","stop_code":"10396","stop_name":"SHEPLEY @ LILAC EB","stop_desc":"FAR SIDE SHEPLEY @ LILAC EB","wheelchair_boarding":2,"routes":[{"route_id":"19619","agency_id":"70006","route_short_name":"60","route_long_name":"Shepley-Lilac","route_type":3,"route_color":"#FFFFFF","route_text_color":"#000000"}],"agency_name":"Metro St. Louis"},"geometry":{"type":"Point","coordinates":[-90.21031,38.75617]}},{"type":"Feature","properties":{"stop_id":"10397","stop_code":"10397","stop_name":"SHEPLEY @ MELVICH EB","stop_desc":"FAR SIDE SHEPLEY @ MELVICH EB","wheelchair_boarding":2,"routes":[{"route_id":"19619","agency_id":"70006","route_short_name":"60","route_long_name":"Shepley-Lilac","route_type":3,"route_color":"#FFFFFF","route_text_color":"#000000"}],"agency_name":"Metro St. Louis"},"geometry":{"type":"Point","coordinates":[-90.20887,38.75562]}},{"type":"Feature","properties":{"stop_id":"10399","stop_code":"10399","stop_name":"SHEPLEY @ RENFREW EB","stop_desc":"FAR SIDE SHEPLEY @ RENFREW EB","wheelchair_boarding":2,"routes":[{"route_id":"19619","agency_id":"70006","route_short_name":"60","route_long_name":"Shepley-Lilac","route_type":3,"route_color":"#FFFFFF","route_text_color":"#000000"}],"agency_name":"Metro St. Louis"},"geometry":{"type":"Point","coordinates":[-90.20584,38.75633]}},{"type":"Feature","properties":{"stop_id":"10401","stop_code":"10401","stop_name":"SHEPLEY @ BALMORAL EB","stop_desc":"FAR SIDE SHEPLEY @ BALMORAL EB","wheelchair_boarding":2,"routes":[{"route_id":"19619","agency_id":"70006","route_short_name":"60","route_long_name":"Shepley-Lilac","route_type":3,"route_color":"#FFFFFF","route_text_color":"#000000"}],"agency_name":"Metro St. Louis"},"geometry":{"type":"Point","coordinates":[-90.20097,38.75661]}},{"type":"Feature","properties":{"stop_id":"10402","stop_code":"10402","stop_name":"SHEPLEY @ LOTHIAN CIRCLE EB","stop_desc":"NEAR SIDE SHEPLEY @ LOTHIAN CIRCLE EB","wheelchair_boarding":2,"routes":[{"route_id":"19619","agency_id":"70006","route_short_name":"60","route_long_name":"Shepley-Lilac","route_type":3,"route_color":"#FFFFFF","route_text_color":"#000000"}],"agency_name":"Metro St. Louis"},"geometry":{"type":"Point","coordinates":[-90.19951,38.75628]}},{"type":"Feature","properties":{"stop_id":"10403","stop_code":"10403","stop_name":"SHEPLEY @ SPRING GARDEN EB","stop_desc":"NEAR SIDE SHEPLEY @ SPRING GARDEN EB","wheelchair_boarding":2,"routes":[{"route_id":"19619","agency_id":"70006","route_short_name":"60","route_long_name":"Shepley-Lilac","route_type":3,"route_color":"#FFFFFF","route_text_color":"#000000"}],"agency_name":"Metro St. Louis"},"geometry":{"type":"Point","coordinates":[-90.19508,38.75442]}},{"type":"Feature","properties":{"stop_id":"10405","stop_code":"10405","stop_name":"CAMERON @ ROSS CIRCLE WB","stop_desc":"FAR SIDE CAMERON @ ROSS CIRCLE WB","wheelchair_boarding":2,"routes":[{"route_id":"19619","agency_id":"70006","route_short_name":"60","route_long_name":"Shepley-Lilac","route_type":3,"route_color":"#FFFFFF","route_text_color":"#000000"}],"agency_name":"Metro St. Louis"},"geometry":{"type":"Point","coordinates":[-90.19754,38.75323]}},{"type":"Feature","properties":{"stop_id":"10407","stop_code":"10407","stop_name":"CAMERON @ ESTRIDGE SB","stop_desc":"FAR SIDE CAMERON @ ESTRIDGE SB","wheelchair_boarding":2,"routes":[{"route_id":"19619","agency_id":"70006","route_short_name":"60","route_long_name":"Shepley-Lilac","route_type":3,"route_color":"#FFFFFF","route_text_color":"#000000"}],"agency_name":"Metro St. Louis"},"geometry":{"type":"Point","coordinates":[-90.20111,38.75269]}},{"type":"Feature","properties":{"stop_id":"10409","stop_code":"10409","stop_name":"NORTHGATE @ CAMERON SB","stop_desc":"FAR SIDE NORTHGATE @ CAMERON SB","wheelchair_boarding":2,"routes":[{"route_id":"19619","agency_id":"70006","route_short_name":"60","route_long_name":"Shepley-Lilac","route_type":3,"route_color":"#FFFFFF","route_text_color":"#000000"}],"agency_name":"Metro St. Louis"},"geometry":{"type":"Point","coordinates":[-90.20415,38.75071]}},{"type":"Feature","properties":{"stop_id":"10411","stop_code":"10411","stop_name":"NORTHGATE @ HABECKING SB","stop_desc":"FAR SIDE NORTHGATE @ HABECKING SB","wheelchair_boarding":2,"routes":[{"route_id":"19619","agency_id":"70006","route_short_name":"60","route_long_name":"Shepley-Lilac","route_type":3,"route_color":"#FFFFFF","route_text_color":"#000000"}],"agency_name":"Metro St. Louis"},"geometry":{"type":"Point","coordinates":[-90.20438,38.74869]}},{"type":"Feature","properties":{"stop_id":"13409","stop_code":"13409","stop_name":"BENHAM @ REDMAN SB","stop_desc":"FAR SIDE BENHAM @ REDMAN SB","wheelchair_boarding":2,"routes":[{"route_id":"19619","agency_id":"70006","route_short_name":"60","route_long_name":"Shepley-Lilac","route_type":3,"route_color":"#FFFFFF","route_text_color":"#000000"}],"agency_name":"Metro St. Louis"},"geometry":{"type":"Point","coordinates":[-90.23524,38.7844]}},{"type":"Feature","properties":{"stop_id":"13410","stop_code":"13410","stop_name":"DUNN @ CHRISTIAN HOSPITAL ENTRANCE 1 SB","stop_desc":"NEAR SIDE DUNN @ CHRISTIAN HOSPITAL ENTRANCE 1 SB","wheelchair_boarding":2,"routes":[{"route_id":"19619","agency_id":"70006","route_short_name":"60","route_long_name":"Shepley-Lilac","route_type":3,"route_color":"#FFFFFF","route_text_color":"#000000"}],"agency_name":"Metro St. Louis"},"geometry":{"type":"Point","coordinates":[-90.23836,38.77735]}},{"type":"Feature","properties":{"stop_id":"13598","stop_code":"13598","stop_name":"OLD HALLS FERRY @ NETHERTON NB","stop_desc":"MID-BLOCK OLD HALLS FERRY @ NETHERTON NB","wheelchair_boarding":2,"routes":[{"route_id":"19619","agency_id":"70006","route_short_name":"60","route_long_name":"Shepley-Lilac","route_type":3,"route_color":"#FFFFFF","route_text_color":"#000000"}],"agency_name":"Metro St. Louis"},"geometry":{"type":"Point","coordinates":[-90.26242,38.77458]}},{"type":"Feature","properties":{"stop_id":"13638","stop_code":"13638","stop_name":"DUNN @ LILAC PARK RIDE LOT WB","stop_desc":"FAR SIDE DUNN @ LILAC PARK RIDE LOT WB","wheelchair_boarding":1,"routes":[{"route_id":"19619","agency_id":"70006","route_short_name":"60","route_long_name":"Shepley-Lilac","route_type":3,"route_color":"#FFFFFF","route_text_color":"#000000"}],"agency_name":"Metro St. Louis"},"geometry":{"type":"Point","coordinates":[-90.20142,38.76835]}},{"type":"Feature","properties":{"stop_id":"13657","stop_code":"13657","stop_name":"BELLEFONTAINE @ LARIMORE NB","stop_desc":"FAR SIDE BELLEFONTAINE @ LARIMORE NB","wheelchair_boarding":1,"routes":[{"route_id":"19619","agency_id":"70006","route_short_name":"60","route_long_name":"Shepley-Lilac","route_type":3,"route_color":"#FFFFFF","route_text_color":"#000000"},{"route_id":"19627","agency_id":"70006","route_short_name":"78","route_long_name":"Bellefontaine","route_type":3,"route_color":"#FFFFFF","route_text_color":"#000000"}],"agency_name":"Metro St. Louis"},"geometry":{"type":"Point","coordinates":[-90.2203,38.77196]}},{"type":"Feature","properties":{"stop_id":"14603","stop_code":"14603","stop_name":"VETERANS HOME LOOP","stop_desc":"NEAR SIDE VETERANS HOME LOOP","wheelchair_boarding":1,"routes":[{"route_id":"19619","agency_id":"70006","route_short_name":"60","route_long_name":"Shepley-Lilac","route_type":3,"route_color":"#FFFFFF","route_text_color":"#000000"}],"agency_name":"Metro St. Louis"},"geometry":{"type":"Point","coordinates":[-90.23686,38.7622]}},{"type":"Feature","properties":{"stop_id":"14905","stop_code":"14905","stop_name":"REDMAN @ LAS LADERA EB","stop_desc":"FAR SIDE REDMAN @ LAS LADERA EB","wheelchair_boarding":2,"routes":[{"route_id":"19619","agency_id":"70006","route_short_name":"60","route_long_name":"Shepley-Lilac","route_type":3,"route_color":"#FFFFFF","route_text_color":"#000000"}],"agency_name":"Metro St. Louis"},"geometry":{"type":"Point","coordinates":[-90.23737,38.78448]}},{"type":"Feature","properties":{"stop_id":"15073","stop_code":"15073","stop_name":"RIVERVIEW @ BROADWAY EB","stop_desc":"FAR SIDE RIVERVIEW @ BROADWAY EB","wheelchair_boarding":2,"routes":[{"route_id":"19601","agency_id":"70006","route_short_name":"16","route_long_name":"City Limits","route_type":3,"route_color":"#FFFFFF","route_text_color":"#000000"},{"route_id":"19611","agency_id":"70006","route_short_name":"40","route_long_name":"Broadway-Halls Ferry","route_type":3,"route_color":"#FFFFFF","route_text_color":"#000000"},{"route_id":"19612","agency_id":"70006","route_short_name":"41","route_long_name":"Lee","route_type":3,"route_color":"#FFFFFF","route_text_color":"#000000"},{"route_id":"19619","agency_id":"70006","route_short_name":"60","route_long_name":"Shepley-Lilac","route_type":3,"route_color":"#FFFFFF","route_text_color":"#000000"},{"route_id":"19620","agency_id":"70006","route_short_name":"61","route_long_name":"Chambers Rd","route_type":3,"route_color":"#FFFFFF","route_text_color":"#000000"},{"route_id":"19621","agency_id":"70006","route_short_name":"64","route_long_name":"Lucas-Hunt","route_type":3,"route_color":"#FFFFFF","route_text_color":"#000000"},{"route_id":"19627","agency_id":"70006","route_short_name":"78","route_long_name":"Bellefontaine","route_type":3,"route_color":"#FFFFFF","route_text_color":"#000000"},{"route_id":"19629","agency_id":"70006","route_short_name":"90","route_long_name":"Hampton","route_type":3,"route_color":"#FFFFFF","route_text_color":"#000000"}],"agency_name":"Metro St. Louis"},"geometry":{"type":"Point","coordinates":[-90.22708,38.72658]}},{"type":"Feature","properties":{"stop_id":"15100","stop_code":"15100","stop_name":"CHAMBERS @ JEFFREY WB","stop_desc":"NEAR SIDE CHAMBERS @ JEFFREY WB","wheelchair_boarding":2,"routes":[{"route_id":"19619","agency_id":"70006","route_short_name":"60","route_long_name":"Shepley-Lilac","route_type":3,"route_color":"#FFFFFF","route_text_color":"#000000"}],"agency_name":"Metro St. Louis"},"geometry":{"type":"Point","coordinates":[-90.20556,38.74765]}},{"type":"Feature","properties":{"stop_id":"15101","stop_code":"15101","stop_name":"CHAMBERS @ VALLEY WB","stop_desc":"FAR SIDE CHAMBERS @ VALLEY WB","wheelchair_boarding":2,"routes":[{"route_id":"19619","agency_id":"70006","route_short_name":"60","route_long_name":"Shepley-Lilac","route_type":3,"route_color":"#FFFFFF","route_text_color":"#000000"}],"agency_name":"Metro St. Louis"},"geometry":{"type":"Point","coordinates":[-90.20802,38.74787]}},{"type":"Feature","properties":{"stop_id":"15102","stop_code":"15102","stop_name":"CHAMBERS @ STIMSON WB","stop_desc":"FAR SIDE CHAMBERS @ STIMSON WB","wheelchair_boarding":1,"routes":[{"route_id":"19619","agency_id":"70006","route_short_name":"60","route_long_name":"Shepley-Lilac","route_type":3,"route_color":"#FFFFFF","route_text_color":"#000000"}],"agency_name":"Metro St. Louis"},"geometry":{"type":"Point","coordinates":[-90.21003,38.74808]}},{"type":"Feature","properties":{"stop_id":"16023","stop_code":"16023","stop_name":"DUNN @ HAZELWOOD EAST HIGH SCHOOL SB","stop_desc":"MID-BLOCK DUNN @ HAZELWOOD EAST HIGH SCHOOL SB","wheelchair_boarding":2,"routes":[{"route_id":"19619","agency_id":"70006","route_short_name":"60","route_long_name":"Shepley-Lilac","route_type":3,"route_color":"#FFFFFF","route_text_color":"#000000"}],"agency_name":"Metro St. Louis"},"geometry":{"type":"Point","coordinates":[-90.23765,38.77358]}},{"type":"Feature","properties":{"stop_id":"16024","stop_code":"16024","stop_name":"DUNN @ HAZELWOOD MIDDLE SCHOOL EB","stop_desc":"MID-BLOCK DUNN @ HAZELWOOD MIDDLE SCHOOL EB","wheelchair_boarding":2,"routes":[{"route_id":"19619","agency_id":"70006","route_short_name":"60","route_long_name":"Shepley-Lilac","route_type":3,"route_color":"#FFFFFF","route_text_color":"#000000"}],"agency_name":"Metro St. Louis"},"geometry":{"type":"Point","coordinates":[-90.23396,38.77102]}},{"type":"Feature","properties":{"stop_id":"16085","stop_code":"16085","stop_name":"NATIONAL PERSONNEL RECORD CENTER & NATIONAL ARCHIVES","stop_desc":"MID-BLOCK NATIONAL PERSONNEL RECORD CENTER & NATIONAL ARCHIVES","wheelchair_boarding":1,"routes":[{"route_id":"19619","agency_id":"70006","route_short_name":"60","route_long_name":"Shepley-Lilac","route_type":3,"route_color":"#FFFFFF","route_text_color":"#000000"}],"agency_name":"Metro St. Louis"},"geometry":{"type":"Point","coordinates":[-90.22957,38.77187]}},{"type":"Feature","properties":{"stop_id":"16086","stop_code":"16086","stop_name":"DUNN @ CHRISTIAN HOSPITAL ENTRANCE 1 NB","stop_desc":"FAR SIDE DUNN @ CHRISTIAN HOSPITAL ENTRANCE 1 NB","wheelchair_boarding":2,"routes":[{"route_id":"19619","agency_id":"70006","route_short_name":"60","route_long_name":"Shepley-Lilac","route_type":3,"route_color":"#FFFFFF","route_text_color":"#000000"}],"agency_name":"Metro St. Louis"},"geometry":{"type":"Point","coordinates":[-90.23809,38.7778]}},{"type":"Feature","properties":{"stop_id":"16112","stop_code":"16112","stop_name":"REDMAN @ STONYMONT EB","stop_desc":"FAR SIDE REDMAN @ STONYMONT EB","wheelchair_boarding":2,"routes":[{"route_id":"19619","agency_id":"70006","route_short_name":"60","route_long_name":"Shepley-Lilac","route_type":3,"route_color":"#FFFFFF","route_text_color":"#000000"}],"agency_name":"Metro St. Louis"},"geometry":{"type":"Point","coordinates":[-90.24634,38.78203]}},{"type":"Feature","properties":{"stop_id":"16115","stop_code":"16115","stop_name":"REDMAN @ NORTHWAY EB","stop_desc":"FAR SIDE REDMAN @ NORTHWAY EB","wheelchair_boarding":2,"routes":[{"route_id":"19619","agency_id":"70006","route_short_name":"60","route_long_name":"Shepley-Lilac","route_type":3,"route_color":"#FFFFFF","route_text_color":"#000000"}],"agency_name":"Metro St. Louis"},"geometry":{"type":"Point","coordinates":[-90.24245,38.78309]}},{"type":"Feature","properties":{"stop_id":"16116","stop_code":"16116","stop_name":"DUNN @ BENHAM SB","stop_desc":"FAR SIDE DUNN @ BENHAM SB","wheelchair_boarding":2,"routes":[{"route_id":"19619","agency_id":"70006","route_short_name":"60","route_long_name":"Shepley-Lilac","route_type":3,"route_color":"#FFFFFF","route_text_color":"#000000"}],"agency_name":"Metro St. Louis"},"geometry":{"type":"Point","coordinates":[-90.23785,38.7794]}},{"type":"Feature","properties":{"stop_id":"16146","stop_code":"16146","stop_name":"NORTH COUNTY TRANSIT CENTER","wheelchair_boarding":1,"routes":[{"route_id":"19611","agency_id":"70006","route_short_name":"40","route_long_name":"Broadway-Halls Ferry","route_type":3,"route_color":"#FFFFFF","route_text_color":"#000000"},{"route_id":"19619","agency_id":"70006","route_short_name":"60","route_long_name":"Shepley-Lilac","route_type":3,"route_color":"#FFFFFF","route_text_color":"#000000"},{"route_id":"19624","agency_id":"70006","route_short_name":"74","route_long_name":"Florissant","route_type":3,"route_color":"#FFFFFF","route_text_color":"#000000"},{"route_id":"19627","agency_id":"70006","route_short_name":"78","route_long_name":"Bellefontaine","route_type":3,"route_color":"#FFFFFF","route_text_color":"#000000"}],"agency_name":"Metro St. Louis"},"geometry":{"type":"Point","coordinates":[-90.27452,38.76987]}},{"type":"Feature","properties":{"stop_id":"16208","stop_code":"16208","stop_name":"LARIMORE PARKWAY @ SIERRA VISTA PARKWAY EB","stop_desc":"NEAR SIDE LARIMORE PARKWAY @ SIERRA VISTA PARKWAY EB","wheelchair_boarding":2,"routes":[{"route_id":"19619","agency_id":"70006","route_short_name":"60","route_long_name":"Shepley-Lilac","route_type":3,"route_color":"#FFFFFF","route_text_color":"#000000"}],"agency_name":"Metro St. Louis"},"geometry":{"type":"Point","coordinates":[-90.21793,38.77249]}},{"type":"Feature","properties":{"stop_id":"16209","stop_code":"16209","stop_name":"LARIMORE @ ASPEN WOODS EB","stop_desc":"NEAR SIDE LARIMORE @ ASPEN WOODS EB","wheelchair_boarding":2,"routes":[{"route_id":"19619","agency_id":"70006","route_short_name":"60","route_long_name":"Shepley-Lilac","route_type":3,"route_color":"#FFFFFF","route_text_color":"#000000"}],"agency_name":"Metro St. Louis"},"geometry":{"type":"Point","coordinates":[-90.21093,38.77245]}},{"type":"Feature","properties":{"stop_id":"16210","stop_code":"16210","stop_name":"COAL BANK @ LARIMORE EB","stop_desc":"FAR SIDE COAL BANK @ LARIMORE EB","wheelchair_boarding":2,"routes":[{"route_id":"19619","agency_id":"70006","route_short_name":"60","route_long_name":"Shepley-Lilac","route_type":3,"route_color":"#FFFFFF","route_text_color":"#000000"}],"agency_name":"Metro St. Louis"},"geometry":{"type":"Point","coordinates":[-90.20368,38.77638]}},{"type":"Feature","properties":{"stop_id":"16301","stop_code":"16301","stop_name":"PERSHALL @ TRASK EB","stop_desc":"FAR SIDE PERSHALL @ TRASK EB","wheelchair_boarding":2,"routes":[{"route_id":"19611","agency_id":"70006","route_short_name":"40","route_long_name":"Broadway-Halls Ferry","route_type":3,"route_color":"#FFFFFF","route_text_color":"#000000"},{"route_id":"19619","agency_id":"70006","route_short_name":"60","route_long_name":"Shepley-Lilac","route_type":3,"route_color":"#FFFFFF","route_text_color":"#000000"},{"route_id":"19627","agency_id":"70006","route_short_name":"78","route_long_name":"Bellefontaine","route_type":3,"route_color":"#FFFFFF","route_text_color":"#000000"}],"agency_name":"Metro St. Louis"},"geometry":{"type":"Point","coordinates":[-90.26996,38.77066]}},{"type":"Feature","properties":{"stop_id":"16312","stop_code":"16312","stop_name":"2600 REDMAN EB","stop_desc":"MID-BLOCK 2600 REDMAN EB","wheelchair_boarding":1,"routes":[{"route_id":"19619","agency_id":"70006","route_short_name":"60","route_long_name":"Shepley-Lilac","route_type":3,"route_color":"#FFFFFF","route_text_color":"#000000"}],"agency_name":"Metro St. Louis"},"geometry":{"type":"Point","coordinates":[-90.25138,38.78041]}},{"type":"Feature","properties":{"stop_id":"16540","stop_code":"16540","stop_name":"424 SHEPLEY EB","stop_desc":"MID-BLOCK 424 SHEPLEY EB","wheelchair_boarding":2,"routes":[{"route_id":"19619","agency_id":"70006","route_short_name":"60","route_long_name":"Shepley-Lilac","route_type":3,"route_color":"#FFFFFF","route_text_color":"#000000"}],"agency_name":"Metro St. Louis"},"geometry":{"type":"Point","coordinates":[-90.20442,38.75664]}},{"type":"Feature","properties":{"stop_id":"4534","stop_code":"4534","stop_name":"SHEPLEY @ HIGHLAND ELEMENTARY EB","stop_desc":"MID-BLOCK SHEPLEY @ HIGHLAND ELEMENTARY EB","wheelchair_boarding":2,"routes":[{"route_id":"19619","agency_id":"70006","route_short_name":"60","route_long_name":"Shepley-Lilac","route_type":3,"route_color":"#FFFFFF","route_text_color":"#000000"}],"agency_name":"Metro St. Louis"},"geometry":{"type":"Point","coordinates":[-90.19692,38.75528]}},{"type":"Feature","properties":{"stop_id":"4547","stop_code":"4547","stop_name":"CHAMBERS @ MCCARTNEY WB","stop_desc":"NEAR SIDE CHAMBERS @ MCCARTNEY WB","wheelchair_boarding":2,"routes":[{"route_id":"19619","agency_id":"70006","route_short_name":"60","route_long_name":"Shepley-Lilac","route_type":3,"route_color":"#FFFFFF","route_text_color":"#000000"}],"agency_name":"Metro St. Louis"},"geometry":{"type":"Point","coordinates":[-90.21479,38.74852]}},{"type":"Feature","properties":{"stop_id":"4549","stop_code":"4549","stop_name":"CHAMBERS @ TOELLE WB","stop_desc":"NEAR SIDE CHAMBERS @ TOELLE WB","wheelchair_boarding":1,"routes":[{"route_id":"19619","agency_id":"70006","route_short_name":"60","route_long_name":"Shepley-Lilac","route_type":3,"route_color":"#FFFFFF","route_text_color":"#000000"}],"agency_name":"Metro St. Louis"},"geometry":{"type":"Point","coordinates":[-90.21806,38.74887]}},{"type":"Feature","properties":{"stop_id":"4657","stop_code":"4657","stop_name":"SPRING GARDEN @ SHEPLEY SB","stop_desc":"FAR SIDE SPRING GARDEN @ SHEPLEY SB","wheelchair_boarding":2,"routes":[{"route_id":"19619","agency_id":"70006","route_short_name":"60","route_long_name":"Shepley-Lilac","route_type":3,"route_color":"#FFFFFF","route_text_color":"#000000"}],"agency_name":"Metro St. Louis"},"geometry":{"type":"Point","coordinates":[-90.19511,38.75292]}},{"type":"Feature","properties":{"stop_id":"5792","stop_code":"5792","stop_name":"CHRISTIAN HOSPITAL NORTHEAST LOOP","stop_desc":"MID-BLOCK CHRISTIAN HOSPITAL NORTHEAST LOOP","wheelchair_boarding":2,"routes":[{"route_id":"19619","agency_id":"70006","route_short_name":"60","route_long_name":"Shepley-Lilac","route_type":3,"route_color":"#FFFFFF","route_text_color":"#000000"}],"agency_name":"Metro St. Louis"},"geometry":{"type":"Point","coordinates":[-90.23952,38.77577]}},{"type":"Feature","properties":{"stop_id":"6503","stop_code":"6503","stop_name":"NETHERTON @ MEHL EB","stop_desc":"NEAR SIDE NETHERTON @ MEHL EB","wheelchair_boarding":2,"routes":[{"route_id":"19619","agency_id":"70006","route_short_name":"60","route_long_name":"Shepley-Lilac","route_type":3,"route_color":"#FFFFFF","route_text_color":"#000000"}],"agency_name":"Metro St. Louis"},"geometry":{"type":"Point","coordinates":[-90.26977,38.77445]}},{"type":"Feature","properties":{"stop_id":"6505","stop_code":"6505","stop_name":"NETHERTON @ ROTTINGDEAN EB","stop_desc":"NEAR SIDE NETHERTON @ ROTTINGDEAN EB","wheelchair_boarding":1,"routes":[{"route_id":"19619","agency_id":"70006","route_short_name":"60","route_long_name":"Shepley-Lilac","route_type":3,"route_color":"#FFFFFF","route_text_color":"#000000"}],"agency_name":"Metro St. Louis"},"geometry":{"type":"Point","coordinates":[-90.26509,38.77438]}},{"type":"Feature","properties":{"stop_id":"6509","stop_code":"6509","stop_name":"REDMAN @ GARHAM EB","stop_desc":"NEAR SIDE REDMAN @ GARHAM EB","wheelchair_boarding":2,"routes":[{"route_id":"19619","agency_id":"70006","route_short_name":"60","route_long_name":"Shepley-Lilac","route_type":3,"route_color":"#FFFFFF","route_text_color":"#000000"}],"agency_name":"Metro St. Louis"},"geometry":{"type":"Point","coordinates":[-90.26289,38.7787]}},{"type":"Feature","properties":{"stop_id":"6512","stop_code":"6512","stop_name":"REDMAN @ PRITCHARD EB","stop_desc":"FAR SIDE REDMAN @ PRITCHARD EB","wheelchair_boarding":1,"routes":[{"route_id":"19619","agency_id":"70006","route_short_name":"60","route_long_name":"Shepley-Lilac","route_type":3,"route_color":"#FFFFFF","route_text_color":"#000000"}],"agency_name":"Metro St. Louis"},"geometry":{"type":"Point","coordinates":[-90.25827,38.77866]}},{"type":"Feature","properties":{"stop_id":"6649","stop_code":"6649","stop_name":"RIVERVIEW TRANSIT CENTER","wheelchair_boarding":1,"routes":[{"route_id":"19601","agency_id":"70006","route_short_name":"16","route_long_name":"City Limits","route_type":3,"route_color":"#FFFFFF","route_text_color":"#000000"},{"route_id":"19611","agency_id":"70006","route_short_name":"40","route_long_name":"Broadway-Halls Ferry","route_type":3,"route_color":"#FFFFFF","route_text_color":"#000000"},{"route_id":"19612","agency_id":"70006","route_short_name":"41","route_long_name":"Lee","route_type":3,"route_color":"#FFFFFF","route_text_color":"#000000"},{"route_id":"19619","agency_id":"70006","route_short_name":"60","route_long_name":"Shepley-Lilac","route_type":3,"route_color":"#FFFFFF","route_text_color":"#000000"}],"agency_name":"Metro St. Louis"},"geometry":{"type":"Point","coordinates":[-90.22406,38.7273]}},{"type":"Feature","properties":{"stop_id":"6687","stop_code":"6687","stop_name":"OLD HALLS FERRY @ REDMAN NB","stop_desc":"NEAR SIDE OLD HALLS FERRY @ REDMAN NB","wheelchair_boarding":2,"routes":[{"route_id":"19619","agency_id":"70006","route_short_name":"60","route_long_name":"Shepley-Lilac","route_type":3,"route_color":"#FFFFFF","route_text_color":"#000000"}],"agency_name":"Metro St. Louis"},"geometry":{"type":"Point","coordinates":[-90.26434,38.77735]}},{"type":"Feature","properties":{"stop_id":"6766","stop_code":"6766","stop_name":"BELLEFONTAINE @ CHAMBERS SB","stop_desc":"FAR SIDE BELLEFONTAINE @ CHAMBERS SB","wheelchair_boarding":1,"routes":[{"route_id":"19619","agency_id":"70006","route_short_name":"60","route_long_name":"Shepley-Lilac","route_type":3,"route_color":"#FFFFFF","route_text_color":"#000000"},{"route_id":"19620","agency_id":"70006","route_short_name":"61","route_long_name":"Chambers Rd","route_type":3,"route_color":"#FFFFFF","route_text_color":"#000000"},{"route_id":"19627","agency_id":"70006","route_short_name":"78","route_long_name":"Bellefontaine","route_type":3,"route_color":"#FFFFFF","route_text_color":"#000000"}],"agency_name":"Metro St. Louis"},"geometry":{"type":"Point","coordinates":[-90.22432,38.74836]}},{"type":"Feature","properties":{"stop_id":"6767","stop_code":"6767","stop_name":"BELLEFONTAINE @ GREEN ACRES SB","stop_desc":"FAR SIDE BELLEFONTAINE @ GREEN ACRES SB","wheelchair_boarding":2,"routes":[{"route_id":"19619","agency_id":"70006","route_short_name":"60","route_long_name":"Shepley-Lilac","route_type":3,"route_color":"#FFFFFF","route_text_color":"#000000"},{"route_id":"19620","agency_id":"70006","route_short_name":"61","route_long_name":"Chambers Rd","route_type":3,"route_color":"#FFFFFF","route_text_color":"#000000"},{"route_id":"19627","agency_id":"70006","route_short_name":"78","route_long_name":"Bellefontaine","route_type":3,"route_color":"#FFFFFF","route_text_color":"#000000"}],"agency_name":"Metro St. Louis"},"geometry":{"type":"Point","coordinates":[-90.22467,38.74661]}},{"type":"Feature","properties":{"stop_id":"6768","stop_code":"6768","stop_name":"BELLEFONTAINE @ FOREST HOME SB","stop_desc":"NEAR SIDE BELLEFONTAINE @ FOREST HOME SB","wheelchair_boarding":2,"routes":[{"route_id":"19619","agency_id":"70006","route_short_name":"60","route_long_name":"Shepley-Lilac","route_type":3,"route_color":"#FFFFFF","route_text_color":"#000000"},{"route_id":"19620","agency_id":"70006","route_short_name":"61","route_long_name":"Chambers Rd","route_type":3,"route_color":"#FFFFFF","route_text_color":"#000000"},{"route_id":"19627","agency_id":"70006","route_short_name":"78","route_long_name":"Bellefontaine","route_type":3,"route_color":"#FFFFFF","route_text_color":"#000000"}],"agency_name":"Metro St. Louis"},"geometry":{"type":"Point","coordinates":[-90.22504,38.74475]}},{"type":"Feature","properties":{"stop_id":"6769","stop_code":"6769","stop_name":"BELLEFONTAINE @ ZELLWEGER SB","stop_desc":"FAR SIDE BELLEFONTAINE @ ZELLWEGER SB","wheelchair_boarding":2,"routes":[{"route_id":"19619","agency_id":"70006","route_short_name":"60","route_long_name":"Shepley-Lilac","route_type":3,"route_color":"#FFFFFF","route_text_color":"#000000"},{"route_id":"19620","agency_id":"70006","route_short_name":"61","route_long_name":"Chambers Rd","route_type":3,"route_color":"#FFFFFF","route_text_color":"#000000"},{"route_id":"19627","agency_id":"70006","route_short_name":"78","route_long_name":"Bellefontaine","route_type":3,"route_color":"#FFFFFF","route_text_color":"#000000"}],"agency_name":"Metro St. Louis"},"geometry":{"type":"Point","coordinates":[-90.22581,38.74126]}},{"type":"Feature","properties":{"stop_id":"6770","stop_code":"6770","stop_name":"BELLEFONTAINE @ ST. CYR SB","stop_desc":"FAR SIDE BELLEFONTAINE @ ST. CYR SB","wheelchair_boarding":2,"routes":[{"route_id":"19619","agency_id":"70006","route_short_name":"60","route_long_name":"Shepley-Lilac","route_type":3,"route_color":"#FFFFFF","route_text_color":"#000000"},{"route_id":"19620","agency_id":"70006","route_short_name":"61","route_long_name":"Chambers Rd","route_type":3,"route_color":"#FFFFFF","route_text_color":"#000000"},{"route_id":"19627","agency_id":"70006","route_short_name":"78","route_long_name":"Bellefontaine","route_type":3,"route_color":"#FFFFFF","route_text_color":"#000000"}],"agency_name":"Metro St. Louis"},"geometry":{"type":"Point","coordinates":[-90.22635,38.7371]}},{"type":"Feature","properties":{"stop_id":"6771","stop_code":"6771","stop_name":"BELLEFONTAINE @ TEURVILLE SB","stop_desc":"FAR SIDE BELLEFONTAINE @ TEURVILLE SB","wheelchair_boarding":2,"routes":[{"route_id":"19619","agency_id":"70006","route_short_name":"60","route_long_name":"Shepley-Lilac","route_type":3,"route_color":"#FFFFFF","route_text_color":"#000000"},{"route_id":"19620","agency_id":"70006","route_short_name":"61","route_long_name":"Chambers Rd","route_type":3,"route_color":"#FFFFFF","route_text_color":"#000000"},{"route_id":"19627","agency_id":"70006","route_short_name":"78","route_long_name":"Bellefontaine","route_type":3,"route_color":"#FFFFFF","route_text_color":"#000000"}],"agency_name":"Metro St. Louis"},"geometry":{"type":"Point","coordinates":[-90.22726,38.73355]}},{"type":"Feature","properties":{"stop_id":"6772","stop_code":"6772","stop_name":"BELLEFONTAINE @ FONTAINE PLACE SB","stop_desc":"NEAR SIDE BELLEFONTAINE @ FONTAINE PLACE SB","wheelchair_boarding":2,"routes":[{"route_id":"19619","agency_id":"70006","route_short_name":"60","route_long_name":"Shepley-Lilac","route_type":3,"route_color":"#FFFFFF","route_text_color":"#000000"},{"route_id":"19620","agency_id":"70006","route_short_name":"61","route_long_name":"Chambers Rd","route_type":3,"route_color":"#FFFFFF","route_text_color":"#000000"},{"route_id":"19627","agency_id":"70006","route_short_name":"78","route_long_name":"Bellefontaine","route_type":3,"route_color":"#FFFFFF","route_text_color":"#000000"}],"agency_name":"Metro St. Louis"},"geometry":{"type":"Point","coordinates":[-90.22791,38.73109]}}]}