{"type":"FeatureCollection","features":[{"type":"Feature","properties":{"agency_name":"Metro St. Louis","route_id":"19624","agency_id":"70006","route_short_name":"74","route_long_name":"Florissant","route_type":3,"route_color":"#FFFFFF","route_text_color":"#000000"},"geometry":{"type":"MultiLineString","coordinates":[[[-90.25371,38.71161],[-90.25434,38.71233],[-90.25182,38.70947],[-90.25121,38.7088],[-90.25002,38.70743],[-90.24934,38.70674],[-90.24837,38.70563],[-90.24771,38.70482],[-90.24702,38.70402],[-90.23928,38.69518],[-90.23911,38.69498],[-90.23857,38.69422],[-90.23795,38.69341],[-90.23715,38.69246],[-90.23593,38.6911],[-90.23,38.68435],[-90.22983,38.68419],[-90.22944,38.68392],[-90.2281,38.68321],[-90.22652,38.68245],[-90.22568,38.68198],[-90.22544,38.68177],[-90.22508,38.68135],[-90.22494,38.68114],[-90.22481,38.68092],[-90.224,38.67937],[-90.22391,38.67922],[-90.22376,38.67902],[-90.22207,38.67713],[-90.21918,38.67385],[-90.21898,38.67367],[-90.21883,38.67358],[-90.21713,38.67286],[-90.21516,38.672],[-90.21424,38.67158],[-90.21356,38.6709],[-90.21257,38.66986],[-90.21235,38.66967],[-90.21224,38.6696],[-90.21109,38.66907],[-90.21096,38.66899],[-90.21017,38.66842],[-90.2094,38.66791],[-90.20915,38.66767],[-90.20844,38.6663],[-90.20554,38.66044],[-90.20534,38.66001],[-90.20501,38.65938],[-90.20401,38.65735],[-90.20357,38.65655],[-90.20345,38.65637],[-90.2033,38.65621],[-90.20277,38.65549],[-90.20244,38.65496],[-90.20187,38.654],[-90.2015,38.65334],[-90.20116,38.6528],[-90.20057,38.65178],[-90.19878,38.64826],[-90.19796,38.6466],[-90.19756,38.64584],[-90.1972,38.64508],[-90.1972,38.64495],[-90.19717,38.6448],[-90.19687,38.64405],[-90.19679,38.6439],[-90.19662,38.64363],[-90.19644,38.64342],[-90.19624,38.64325],[-90.19603,38.64313],[-90.19585,38.64309],[-90.19619,38.6416],[-90.19703,38.63911],[-90.19705,38.63897],[-90.19705,38.63878],[-90.19696,38.63814],[-90.19696,38.63792],[-90.19699,38.63779],[-90.19837,38.63372],[-90.19851,38.63346],[-90.1987,38.63325],[-90.19895,38.63303],[-90.1992,38.63284],[-90.1995,38.6325],[-90.19959,38.63235],[-90.2,38.63124],[-90.20027,38.63028],[-90.20056,38.62954],[-90.20104,38.62808],[-90.20188,38.62591],[-90.20235,38.62487],[-90.20273,38.62389],[-90.203,38.62398],[-90.20305,38.62403],[-90.20307,38.62409],[-90.20293,38.62434],[-90.20271,38.62491]],[[-90.2751,38.76913],[-90.27464,38.76915],[-90.27512,38.76913],[-90.27518,38.76916],[-90.27521,38.7692],[-90.27523,38.77072],[-90.27625,38.77074],[-90.27667,38.77072],[-90.27718,38.77066],[-90.27761,38.77053],[-90.27793,38.77039],[-90.27867,38.76996],[-90.27898,38.76986],[-90.27929,38.76982],[-90.2795,38.76981],[-90.27971,38.76982],[-90.28011,38.7699],[-90.28018,38.76961],[-90.28069,38.7662],[-90.28069,38.76577],[-90.28061,38.76542],[-90.28049,38.76497],[-90.28013,38.7638],[-90.27996,38.76314],[-90.27981,38.76263],[-90.27969,38.76192],[-90.27965,38.76083],[-90.27966,38.75998],[-90.27969,38.75926],[-90.27969,38.75872],[-90.27978,38.75442],[-90.27984,38.75263],[-90.27987,38.75119],[-90.27991,38.75026],[-90.27992,38.74925],[-90.27926,38.74502],[-90.27906,38.74342],[-90.2788,38.74188],[-90.27852,38.7399],[-90.27845,38.7395],[-90.27847,38.73858],[-90.27843,38.73809],[-90.27836,38.73752],[-90.27815,38.73623],[-90.27785,38.73458],[-90.27774,38.73404],[-90.27754,38.73338],[-90.27749,38.73308],[-90.27744,38.73241],[-90.27747,38.73188],[-90.27754,38.73132],[-90.27771,38.73028],[-90.27779,38.72961],[-90.27779,38.72928],[-90.27774,38.72885],[-90.27763,38.72861],[-90.27685,38.72744],[-90.27634,38.72682],[-90.27589,38.72638],[-90.27511,38.72554],[-90.27475,38.72522],[-90.27397,38.7246],[-90.27294,38.72382],[-90.27077,38.72248],[-90.26944,38.7219],[-90.26602,38.72046],[-90.26454,38.71968],[-90.26384,38.71927],[-90.26253,38.71859],[-90.26214,38.71829],[-90.26137,38.71765],[-90.26043,38.71702],[-90.25555,38.7136],[-90.25519,38.71331],[-90.25501,38.71313],[-90.25472,38.71278]],[[-90.27529,38.77075],[-90.27523,38.77072],[-90.27529,38.77075],[-90.27687,38.77076],[-90.27925,38.77096],[-90.28864,38.77125],[-90.28875,38.77123],[-90.28885,38.77115],[-90.28885,38.77104],[-90.28876,38.77097],[-90.28856,38.77097],[-90.28822,38.77102],[-90.28535,38.77102],[-90.28425,38.77099],[-90.28341,38.77089],[-90.28289,38.77078],[-90.28258,38.77068],[-90.28228,38.77056],[-90.28146,38.77014],[-90.28117,38.77004],[-90.28063,38.76993],[-90.2804,38.7698],[-90.28025,38.76965]],[[-90.27464,38.76915],[-90.27468,38.77044]]]}},{"type":"Feature","properties":{"stop_id":"13335","stop_code":"13335","stop_name":"3344 PERSHALL EB","stop_desc":"MID-BLOCK 3344 PERSHALL EB","wheelchair_boarding":1,"routes":[{"route_id":"19624","agency_id":"70006","route_short_name":"74","route_long_name":"Florissant","route_type":3,"route_color":"#FFFFFF","route_text_color":"#000000"},{"route_id":"19627","agency_id":"70006","route_short_name":"78","route_long_name":"Bellefontaine","route_type":3,"route_color":"#FFFFFF","route_text_color":"#000000"},{"route_id":"19628","agency_id":"70006","route_short_name":"79","route_long_name":"Ferguson-Clayton","route_type":3,"route_color":"#FFFFFF","route_text_color":"#000000"}],"agency_name":"Metro St. Louis"},"geometry":{"type":"Point","coordinates":[-90.28318,38.77079]}},{"type":"Feature","properties":{"stop_id":"14499","stop_code":"14499","stop_name":"14TH STREET @ PINE SB","stop_desc":"NEAR SIDE 14TH STREET @ PINE SB","wheelchair_boarding":1,"routes":[{"route_id":"19598","agency_id":"70006","route_short_name":"10","route_long_name":"Gravois-Lindell","route_type":3,"route_color":"#FFFFFF","route_text_color":"#000000"},{"route_id":"19607","agency_id":"70006","route_short_name":"32","route_long_name":"Dr ML King","route_type":3,"route_color":"#FFFFFF","route_text_color":"#000000"},{"route_id":"19611","agency_id":"70006","route_short_name":"40","route_long_name":"Broadway-Halls Ferry","route_type":3,"route_color":"#FFFFFF","route_text_color":"#000000"},{"route_id":"19612","agency_id":"70006","route_short_name":"41","route_long_name":"Lee","route_type":3,"route_color":"#FFFFFF","route_text_color":"#000000"},{"route_id":"19624","agency_id":"70006","route_short_name":"74","route_long_name":"Florissant","route_type":3,"route_color":"#FFFFFF","route_text_color":"#000000"},{"route_id":"19633","agency_id":"70006","route_short_name":"97","route_long_name":"Delmar","route_type":3,"route_color":"#FFFFFF","route_text_color":"#000000"}],"agency_name":"Metro St. Louis"},"geometry":{"type":"Point","coordinates":[-90.20057,38.62983]}},{"type":"Feature","properties":{"stop_id":"14825","stop_code":"14825","stop_name":"14TH STREET @ DR ML KING SB","stop_desc":"FAR SIDE 14TH STREET @ DR ML KING SB","wheelchair_boarding":1,"routes":[{"route_id":"19612","agency_id":"70006","route_short_name":"41","route_long_name":"Lee","route_type":3,"route_color":"#FFFFFF","route_text_color":"#000000"},{"route_id":"19624","agency_id":"70006","route_short_name":"74","route_long_name":"Florissant","route_type":3,"route_color":"#FFFFFF","route_text_color":"#000000"},{"route_id":"19633","agency_id":"70006","route_short_name":"97","route_long_name":"Delmar","route_type":3,"route_color":"#FFFFFF","route_text_color":"#000000"}],"agency_name":"Metro St. Louis"},"geometry":{"type":"Point","coordinates":[-90.19819,38.6345]}},{"type":"Feature","properties":{"stop_id":"15013","stop_code":"15013","stop_name":"WEST FLORISSANT @ LUCAS-HUNT SB","stop_desc":"FAR SIDE WEST FLORISSANT @ LUCAS-HUNT SB","wheelchair_boarding":1,"routes":[{"route_id":"19624","agency_id":"70006","route_short_name":"74","route_long_name":"Florissant","route_type":3,"route_color":"#FFFFFF","route_text_color":"#000000"}],"agency_name":"Metro St. Louis"},"geometry":{"type":"Point","coordinates":[-90.27448,38.7249]}},{"type":"Feature","properties":{"stop_id":"1579","stop_code":"1579","stop_name":"14TH STREET @ LOCUST SB","stop_desc":"NEAR SIDE 14TH STREET @ LOCUST SB","wheelchair_boarding":1,"routes":[{"route_id":"19611","agency_id":"70006","route_short_name":"40","route_long_name":"Broadway-Halls Ferry","route_type":3,"route_color":"#FFFFFF","route_text_color":"#000000"},{"route_id":"19612","agency_id":"70006","route_short_name":"41","route_long_name":"Lee","route_type":3,"route_color":"#FFFFFF","route_text_color":"#000000"},{"route_id":"19624","agency_id":"70006","route_short_name":"74","route_long_name":"Florissant","route_type":3,"route_color":"#FFFFFF","route_text_color":"#000000"},{"route_id":"19633","agency_id":"70006","route_short_name":"97","route_long_name":"Delmar","route_type":3,"route_color":"#FFFFFF","route_text_color":"#000000"}],"agency_name":"Metro St. Louis"},"geometry":{"type":"Point","coordinates":[-90.20017,38.63106]}},{"type":"Feature","properties":{"stop_id":"15865","stop_code":"15865","stop_name":"14TH STREET @ CASS SB","stop_desc":"NEAR SIDE 14TH STREET @ CASS SB","wheelchair_boarding":1,"routes":[{"route_id":"19624","agency_id":"70006","route_short_name":"74","route_long_name":"Florissant","route_type":3,"route_color":"#FFFFFF","route_text_color":"#000000"}],"agency_name":"Metro St. Louis"},"geometry":{"type":"Point","coordinates":[-90.19626,38.64179]}},{"type":"Feature","properties":{"stop_id":"15866","stop_code":"15866","stop_name":"14TH STREET @ OFALLON SB","stop_desc":"FAR SIDE 14TH STREET @ OFALLON SB","wheelchair_boarding":1,"routes":[{"route_id":"19624","agency_id":"70006","route_short_name":"74","route_long_name":"Florissant","route_type":3,"route_color":"#FFFFFF","route_text_color":"#000000"}],"agency_name":"Metro St. Louis"},"geometry":{"type":"Point","coordinates":[-90.19715,38.639]}},{"type":"Feature","properties":{"stop_id":"15973","stop_code":"15973","stop_name":"WEST FLORISSANT @ SOLWAY SB","stop_desc":"NEAR SIDE WEST FLORISSANT @ SOLWAY SB","wheelchair_boarding":1,"routes":[{"route_id":"19624","agency_id":"70006","route_short_name":"74","route_long_name":"Florissant","route_type":3,"route_color":"#FFFFFF","route_text_color":"#000000"}],"agency_name":"Metro St. Louis"},"geometry":{"type":"Point","coordinates":[-90.2776,38.73337]}},{"type":"Feature","properties":{"stop_id":"16146","stop_code":"16146","stop_name":"NORTH COUNTY TRANSIT CENTER","wheelchair_boarding":1,"routes":[{"route_id":"19611","agency_id":"70006","route_short_name":"40","route_long_name":"Broadway-Halls Ferry","route_type":3,"route_color":"#FFFFFF","route_text_color":"#000000"},{"route_id":"19619","agency_id":"70006","route_short_name":"60","route_long_name":"Shepley-Lilac","route_type":3,"route_color":"#FFFFFF","route_text_color":"#000000"},{"route_id":"19624","agency_id":"70006","route_short_name":"74","route_long_name":"Florissant","route_type":3,"route_color":"#FFFFFF","route_text_color":"#000000"},{"route_id":"19627","agency_id":"70006","route_short_name":"78","route_long_name":"Bellefontaine","route_type":3,"route_color":"#FFFFFF","route_text_color":"#000000"}],"agency_name":"Metro St. Louis"},"geometry":{"type":"Point","coordinates":[-90.27452,38.76987]}},{"type":"Feature","properties":{"stop_id":"166","stop_code":"166","stop_name":"WEST FLORISSANT @ BUZZ WESTFALL SB","stop_desc":"NEAR SIDE WEST FLORISSANT @ BUZZ WESTFALL SB","wheelchair_boarding":1,"routes":[{"route_id":"19624","agency_id":"70006","route_short_name":"74","route_long_name":"Florissant","route_type":3,"route_color":"#FFFFFF","route_text_color":"#000000"}],"agency_name":"Metro St. Louis"},"geometry":{"type":"Point","coordinates":[-90.27655,38.72688]}},{"type":"Feature","properties":{"stop_id":"2269","stop_code":"2269","stop_name":"WEST FLORISSANT @ I-70 EXIT 245B SB","stop_desc":"NEAR SIDE WEST FLORISSANT @ I-70 EXIT 245B SB","wheelchair_boarding":1,"routes":[{"route_id":"19624","agency_id":"70006","route_short_name":"74","route_long_name":"Florissant","route_type":3,"route_color":"#FFFFFF","route_text_color":"#000000"},{"route_id":"19632","agency_id":"70006","route_short_name":"95","route_long_name":"Kingshighway","route_type":3,"route_color":"#FFFFFF","route_text_color":"#000000"}],"agency_name":"Metro St. Louis"},"geometry":{"type":"Point","coordinates":[-90.23069,38.68499]}},{"type":"Feature","properties":{"stop_id":"2270","stop_code":"2270","stop_name":"WEST FLORISSANT @ SHREVE SB","stop_desc":"FAR SIDE WEST FLORISSANT @ SHREVE SB","wheelchair_boarding":1,"routes":[{"route_id":"19624","agency_id":"70006","route_short_name":"74","route_long_name":"Florissant","route_type":3,"route_color":"#FFFFFF","route_text_color":"#000000"},{"route_id":"19632","agency_id":"70006","route_short_name":"95","route_long_name":"Kingshighway","route_type":3,"route_color":"#FFFFFF","route_text_color":"#000000"}],"agency_name":"Metro St. Louis"},"geometry":{"type":"Point","coordinates":[-90.23216,38.68667]}},{"type":"Feature","properties":{"stop_id":"2271","stop_code":"2271","stop_name":"WEST FLORISSANT @ EUCLID SB","stop_desc":"FAR SIDE WEST FLORISSANT @ EUCLID SB","wheelchair_boarding":1,"routes":[{"route_id":"19624","agency_id":"70006","route_short_name":"74","route_long_name":"Florissant","route_type":3,"route_color":"#FFFFFF","route_text_color":"#000000"},{"route_id":"19632","agency_id":"70006","route_short_name":"95","route_long_name":"Kingshighway","route_type":3,"route_color":"#FFFFFF","route_text_color":"#000000"}],"agency_name":"Metro St. Louis"},"geometry":{"type":"Point","coordinates":[-90.23423,38.68906]}},{"type":"Feature","properties":{"stop_id":"273","stop_code":"273","stop_name":"STLCC FLORISSANT VALLEY","stop_desc":"FAR SIDE STLCC FLORISSANT VALLEY","wheelchair_boarding":1,"routes":[{"route_id":"19624","agency_id":"70006","route_short_name":"74","route_long_name":"Florissant","route_type":3,"route_color":"#FFFFFF","route_text_color":"#000000"},{"route_id":"19627","agency_id":"70006","route_short_name":"78","route_long_name":"Bellefontaine","route_type":3,"route_color":"#FFFFFF","route_text_color":"#000000"},{"route_id":"19628","agency_id":"70006","route_short_name":"79","route_long_name":"Ferguson-Clayton","route_type":3,"route_color":"#FFFFFF","route_text_color":"#000000"}],"agency_name":"Metro St. Louis"},"geometry":{"type":"Point","coordinates":[-90.28791,38.771]}},{"type":"Feature","properties":{"stop_id":"3695","stop_code":"3695","stop_name":"WEST FLORISSANT @ SOMERSET TERRACE SB","stop_desc":"NEAR SIDE WEST FLORISSANT @ SOMERSET TERRACE SB","wheelchair_boarding":1,"routes":[{"route_id":"19624","agency_id":"70006","route_short_name":"74","route_long_name":"Florissant","route_type":3,"route_color":"#FFFFFF","route_text_color":"#000000"}],"agency_name":"Metro St. Louis"},"geometry":{"type":"Point","coordinates":[-90.28065,38.76671]}},{"type":"Feature","properties":{"stop_id":"3696","stop_code":"3696","stop_name":"WEST FLORISSANT @ KEELEN SB","stop_desc":"FAR SIDE WEST FLORISSANT @ KEELEN SB","wheelchair_boarding":1,"routes":[{"route_id":"19624","agency_id":"70006","route_short_name":"74","route_long_name":"Florissant","route_type":3,"route_color":"#FFFFFF","route_text_color":"#000000"}],"agency_name":"Metro St. Louis"},"geometry":{"type":"Point","coordinates":[-90.28004,38.76319]}},{"type":"Feature","properties":{"stop_id":"3697","stop_code":"3697","stop_name":"WEST FLORISSANT @ CHAMPLIN SB","stop_desc":"NEAR SIDE WEST FLORISSANT @ CHAMPLIN SB","wheelchair_boarding":1,"routes":[{"route_id":"19624","agency_id":"70006","route_short_name":"74","route_long_name":"Florissant","route_type":3,"route_color":"#FFFFFF","route_text_color":"#000000"}],"agency_name":"Metro St. Louis"},"geometry":{"type":"Point","coordinates":[-90.27971,38.75959]}},{"type":"Feature","properties":{"stop_id":"3698","stop_code":"3698","stop_name":"WEST FLORISSANT @ STEIN SB","stop_desc":"NEAR SIDE WEST FLORISSANT @ STEIN SB","wheelchair_boarding":1,"routes":[{"route_id":"19624","agency_id":"70006","route_short_name":"74","route_long_name":"Florissant","route_type":3,"route_color":"#FFFFFF","route_text_color":"#000000"}],"agency_name":"Metro St. Louis"},"geometry":{"type":"Point","coordinates":[-90.27977,38.75711]}},{"type":"Feature","properties":{"stop_id":"3699","stop_code":"3699","stop_name":"WEST FLORISSANT @ PARNELLO SB","stop_desc":"NEAR SIDE WEST FLORISSANT @ PARNELLO SB","wheelchair_boarding":1,"routes":[{"route_id":"19624","agency_id":"70006","route_short_name":"74","route_long_name":"Florissant","route_type":3,"route_color":"#FFFFFF","route_text_color":"#000000"}],"agency_name":"Metro St. Louis"},"geometry":{"type":"Point","coordinates":[-90.27987,38.75324]}},{"type":"Feature","properties":{"stop_id":"3700","stop_code":"3700","stop_name":"WEST FLORISSANT @ CHAMBERS SB","stop_desc":"FAR SIDE WEST FLORISSANT @ CHAMBERS SB","wheelchair_boarding":1,"routes":[{"route_id":"19624","agency_id":"70006","route_short_name":"74","route_long_name":"Florissant","route_type":3,"route_color":"#FFFFFF","route_text_color":"#000000"}],"agency_name":"Metro St. Louis"},"geometry":{"type":"Point","coordinates":[-90.27987,38.74852]}},{"type":"Feature","properties":{"stop_id":"3701","stop_code":"3701","stop_name":"WEST FLORISSANT @ KAPPEL SB","stop_desc":"FAR SIDE WEST FLORISSANT @ KAPPEL SB","wheelchair_boarding":1,"routes":[{"route_id":"19624","agency_id":"70006","route_short_name":"74","route_long_name":"Florissant","route_type":3,"route_color":"#FFFFFF","route_text_color":"#000000"}],"agency_name":"Metro St. Louis"},"geometry":{"type":"Point","coordinates":[-90.27923,38.74442]}},{"type":"Feature","properties":{"stop_id":"3703","stop_code":"3703","stop_name":"WEST FLORISSANT @ LANG SB","stop_desc":"NEAR SIDE WEST FLORISSANT @ LANG SB","wheelchair_boarding":1,"routes":[{"route_id":"19624","agency_id":"70006","route_short_name":"74","route_long_name":"Florissant","route_type":3,"route_color":"#FFFFFF","route_text_color":"#000000"}],"agency_name":"Metro St. Louis"},"geometry":{"type":"Point","coordinates":[-90.27859,38.74019]}},{"type":"Feature","properties":{"stop_id":"3704","stop_code":"3704","stop_name":"WEST FLORISSANT @ CANFIELD SB","stop_desc":"NEAR SIDE WEST FLORISSANT @ CANFIELD SB","wheelchair_boarding":2,"routes":[{"route_id":"19624","agency_id":"70006","route_short_name":"74","route_long_name":"Florissant","route_type":3,"route_color":"#FFFFFF","route_text_color":"#000000"}],"agency_name":"Metro St. Louis"},"geometry":{"type":"Point","coordinates":[-90.27845,38.7382]}},{"type":"Feature","properties":{"stop_id":"3705","stop_code":"3705","stop_name":"WEST FLORISSANT @ FERGUSON SB","stop_desc":"NEAR SIDE WEST FLORISSANT @ FERGUSON SB","wheelchair_boarding":1,"routes":[{"route_id":"19624","agency_id":"70006","route_short_name":"74","route_long_name":"Florissant","route_type":3,"route_color":"#FFFFFF","route_text_color":"#000000"}],"agency_name":"Metro St. Louis"},"geometry":{"type":"Point","coordinates":[-90.27798,38.73504]}},{"type":"Feature","properties":{"stop_id":"3707","stop_code":"3707","stop_name":"WEST FLORISSANT @ EMERSON ELECTRIC SB","stop_desc":"NEAR SIDE WEST FLORISSANT @ EMERSON ELECTRIC SB","wheelchair_boarding":1,"routes":[{"route_id":"19624","agency_id":"70006","route_short_name":"74","route_long_name":"Florissant","route_type":3,"route_color":"#FFFFFF","route_text_color":"#000000"}],"agency_name":"Metro St. Louis"},"geometry":{"type":"Point","coordinates":[-90.27778,38.73027]}},{"type":"Feature","properties":{"stop_id":"3744","stop_code":"3744","stop_name":"WEST FLORISSANT @ MCCLARAN SB","stop_desc":"FAR SIDE WEST FLORISSANT @ MCCLARAN SB","wheelchair_boarding":1,"routes":[{"route_id":"19624","agency_id":"70006","route_short_name":"74","route_long_name":"Florissant","route_type":3,"route_color":"#FFFFFF","route_text_color":"#000000"}],"agency_name":"Metro St. Louis"},"geometry":{"type":"Point","coordinates":[-90.27029,38.7222]}},{"type":"Feature","properties":{"stop_id":"3747","stop_code":"3747","stop_name":"WEST FLORISSANT @ COLLEGE SB","stop_desc":"NEAR SIDE WEST FLORISSANT @ COLLEGE SB","wheelchair_boarding":2,"routes":[{"route_id":"19624","agency_id":"70006","route_short_name":"74","route_long_name":"Florissant","route_type":3,"route_color":"#FFFFFF","route_text_color":"#000000"}],"agency_name":"Metro St. Louis"},"geometry":{"type":"Point","coordinates":[-90.26658,38.72061]}},{"type":"Feature","properties":{"stop_id":"3748","stop_code":"3748","stop_name":"WEST FLORISSANT @ RAMSEY SB","stop_desc":"NEAR SIDE WEST FLORISSANT @ RAMSEY SB","wheelchair_boarding":1,"routes":[{"route_id":"19624","agency_id":"70006","route_short_name":"74","route_long_name":"Florissant","route_type":3,"route_color":"#FFFFFF","route_text_color":"#000000"}],"agency_name":"Metro St. Louis"},"geometry":{"type":"Point","coordinates":[-90.26505,38.71987]}},{"type":"Feature","properties":{"stop_id":"3749","stop_code":"3749","stop_name":"WEST FLORISSANT @ GLENBORO SB","stop_desc":"FAR SIDE WEST FLORISSANT @ GLENBORO SB","wheelchair_boarding":2,"routes":[{"route_id":"19624","agency_id":"70006","route_short_name":"74","route_long_name":"Florissant","route_type":3,"route_color":"#FFFFFF","route_text_color":"#000000"}],"agency_name":"Metro St. Louis"},"geometry":{"type":"Point","coordinates":[-90.26278,38.71864]}},{"type":"Feature","properties":{"stop_id":"3750","stop_code":"3750","stop_name":"WEST FLORISSANT @ JENNINGS STATION ROAD SB","stop_desc":"FAR SIDE WEST FLORISSANT @ JENNINGS STATION ROAD SB","wheelchair_boarding":1,"routes":[{"route_id":"19624","agency_id":"70006","route_short_name":"74","route_long_name":"Florissant","route_type":3,"route_color":"#FFFFFF","route_text_color":"#000000"}],"agency_name":"Metro St. Louis"},"geometry":{"type":"Point","coordinates":[-90.26097,38.71729]}},{"type":"Feature","properties":{"stop_id":"3751","stop_code":"3751","stop_name":"WEST FLORISSANT @ HELEN SB","stop_desc":"FAR SIDE WEST FLORISSANT @ HELEN SB","wheelchair_boarding":1,"routes":[{"route_id":"19624","agency_id":"70006","route_short_name":"74","route_long_name":"Florissant","route_type":3,"route_color":"#FFFFFF","route_text_color":"#000000"}],"agency_name":"Metro St. Louis"},"geometry":{"type":"Point","coordinates":[-90.25907,38.71598]}},{"type":"Feature","properties":{"stop_id":"3752","stop_code":"3752","stop_name":"WEST FLORISSANT @ HAMILTON SB","stop_desc":"FAR SIDE WEST FLORISSANT @ HAMILTON SB","wheelchair_boarding":1,"routes":[{"route_id":"19624","agency_id":"70006","route_short_name":"74","route_long_name":"Florissant","route_type":3,"route_color":"#FFFFFF","route_text_color":"#000000"}],"agency_name":"Metro St. Louis"},"geometry":{"type":"Point","coordinates":[-90.25759,38.71496]}},{"type":"Feature","properties":{"stop_id":"3753","stop_code":"3753","stop_name":"WEST FLORISSANT @ ACME SB","stop_desc":"NEAR SIDE WEST FLORISSANT @ ACME SB","wheelchair_boarding":1,"routes":[{"route_id":"19624","agency_id":"70006","route_short_name":"74","route_long_name":"Florissant","route_type":3,"route_color":"#FFFFFF","route_text_color":"#000000"}],"agency_name":"Metro St. Louis"},"geometry":{"type":"Point","coordinates":[-90.2559,38.71375]}},{"type":"Feature","properties":{"stop_id":"3754","stop_code":"3754","stop_name":"WEST FLORISSANT @ GOODFELLOW SB","stop_desc":"FAR SIDE WEST FLORISSANT @ GOODFELLOW SB","wheelchair_boarding":1,"routes":[{"route_id":"19624","agency_id":"70006","route_short_name":"74","route_long_name":"Florissant","route_type":3,"route_color":"#FFFFFF","route_text_color":"#000000"}],"agency_name":"Metro St. Louis"},"geometry":{"type":"Point","coordinates":[-90.25471,38.71266]}},{"type":"Feature","properties":{"stop_id":"3756","stop_code":"3756","stop_name":"WEST FLORISSANT @ MIMIKA SB","stop_desc":"FAR SIDE WEST FLORISSANT @ MIMIKA SB","wheelchair_boarding":1,"routes":[{"route_id":"19624","agency_id":"70006","route_short_name":"74","route_long_name":"Florissant","route_type":3,"route_color":"#FFFFFF","route_text_color":"#000000"}],"agency_name":"Metro St. Louis"},"geometry":{"type":"Point","coordinates":[-90.25271,38.71038]}},{"type":"Feature","properties":{"stop_id":"3758","stop_code":"3758","stop_name":"WEST FLORISSANT @ PARK SB","stop_desc":"NEAR SIDE WEST FLORISSANT @ PARK SB","wheelchair_boarding":1,"routes":[{"route_id":"19624","agency_id":"70006","route_short_name":"74","route_long_name":"Florissant","route_type":3,"route_color":"#FFFFFF","route_text_color":"#000000"}],"agency_name":"Metro St. Louis"},"geometry":{"type":"Point","coordinates":[-90.25141,38.70889]}},{"type":"Feature","properties":{"stop_id":"3759","stop_code":"3759","stop_name":"WEST FLORISSANT @ RIVERVIEW SB","stop_desc":"NEAR SIDE WEST FLORISSANT @ RIVERVIEW SB","wheelchair_boarding":1,"routes":[{"route_id":"19624","agency_id":"70006","route_short_name":"74","route_long_name":"Florissant","route_type":3,"route_color":"#FFFFFF","route_text_color":"#000000"}],"agency_name":"Metro St. Louis"},"geometry":{"type":"Point","coordinates":[-90.2496,38.70683]}},{"type":"Feature","properties":{"stop_id":"3760","stop_code":"3760","stop_name":"WEST FLORISSANT @ PARTRIDGE SB","stop_desc":"NEAR SIDE WEST FLORISSANT @ PARTRIDGE SB","wheelchair_boarding":1,"routes":[{"route_id":"19624","agency_id":"70006","route_short_name":"74","route_long_name":"Florissant","route_type":3,"route_color":"#FFFFFF","route_text_color":"#000000"}],"agency_name":"Metro St. Louis"},"geometry":{"type":"Point","coordinates":[-90.24853,38.70567]}},{"type":"Feature","properties":{"stop_id":"3763","stop_code":"3763","stop_name":"WEST FLORISSANT @ ROBIN SB","stop_desc":"FAR SIDE WEST FLORISSANT @ ROBIN SB","wheelchair_boarding":1,"routes":[{"route_id":"19624","agency_id":"70006","route_short_name":"74","route_long_name":"Florissant","route_type":3,"route_color":"#FFFFFF","route_text_color":"#000000"}],"agency_name":"Metro St. Louis"},"geometry":{"type":"Point","coordinates":[-90.24616,38.7029]}},{"type":"Feature","properties":{"stop_id":"3765","stop_code":"3765","stop_name":"WEST FLORISSANT @ THRUSH SB","stop_desc":"NEAR SIDE WEST FLORISSANT @ THRUSH SB","wheelchair_boarding":1,"routes":[{"route_id":"19624","agency_id":"70006","route_short_name":"74","route_long_name":"Florissant","route_type":3,"route_color":"#FFFFFF","route_text_color":"#000000"}],"agency_name":"Metro St. Louis"},"geometry":{"type":"Point","coordinates":[-90.24436,38.70086]}},{"type":"Feature","properties":{"stop_id":"3768","stop_code":"3768","stop_name":"WEST FLORISSANT @ DAVISON SB","stop_desc":"FAR SIDE WEST FLORISSANT @ DAVISON SB","wheelchair_boarding":1,"routes":[{"route_id":"19624","agency_id":"70006","route_short_name":"74","route_long_name":"Florissant","route_type":3,"route_color":"#FFFFFF","route_text_color":"#000000"}],"agency_name":"Metro St. Louis"},"geometry":{"type":"Point","coordinates":[-90.24221,38.69839]}},{"type":"Feature","properties":{"stop_id":"3770","stop_code":"3770","stop_name":"WEST FLORISSANT @ EMERSON SB","stop_desc":"NEAR SIDE WEST FLORISSANT @ EMERSON SB","wheelchair_boarding":1,"routes":[{"route_id":"19624","agency_id":"70006","route_short_name":"74","route_long_name":"Florissant","route_type":3,"route_color":"#FFFFFF","route_text_color":"#000000"}],"agency_name":"Metro St. Louis"},"geometry":{"type":"Point","coordinates":[-90.24123,38.69726]}},{"type":"Feature","properties":{"stop_id":"3772","stop_code":"3772","stop_name":"WEST FLORISSANT @ UNION SB","stop_desc":"FAR SIDE WEST FLORISSANT @ UNION SB","wheelchair_boarding":1,"routes":[{"route_id":"19600","agency_id":"70006","route_short_name":"13","route_long_name":"Union","route_type":3,"route_color":"#FFFFFF","route_text_color":"#000000"},{"route_id":"19624","agency_id":"70006","route_short_name":"74","route_long_name":"Florissant","route_type":3,"route_color":"#FFFFFF","route_text_color":"#000000"}],"agency_name":"Metro St. Louis"},"geometry":{"type":"Point","coordinates":[-90.23901,38.69459]}},{"type":"Feature","properties":{"stop_id":"3774","stop_code":"3774","stop_name":"WEST FLORISSANT @ KINGSHIGHWAY SB","stop_desc":"NEAR SIDE WEST FLORISSANT @ KINGSHIGHWAY SB","wheelchair_boarding":1,"routes":[{"route_id":"19624","agency_id":"70006","route_short_name":"74","route_long_name":"Florissant","route_type":3,"route_color":"#FFFFFF","route_text_color":"#000000"}],"agency_name":"Metro St. Louis"},"geometry":{"type":"Point","coordinates":[-90.23658,38.69171]}},{"type":"Feature","properties":{"stop_id":"3776","stop_code":"3776","stop_name":"WEST FLORISSANT  @ POPE SB","stop_desc":"FAR SIDE WEST FLORISSANT  @ POPE SB","wheelchair_boarding":2,"routes":[{"route_id":"19613","agency_id":"70006","route_short_name":"42","route_long_name":"Sarah","route_type":3,"route_color":"#FFFFFF","route_text_color":"#000000"},{"route_id":"19624","agency_id":"70006","route_short_name":"74","route_long_name":"Florissant","route_type":3,"route_color":"#FFFFFF","route_text_color":"#000000"}],"agency_name":"Metro St. Louis"},"geometry":{"type":"Point","coordinates":[-90.22465,38.6806]}},{"type":"Feature","properties":{"stop_id":"3778","stop_code":"3778","stop_name":"WEST FLORISSANT @ ATHLONE SB","stop_desc":"NEAR SIDE WEST FLORISSANT @ ATHLONE SB","wheelchair_boarding":1,"routes":[{"route_id":"19613","agency_id":"70006","route_short_name":"42","route_long_name":"Sarah","route_type":3,"route_color":"#FFFFFF","route_text_color":"#000000"},{"route_id":"19624","agency_id":"70006","route_short_name":"74","route_long_name":"Florissant","route_type":3,"route_color":"#FFFFFF","route_text_color":"#000000"}],"agency_name":"Metro St. Louis"},"geometry":{"type":"Point","coordinates":[-90.22313,38.67826]}},{"type":"Feature","properties":{"stop_id":"3780","stop_code":"3780","stop_name":"WEST FLORISSANT @ FAIR SB","stop_desc":"NEAR SIDE WEST FLORISSANT @ FAIR SB","wheelchair_boarding":1,"routes":[{"route_id":"19613","agency_id":"70006","route_short_name":"42","route_long_name":"Sarah","route_type":3,"route_color":"#FFFFFF","route_text_color":"#000000"},{"route_id":"19624","agency_id":"70006","route_short_name":"74","route_long_name":"Florissant","route_type":3,"route_color":"#FFFFFF","route_text_color":"#000000"}],"agency_name":"Metro St. Louis"},"geometry":{"type":"Point","coordinates":[-90.22109,38.67594]}},{"type":"Feature","properties":{"stop_id":"3781","stop_code":"3781","stop_name":"WEST FLORISSANT @ ADELAIDE SB","stop_desc":"FAR SIDE WEST FLORISSANT @ ADELAIDE SB","wheelchair_boarding":1,"routes":[{"route_id":"19624","agency_id":"70006","route_short_name":"74","route_long_name":"Florissant","route_type":3,"route_color":"#FFFFFF","route_text_color":"#000000"}],"agency_name":"Metro St. Louis"},"geometry":{"type":"Point","coordinates":[-90.21986,38.67455]}},{"type":"Feature","properties":{"stop_id":"3783","stop_code":"3783","stop_name":"WEST FLORISSANT @ WARNE SB","stop_desc":"FAR SIDE WEST FLORISSANT @ WARNE SB","wheelchair_boarding":1,"routes":[{"route_id":"19624","agency_id":"70006","route_short_name":"74","route_long_name":"Florissant","route_type":3,"route_color":"#FFFFFF","route_text_color":"#000000"}],"agency_name":"Metro St. Louis"},"geometry":{"type":"Point","coordinates":[-90.21789,38.67316]}},{"type":"Feature","properties":{"stop_id":"3784","stop_code":"3784","stop_name":"WEST FLORISSANT @ LINTON SB","stop_desc":"FAR SIDE WEST FLORISSANT @ LINTON SB","wheelchair_boarding":1,"routes":[{"route_id":"19624","agency_id":"70006","route_short_name":"74","route_long_name":"Florissant","route_type":3,"route_color":"#FFFFFF","route_text_color":"#000000"}],"agency_name":"Metro St. Louis"},"geometry":{"type":"Point","coordinates":[-90.21591,38.67229]}},{"type":"Feature","properties":{"stop_id":"3786","stop_code":"3786","stop_name":"WEST FLORISSANT @ GANO SB","stop_desc":"NEAR SIDE WEST FLORISSANT @ GANO SB","wheelchair_boarding":1,"routes":[{"route_id":"19624","agency_id":"70006","route_short_name":"74","route_long_name":"Florissant","route_type":3,"route_color":"#FFFFFF","route_text_color":"#000000"}],"agency_name":"Metro St. Louis"},"geometry":{"type":"Point","coordinates":[-90.21368,38.671]}},{"type":"Feature","properties":{"stop_id":"3788","stop_code":"3788","stop_name":"WEST FLORISSANT @ GRAND SB","stop_desc":"NEAR SIDE WEST FLORISSANT @ GRAND SB","wheelchair_boarding":1,"routes":[{"route_id":"19624","agency_id":"70006","route_short_name":"74","route_long_name":"Florissant","route_type":3,"route_color":"#FFFFFF","route_text_color":"#000000"}],"agency_name":"Metro St. Louis"},"geometry":{"type":"Point","coordinates":[-90.2113,38.66915]}},{"type":"Feature","properties":{"stop_id":"3789","stop_code":"3789","stop_name":"NORTH FLORISSANT @ PLEASANT SB","stop_desc":"NEAR SIDE NORTH FLORISSANT @ PLEASANT SB","wheelchair_boarding":1,"routes":[{"route_id":"19624","agency_id":"70006","route_short_name":"74","route_long_name":"Florissant","route_type":3,"route_color":"#FFFFFF","route_text_color":"#000000"}],"agency_name":"Metro St. Louis"},"geometry":{"type":"Point","coordinates":[-90.20952,38.66797]}},{"type":"Feature","properties":{"stop_id":"3790","stop_code":"3790","stop_name":"NORTH FLORISSANT @ GLASGOW SB","stop_desc":"NEAR SIDE NORTH FLORISSANT @ GLASGOW SB","wheelchair_boarding":1,"routes":[{"route_id":"19624","agency_id":"70006","route_short_name":"74","route_long_name":"Florissant","route_type":3,"route_color":"#FFFFFF","route_text_color":"#000000"}],"agency_name":"Metro St. Louis"},"geometry":{"type":"Point","coordinates":[-90.20891,38.66719]}},{"type":"Feature","properties":{"stop_id":"3791","stop_code":"3791","stop_name":"NORTH FLORISSANT @ PENROSE SB","stop_desc":"NEAR SIDE NORTH FLORISSANT @ PENROSE SB","wheelchair_boarding":1,"routes":[{"route_id":"19624","agency_id":"70006","route_short_name":"74","route_long_name":"Florissant","route_type":3,"route_color":"#FFFFFF","route_text_color":"#000000"}],"agency_name":"Metro St. Louis"},"geometry":{"type":"Point","coordinates":[-90.20793,38.66503]}},{"type":"Feature","properties":{"stop_id":"3794","stop_code":"3794","stop_name":"NORTH FLORISSANT @ BREMEN SB","stop_desc":"NEAR SIDE NORTH FLORISSANT @ BREMEN SB","wheelchair_boarding":1,"routes":[{"route_id":"19624","agency_id":"70006","route_short_name":"74","route_long_name":"Florissant","route_type":3,"route_color":"#FFFFFF","route_text_color":"#000000"}],"agency_name":"Metro St. Louis"},"geometry":{"type":"Point","coordinates":[-90.20626,38.66165]}},{"type":"Feature","properties":{"stop_id":"3796","stop_code":"3796","stop_name":"NORTH FLORISSANT @ SALISBURY SB","stop_desc":"NEAR SIDE NORTH FLORISSANT @ SALISBURY SB","wheelchair_boarding":1,"routes":[{"route_id":"19624","agency_id":"70006","route_short_name":"74","route_long_name":"Florissant","route_type":3,"route_color":"#FFFFFF","route_text_color":"#000000"}],"agency_name":"Metro St. Louis"},"geometry":{"type":"Point","coordinates":[-90.2051,38.65954]}},{"type":"Feature","properties":{"stop_id":"3797","stop_code":"3797","stop_name":"NORTH FLORISSANT @ BRANCH SB","stop_desc":"NEAR SIDE NORTH FLORISSANT @ BRANCH SB","wheelchair_boarding":1,"routes":[{"route_id":"19624","agency_id":"70006","route_short_name":"74","route_long_name":"Florissant","route_type":3,"route_color":"#FFFFFF","route_text_color":"#000000"}],"agency_name":"Metro St. Louis"},"geometry":{"type":"Point","coordinates":[-90.20422,38.65773]}},{"type":"Feature","properties":{"stop_id":"3798","stop_code":"3798","stop_name":"NORTH FLORISSANT @ PALM SB","stop_desc":"FAR SIDE NORTH FLORISSANT @ PALM SB","wheelchair_boarding":1,"routes":[{"route_id":"19624","agency_id":"70006","route_short_name":"74","route_long_name":"Florissant","route_type":3,"route_color":"#FFFFFF","route_text_color":"#000000"}],"agency_name":"Metro St. Louis"},"geometry":{"type":"Point","coordinates":[-90.20318,38.65582]}},{"type":"Feature","properties":{"stop_id":"3799","stop_code":"3799","stop_name":"NORTH FLORISSANT @ 20TH STREET SB","stop_desc":"FAR SIDE NORTH FLORISSANT @ 20TH STREET SB","wheelchair_boarding":1,"routes":[{"route_id":"19624","agency_id":"70006","route_short_name":"74","route_long_name":"Florissant","route_type":3,"route_color":"#FFFFFF","route_text_color":"#000000"}],"agency_name":"Metro St. Louis"},"geometry":{"type":"Point","coordinates":[-90.20172,38.6536]}},{"type":"Feature","properties":{"stop_id":"3801","stop_code":"3801","stop_name":"NORTH FLORISSANT @ ST. LOUIS SB","stop_desc":"FAR SIDE NORTH FLORISSANT @ ST. LOUIS SB","wheelchair_boarding":1,"routes":[{"route_id":"19624","agency_id":"70006","route_short_name":"74","route_long_name":"Florissant","route_type":3,"route_color":"#FFFFFF","route_text_color":"#000000"}],"agency_name":"Metro St. Louis"},"geometry":{"type":"Point","coordinates":[-90.19991,38.65033]}},{"type":"Feature","properties":{"stop_id":"3804","stop_code":"3804","stop_name":"NORTH FLORISSANT @ NORTH MARKET SB","stop_desc":"FAR SIDE NORTH FLORISSANT @ NORTH MARKET SB","wheelchair_boarding":1,"routes":[{"route_id":"19624","agency_id":"70006","route_short_name":"74","route_long_name":"Florissant","route_type":3,"route_color":"#FFFFFF","route_text_color":"#000000"}],"agency_name":"Metro St. Louis"},"geometry":{"type":"Point","coordinates":[-90.19832,38.64717]}},{"type":"Feature","properties":{"stop_id":"3806","stop_code":"3806","stop_name":"NORTH FLORISSANT @ MADISON SB","stop_desc":"NEAR SIDE NORTH FLORISSANT @ MADISON SB","wheelchair_boarding":1,"routes":[{"route_id":"19624","agency_id":"70006","route_short_name":"74","route_long_name":"Florissant","route_type":3,"route_color":"#FFFFFF","route_text_color":"#000000"}],"agency_name":"Metro St. Louis"},"geometry":{"type":"Point","coordinates":[-90.19733,38.64519]}},{"type":"Feature","properties":{"stop_id":"3807","stop_code":"3807","stop_name":"NORTH FLORISSANT @ 15TH STREET EB","stop_desc":"NEAR SIDE NORTH FLORISSANT @ 15TH STREET EB","wheelchair_boarding":2,"routes":[{"route_id":"19624","agency_id":"70006","route_short_name":"74","route_long_name":"Florissant","route_type":3,"route_color":"#FFFFFF","route_text_color":"#000000"}],"agency_name":"Metro St. Louis"},"geometry":{"type":"Point","coordinates":[-90.19679,38.64385]}},{"type":"Feature","properties":{"stop_id":"759","stop_code":"759","stop_name":"14TH STREET @ WASHINGTON SB","stop_desc":"FAR SIDE 14TH STREET @ WASHINGTON SB","wheelchair_boarding":2,"routes":[{"route_id":"19612","agency_id":"70006","route_short_name":"41","route_long_name":"Lee","route_type":3,"route_color":"#FFFFFF","route_text_color":"#000000"},{"route_id":"19624","agency_id":"70006","route_short_name":"74","route_long_name":"Florissant","route_type":3,"route_color":"#FFFFFF","route_text_color":"#000000"},{"route_id":"19633","agency_id":"70006","route_short_name":"97","route_long_name":"Delmar","route_type":3,"route_color":"#FFFFFF","route_text_color":"#000000"}],"agency_name":"Metro St. Louis"},"geometry":{"type":"Point","coordinates":[-90.1998,38.63214]}},{"type":"Feature","properties":{"stop_id":"7852","stop_code":"7852","stop_name":"CIVIC CENTER TRANSIT CENTER","wheelchair_boarding":1,"routes":[{"route_id":"19611","agency_id":"70006","route_short_name":"40","route_long_name":"Broadway-Halls Ferry","route_type":3,"route_color":"#FFFFFF","route_text_color":"#000000"},{"route_id":"19612","agency_id":"70006","route_short_name":"41","route_long_name":"Lee","route_type":3,"route_color":"#FFFFFF","route_text_color":"#000000"},{"route_id":"19624","agency_id":"70006","route_short_name":"74","route_long_name":"Florissant","route_type":3,"route_color":"#FFFFFF","route_text_color":"#000000"}],"agency_name":"Metro St. Louis"},"geometry":{"type":"Point","coordinates":[-90.20277,38.62528]}},{"type":"Feature","properties":{"stop_id":"7855","stop_code":"7855","stop_name":"14TH STREET @ MARKET SB","stop_desc":"MID-BLOCK 14TH STREET @ MARKET SB","wheelchair_boarding":1,"routes":[{"route_id":"19594","agency_id":"70006","route_short_name":"4","route_long_name":"Natural Bridge","route_type":3,"route_color":"#FFFFFF","route_text_color":"#000000"},{"route_id":"19598","agency_id":"70006","route_short_name":"10","route_long_name":"Gravois-Lindell","route_type":3,"route_color":"#FFFFFF","route_text_color":"#000000"},{"route_id":"19607","agency_id":"70006","route_short_name":"32","route_long_name":"Dr ML King","route_type":3,"route_color":"#FFFFFF","route_text_color":"#000000"},{"route_id":"19611","agency_id":"70006","route_short_name":"40","route_long_name":"Broadway-Halls Ferry","route_type":3,"route_color":"#FFFFFF","route_text_color":"#000000"},{"route_id":"19612","agency_id":"70006","route_short_name":"41","route_long_name":"Lee","route_type":3,"route_color":"#FFFFFF","route_text_color":"#000000"},{"route_id":"19624","agency_id":"70006","route_short_name":"74","route_long_name":"Florissant","route_type":3,"route_color":"#FFFFFF","route_text_color":"#000000"},{"route_id":"19631","agency_id":"70006","route_short_name":"94","route_long_name":"Page","route_type":3,"route_color":"#FFFFFF","route_text_color":"#000000"},{"route_id":"19633","agency_id":"70006","route_short_name":"97","route_long_name":"Delmar","route_type":3,"route_color":"#FFFFFF","route_text_color":"#000000"}],"agency_name":"Metro St. Louis"},"geometry":{"type":"Point","coordinates":[-90.20127,38.62775]}},{"type":"Feature","properties":{"stop_id":"8528","stop_code":"8528","stop_name":"14TH STREET @ COLE SB","stop_desc":"NEAR SIDE 14TH STREET @ COLE SB","wheelchair_boarding":1,"routes":[{"route_id":"19612","agency_id":"70006","route_short_name":"41","route_long_name":"Lee","route_type":3,"route_color":"#FFFFFF","route_text_color":"#000000"},{"route_id":"19624","agency_id":"70006","route_short_name":"74","route_long_name":"Florissant","route_type":3,"route_color":"#FFFFFF","route_text_color":"#000000"}],"agency_name":"Metro St. Louis"},"geometry":{"type":"Point","coordinates":[-90.19769,38.63599]}}]}