{"type":"FeatureCollection","features":[{"type":"Feature","properties":{"agency_name":"Metro St. Louis","route_id":"19642","agency_id":"70006","route_short_name":"8","route_long_name":"Alta Sita","route_type":3,"route_color":"#FFFFFF","route_text_color":"#000000"},"geometry":{"type":"MultiLineString","coordinates":[[[-90.13763,38.62876],[-90.13808,38.62847],[-90.13763,38.62876],[-90.13753,38.62888],[-90.13751,38.62904],[-90.13759,38.62918],[-90.1381,38.62959],[-90.13848,38.62978],[-90.13885,38.62988],[-90.13929,38.62992],[-90.13953,38.62991],[-90.13982,38.62981],[-90.13999,38.63004],[-90.14011,38.63062],[-90.14021,38.63077],[-90.14104,38.63059],[-90.14125,38.63078],[-90.14137,38.63094],[-90.14145,38.63113],[-90.14152,38.63146],[-90.14155,38.63154],[-90.14162,38.63165],[-90.14163,38.63174],[-90.1417,38.6319],[-90.14167,38.63197],[-90.1417,38.63204],[-90.14176,38.6321],[-90.14196,38.6321],[-90.14202,38.63204],[-90.14205,38.63197],[-90.14202,38.6319],[-90.1437,38.63102],[-90.14375,38.63107],[-90.14395,38.63108],[-90.14402,38.63103],[-90.14406,38.63095],[-90.14403,38.63087],[-90.14395,38.63082],[-90.14385,38.6308],[-90.14369,38.6307],[-90.14357,38.63069],[-90.143,38.63023],[-90.14132,38.62878],[-90.13955,38.62731],[-90.1388,38.62665],[-90.13776,38.62578],[-90.13706,38.62588],[-90.13642,38.62573],[-90.13615,38.62561],[-90.13568,38.62534],[-90.13529,38.62517],[-90.13483,38.62493],[-90.13381,38.62445],[-90.13263,38.62402],[-90.13145,38.6237],[-90.12939,38.62321],[-90.12913,38.62316],[-90.12882,38.62307],[-90.12741,38.62272],[-90.12353,38.62179],[-90.12332,38.62165],[-90.12291,38.62147],[-90.12271,38.62134],[-90.12261,38.6212],[-90.12254,38.62106],[-90.12251,38.62087],[-90.1226,38.62062],[-90.1227,38.62047],[-90.12286,38.62032],[-90.12308,38.62016],[-90.12341,38.62005],[-90.12367,38.62],[-90.12395,38.62001],[-90.12413,38.62004],[-90.12427,38.62008],[-90.125,38.62032],[-90.12509,38.62032],[-90.12512,38.62024],[-90.12513,38.62015],[-90.12547,38.61968],[-90.12653,38.61792],[-90.12747,38.61625],[-90.1272,38.61607],[-90.12784,38.61509],[-90.1282,38.61446],[-90.12841,38.61414],[-90.12947,38.61228],[-90.1302,38.6111],[-90.13176,38.60848],[-90.1319,38.60817],[-90.13201,38.60746],[-90.13212,38.60732],[-90.13278,38.60682],[-90.13679,38.60389],[-90.13733,38.60347],[-90.13825,38.60282],[-90.1411,38.60075],[-90.1415,38.60044],[-90.13888,38.59824],[-90.13835,38.59773],[-90.13392,38.594],[-90.13189,38.59226],[-90.13005,38.59072],[-90.12968,38.59044],[-90.12945,38.5903],[-90.12851,38.58984],[-90.12812,38.58957],[-90.12774,38.58925],[-90.12733,38.58895],[-90.12664,38.58829],[-90.12651,38.58812],[-90.12632,38.58784],[-90.12601,38.58722],[-90.12587,38.58698],[-90.12569,38.58674],[-90.1254,38.58643],[-90.1249,38.58597],[-90.12154,38.58309],[-90.12132,38.58292],[-90.12073,38.58263],[-90.12047,38.58246],[-90.12024,38.58225],[-90.11963,38.5816],[-90.11914,38.58116],[-90.11804,38.58021],[-90.11659,38.57899],[-90.1148,38.57745],[-90.1144,38.57709],[-90.11385,38.57664],[-90.11323,38.57609],[-90.10437,38.56846],[-90.10399,38.56813],[-90.10374,38.56789],[-90.10352,38.56766],[-90.10323,38.56723],[-90.10311,38.56695],[-90.10299,38.56654],[-90.10297,38.56623],[-90.10298,38.56588],[-90.10304,38.5652],[-90.10317,38.56451],[-90.10327,38.56422],[-90.10336,38.56403],[-90.10358,38.56361],[-90.10377,38.56331],[-90.10394,38.56335],[-90.10405,38.5634],[-90.10443,38.56362],[-90.106,38.56493],[-90.10574,38.56514],[-90.1057,38.5652],[-90.1057,38.56529],[-90.10572,38.56532],[-90.1068,38.56612],[-90.1074,38.56569],[-90.1074,38.56559],[-90.10644,38.56475],[-90.10632,38.56472]],[[-90.10399,38.56296],[-90.10377,38.56331],[-90.10416,38.56271],[-90.10452,38.56223],[-90.10478,38.56196],[-90.10596,38.56084],[-90.10737,38.55946],[-90.10792,38.55887],[-90.10927,38.55736],[-90.11031,38.55627],[-90.11154,38.55513],[-90.11188,38.55486],[-90.11234,38.55451],[-90.11327,38.5539],[-90.11468,38.55308],[-90.11693,38.55174],[-90.11808,38.55117],[-90.11849,38.551],[-90.11954,38.55061],[-90.12022,38.5504],[-90.12106,38.55019],[-90.12181,38.55005],[-90.12228,38.54997],[-90.12393,38.54975],[-90.12532,38.54958],[-90.12569,38.54956],[-90.1266,38.54957],[-90.12793,38.54968],[-90.13902,38.55075],[-90.14202,38.55102],[-90.14292,38.55106],[-90.14382,38.55106],[-90.14454,38.551],[-90.14513,38.55092],[-90.1518,38.54985],[-90.15325,38.54963],[-90.15492,38.54935],[-90.15708,38.54885],[-90.15744,38.54878],[-90.15824,38.54874],[-90.15871,38.54878],[-90.15921,38.54886],[-90.15955,38.54895],[-90.16006,38.54914],[-90.16087,38.54957],[-90.1612,38.54977],[-90.16162,38.55008],[-90.16214,38.5505],[-90.16489,38.55286],[-90.16824,38.55581],[-90.17318,38.55997],[-90.17469,38.56129],[-90.17502,38.56165],[-90.17581,38.56292],[-90.17603,38.56334],[-90.17629,38.56375],[-90.17648,38.56399],[-90.17673,38.56424],[-90.17754,38.5642],[-90.17792,38.564],[-90.17736,38.5635]]]}},{"type":"Feature","properties":{"stop_id":"12581","stop_code":"12581","stop_name":"BOND @ 27TH STREET EB","stop_desc":"FAR SIDE BOND @ 27TH STREET EB","wheelchair_boarding":2,"routes":[{"route_id":"19642","agency_id":"70006","route_short_name":"8","route_long_name":"Alta Sita","route_type":3,"route_color":"#FFFFFF","route_text_color":"#000000"}],"agency_name":"Metro St. Louis"},"geometry":{"type":"Point","coordinates":[-90.13989,38.59907]}},{"type":"Feature","properties":{"stop_id":"12582","stop_code":"12582","stop_name":"BOND @ 29TH STREET EB","stop_desc":"FAR SIDE BOND @ 29TH STREET EB","wheelchair_boarding":2,"routes":[{"route_id":"19642","agency_id":"70006","route_short_name":"8","route_long_name":"Alta Sita","route_type":3,"route_color":"#FFFFFF","route_text_color":"#000000"}],"agency_name":"Metro St. Louis"},"geometry":{"type":"Point","coordinates":[-90.13833,38.59768]}},{"type":"Feature","properties":{"stop_id":"12583","stop_code":"12583","stop_name":"BOND @ 31ST STREET EB","stop_desc":"FAR SIDE BOND @ 31ST STREET EB","wheelchair_boarding":2,"routes":[{"route_id":"19642","agency_id":"70006","route_short_name":"8","route_long_name":"Alta Sita","route_type":3,"route_color":"#FFFFFF","route_text_color":"#000000"}],"agency_name":"Metro St. Louis"},"geometry":{"type":"Point","coordinates":[-90.13701,38.59659]}},{"type":"Feature","properties":{"stop_id":"12584","stop_code":"12584","stop_name":"BOND @ 33RD STREET EB","stop_desc":"NEAR SIDE BOND @ 33RD STREET EB","wheelchair_boarding":2,"routes":[{"route_id":"19642","agency_id":"70006","route_short_name":"8","route_long_name":"Alta Sita","route_type":3,"route_color":"#FFFFFF","route_text_color":"#000000"}],"agency_name":"Metro St. Louis"},"geometry":{"type":"Point","coordinates":[-90.13565,38.59544]}},{"type":"Feature","properties":{"stop_id":"12585","stop_code":"12585","stop_name":"BOND @ 35TH STREET EB","stop_desc":"NEAR SIDE BOND @ 35TH STREET EB","wheelchair_boarding":2,"routes":[{"route_id":"19642","agency_id":"70006","route_short_name":"8","route_long_name":"Alta Sita","route_type":3,"route_color":"#FFFFFF","route_text_color":"#000000"}],"agency_name":"Metro St. Louis"},"geometry":{"type":"Point","coordinates":[-90.13404,38.59408]}},{"type":"Feature","properties":{"stop_id":"12586","stop_code":"12586","stop_name":"BOND @ 36TH STREET EB","stop_desc":"NEAR SIDE BOND @ 36TH STREET EB","wheelchair_boarding":2,"routes":[{"route_id":"19642","agency_id":"70006","route_short_name":"8","route_long_name":"Alta Sita","route_type":3,"route_color":"#FFFFFF","route_text_color":"#000000"}],"agency_name":"Metro St. Louis"},"geometry":{"type":"Point","coordinates":[-90.13257,38.59283]}},{"type":"Feature","properties":{"stop_id":"12587","stop_code":"12587","stop_name":"BOND @ 37TH STREET EB","stop_desc":"NEAR SIDE BOND @ 37TH STREET EB","wheelchair_boarding":2,"routes":[{"route_id":"19642","agency_id":"70006","route_short_name":"8","route_long_name":"Alta Sita","route_type":3,"route_color":"#FFFFFF","route_text_color":"#000000"}],"agency_name":"Metro St. Louis"},"geometry":{"type":"Point","coordinates":[-90.13022,38.59084]}},{"type":"Feature","properties":{"stop_id":"12589","stop_code":"12589","stop_name":"BOND @ 42ND STREET SB","stop_desc":"NEAR SIDE BOND @ 42ND STREET SB","wheelchair_boarding":2,"routes":[{"route_id":"19642","agency_id":"70006","route_short_name":"8","route_long_name":"Alta Sita","route_type":3,"route_color":"#FFFFFF","route_text_color":"#000000"}],"agency_name":"Metro St. Louis"},"geometry":{"type":"Point","coordinates":[-90.12477,38.58582]}},{"type":"Feature","properties":{"stop_id":"12590","stop_code":"12590","stop_name":"BOND @ 43RD STREET EB","stop_desc":"NEAR SIDE BOND @ 43RD STREET EB","wheelchair_boarding":2,"routes":[{"route_id":"19642","agency_id":"70006","route_short_name":"8","route_long_name":"Alta Sita","route_type":3,"route_color":"#FFFFFF","route_text_color":"#000000"}],"agency_name":"Metro St. Louis"},"geometry":{"type":"Point","coordinates":[-90.12297,38.58427]}},{"type":"Feature","properties":{"stop_id":"12591","stop_code":"12591","stop_name":"BOND @ 47TH STREET SB","stop_desc":"NEAR SIDE BOND @ 47TH STREET SB","wheelchair_boarding":2,"routes":[{"route_id":"19642","agency_id":"70006","route_short_name":"8","route_long_name":"Alta Sita","route_type":3,"route_color":"#FFFFFF","route_text_color":"#000000"}],"agency_name":"Metro St. Louis"},"geometry":{"type":"Point","coordinates":[-90.12126,38.58286]}},{"type":"Feature","properties":{"stop_id":"12592","stop_code":"12592","stop_name":"BOND @ 48TH STREET EB","stop_desc":"FAR SIDE BOND @ 48TH STREET EB","wheelchair_boarding":2,"routes":[{"route_id":"19642","agency_id":"70006","route_short_name":"8","route_long_name":"Alta Sita","route_type":3,"route_color":"#FFFFFF","route_text_color":"#000000"}],"agency_name":"Metro St. Louis"},"geometry":{"type":"Point","coordinates":[-90.12001,38.58197]}},{"type":"Feature","properties":{"stop_id":"12593","stop_code":"12593","stop_name":"BOND @ VILLAGE EB","stop_desc":"FAR SIDE BOND @ VILLAGE EB","wheelchair_boarding":2,"routes":[{"route_id":"19642","agency_id":"70006","route_short_name":"8","route_long_name":"Alta Sita","route_type":3,"route_color":"#FFFFFF","route_text_color":"#000000"}],"agency_name":"Metro St. Louis"},"geometry":{"type":"Point","coordinates":[-90.119,38.58099]}},{"type":"Feature","properties":{"stop_id":"12594","stop_code":"12594","stop_name":"BOND @ 49TH STREET EB","stop_desc":"FAR SIDE BOND @ 49TH STREET EB","wheelchair_boarding":2,"routes":[{"route_id":"19642","agency_id":"70006","route_short_name":"8","route_long_name":"Alta Sita","route_type":3,"route_color":"#FFFFFF","route_text_color":"#000000"}],"agency_name":"Metro St. Louis"},"geometry":{"type":"Point","coordinates":[-90.11777,38.57995]}},{"type":"Feature","properties":{"stop_id":"12597","stop_code":"12597","stop_name":"BOND @ 55TH STREET EB","stop_desc":"FAR SIDE BOND @ 55TH STREET EB","wheelchair_boarding":2,"routes":[{"route_id":"19642","agency_id":"70006","route_short_name":"8","route_long_name":"Alta Sita","route_type":3,"route_color":"#FFFFFF","route_text_color":"#000000"}],"agency_name":"Metro St. Louis"},"geometry":{"type":"Point","coordinates":[-90.11236,38.57533]}},{"type":"Feature","properties":{"stop_id":"12598","stop_code":"12598","stop_name":"BOND @ VALLEY EB","stop_desc":"FAR SIDE BOND @ VALLEY EB","wheelchair_boarding":2,"routes":[{"route_id":"19642","agency_id":"70006","route_short_name":"8","route_long_name":"Alta Sita","route_type":3,"route_color":"#FFFFFF","route_text_color":"#000000"}],"agency_name":"Metro St. Louis"},"geometry":{"type":"Point","coordinates":[-90.11124,38.57435]}},{"type":"Feature","properties":{"stop_id":"12599","stop_code":"12599","stop_name":"BOND @ 57TH STREET EB","stop_desc":"FAR SIDE BOND @ 57TH STREET EB","wheelchair_boarding":2,"routes":[{"route_id":"19642","agency_id":"70006","route_short_name":"8","route_long_name":"Alta Sita","route_type":3,"route_color":"#FFFFFF","route_text_color":"#000000"}],"agency_name":"Metro St. Louis"},"geometry":{"type":"Point","coordinates":[-90.10993,38.57321]}},{"type":"Feature","properties":{"stop_id":"12600","stop_code":"12600","stop_name":"BOND @ CENTERVILLE CITY HALL EB","stop_desc":"MID-BLOCK BOND @ CENTERVILLE CITY HALL EB","wheelchair_boarding":2,"routes":[{"route_id":"19642","agency_id":"70006","route_short_name":"8","route_long_name":"Alta Sita","route_type":3,"route_color":"#FFFFFF","route_text_color":"#000000"}],"agency_name":"Metro St. Louis"},"geometry":{"type":"Point","coordinates":[-90.10851,38.572]}},{"type":"Feature","properties":{"stop_id":"12601","stop_code":"12601","stop_name":"BOND @ TOUCHETTE REGIONAL HOSPITAL EB","stop_desc":"MID-BLOCK BOND @ TOUCHETTE REGIONAL HOSPITAL EB","wheelchair_boarding":1,"routes":[{"route_id":"19642","agency_id":"70006","route_short_name":"8","route_long_name":"Alta Sita","route_type":3,"route_color":"#FFFFFF","route_text_color":"#000000"}],"agency_name":"Metro St. Louis"},"geometry":{"type":"Point","coordinates":[-90.10756,38.57119]}},{"type":"Feature","properties":{"stop_id":"12602","stop_code":"12602","stop_name":"BOND @ SOUTHERN ILLINOIS HEALTH CENTER EB","stop_desc":"MID-BLOCK BOND @ SOUTHERN ILLINOIS HEALTH CENTER EB","wheelchair_boarding":2,"routes":[{"route_id":"19642","agency_id":"70006","route_short_name":"8","route_long_name":"Alta Sita","route_type":3,"route_color":"#FFFFFF","route_text_color":"#000000"}],"agency_name":"Metro St. Louis"},"geometry":{"type":"Point","coordinates":[-90.10655,38.57032]}},{"type":"Feature","properties":{"stop_id":"12603","stop_code":"12603","stop_name":"6596 BOND EB","stop_desc":"MID-BLOCK 6596 BOND EB","wheelchair_boarding":2,"routes":[{"route_id":"19642","agency_id":"70006","route_short_name":"8","route_long_name":"Alta Sita","route_type":3,"route_color":"#FFFFFF","route_text_color":"#000000"}],"agency_name":"Metro St. Louis"},"geometry":{"type":"Point","coordinates":[-90.10456,38.5686]}},{"type":"Feature","properties":{"stop_id":"12604","stop_code":"12604","stop_name":"BOND @ OLD MISSOURI EB","stop_desc":"NEAR SIDE BOND @ OLD MISSOURI EB","wheelchair_boarding":2,"routes":[{"route_id":"19642","agency_id":"70006","route_short_name":"8","route_long_name":"Alta Sita","route_type":3,"route_color":"#FFFFFF","route_text_color":"#000000"}],"agency_name":"Metro St. Louis"},"geometry":{"type":"Point","coordinates":[-90.1034,38.56744]}},{"type":"Feature","properties":{"stop_id":"12605","stop_code":"12605","stop_name":"CLARITA @ OLD MISSOURI NB","stop_desc":"FAR SIDE CLARITA @ OLD MISSOURI NB","wheelchair_boarding":2,"routes":[{"route_id":"19642","agency_id":"70006","route_short_name":"8","route_long_name":"Alta Sita","route_type":3,"route_color":"#FFFFFF","route_text_color":"#000000"}],"agency_name":"Metro St. Louis"},"geometry":{"type":"Point","coordinates":[-90.10409,38.56345]}},{"type":"Feature","properties":{"stop_id":"12606","stop_code":"12606","stop_name":"CARVER @ HINKLEY NB","stop_desc":"NEAR SIDE CARVER @ HINKLEY NB","wheelchair_boarding":2,"routes":[{"route_id":"19642","agency_id":"70006","route_short_name":"8","route_long_name":"Alta Sita","route_type":3,"route_color":"#FFFFFF","route_text_color":"#000000"}],"agency_name":"Metro St. Louis"},"geometry":{"type":"Point","coordinates":[-90.10576,38.56539]}},{"type":"Feature","properties":{"stop_id":"12630","stop_code":"12630","stop_name":"66TH STREET @ CLARITA SB","stop_desc":"NEAR SIDE 66TH STREET @ CLARITA SB","wheelchair_boarding":1,"routes":[{"route_id":"19642","agency_id":"70006","route_short_name":"8","route_long_name":"Alta Sita","route_type":3,"route_color":"#FFFFFF","route_text_color":"#000000"}],"agency_name":"Metro St. Louis"},"geometry":{"type":"Point","coordinates":[-90.10704,38.566]}},{"type":"Feature","properties":{"stop_id":"12631","stop_code":"12631","stop_name":"HINCKLEY @ CLARITA SB","stop_desc":"NEAR SIDE HINCKLEY @ CLARITA SB","wheelchair_boarding":2,"routes":[{"route_id":"19642","agency_id":"70006","route_short_name":"8","route_long_name":"Alta Sita","route_type":3,"route_color":"#FFFFFF","route_text_color":"#000000"}],"agency_name":"Metro St. Louis"},"geometry":{"type":"Point","coordinates":[-90.10615,38.56481]}},{"type":"Feature","properties":{"stop_id":"12632","stop_code":"12632","stop_name":"CLARITA @ OLD MISSOURI SB","stop_desc":"NEAR SIDE CLARITA @ OLD MISSOURI SB","wheelchair_boarding":2,"routes":[{"route_id":"19642","agency_id":"70006","route_short_name":"8","route_long_name":"Alta Sita","route_type":3,"route_color":"#FFFFFF","route_text_color":"#000000"}],"agency_name":"Metro St. Louis"},"geometry":{"type":"Point","coordinates":[-90.10417,38.5634]}},{"type":"Feature","properties":{"stop_id":"12633","stop_code":"12633","stop_name":"OLD MISSOURI @ TUSKEGEE SB","stop_desc":"NEAR SIDE OLD MISSOURI @ TUSKEGEE SB","wheelchair_boarding":2,"routes":[{"route_id":"19642","agency_id":"70006","route_short_name":"8","route_long_name":"Alta Sita","route_type":3,"route_color":"#FFFFFF","route_text_color":"#000000"}],"agency_name":"Metro St. Louis"},"geometry":{"type":"Point","coordinates":[-90.10646,38.56044]}},{"type":"Feature","properties":{"stop_id":"12702","stop_code":"12702","stop_name":"EMERSON PARK TRANSIT CENTER","wheelchair_boarding":1,"routes":[{"route_id":"19641","agency_id":"70006","route_short_name":"6","route_long_name":"Rosemont","route_type":3,"route_color":"#FFFFFF","route_text_color":"#000000"},{"route_id":"19642","agency_id":"70006","route_short_name":"8","route_long_name":"Alta Sita","route_type":3,"route_color":"#FFFFFF","route_text_color":"#000000"},{"route_id":"19643","agency_id":"70006","route_short_name":"9","route_long_name":"Washington Park","route_type":3,"route_color":"#FFFFFF","route_text_color":"#000000"}],"agency_name":"Metro St. Louis"},"geometry":{"type":"Point","coordinates":[-90.13787,38.6285]}},{"type":"Feature","properties":{"stop_id":"12812","stop_code":"12812","stop_name":"26TH STREET @ GATY SB","stop_desc":"NEAR SIDE 26TH STREET @ GATY SB","wheelchair_boarding":2,"routes":[{"route_id":"19642","agency_id":"70006","route_short_name":"8","route_long_name":"Alta Sita","route_type":3,"route_color":"#FFFFFF","route_text_color":"#000000"}],"agency_name":"Metro St. Louis"},"geometry":{"type":"Point","coordinates":[-90.13362,38.60631]}},{"type":"Feature","properties":{"stop_id":"12813","stop_code":"12813","stop_name":"26TH STREET @ ST. LOUIS SB","stop_desc":"NEAR SIDE 26TH STREET @ ST. LOUIS SB","wheelchair_boarding":2,"routes":[{"route_id":"19642","agency_id":"70006","route_short_name":"8","route_long_name":"Alta Sita","route_type":3,"route_color":"#FFFFFF","route_text_color":"#000000"}],"agency_name":"Metro St. Louis"},"geometry":{"type":"Point","coordinates":[-90.13271,38.60694]}},{"type":"Feature","properties":{"stop_id":"12814","stop_code":"12814","stop_name":"25TH STREET @ ILLINOIS SB","stop_desc":"NEAR SIDE 25TH STREET @ ILLINOIS SB","wheelchair_boarding":2,"routes":[{"route_id":"19642","agency_id":"70006","route_short_name":"8","route_long_name":"Alta Sita","route_type":3,"route_color":"#FFFFFF","route_text_color":"#000000"}],"agency_name":"Metro St. Louis"},"geometry":{"type":"Point","coordinates":[-90.13165,38.6088]}},{"type":"Feature","properties":{"stop_id":"12815","stop_code":"12815","stop_name":"25TH STREET @ LOUISIANA SB","stop_desc":"NEAR SIDE 25TH STREET @ LOUISIANA SB","wheelchair_boarding":2,"routes":[{"route_id":"19642","agency_id":"70006","route_short_name":"8","route_long_name":"Alta Sita","route_type":3,"route_color":"#FFFFFF","route_text_color":"#000000"}],"agency_name":"Metro St. Louis"},"geometry":{"type":"Point","coordinates":[-90.13118,38.60959]}},{"type":"Feature","properties":{"stop_id":"12816","stop_code":"12816","stop_name":"25TH STREET @ BELLEVIEW SB","stop_desc":"FAR SIDE 25TH STREET @ BELLEVIEW SB","wheelchair_boarding":2,"routes":[{"route_id":"19642","agency_id":"70006","route_short_name":"8","route_long_name":"Alta Sita","route_type":3,"route_color":"#FFFFFF","route_text_color":"#000000"}],"agency_name":"Metro St. Louis"},"geometry":{"type":"Point","coordinates":[-90.13033,38.61101]}},{"type":"Feature","properties":{"stop_id":"12817","stop_code":"12817","stop_name":"25TH STREET @ RIDGE SB","stop_desc":"FAR SIDE 25TH STREET @ RIDGE SB","wheelchair_boarding":2,"routes":[{"route_id":"19642","agency_id":"70006","route_short_name":"8","route_long_name":"Alta Sita","route_type":3,"route_color":"#FFFFFF","route_text_color":"#000000"}],"agency_name":"Metro St. Louis"},"geometry":{"type":"Point","coordinates":[-90.12934,38.61266]}},{"type":"Feature","properties":{"stop_id":"12826","stop_code":"12826","stop_name":"25TH STREET @ OHIO SB","stop_desc":"NEAR SIDE 25TH STREET @ OHIO SB","wheelchair_boarding":2,"routes":[{"route_id":"19642","agency_id":"70006","route_short_name":"8","route_long_name":"Alta Sita","route_type":3,"route_color":"#FFFFFF","route_text_color":"#000000"}],"agency_name":"Metro St. Louis"},"geometry":{"type":"Point","coordinates":[-90.12649,38.61804]}},{"type":"Feature","properties":{"stop_id":"12827","stop_code":"12827","stop_name":"25TH STREET @ STATE SB","stop_desc":"NEAR SIDE 25TH STREET @ STATE SB","wheelchair_boarding":1,"routes":[{"route_id":"19642","agency_id":"70006","route_short_name":"8","route_long_name":"Alta Sita","route_type":3,"route_color":"#FFFFFF","route_text_color":"#000000"}],"agency_name":"Metro St. Louis"},"geometry":{"type":"Point","coordinates":[-90.12716,38.6169]}},{"type":"Feature","properties":{"stop_id":"12828","stop_code":"12828","stop_name":"25TH STREET @ STATE SB","stop_desc":"FAR SIDE 25TH STREET @ STATE SB","wheelchair_boarding":2,"routes":[{"route_id":"19642","agency_id":"70006","route_short_name":"8","route_long_name":"Alta Sita","route_type":3,"route_color":"#FFFFFF","route_text_color":"#000000"}],"agency_name":"Metro St. Louis"},"geometry":{"type":"Point","coordinates":[-90.12752,38.61571]}},{"type":"Feature","properties":{"stop_id":"12829","stop_code":"12829","stop_name":"25TH STREET @ HENRIETTA SB","stop_desc":"FAR SIDE 25TH STREET @ HENRIETTA SB","wheelchair_boarding":2,"routes":[{"route_id":"19642","agency_id":"70006","route_short_name":"8","route_long_name":"Alta Sita","route_type":3,"route_color":"#FFFFFF","route_text_color":"#000000"}],"agency_name":"Metro St. Louis"},"geometry":{"type":"Point","coordinates":[-90.12835,38.61434]}},{"type":"Feature","properties":{"stop_id":"12835","stop_code":"12835","stop_name":"26TH STREET @ MISSOURI SB","stop_desc":"NEAR SIDE 26TH STREET @ MISSOURI SB","wheelchair_boarding":2,"routes":[{"route_id":"19642","agency_id":"70006","route_short_name":"8","route_long_name":"Alta Sita","route_type":3,"route_color":"#FFFFFF","route_text_color":"#000000"}],"agency_name":"Metro St. Louis"},"geometry":{"type":"Point","coordinates":[-90.13439,38.60573]}},{"type":"Feature","properties":{"stop_id":"12985","stop_code":"12985","stop_name":"OLD CAMP JACKSON @ RANGE EB","stop_desc":"NEAR SIDE OLD CAMP JACKSON @ RANGE EB","wheelchair_boarding":2,"routes":[{"route_id":"19642","agency_id":"70006","route_short_name":"8","route_long_name":"Alta Sita","route_type":3,"route_color":"#FFFFFF","route_text_color":"#000000"}],"agency_name":"Metro St. Louis"},"geometry":{"type":"Point","coordinates":[-90.17715,38.5632]}},{"type":"Feature","properties":{"stop_id":"13018","stop_code":"13018","stop_name":"CAMP JACKSON @ CAROL WB","stop_desc":"NEAR SIDE CAMP JACKSON @ CAROL WB","wheelchair_boarding":2,"routes":[{"route_id":"19642","agency_id":"70006","route_short_name":"8","route_long_name":"Alta Sita","route_type":3,"route_color":"#FFFFFF","route_text_color":"#000000"}],"agency_name":"Metro St. Louis"},"geometry":{"type":"Point","coordinates":[-90.12879,38.54981]}},{"type":"Feature","properties":{"stop_id":"13019","stop_code":"13019","stop_name":"CAMP JACKSON @ LENORA WB","stop_desc":"NEAR SIDE CAMP JACKSON @ LENORA WB","wheelchair_boarding":2,"routes":[{"route_id":"19642","agency_id":"70006","route_short_name":"8","route_long_name":"Alta Sita","route_type":3,"route_color":"#FFFFFF","route_text_color":"#000000"}],"agency_name":"Metro St. Louis"},"geometry":{"type":"Point","coordinates":[-90.13251,38.55017]}},{"type":"Feature","properties":{"stop_id":"13020","stop_code":"13020","stop_name":"CAMP JACKSON @ DELORES WB","stop_desc":"NEAR SIDE CAMP JACKSON @ DELORES WB","wheelchair_boarding":2,"routes":[{"route_id":"19642","agency_id":"70006","route_short_name":"8","route_long_name":"Alta Sita","route_type":3,"route_color":"#FFFFFF","route_text_color":"#000000"}],"agency_name":"Metro St. Louis"},"geometry":{"type":"Point","coordinates":[-90.13425,38.55032]}},{"type":"Feature","properties":{"stop_id":"13021","stop_code":"13021","stop_name":"CAMP JACKSON @ HELEN COURT WB","stop_desc":"NEAR SIDE CAMP JACKSON @ HELEN COURT WB","wheelchair_boarding":2,"routes":[{"route_id":"19642","agency_id":"70006","route_short_name":"8","route_long_name":"Alta Sita","route_type":3,"route_color":"#FFFFFF","route_text_color":"#000000"}],"agency_name":"Metro St. Louis"},"geometry":{"type":"Point","coordinates":[-90.13751,38.55062]}},{"type":"Feature","properties":{"stop_id":"13022","stop_code":"13022","stop_name":"CAMP JACKSON @ CYNTHIA WB","stop_desc":"FAR SIDE CAMP JACKSON @ CYNTHIA WB","wheelchair_boarding":2,"routes":[{"route_id":"19642","agency_id":"70006","route_short_name":"8","route_long_name":"Alta Sita","route_type":3,"route_color":"#FFFFFF","route_text_color":"#000000"}],"agency_name":"Metro St. Louis"},"geometry":{"type":"Point","coordinates":[-90.13908,38.55078]}},{"type":"Feature","properties":{"stop_id":"13023","stop_code":"13023","stop_name":"CAMP JACKSON @ LLOYD WB","stop_desc":"FAR SIDE CAMP JACKSON @ LLOYD WB","wheelchair_boarding":2,"routes":[{"route_id":"19642","agency_id":"70006","route_short_name":"8","route_long_name":"Alta Sita","route_type":3,"route_color":"#FFFFFF","route_text_color":"#000000"}],"agency_name":"Metro St. Louis"},"geometry":{"type":"Point","coordinates":[-90.14527,38.55092]}},{"type":"Feature","properties":{"stop_id":"13024","stop_code":"13024","stop_name":"CAMP JACKSON @ DORIS WB","stop_desc":"FAR SIDE CAMP JACKSON @ DORIS WB","wheelchair_boarding":2,"routes":[{"route_id":"19642","agency_id":"70006","route_short_name":"8","route_long_name":"Alta Sita","route_type":3,"route_color":"#FFFFFF","route_text_color":"#000000"}],"agency_name":"Metro St. Louis"},"geometry":{"type":"Point","coordinates":[-90.14951,38.55026]}},{"type":"Feature","properties":{"stop_id":"13025","stop_code":"13025","stop_name":"CAMP JACKSON @ JEROME WB","stop_desc":"FAR SIDE CAMP JACKSON @ JEROME WB","wheelchair_boarding":2,"routes":[{"route_id":"19642","agency_id":"70006","route_short_name":"8","route_long_name":"Alta Sita","route_type":3,"route_color":"#FFFFFF","route_text_color":"#000000"}],"agency_name":"Metro St. Louis"},"geometry":{"type":"Point","coordinates":[-90.15213,38.54985]}},{"type":"Feature","properties":{"stop_id":"13026","stop_code":"13026","stop_name":"CAMP JACKSON @ LOUISE WB","stop_desc":"NEAR SIDE CAMP JACKSON @ LOUISE WB","wheelchair_boarding":2,"routes":[{"route_id":"19642","agency_id":"70006","route_short_name":"8","route_long_name":"Alta Sita","route_type":3,"route_color":"#FFFFFF","route_text_color":"#000000"}],"agency_name":"Metro St. Louis"},"geometry":{"type":"Point","coordinates":[-90.15485,38.54941]}},{"type":"Feature","properties":{"stop_id":"13027","stop_code":"13027","stop_name":"CAMP JACKSON @ POPLAR WB","stop_desc":"NEAR SIDE CAMP JACKSON @ POPLAR WB","wheelchair_boarding":2,"routes":[{"route_id":"19642","agency_id":"70006","route_short_name":"8","route_long_name":"Alta Sita","route_type":3,"route_color":"#FFFFFF","route_text_color":"#000000"}],"agency_name":"Metro St. Louis"},"geometry":{"type":"Point","coordinates":[-90.15675,38.54901]}},{"type":"Feature","properties":{"stop_id":"13028","stop_code":"13028","stop_name":"CAMP JACKSON @ LAZARCHEFF NB","stop_desc":"FAR SIDE CAMP JACKSON @ LAZARCHEFF NB","wheelchair_boarding":2,"routes":[{"route_id":"19642","agency_id":"70006","route_short_name":"8","route_long_name":"Alta Sita","route_type":3,"route_color":"#FFFFFF","route_text_color":"#000000"}],"agency_name":"Metro St. Louis"},"geometry":{"type":"Point","coordinates":[-90.16532,38.5534]}},{"type":"Feature","properties":{"stop_id":"13029","stop_code":"13029","stop_name":"CAMP JACKSON @ PARIS NB","stop_desc":"FAR SIDE CAMP JACKSON @ PARIS NB","wheelchair_boarding":2,"routes":[{"route_id":"19637","agency_id":"70006","route_short_name":"2","route_long_name":"Cahokia Heights","route_type":3,"route_color":"#FFFFFF","route_text_color":"#000000"},{"route_id":"19642","agency_id":"70006","route_short_name":"8","route_long_name":"Alta Sita","route_type":3,"route_color":"#FFFFFF","route_text_color":"#000000"}],"agency_name":"Metro St. Louis"},"geometry":{"type":"Point","coordinates":[-90.16717,38.55503]}},{"type":"Feature","properties":{"stop_id":"13030","stop_code":"13030","stop_name":"CAMP JACKSON @ FOX MEADOW NB","stop_desc":"NEAR SIDE CAMP JACKSON @ FOX MEADOW NB","wheelchair_boarding":2,"routes":[{"route_id":"19637","agency_id":"70006","route_short_name":"2","route_long_name":"Cahokia Heights","route_type":3,"route_color":"#FFFFFF","route_text_color":"#000000"},{"route_id":"19642","agency_id":"70006","route_short_name":"8","route_long_name":"Alta Sita","route_type":3,"route_color":"#FFFFFF","route_text_color":"#000000"}],"agency_name":"Metro St. Louis"},"geometry":{"type":"Point","coordinates":[-90.16872,38.55636]}},{"type":"Feature","properties":{"stop_id":"13033","stop_code":"13033","stop_name":"CAMP JACKSON @ ANNUNCIATION COURT NB","stop_desc":"FAR SIDE CAMP JACKSON @ ANNUNCIATION COURT NB","wheelchair_boarding":2,"routes":[{"route_id":"19637","agency_id":"70006","route_short_name":"2","route_long_name":"Cahokia Heights","route_type":3,"route_color":"#FFFFFF","route_text_color":"#000000"},{"route_id":"19642","agency_id":"70006","route_short_name":"8","route_long_name":"Alta Sita","route_type":3,"route_color":"#FFFFFF","route_text_color":"#000000"}],"agency_name":"Metro St. Louis"},"geometry":{"type":"Point","coordinates":[-90.17008,38.5575]}},{"type":"Feature","properties":{"stop_id":"13034","stop_code":"13034","stop_name":"CAMP JACKSON @ KAZILEK NB","stop_desc":"NEAR SIDE CAMP JACKSON @ KAZILEK NB","wheelchair_boarding":2,"routes":[{"route_id":"19637","agency_id":"70006","route_short_name":"2","route_long_name":"Cahokia Heights","route_type":3,"route_color":"#FFFFFF","route_text_color":"#000000"},{"route_id":"19642","agency_id":"70006","route_short_name":"8","route_long_name":"Alta Sita","route_type":3,"route_color":"#FFFFFF","route_text_color":"#000000"}],"agency_name":"Metro St. Louis"},"geometry":{"type":"Point","coordinates":[-90.17158,38.55876]}},{"type":"Feature","properties":{"stop_id":"13035","stop_code":"13035","stop_name":"CAMP JACKSON @ HUTCHINS NB","stop_desc":"FAR SIDE CAMP JACKSON @ HUTCHINS NB","wheelchair_boarding":2,"routes":[{"route_id":"19637","agency_id":"70006","route_short_name":"2","route_long_name":"Cahokia Heights","route_type":3,"route_color":"#FFFFFF","route_text_color":"#000000"},{"route_id":"19642","agency_id":"70006","route_short_name":"8","route_long_name":"Alta Sita","route_type":3,"route_color":"#FFFFFF","route_text_color":"#000000"}],"agency_name":"Metro St. Louis"},"geometry":{"type":"Point","coordinates":[-90.17374,38.56059]}},{"type":"Feature","properties":{"stop_id":"13036","stop_code":"13036","stop_name":"CAMP JACKSON @ HAWKINS NB","stop_desc":"NEAR SIDE CAMP JACKSON @ HAWKINS NB","wheelchair_boarding":2,"routes":[{"route_id":"19637","agency_id":"70006","route_short_name":"2","route_long_name":"Cahokia Heights","route_type":3,"route_color":"#FFFFFF","route_text_color":"#000000"},{"route_id":"19642","agency_id":"70006","route_short_name":"8","route_long_name":"Alta Sita","route_type":3,"route_color":"#FFFFFF","route_text_color":"#000000"}],"agency_name":"Metro St. Louis"},"geometry":{"type":"Point","coordinates":[-90.17438,38.56119]}},{"type":"Feature","properties":{"stop_id":"14192","stop_code":"14192","stop_name":"525 25TH STREET SB","stop_desc":"MID-BLOCK 525 25TH STREET SB","wheelchair_boarding":2,"routes":[{"route_id":"19642","agency_id":"70006","route_short_name":"8","route_long_name":"Alta Sita","route_type":3,"route_color":"#FFFFFF","route_text_color":"#000000"}],"agency_name":"Metro St. Louis"},"geometry":{"type":"Point","coordinates":[-90.12885,38.61348]}},{"type":"Feature","properties":{"stop_id":"14278","stop_code":"14278","stop_name":"BOND @ 50TH STREET EB","stop_desc":"NEAR SIDE BOND @ 50TH STREET EB","wheelchair_boarding":2,"routes":[{"route_id":"19642","agency_id":"70006","route_short_name":"8","route_long_name":"Alta Sita","route_type":3,"route_color":"#FFFFFF","route_text_color":"#000000"}],"agency_name":"Metro St. Louis"},"geometry":{"type":"Point","coordinates":[-90.11655,38.57896]}},{"type":"Feature","properties":{"stop_id":"14318","stop_code":"14318","stop_name":"BOND @ 26TH STREET EB","stop_desc":"FAR SIDE BOND @ 26TH STREET EB","wheelchair_boarding":2,"routes":[{"route_id":"19642","agency_id":"70006","route_short_name":"8","route_long_name":"Alta Sita","route_type":3,"route_color":"#FFFFFF","route_text_color":"#000000"}],"agency_name":"Metro St. Louis"},"geometry":{"type":"Point","coordinates":[-90.14138,38.60031]}},{"type":"Feature","properties":{"stop_id":"15256","stop_code":"15256","stop_name":"26TH STREET @ KANSAS SB","stop_desc":"NEAR SIDE 26TH STREET @ KANSAS SB","wheelchair_boarding":2,"routes":[{"route_id":"19642","agency_id":"70006","route_short_name":"8","route_long_name":"Alta Sita","route_type":3,"route_color":"#FFFFFF","route_text_color":"#000000"}],"agency_name":"Metro St. Louis"},"geometry":{"type":"Point","coordinates":[-90.13547,38.60494]}},{"type":"Feature","properties":{"stop_id":"15257","stop_code":"15257","stop_name":"26TH STREET @ DR JOHN H ROUSE SB","stop_desc":"NEAR SIDE 26TH STREET @ DR JOHN H ROUSE SB","wheelchair_boarding":2,"routes":[{"route_id":"19642","agency_id":"70006","route_short_name":"8","route_long_name":"Alta Sita","route_type":3,"route_color":"#FFFFFF","route_text_color":"#000000"}],"agency_name":"Metro St. Louis"},"geometry":{"type":"Point","coordinates":[-90.14129,38.60067]}},{"type":"Feature","properties":{"stop_id":"15258","stop_code":"15258","stop_name":"4534 BOND EB","stop_desc":"MID-BLOCK 4534 BOND EB","wheelchair_boarding":2,"routes":[{"route_id":"19642","agency_id":"70006","route_short_name":"8","route_long_name":"Alta Sita","route_type":3,"route_color":"#FFFFFF","route_text_color":"#000000"}],"agency_name":"Metro St. Louis"},"geometry":{"type":"Point","coordinates":[-90.12216,38.58358]}},{"type":"Feature","properties":{"stop_id":"15263","stop_code":"15263","stop_name":"6610 FUTURE EB","stop_desc":"MID-BLOCK 6610 FUTURE EB","wheelchair_boarding":2,"routes":[{"route_id":"19642","agency_id":"70006","route_short_name":"8","route_long_name":"Alta Sita","route_type":3,"route_color":"#FFFFFF","route_text_color":"#000000"}],"agency_name":"Metro St. Louis"},"geometry":{"type":"Point","coordinates":[-90.1069,38.5651]}},{"type":"Feature","properties":{"stop_id":"15565","stop_code":"15565","stop_name":"11TH STREET @ BAUGH SB","stop_desc":"NEAR SIDE 11TH STREET @ BAUGH SB","wheelchair_boarding":2,"routes":[{"route_id":"19642","agency_id":"70006","route_short_name":"8","route_long_name":"Alta Sita","route_type":3,"route_color":"#FFFFFF","route_text_color":"#000000"}],"agency_name":"Metro St. Louis"},"geometry":{"type":"Point","coordinates":[-90.14092,38.63082]}},{"type":"Feature","properties":{"stop_id":"15566","stop_code":"15566","stop_name":"ST. CLAIR @ 10TH STREET EB","stop_desc":"FAR SIDE ST. CLAIR @ 10TH STREET EB","wheelchair_boarding":2,"routes":[{"route_id":"19642","agency_id":"70006","route_short_name":"8","route_long_name":"Alta Sita","route_type":3,"route_color":"#FFFFFF","route_text_color":"#000000"}],"agency_name":"Metro St. Louis"},"geometry":{"type":"Point","coordinates":[-90.1428,38.62999]}},{"type":"Feature","properties":{"stop_id":"15567","stop_code":"15567","stop_name":"ST. CLAIR @ 13TH STREET EB","stop_desc":"NEAR SIDE ST. CLAIR @ 13TH STREET EB","wheelchair_boarding":2,"routes":[{"route_id":"19642","agency_id":"70006","route_short_name":"8","route_long_name":"Alta Sita","route_type":3,"route_color":"#FFFFFF","route_text_color":"#000000"}],"agency_name":"Metro St. Louis"},"geometry":{"type":"Point","coordinates":[-90.14146,38.62883]}},{"type":"Feature","properties":{"stop_id":"15568","stop_code":"15568","stop_name":"ST. CLAIR @ 15TH STREET EB","stop_desc":"NEAR SIDE ST. CLAIR @ 15TH STREET EB","wheelchair_boarding":2,"routes":[{"route_id":"19642","agency_id":"70006","route_short_name":"8","route_long_name":"Alta Sita","route_type":3,"route_color":"#FFFFFF","route_text_color":"#000000"}],"agency_name":"Metro St. Louis"},"geometry":{"type":"Point","coordinates":[-90.13917,38.6269]}},{"type":"Feature","properties":{"stop_id":"16435","stop_code":"16435","stop_name":"CAMP JACKSON @ DONNA WB","stop_desc":"FAR SIDE CAMP JACKSON @ DONNA WB","wheelchair_boarding":2,"routes":[{"route_id":"19642","agency_id":"70006","route_short_name":"8","route_long_name":"Alta Sita","route_type":3,"route_color":"#FFFFFF","route_text_color":"#000000"}],"agency_name":"Metro St. Louis"},"geometry":{"type":"Point","coordinates":[-90.12165,38.55011]}},{"type":"Feature","properties":{"stop_id":"16437","stop_code":"16437","stop_name":"OLD MISSOURI @ CHURCH SB","stop_desc":"FAR SIDE OLD MISSOURI @ CHURCH SB","wheelchair_boarding":2,"routes":[{"route_id":"19642","agency_id":"70006","route_short_name":"8","route_long_name":"Alta Sita","route_type":3,"route_color":"#FFFFFF","route_text_color":"#000000"}],"agency_name":"Metro St. Louis"},"geometry":{"type":"Point","coordinates":[-90.10874,38.55801]}},{"type":"Feature","properties":{"stop_id":"16449","stop_code":"16449","stop_name":"CAMP JACKSON @ RENOIS WB","stop_desc":"NEAR SIDE CAMP JACKSON @ RENOIS WB","wheelchair_boarding":2,"routes":[{"route_id":"19642","agency_id":"70006","route_short_name":"8","route_long_name":"Alta Sita","route_type":3,"route_color":"#FFFFFF","route_text_color":"#000000"}],"agency_name":"Metro St. Louis"},"geometry":{"type":"Point","coordinates":[-90.11397,38.55351]}}]}