{"type":"FeatureCollection","features":[{"type":"Feature","properties":{"agency_name":"Metro St. Louis","route_id":"19640","agency_id":"70006","route_short_name":"5","route_long_name":"Missouri Ave - ML King","route_type":3,"route_color":"#FFFFFF","route_text_color":"#000000"},"geometry":{"type":"MultiLineString","coordinates":[[[-90.1592,38.62494],[-90.15903,38.62499],[-90.1592,38.62494],[-90.15959,38.62472],[-90.15961,38.62462],[-90.15959,38.62452],[-90.1595,38.62443],[-90.15897,38.62401],[-90.15982,38.62339],[-90.16104,38.62439],[-90.1615,38.62479],[-90.16193,38.6251],[-90.16247,38.62559],[-90.16141,38.62605],[-90.15926,38.62648],[-90.1584,38.62576],[-90.15668,38.62428],[-90.15589,38.62356],[-90.15501,38.62287],[-90.15413,38.62214],[-90.14591,38.61518],[-90.14332,38.61295],[-90.14244,38.6136],[-90.14154,38.61422],[-90.14241,38.61494],[-90.14468,38.61689],[-90.14569,38.61774],[-90.14639,38.6183],[-90.14671,38.6186],[-90.1477,38.61945],[-90.15239,38.62339],[-90.15495,38.62558],[-90.1567,38.62702],[-90.15971,38.62685]],[[-90.15804,38.62469],[-90.15897,38.62401],[-90.15804,38.62469],[-90.15827,38.62486],[-90.15851,38.62496]]]}},{"type":"Feature","properties":{"stop_id":"12797","stop_code":"12797","stop_name":"MISSOURI @ 7TH STREET EB","stop_desc":"NEAR SIDE MISSOURI @ 7TH STREET EB","wheelchair_boarding":2,"routes":[{"route_id":"19640","agency_id":"70006","route_short_name":"5","route_long_name":"Missouri Ave - ML King","route_type":3,"route_color":"#FFFFFF","route_text_color":"#000000"}],"agency_name":"Metro St. Louis"},"geometry":{"type":"Point","coordinates":[-90.15703,38.62456]}},{"type":"Feature","properties":{"stop_id":"12798","stop_code":"12798","stop_name":"MISSOURI @ 8TH STREET EB","stop_desc":"FAR SIDE MISSOURI @ 8TH STREET EB","wheelchair_boarding":2,"routes":[{"route_id":"19640","agency_id":"70006","route_short_name":"5","route_long_name":"Missouri Ave - ML King","route_type":3,"route_color":"#FFFFFF","route_text_color":"#000000"}],"agency_name":"Metro St. Louis"},"geometry":{"type":"Point","coordinates":[-90.15568,38.62336]}},{"type":"Feature","properties":{"stop_id":"12800","stop_code":"12800","stop_name":"MISSOURI @ 10TH STREET EB","stop_desc":"FAR SIDE MISSOURI @ 10TH STREET EB","wheelchair_boarding":2,"routes":[{"route_id":"19640","agency_id":"70006","route_short_name":"5","route_long_name":"Missouri Ave - ML King","route_type":3,"route_color":"#FFFFFF","route_text_color":"#000000"}],"agency_name":"Metro St. Louis"},"geometry":{"type":"Point","coordinates":[-90.15399,38.6219]}},{"type":"Feature","properties":{"stop_id":"12801","stop_code":"12801","stop_name":"MISSOURI @ 12TH STREET EB","stop_desc":"FAR SIDE MISSOURI @ 12TH STREET EB","wheelchair_boarding":2,"routes":[{"route_id":"19640","agency_id":"70006","route_short_name":"5","route_long_name":"Missouri Ave - ML King","route_type":3,"route_color":"#FFFFFF","route_text_color":"#000000"}],"agency_name":"Metro St. Louis"},"geometry":{"type":"Point","coordinates":[-90.15212,38.62033]}},{"type":"Feature","properties":{"stop_id":"12802","stop_code":"12802","stop_name":"MISSOURI @ 13TH STREET EB","stop_desc":"FAR SIDE MISSOURI @ 13TH STREET EB","wheelchair_boarding":2,"routes":[{"route_id":"19640","agency_id":"70006","route_short_name":"5","route_long_name":"Missouri Ave - ML King","route_type":3,"route_color":"#FFFFFF","route_text_color":"#000000"}],"agency_name":"Metro St. Louis"},"geometry":{"type":"Point","coordinates":[-90.15035,38.61883]}},{"type":"Feature","properties":{"stop_id":"12803","stop_code":"12803","stop_name":"MISSOURI @ NE OWENS PLACE EB","stop_desc":"NEAR SIDE MISSOURI @ NE OWENS PLACE EB","wheelchair_boarding":1,"routes":[{"route_id":"19640","agency_id":"70006","route_short_name":"5","route_long_name":"Missouri Ave - ML King","route_type":3,"route_color":"#FFFFFF","route_text_color":"#000000"}],"agency_name":"Metro St. Louis"},"geometry":{"type":"Point","coordinates":[-90.14909,38.61777]}},{"type":"Feature","properties":{"stop_id":"12804","stop_code":"12804","stop_name":"MISSOURI @ 15TH STREET EB","stop_desc":"FAR SIDE MISSOURI @ 15TH STREET EB","wheelchair_boarding":2,"routes":[{"route_id":"19640","agency_id":"70006","route_short_name":"5","route_long_name":"Missouri Ave - ML King","route_type":3,"route_color":"#FFFFFF","route_text_color":"#000000"}],"agency_name":"Metro St. Louis"},"geometry":{"type":"Point","coordinates":[-90.14745,38.61636]}},{"type":"Feature","properties":{"stop_id":"12805","stop_code":"12805","stop_name":"MISSOURI @ 16TH STREET EB","stop_desc":"FAR SIDE MISSOURI @ 16TH STREET EB","wheelchair_boarding":2,"routes":[{"route_id":"19640","agency_id":"70006","route_short_name":"5","route_long_name":"Missouri Ave - ML King","route_type":3,"route_color":"#FFFFFF","route_text_color":"#000000"}],"agency_name":"Metro St. Louis"},"geometry":{"type":"Point","coordinates":[-90.14637,38.61546]}},{"type":"Feature","properties":{"stop_id":"12806","stop_code":"12806","stop_name":"MISSOURI @ 17TH STREET EB","stop_desc":"FAR SIDE MISSOURI @ 17TH STREET EB","wheelchair_boarding":2,"routes":[{"route_id":"19640","agency_id":"70006","route_short_name":"5","route_long_name":"Missouri Ave - ML King","route_type":3,"route_color":"#FFFFFF","route_text_color":"#000000"}],"agency_name":"Metro St. Louis"},"geometry":{"type":"Point","coordinates":[-90.14479,38.61413]}},{"type":"Feature","properties":{"stop_id":"12953","stop_code":"12953","stop_name":"ST. LOUIS @ COLUMBIA PLACE WB","stop_desc":"NEAR SIDE ST. LOUIS @ COLUMBIA PLACE WB","wheelchair_boarding":2,"routes":[{"route_id":"19640","agency_id":"70006","route_short_name":"5","route_long_name":"Missouri Ave - ML King","route_type":3,"route_color":"#FFFFFF","route_text_color":"#000000"}],"agency_name":"Metro St. Louis"},"geometry":{"type":"Point","coordinates":[-90.14658,38.61852]}},{"type":"Feature","properties":{"stop_id":"12955","stop_code":"12955","stop_name":"ST. LOUIS @ 13TH STREET WB","stop_desc":"FAR SIDE ST. LOUIS @ 13TH STREET WB","wheelchair_boarding":1,"routes":[{"route_id":"19640","agency_id":"70006","route_short_name":"5","route_long_name":"Missouri Ave - ML King","route_type":3,"route_color":"#FFFFFF","route_text_color":"#000000"}],"agency_name":"Metro St. Louis"},"geometry":{"type":"Point","coordinates":[-90.1489,38.62049]}},{"type":"Feature","properties":{"stop_id":"12956","stop_code":"12956","stop_name":"ST. LOUIS @ 12TH STREET WB","stop_desc":"FAR SIDE ST. LOUIS @ 12TH STREET WB","wheelchair_boarding":2,"routes":[{"route_id":"19640","agency_id":"70006","route_short_name":"5","route_long_name":"Missouri Ave - ML King","route_type":3,"route_color":"#FFFFFF","route_text_color":"#000000"}],"agency_name":"Metro St. Louis"},"geometry":{"type":"Point","coordinates":[-90.15046,38.62181]}},{"type":"Feature","properties":{"stop_id":"12957","stop_code":"12957","stop_name":"907 ST. LOUIS WB","stop_desc":"MID-BLOCK 907 ST. LOUIS WB","wheelchair_boarding":2,"routes":[{"route_id":"19640","agency_id":"70006","route_short_name":"5","route_long_name":"Missouri Ave - ML King","route_type":3,"route_color":"#FFFFFF","route_text_color":"#000000"}],"agency_name":"Metro St. Louis"},"geometry":{"type":"Point","coordinates":[-90.1528,38.62378]}},{"type":"Feature","properties":{"stop_id":"12958","stop_code":"12958","stop_name":"ST. LOUIS @ 8TH STREET WB","stop_desc":"FAR SIDE ST. LOUIS @ 8TH STREET WB","wheelchair_boarding":2,"routes":[{"route_id":"19640","agency_id":"70006","route_short_name":"5","route_long_name":"Missouri Ave - ML King","route_type":3,"route_color":"#FFFFFF","route_text_color":"#000000"}],"agency_name":"Metro St. Louis"},"geometry":{"type":"Point","coordinates":[-90.15444,38.62518]}},{"type":"Feature","properties":{"stop_id":"13078","stop_code":"13078","stop_name":"BROADWAY @ METROLINK TRACKS WB","stop_desc":"NEAR SIDE BROADWAY @ METROLINK TRACKS WB","wheelchair_boarding":1,"routes":[{"route_id":"19640","agency_id":"70006","route_short_name":"5","route_long_name":"Missouri Ave - ML King","route_type":3,"route_color":"#FFFFFF","route_text_color":"#000000"}],"agency_name":"Metro St. Louis"},"geometry":{"type":"Point","coordinates":[-90.16053,38.62409]}},{"type":"Feature","properties":{"stop_id":"13079","stop_code":"13079","stop_name":"BROADWAY @ BARACK OBAMA WB","stop_desc":"NEAR SIDE BROADWAY @ BARACK OBAMA WB","wheelchair_boarding":1,"routes":[{"route_id":"19640","agency_id":"70006","route_short_name":"5","route_long_name":"Missouri Ave - ML King","route_type":3,"route_color":"#FFFFFF","route_text_color":"#000000"}],"agency_name":"Metro St. Louis"},"geometry":{"type":"Point","coordinates":[-90.16132,38.62475]}},{"type":"Feature","properties":{"stop_id":"13080","stop_code":"13080","stop_name":"COLLINSVILLE @ MISSOURI NB","stop_desc":"NEAR SIDE COLLINSVILLE @ MISSOURI NB","wheelchair_boarding":1,"routes":[{"route_id":"19640","agency_id":"70006","route_short_name":"5","route_long_name":"Missouri Ave - ML King","route_type":3,"route_color":"#FFFFFF","route_text_color":"#000000"}],"agency_name":"Metro St. Louis"},"geometry":{"type":"Point","coordinates":[-90.15997,38.62678]}},{"type":"Feature","properties":{"stop_id":"13234","stop_code":"13234","stop_name":"ST. LOUIS @ COLLINSVILLE WB","stop_desc":"NEAR SIDE ST. LOUIS @ COLLINSVILLE WB","wheelchair_boarding":2,"routes":[{"route_id":"19640","agency_id":"70006","route_short_name":"5","route_long_name":"Missouri Ave - ML King","route_type":3,"route_color":"#FFFFFF","route_text_color":"#000000"}],"agency_name":"Metro St. Louis"},"geometry":{"type":"Point","coordinates":[-90.15749,38.62774]}},{"type":"Feature","properties":{"stop_id":"13235","stop_code":"13235","stop_name":"COLLINSVILLE @ MISSOURI SB","stop_desc":"FAR SIDE COLLINSVILLE @ MISSOURI SB","wheelchair_boarding":2,"routes":[{"route_id":"19640","agency_id":"70006","route_short_name":"5","route_long_name":"Missouri Ave - ML King","route_type":3,"route_color":"#FFFFFF","route_text_color":"#000000"}],"agency_name":"Metro St. Louis"},"geometry":{"type":"Point","coordinates":[-90.16004,38.6268]}},{"type":"Feature","properties":{"stop_id":"13237","stop_code":"13237","stop_name":"RIVER PARK @ 4TH STREET EB","stop_desc":"NEAR SIDE RIVER PARK @ 4TH STREET EB","wheelchair_boarding":1,"routes":[{"route_id":"19640","agency_id":"70006","route_short_name":"5","route_long_name":"Missouri Ave - ML King","route_type":3,"route_color":"#FFFFFF","route_text_color":"#000000"}],"agency_name":"Metro St. Louis"},"geometry":{"type":"Point","coordinates":[-90.16208,38.6252]}},{"type":"Feature","properties":{"stop_id":"13238","stop_code":"13238","stop_name":"BROADWAY @ BARACK OBAMA EB","stop_desc":"FAR SIDE BROADWAY @ BARACK OBAMA EB","wheelchair_boarding":2,"routes":[{"route_id":"19640","agency_id":"70006","route_short_name":"5","route_long_name":"Missouri Ave - ML King","route_type":3,"route_color":"#FFFFFF","route_text_color":"#000000"}],"agency_name":"Metro St. Louis"},"geometry":{"type":"Point","coordinates":[-90.16119,38.6244]}},{"type":"Feature","properties":{"stop_id":"14190","stop_code":"14190","stop_name":"ST. LOUIS @ 10TH STREET WB","stop_desc":"NEAR SIDE ST. LOUIS @ 10TH STREET WB","wheelchair_boarding":2,"routes":[{"route_id":"19640","agency_id":"70006","route_short_name":"5","route_long_name":"Missouri Ave - ML King","route_type":3,"route_color":"#FFFFFF","route_text_color":"#000000"}],"agency_name":"Metro St. Louis"},"geometry":{"type":"Point","coordinates":[-90.15225,38.62332]}},{"type":"Feature","properties":{"stop_id":"14330","stop_code":"14330","stop_name":"5TH & MISSOURI TRANSIT CENTER","wheelchair_boarding":1,"routes":[{"route_id":"19636","agency_id":"70006","route_short_name":"1","route_long_name":"Main Street - State Street","route_type":3,"route_color":"#FFFFFF","route_text_color":"#000000"},{"route_id":"19637","agency_id":"70006","route_short_name":"2","route_long_name":"Cahokia Heights","route_type":3,"route_color":"#FFFFFF","route_text_color":"#000000"},{"route_id":"19638","agency_id":"70006","route_short_name":"3","route_long_name":"Sauget - Water Street","route_type":3,"route_color":"#FFFFFF","route_text_color":"#000000"},{"route_id":"19639","agency_id":"70006","route_short_name":"4","route_long_name":"19th & Central","route_type":3,"route_color":"#FFFFFF","route_text_color":"#000000"},{"route_id":"19640","agency_id":"70006","route_short_name":"5","route_long_name":"Missouri Ave - ML King","route_type":3,"route_color":"#FFFFFF","route_text_color":"#000000"}],"agency_name":"Metro St. Louis"},"geometry":{"type":"Point","coordinates":[-90.15906,38.62501]}},{"type":"Feature","properties":{"stop_id":"14331","stop_code":"14331","stop_name":"18TH STREET @ MISSOURI NB","stop_desc":"FAR SIDE 18TH STREET @ MISSOURI NB","wheelchair_boarding":2,"routes":[{"route_id":"19640","agency_id":"70006","route_short_name":"5","route_long_name":"Missouri Ave - ML King","route_type":3,"route_color":"#FFFFFF","route_text_color":"#000000"}],"agency_name":"Metro St. Louis"},"geometry":{"type":"Point","coordinates":[-90.14305,38.6131]}},{"type":"Feature","properties":{"stop_id":"14467","stop_code":"14467","stop_name":"18TH STREET @ ST. LOUIS NB","stop_desc":"NEAR SIDE 18TH STREET @ ST. LOUIS NB","wheelchair_boarding":2,"routes":[{"route_id":"19640","agency_id":"70006","route_short_name":"5","route_long_name":"Missouri Ave - ML King","route_type":3,"route_color":"#FFFFFF","route_text_color":"#000000"}],"agency_name":"Metro St. Louis"},"geometry":{"type":"Point","coordinates":[-90.14172,38.61409]}},{"type":"Feature","properties":{"stop_id":"14908","stop_code":"14908","stop_name":"MISSOURI @ 9TH STREET EB","stop_desc":"FAR SIDE MISSOURI @ 9TH STREET EB","wheelchair_boarding":2,"routes":[{"route_id":"19640","agency_id":"70006","route_short_name":"5","route_long_name":"Missouri Ave - ML King","route_type":3,"route_color":"#FFFFFF","route_text_color":"#000000"}],"agency_name":"Metro St. Louis"},"geometry":{"type":"Point","coordinates":[-90.15491,38.62264]}},{"type":"Feature","properties":{"stop_id":"16461","stop_code":"16461","stop_name":"ST. LOUIS @ 17TH STREET WB","stop_desc":"NEAR SIDE ST. LOUIS @ 17TH STREET WB","wheelchair_boarding":2,"routes":[{"route_id":"19640","agency_id":"70006","route_short_name":"5","route_long_name":"Missouri Ave - ML King","route_type":3,"route_color":"#FFFFFF","route_text_color":"#000000"}],"agency_name":"Metro St. Louis"},"geometry":{"type":"Point","coordinates":[-90.14307,38.61554]}},{"type":"Feature","properties":{"stop_id":"16462","stop_code":"16462","stop_name":"ST. LOUIS @ 16TH STREET WB","stop_desc":"FAR SIDE ST. LOUIS @ 16TH STREET WB","wheelchair_boarding":2,"routes":[{"route_id":"19640","agency_id":"70006","route_short_name":"5","route_long_name":"Missouri Ave - ML King","route_type":3,"route_color":"#FFFFFF","route_text_color":"#000000"}],"agency_name":"Metro St. Louis"},"geometry":{"type":"Point","coordinates":[-90.14493,38.61712]}},{"type":"Feature","properties":{"stop_id":"16463","stop_code":"16463","stop_name":"ST. LOUIS @ 6TH STREET WB","stop_desc":"NEAR SIDE ST. LOUIS @ 6TH STREET WB","wheelchair_boarding":2,"routes":[{"route_id":"19640","agency_id":"70006","route_short_name":"5","route_long_name":"Missouri Ave - ML King","route_type":3,"route_color":"#FFFFFF","route_text_color":"#000000"}],"agency_name":"Metro St. Louis"},"geometry":{"type":"Point","coordinates":[-90.1557,38.62624]}}]}