{"type":"FeatureCollection","features":[{"type":"Feature","properties":{"agency_name":"Metro St. Louis","route_id":"19600","agency_id":"70006","route_short_name":"13","route_long_name":"Union","route_type":3,"route_color":"#FFFFFF","route_text_color":"#000000"},"geometry":{"type":"MultiLineString","coordinates":[[[-90.23872,38.69444],[-90.23888,38.69466],[-90.23857,38.69422],[-90.24128,38.69269],[-90.24324,38.69273],[-90.24782,38.69021],[-90.24997,38.68904],[-90.25035,38.68886],[-90.25081,38.68861],[-90.25147,38.68824],[-90.25158,38.68816],[-90.25377,38.68498],[-90.25408,38.68458],[-90.25431,38.68437],[-90.25473,38.68412],[-90.25486,38.68403],[-90.25498,38.68392],[-90.25773,38.67999],[-90.25922,38.67794],[-90.25943,38.67761],[-90.26118,38.67512],[-90.26231,38.67348],[-90.26665,38.6673],[-90.26775,38.66577],[-90.27161,38.66146],[-90.27191,38.66111],[-90.27201,38.66092],[-90.27208,38.66062],[-90.27224,38.65957],[-90.27324,38.65351],[-90.27443,38.6464],[-90.27464,38.64502],[-90.26723,38.6443],[-90.26579,38.64414],[-90.26516,38.64402],[-90.26416,38.64377],[-90.26259,38.64343],[-90.25793,38.64247],[-90.25971,38.6372],[-90.25973,38.63702],[-90.25966,38.63651],[-90.25961,38.63631],[-90.25977,38.63625],[-90.26009,38.6362],[-90.26049,38.63618]]]}},{"type":"Feature","properties":{"stop_id":"13243","stop_code":"13243","stop_name":"UNION @ NATURAL BRIDGE SB","stop_desc":"NEAR SIDE UNION @ NATURAL BRIDGE SB","wheelchair_boarding":1,"routes":[{"route_id":"19600","agency_id":"70006","route_short_name":"13","route_long_name":"Union","route_type":3,"route_color":"#FFFFFF","route_text_color":"#000000"}],"agency_name":"Metro St. Louis"},"geometry":{"type":"Point","coordinates":[-90.25807,38.67968]}},{"type":"Feature","properties":{"stop_id":"13430","stop_code":"13430","stop_name":"LINDELL @ LAKE EB","stop_desc":"NEAR SIDE LINDELL @ LAKE EB","wheelchair_boarding":2,"routes":[{"route_id":"19600","agency_id":"70006","route_short_name":"13","route_long_name":"Union","route_type":3,"route_color":"#FFFFFF","route_text_color":"#000000"}],"agency_name":"Metro St. Louis"},"geometry":{"type":"Point","coordinates":[-90.27111,38.64463]}},{"type":"Feature","properties":{"stop_id":"13456","stop_code":"13456","stop_name":"LINDELL @ KINGSHIGHWAY EB","stop_desc":"FAR SIDE LINDELL @ KINGSHIGHWAY EB","wheelchair_boarding":1,"routes":[{"route_id":"19600","agency_id":"70006","route_short_name":"13","route_long_name":"Union","route_type":3,"route_color":"#FFFFFF","route_text_color":"#000000"}],"agency_name":"Metro St. Louis"},"geometry":{"type":"Point","coordinates":[-90.26453,38.64377]}},{"type":"Feature","properties":{"stop_id":"14792","stop_code":"14792","stop_name":"CENTRAL WEST END TRANSIT CENTER","wheelchair_boarding":1,"routes":[{"route_id":"19592","agency_id":"70006","route_short_name":"1","route_long_name":"Gold","route_type":3,"route_color":"#FFFFFF","route_text_color":"#000000"},{"route_id":"19596","agency_id":"70006","route_short_name":"8","route_long_name":"Shaw-Cherokee","route_type":3,"route_color":"#FFFFFF","route_text_color":"#000000"},{"route_id":"19598","agency_id":"70006","route_short_name":"10","route_long_name":"Gravois-Lindell","route_type":3,"route_color":"#FFFFFF","route_text_color":"#000000"},{"route_id":"19600","agency_id":"70006","route_short_name":"13","route_long_name":"Union","route_type":3,"route_color":"#FFFFFF","route_text_color":"#000000"},{"route_id":"19618","agency_id":"70006","route_short_name":"59","route_long_name":"Oakland","route_type":3,"route_color":"#FFFFFF","route_text_color":"#000000"},{"route_id":"19632","agency_id":"70006","route_short_name":"95","route_long_name":"Kingshighway","route_type":3,"route_color":"#FFFFFF","route_text_color":"#000000"}],"agency_name":"Metro St. Louis"},"geometry":{"type":"Point","coordinates":[-90.25999,38.63568]}},{"type":"Feature","properties":{"stop_id":"15067","stop_code":"15067","stop_name":"UNION @ KINGSBURY PLACE SB","stop_desc":"NEAR SIDE UNION @ KINGSBURY PLACE SB","wheelchair_boarding":2,"routes":[{"route_id":"19600","agency_id":"70006","route_short_name":"13","route_long_name":"Union","route_type":3,"route_color":"#FFFFFF","route_text_color":"#000000"}],"agency_name":"Metro St. Louis"},"geometry":{"type":"Point","coordinates":[-90.27376,38.65061]}},{"type":"Feature","properties":{"stop_id":"15068","stop_code":"15068","stop_name":"UNION @ PERSHING SB","stop_desc":"NEAR SIDE UNION @ PERSHING SB","wheelchair_boarding":1,"routes":[{"route_id":"19592","agency_id":"70006","route_short_name":"1","route_long_name":"Gold","route_type":3,"route_color":"#FFFFFF","route_text_color":"#000000"},{"route_id":"19600","agency_id":"70006","route_short_name":"13","route_long_name":"Union","route_type":3,"route_color":"#FFFFFF","route_text_color":"#000000"}],"agency_name":"Metro St. Louis"},"geometry":{"type":"Point","coordinates":[-90.27419,38.64794]}},{"type":"Feature","properties":{"stop_id":"15822","stop_code":"15822","stop_name":"UNION @ MARGARETTA SB","stop_desc":"NEAR SIDE UNION @ MARGARETTA SB","wheelchair_boarding":1,"routes":[{"route_id":"19600","agency_id":"70006","route_short_name":"13","route_long_name":"Union","route_type":3,"route_color":"#FFFFFF","route_text_color":"#000000"}],"agency_name":"Metro St. Louis"},"geometry":{"type":"Point","coordinates":[-90.25662,38.68175]}},{"type":"Feature","properties":{"stop_id":"16084","stop_code":"16084","stop_name":"UNION @ NATURAL BRIDGE SB","stop_desc":"FAR SIDE UNION @ NATURAL BRIDGE SB","wheelchair_boarding":1,"routes":[{"route_id":"19600","agency_id":"70006","route_short_name":"13","route_long_name":"Union","route_type":3,"route_color":"#FFFFFF","route_text_color":"#000000"}],"agency_name":"Metro St. Louis"},"geometry":{"type":"Point","coordinates":[-90.25848,38.67906]}},{"type":"Feature","properties":{"stop_id":"16154","stop_code":"16154","stop_name":"UNION @ ASHLAND SB","stop_desc":"FAR SIDE UNION @ ASHLAND SB","wheelchair_boarding":1,"routes":[{"route_id":"19600","agency_id":"70006","route_short_name":"13","route_long_name":"Union","route_type":3,"route_color":"#FFFFFF","route_text_color":"#000000"}],"agency_name":"Metro St. Louis"},"geometry":{"type":"Point","coordinates":[-90.26025,38.6763]}},{"type":"Feature","properties":{"stop_id":"3772","stop_code":"3772","stop_name":"WEST FLORISSANT @ UNION SB","stop_desc":"FAR SIDE WEST FLORISSANT @ UNION SB","wheelchair_boarding":1,"routes":[{"route_id":"19600","agency_id":"70006","route_short_name":"13","route_long_name":"Union","route_type":3,"route_color":"#FFFFFF","route_text_color":"#000000"},{"route_id":"19624","agency_id":"70006","route_short_name":"74","route_long_name":"Florissant","route_type":3,"route_color":"#FFFFFF","route_text_color":"#000000"}],"agency_name":"Metro St. Louis"},"geometry":{"type":"Point","coordinates":[-90.23901,38.69459]}},{"type":"Feature","properties":{"stop_id":"5332","stop_code":"5332","stop_name":"TAYLOR @ PARKVIEW PLACE SB","stop_desc":"NEAR SIDE TAYLOR @ PARKVIEW PLACE SB","wheelchair_boarding":1,"routes":[{"route_id":"19592","agency_id":"70006","route_short_name":"1","route_long_name":"Gold","route_type":3,"route_color":"#FFFFFF","route_text_color":"#000000"},{"route_id":"19598","agency_id":"70006","route_short_name":"10","route_long_name":"Gravois-Lindell","route_type":3,"route_color":"#FFFFFF","route_text_color":"#000000"},{"route_id":"19600","agency_id":"70006","route_short_name":"13","route_long_name":"Union","route_type":3,"route_color":"#FFFFFF","route_text_color":"#000000"},{"route_id":"19602","agency_id":"70006","route_short_name":"18","route_long_name":"Taylor","route_type":3,"route_color":"#FFFFFF","route_text_color":"#000000"},{"route_id":"19613","agency_id":"70006","route_short_name":"42","route_long_name":"Sarah","route_type":3,"route_color":"#FFFFFF","route_text_color":"#000000"},{"route_id":"19632","agency_id":"70006","route_short_name":"95","route_long_name":"Kingshighway","route_type":3,"route_color":"#FFFFFF","route_text_color":"#000000"}],"agency_name":"Metro St. Louis"},"geometry":{"type":"Point","coordinates":[-90.25974,38.6373]}},{"type":"Feature","properties":{"stop_id":"8009","stop_code":"8009","stop_name":"TAYLOR @ LINDELL SB","stop_desc":"FAR SIDE TAYLOR @ LINDELL SB","wheelchair_boarding":1,"routes":[{"route_id":"19600","agency_id":"70006","route_short_name":"13","route_long_name":"Union","route_type":3,"route_color":"#FFFFFF","route_text_color":"#000000"},{"route_id":"19602","agency_id":"70006","route_short_name":"18","route_long_name":"Taylor","route_type":3,"route_color":"#FFFFFF","route_text_color":"#000000"}],"agency_name":"Metro St. Louis"},"geometry":{"type":"Point","coordinates":[-90.25803,38.64227]}},{"type":"Feature","properties":{"stop_id":"8010","stop_code":"8010","stop_name":"TAYLOR @ WEST PINE SB","stop_desc":"FAR SIDE TAYLOR @ WEST PINE SB","wheelchair_boarding":2,"routes":[{"route_id":"19600","agency_id":"70006","route_short_name":"13","route_long_name":"Union","route_type":3,"route_color":"#FFFFFF","route_text_color":"#000000"},{"route_id":"19602","agency_id":"70006","route_short_name":"18","route_long_name":"Taylor","route_type":3,"route_color":"#FFFFFF","route_text_color":"#000000"}],"agency_name":"Metro St. Louis"},"geometry":{"type":"Point","coordinates":[-90.25853,38.64085]}},{"type":"Feature","properties":{"stop_id":"8011","stop_code":"8011","stop_name":"TAYLOR @ LACLEDE SB","stop_desc":"FAR SIDE TAYLOR @ LACLEDE SB","wheelchair_boarding":1,"routes":[{"route_id":"19600","agency_id":"70006","route_short_name":"13","route_long_name":"Union","route_type":3,"route_color":"#FFFFFF","route_text_color":"#000000"},{"route_id":"19602","agency_id":"70006","route_short_name":"18","route_long_name":"Taylor","route_type":3,"route_color":"#FFFFFF","route_text_color":"#000000"}],"agency_name":"Metro St. Louis"},"geometry":{"type":"Point","coordinates":[-90.25903,38.63944]}},{"type":"Feature","properties":{"stop_id":"8012","stop_code":"8012","stop_name":"TAYLOR @ FOREST PARK SB","stop_desc":"NEAR SIDE TAYLOR @ FOREST PARK SB","wheelchair_boarding":2,"routes":[{"route_id":"19600","agency_id":"70006","route_short_name":"13","route_long_name":"Union","route_type":3,"route_color":"#FFFFFF","route_text_color":"#000000"},{"route_id":"19602","agency_id":"70006","route_short_name":"18","route_long_name":"Taylor","route_type":3,"route_color":"#FFFFFF","route_text_color":"#000000"}],"agency_name":"Metro St. Louis"},"geometry":{"type":"Point","coordinates":[-90.2593,38.63869]}},{"type":"Feature","properties":{"stop_id":"8575","stop_code":"8575","stop_name":"HARNEY @ UNION NB","stop_desc":"NEAR SIDE HARNEY @ UNION NB","wheelchair_boarding":2,"routes":[{"route_id":"19600","agency_id":"70006","route_short_name":"13","route_long_name":"Union","route_type":3,"route_color":"#FFFFFF","route_text_color":"#000000"}],"agency_name":"Metro St. Louis"},"geometry":{"type":"Point","coordinates":[-90.24174,38.69325]}},{"type":"Feature","properties":{"stop_id":"8576","stop_code":"8576","stop_name":"UNION @ THEKLA SB","stop_desc":"NEAR SIDE UNION @ THEKLA SB","wheelchair_boarding":2,"routes":[{"route_id":"19600","agency_id":"70006","route_short_name":"13","route_long_name":"Union","route_type":3,"route_color":"#FFFFFF","route_text_color":"#000000"}],"agency_name":"Metro St. Louis"},"geometry":{"type":"Point","coordinates":[-90.2445,38.69211]}},{"type":"Feature","properties":{"stop_id":"8577","stop_code":"8577","stop_name":"UNION @ LILLIAN SB","stop_desc":"NEAR SIDE UNION @ LILLIAN SB","wheelchair_boarding":1,"routes":[{"route_id":"19600","agency_id":"70006","route_short_name":"13","route_long_name":"Union","route_type":3,"route_color":"#FFFFFF","route_text_color":"#000000"}],"agency_name":"Metro St. Louis"},"geometry":{"type":"Point","coordinates":[-90.24756,38.69038]}},{"type":"Feature","properties":{"stop_id":"8578","stop_code":"8578","stop_name":"UNION @ BIRCHER SB","stop_desc":"NEAR SIDE UNION @ BIRCHER SB","wheelchair_boarding":2,"routes":[{"route_id":"19600","agency_id":"70006","route_short_name":"13","route_long_name":"Union","route_type":3,"route_color":"#FFFFFF","route_text_color":"#000000"}],"agency_name":"Metro St. Louis"},"geometry":{"type":"Point","coordinates":[-90.25011,38.68903]}},{"type":"Feature","properties":{"stop_id":"8579","stop_code":"8579","stop_name":"UNION @ BIRCHER SB","stop_desc":"FAR SIDE UNION @ BIRCHER SB","wheelchair_boarding":2,"routes":[{"route_id":"19600","agency_id":"70006","route_short_name":"13","route_long_name":"Union","route_type":3,"route_color":"#FFFFFF","route_text_color":"#000000"}],"agency_name":"Metro St. Louis"},"geometry":{"type":"Point","coordinates":[-90.25186,38.68792]}},{"type":"Feature","properties":{"stop_id":"8580","stop_code":"8580","stop_name":"UNION @ BROWN SB","stop_desc":"NEAR SIDE UNION @ BROWN SB","wheelchair_boarding":2,"routes":[{"route_id":"19600","agency_id":"70006","route_short_name":"13","route_long_name":"Union","route_type":3,"route_color":"#FFFFFF","route_text_color":"#000000"}],"agency_name":"Metro St. Louis"},"geometry":{"type":"Point","coordinates":[-90.25478,38.68421]}},{"type":"Feature","properties":{"stop_id":"8581","stop_code":"8581","stop_name":"UNION @ LEXINGTON SB","stop_desc":"FAR SIDE UNION @ LEXINGTON SB","wheelchair_boarding":1,"routes":[{"route_id":"19600","agency_id":"70006","route_short_name":"13","route_long_name":"Union","route_type":3,"route_color":"#FFFFFF","route_text_color":"#000000"}],"agency_name":"Metro St. Louis"},"geometry":{"type":"Point","coordinates":[-90.25934,38.67772]}},{"type":"Feature","properties":{"stop_id":"8582","stop_code":"8582","stop_name":"UNION @ ST. LOUIS SB","stop_desc":"NEAR SIDE UNION @ ST. LOUIS SB","wheelchair_boarding":1,"routes":[{"route_id":"19600","agency_id":"70006","route_short_name":"13","route_long_name":"Union","route_type":3,"route_color":"#FFFFFF","route_text_color":"#000000"}],"agency_name":"Metro St. Louis"},"geometry":{"type":"Point","coordinates":[-90.26155,38.67455]}},{"type":"Feature","properties":{"stop_id":"8583","stop_code":"8583","stop_name":"UNION @ TERRY SB","stop_desc":"FAR SIDE UNION @ TERRY SB","wheelchair_boarding":1,"routes":[{"route_id":"19600","agency_id":"70006","route_short_name":"13","route_long_name":"Union","route_type":3,"route_color":"#FFFFFF","route_text_color":"#000000"}],"agency_name":"Metro St. Louis"},"geometry":{"type":"Point","coordinates":[-90.26239,38.67337]}},{"type":"Feature","properties":{"stop_id":"8585","stop_code":"8585","stop_name":"UNION @ NORTHLAND SB","stop_desc":"NEAR SIDE UNION @ NORTHLAND SB","wheelchair_boarding":1,"routes":[{"route_id":"19600","agency_id":"70006","route_short_name":"13","route_long_name":"Union","route_type":3,"route_color":"#FFFFFF","route_text_color":"#000000"}],"agency_name":"Metro St. Louis"},"geometry":{"type":"Point","coordinates":[-90.26348,38.67194]}},{"type":"Feature","properties":{"stop_id":"8587","stop_code":"8587","stop_name":"UNION @ LOTUS SB","stop_desc":"FAR SIDE UNION @ LOTUS SB","wheelchair_boarding":1,"routes":[{"route_id":"19600","agency_id":"70006","route_short_name":"13","route_long_name":"Union","route_type":3,"route_color":"#FFFFFF","route_text_color":"#000000"}],"agency_name":"Metro St. Louis"},"geometry":{"type":"Point","coordinates":[-90.26578,38.66868]}},{"type":"Feature","properties":{"stop_id":"8588","stop_code":"8588","stop_name":"UNION @ PATTON SB","stop_desc":"NEAR SIDE UNION @ PATTON SB","wheelchair_boarding":2,"routes":[{"route_id":"19600","agency_id":"70006","route_short_name":"13","route_long_name":"Union","route_type":3,"route_color":"#FFFFFF","route_text_color":"#000000"}],"agency_name":"Metro St. Louis"},"geometry":{"type":"Point","coordinates":[-90.26639,38.66781]}},{"type":"Feature","properties":{"stop_id":"8589","stop_code":"8589","stop_name":"UNION @ DR ML  KING SB","stop_desc":"FAR SIDE UNION @ DR ML  KING SB","wheelchair_boarding":2,"routes":[{"route_id":"19600","agency_id":"70006","route_short_name":"13","route_long_name":"Union","route_type":3,"route_color":"#FFFFFF","route_text_color":"#000000"}],"agency_name":"Metro St. Louis"},"geometry":{"type":"Point","coordinates":[-90.26808,38.66548]}},{"type":"Feature","properties":{"stop_id":"8590","stop_code":"8590","stop_name":"UNION @ WELLS SB","stop_desc":"NEAR SIDE UNION @ WELLS SB","wheelchair_boarding":2,"routes":[{"route_id":"19600","agency_id":"70006","route_short_name":"13","route_long_name":"Union","route_type":3,"route_color":"#FFFFFF","route_text_color":"#000000"}],"agency_name":"Metro St. Louis"},"geometry":{"type":"Point","coordinates":[-90.26882,38.66469]}},{"type":"Feature","properties":{"stop_id":"8591","stop_code":"8591","stop_name":"UNION @ RIDGE SB","stop_desc":"NEAR SIDE UNION @ RIDGE SB","wheelchair_boarding":2,"routes":[{"route_id":"19600","agency_id":"70006","route_short_name":"13","route_long_name":"Union","route_type":3,"route_color":"#FFFFFF","route_text_color":"#000000"}],"agency_name":"Metro St. Louis"},"geometry":{"type":"Point","coordinates":[-90.26984,38.66355]}},{"type":"Feature","properties":{"stop_id":"8593","stop_code":"8593","stop_name":"UNION @ PAGE SB","stop_desc":"NEAR SIDE UNION @ PAGE SB","wheelchair_boarding":2,"routes":[{"route_id":"19600","agency_id":"70006","route_short_name":"13","route_long_name":"Union","route_type":3,"route_color":"#FFFFFF","route_text_color":"#000000"}],"agency_name":"Metro St. Louis"},"geometry":{"type":"Point","coordinates":[-90.27187,38.6613]}},{"type":"Feature","properties":{"stop_id":"8594","stop_code":"8594","stop_name":"UNION @ MAPLE SB","stop_desc":"NEAR SIDE UNION @ MAPLE SB","wheelchair_boarding":2,"routes":[{"route_id":"19600","agency_id":"70006","route_short_name":"13","route_long_name":"Union","route_type":3,"route_color":"#FFFFFF","route_text_color":"#000000"}],"agency_name":"Metro St. Louis"},"geometry":{"type":"Point","coordinates":[-90.27222,38.6599]}},{"type":"Feature","properties":{"stop_id":"8595","stop_code":"8595","stop_name":"UNION @ CABANNE SB","stop_desc":"FAR SIDE UNION @ CABANNE SB","wheelchair_boarding":2,"routes":[{"route_id":"19600","agency_id":"70006","route_short_name":"13","route_long_name":"Union","route_type":3,"route_color":"#FFFFFF","route_text_color":"#000000"}],"agency_name":"Metro St. Louis"},"geometry":{"type":"Point","coordinates":[-90.27271,38.65729]}},{"type":"Feature","properties":{"stop_id":"8596","stop_code":"8596","stop_name":"UNION @ CATES SB","stop_desc":"FAR SIDE UNION @ CATES SB","wheelchair_boarding":1,"routes":[{"route_id":"19600","agency_id":"70006","route_short_name":"13","route_long_name":"Union","route_type":3,"route_color":"#FFFFFF","route_text_color":"#000000"}],"agency_name":"Metro St. Louis"},"geometry":{"type":"Point","coordinates":[-90.27296,38.6558]}},{"type":"Feature","properties":{"stop_id":"8597","stop_code":"8597","stop_name":"UNION @ ENRIGHT SB","stop_desc":"NEAR SIDE UNION @ ENRIGHT SB","wheelchair_boarding":2,"routes":[{"route_id":"19600","agency_id":"70006","route_short_name":"13","route_long_name":"Union","route_type":3,"route_color":"#FFFFFF","route_text_color":"#000000"}],"agency_name":"Metro St. Louis"},"geometry":{"type":"Point","coordinates":[-90.27315,38.65436]}},{"type":"Feature","properties":{"stop_id":"8598","stop_code":"8598","stop_name":"UNION @ DELMAR SB","stop_desc":"NEAR SIDE UNION @ DELMAR SB","wheelchair_boarding":1,"routes":[{"route_id":"19600","agency_id":"70006","route_short_name":"13","route_long_name":"Union","route_type":3,"route_color":"#FFFFFF","route_text_color":"#000000"}],"agency_name":"Metro St. Louis"},"geometry":{"type":"Point","coordinates":[-90.27343,38.65292]}},{"type":"Feature","properties":{"stop_id":"8599","stop_code":"8599","stop_name":"UNION @ WASHINGTON TERRACE SB","stop_desc":"NEAR SIDE UNION @ WASHINGTON TERRACE SB","wheelchair_boarding":2,"routes":[{"route_id":"19600","agency_id":"70006","route_short_name":"13","route_long_name":"Union","route_type":3,"route_color":"#FFFFFF","route_text_color":"#000000"}],"agency_name":"Metro St. Louis"},"geometry":{"type":"Point","coordinates":[-90.27362,38.65189]}},{"type":"Feature","properties":{"stop_id":"9543","stop_code":"9543","stop_name":"LINDELL @ EUCLID EB","stop_desc":"NEAR SIDE LINDELL @ EUCLID EB","wheelchair_boarding":1,"routes":[{"route_id":"19598","agency_id":"70006","route_short_name":"10","route_long_name":"Gravois-Lindell","route_type":3,"route_color":"#FFFFFF","route_text_color":"#000000"},{"route_id":"19600","agency_id":"70006","route_short_name":"13","route_long_name":"Union","route_type":3,"route_color":"#FFFFFF","route_text_color":"#000000"}],"agency_name":"Metro St. Louis"},"geometry":{"type":"Point","coordinates":[-90.26211,38.64327]}}]}