{"type":"FeatureCollection","features":[{"type":"Feature","properties":{"agency_name":"Metro St. Louis","route_id":"19603","agency_id":"70006","route_short_name":"19","route_long_name":"St Louis Ave","route_type":3,"route_color":"#FFFFFF","route_text_color":"#000000"},"geometry":{"type":"MultiLineString","coordinates":[[[-90.30172,38.6856],[-90.30161,38.68505],[-90.30172,38.6856],[-90.30182,38.68564],[-90.30225,38.68562],[-90.30256,38.68527],[-90.30272,38.68506],[-90.30271,38.68495],[-90.30255,38.68486],[-90.30283,38.68454],[-90.30149,38.68383],[-90.30114,38.68363],[-90.29861,38.68234],[-90.29631,38.68111],[-90.29402,38.67992],[-90.29209,38.67886],[-90.29023,38.67789],[-90.27939,38.67208],[-90.27569,38.67754],[-90.27488,38.6787],[-90.2746,38.67914],[-90.27369,38.67966],[-90.27309,38.67942],[-90.27107,38.6788],[-90.26852,38.67767],[-90.26769,38.6773],[-90.26732,38.67677],[-90.26476,38.67562],[-90.26357,38.67511],[-90.26176,38.67429],[-90.25973,38.67341],[-90.25266,38.67029],[-90.25252,38.67021],[-90.25233,38.67003],[-90.25205,38.66957],[-90.25185,38.6693],[-90.25165,38.66909],[-90.25151,38.669],[-90.25063,38.66863],[-90.2367,38.66255],[-90.23551,38.66206],[-90.22448,38.65723],[-90.22433,38.65715],[-90.22426,38.65708],[-90.22402,38.65664],[-90.22384,38.65626],[-90.22289,38.65583],[-90.22076,38.6549],[-90.21754,38.65336],[-90.21734,38.65333],[-90.2172,38.65333],[-90.21316,38.65337],[-90.2127,38.65332],[-90.20363,38.65141],[-90.19998,38.65062],[-90.19973,38.65066],[-90.19927,38.65077],[-90.19766,38.65127],[-90.19609,38.65085],[-90.19413,38.64691],[-90.19353,38.64575],[-90.19289,38.64461],[-90.19286,38.64448],[-90.19287,38.64436],[-90.19366,38.6421],[-90.19382,38.64183],[-90.1939,38.64149],[-90.19404,38.64115],[-90.19457,38.63963],[-90.1946,38.63939],[-90.19451,38.63897],[-90.19421,38.63859],[-90.19448,38.6382],[-90.19466,38.6378],[-90.19479,38.63735],[-90.19488,38.63714],[-90.19547,38.63537],[-90.19585,38.63429],[-90.19613,38.63322],[-90.19633,38.63276],[-90.19673,38.63176],[-90.19692,38.63121],[-90.19712,38.63048],[-90.19771,38.62897],[-90.19801,38.62813],[-90.19822,38.62744],[-90.19856,38.62658],[-90.19954,38.6243],[-90.2017,38.62481],[-90.20204,38.62485],[-90.20225,38.62487],[-90.2024,38.62487],[-90.20249,38.62485],[-90.20257,38.62481],[-90.20263,38.62466]]]}},{"type":"Feature","properties":{"stop_id":"13276","stop_code":"13276","stop_name":"ST. CHARLES ROCK ROAD @ LULU EB","stop_desc":"NEAR SIDE ST. CHARLES ROCK ROAD @ LULU EB","wheelchair_boarding":1,"routes":[{"route_id":"19603","agency_id":"70006","route_short_name":"19","route_long_name":"St Louis Ave","route_type":3,"route_color":"#FFFFFF","route_text_color":"#000000"},{"route_id":"19607","agency_id":"70006","route_short_name":"32","route_long_name":"Dr ML King","route_type":3,"route_color":"#FFFFFF","route_text_color":"#000000"},{"route_id":"19621","agency_id":"70006","route_short_name":"64","route_long_name":"Lucas-Hunt","route_type":3,"route_color":"#FFFFFF","route_text_color":"#000000"}],"agency_name":"Metro St. Louis"},"geometry":{"type":"Point","coordinates":[-90.29904,38.68248]}},{"type":"Feature","properties":{"stop_id":"13277","stop_code":"13277","stop_name":"ST. CHARLES ROCK ROAD @ LUCAS HUNT EB","stop_desc":"NEAR SIDE ST. CHARLES ROCK ROAD @ LUCAS HUNT EB","wheelchair_boarding":1,"routes":[{"route_id":"19603","agency_id":"70006","route_short_name":"19","route_long_name":"St Louis Ave","route_type":3,"route_color":"#FFFFFF","route_text_color":"#000000"},{"route_id":"19607","agency_id":"70006","route_short_name":"32","route_long_name":"Dr ML King","route_type":3,"route_color":"#FFFFFF","route_text_color":"#000000"}],"agency_name":"Metro St. Louis"},"geometry":{"type":"Point","coordinates":[-90.29632,38.68108]}},{"type":"Feature","properties":{"stop_id":"13283","stop_code":"13283","stop_name":"DR ML KING @ OGDEN EB","stop_desc":"FAR SIDE DR ML KING @ OGDEN EB","wheelchair_boarding":1,"routes":[{"route_id":"19603","agency_id":"70006","route_short_name":"19","route_long_name":"St Louis Ave","route_type":3,"route_color":"#FFFFFF","route_text_color":"#000000"},{"route_id":"19607","agency_id":"70006","route_short_name":"32","route_long_name":"Dr ML King","route_type":3,"route_color":"#FFFFFF","route_text_color":"#000000"}],"agency_name":"Metro St. Louis"},"geometry":{"type":"Point","coordinates":[-90.29193,38.67875]}},{"type":"Feature","properties":{"stop_id":"13285","stop_code":"13285","stop_name":"DR ML KING @ KIENLEN EB","stop_desc":"NEAR SIDE DR ML KING @ KIENLEN EB","wheelchair_boarding":1,"routes":[{"route_id":"19603","agency_id":"70006","route_short_name":"19","route_long_name":"St Louis Ave","route_type":3,"route_color":"#FFFFFF","route_text_color":"#000000"},{"route_id":"19607","agency_id":"70006","route_short_name":"32","route_long_name":"Dr ML King","route_type":3,"route_color":"#FFFFFF","route_text_color":"#000000"}],"agency_name":"Metro St. Louis"},"geometry":{"type":"Point","coordinates":[-90.28744,38.67634]}},{"type":"Feature","properties":{"stop_id":"13473","stop_code":"13473","stop_name":"TUCKER @ WALNUT SB","stop_desc":"FAR SIDE TUCKER @ WALNUT SB","wheelchair_boarding":1,"routes":[{"route_id":"19603","agency_id":"70006","route_short_name":"19","route_long_name":"St Louis Ave","route_type":3,"route_color":"#FFFFFF","route_text_color":"#000000"}],"agency_name":"Metro St. Louis"},"geometry":{"type":"Point","coordinates":[-90.19884,38.6265]}},{"type":"Feature","properties":{"stop_id":"13475","stop_code":"13475","stop_name":"SPRUCE @ 14TH STREET WB","stop_desc":"NEAR SIDE SPRUCE @ 14TH STREET WB","wheelchair_boarding":1,"routes":[{"route_id":"19603","agency_id":"70006","route_short_name":"19","route_long_name":"St Louis Ave","route_type":3,"route_color":"#FFFFFF","route_text_color":"#000000"}],"agency_name":"Metro St. Louis"},"geometry":{"type":"Point","coordinates":[-90.20184,38.62495]}},{"type":"Feature","properties":{"stop_id":"13824","stop_code":"13824","stop_name":"13TH STREET @ WARREN SB","stop_desc":"NEAR SIDE 13TH STREET @ WARREN SB","wheelchair_boarding":1,"routes":[{"route_id":"19603","agency_id":"70006","route_short_name":"19","route_long_name":"St Louis Ave","route_type":3,"route_color":"#FFFFFF","route_text_color":"#000000"}],"agency_name":"Metro St. Louis"},"geometry":{"type":"Point","coordinates":[-90.19586,38.65024]}},{"type":"Feature","properties":{"stop_id":"13825","stop_code":"13825","stop_name":"13TH STREET @ NORTH MARKET SB","stop_desc":"NEAR SIDE 13TH STREET @ NORTH MARKET SB","wheelchair_boarding":2,"routes":[{"route_id":"19603","agency_id":"70006","route_short_name":"19","route_long_name":"St Louis Ave","route_type":3,"route_color":"#FFFFFF","route_text_color":"#000000"}],"agency_name":"Metro St. Louis"},"geometry":{"type":"Point","coordinates":[-90.19507,38.64868]}},{"type":"Feature","properties":{"stop_id":"13826","stop_code":"13826","stop_name":"13TH STREET @ CLINTON SB","stop_desc":"FAR SIDE 13TH STREET @ CLINTON SB","wheelchair_boarding":1,"routes":[{"route_id":"19603","agency_id":"70006","route_short_name":"19","route_long_name":"St Louis Ave","route_type":3,"route_color":"#FFFFFF","route_text_color":"#000000"}],"agency_name":"Metro St. Louis"},"geometry":{"type":"Point","coordinates":[-90.19411,38.64677]}},{"type":"Feature","properties":{"stop_id":"13828","stop_code":"13828","stop_name":"13TH STREET @ TYLER SB","stop_desc":"NEAR SIDE 13TH STREET @ TYLER SB","wheelchair_boarding":2,"routes":[{"route_id":"19603","agency_id":"70006","route_short_name":"19","route_long_name":"St Louis Ave","route_type":3,"route_color":"#FFFFFF","route_text_color":"#000000"}],"agency_name":"Metro St. Louis"},"geometry":{"type":"Point","coordinates":[-90.19307,38.6448]}},{"type":"Feature","properties":{"stop_id":"14304","stop_code":"14304","stop_name":"DR ML KING @ WELLSTON PLACE EB","stop_desc":"FAR SIDE DR ML KING @ WELLSTON PLACE EB","wheelchair_boarding":1,"routes":[{"route_id":"19603","agency_id":"70006","route_short_name":"19","route_long_name":"St Louis Ave","route_type":3,"route_color":"#FFFFFF","route_text_color":"#000000"},{"route_id":"19607","agency_id":"70006","route_short_name":"32","route_long_name":"Dr ML King","route_type":3,"route_color":"#FFFFFF","route_text_color":"#000000"}],"agency_name":"Metro St. Louis"},"geometry":{"type":"Point","coordinates":[-90.28916,38.67728]}},{"type":"Feature","properties":{"stop_id":"16388","stop_code":"16388","stop_name":"13TH STREET @ TUCKER SB","stop_desc":"NEAR SIDE 13TH STREET @ TUCKER SB","wheelchair_boarding":1,"routes":[{"route_id":"19603","agency_id":"70006","route_short_name":"19","route_long_name":"St Louis Ave","route_type":3,"route_color":"#FFFFFF","route_text_color":"#000000"}],"agency_name":"Metro St. Louis"},"geometry":{"type":"Point","coordinates":[-90.19457,38.63873]}},{"type":"Feature","properties":{"stop_id":"1660","stop_code":"1660","stop_name":"TUCKER @ ST. CHARLES SB","stop_desc":"FAR SIDE TUCKER @ ST. CHARLES SB","wheelchair_boarding":1,"routes":[{"route_id":"19603","agency_id":"70006","route_short_name":"19","route_long_name":"St Louis Ave","route_type":3,"route_color":"#FFFFFF","route_text_color":"#000000"},{"route_id":"19607","agency_id":"70006","route_short_name":"32","route_long_name":"Dr ML King","route_type":3,"route_color":"#FFFFFF","route_text_color":"#000000"}],"agency_name":"Metro St. Louis"},"geometry":{"type":"Point","coordinates":[-90.19716,38.63108]}},{"type":"Feature","properties":{"stop_id":"1661","stop_code":"1661","stop_name":"TUCKER @ PINE SB","stop_desc":"NEAR SIDE TUCKER @ PINE SB","wheelchair_boarding":1,"routes":[{"route_id":"19603","agency_id":"70006","route_short_name":"19","route_long_name":"St Louis Ave","route_type":3,"route_color":"#FFFFFF","route_text_color":"#000000"}],"agency_name":"Metro St. Louis"},"geometry":{"type":"Point","coordinates":[-90.19779,38.6293]}},{"type":"Feature","properties":{"stop_id":"1663","stop_code":"1663","stop_name":"TUCKER @ SPRUCE SB","stop_desc":"NEAR SIDE TUCKER @ SPRUCE SB","wheelchair_boarding":1,"routes":[{"route_id":"19603","agency_id":"70006","route_short_name":"19","route_long_name":"St Louis Ave","route_type":3,"route_color":"#FFFFFF","route_text_color":"#000000"}],"agency_name":"Metro St. Louis"},"geometry":{"type":"Point","coordinates":[-90.19958,38.62457]}},{"type":"Feature","properties":{"stop_id":"3809","stop_code":"3809","stop_name":"13TH STREET @ CASS SB","stop_desc":"FAR SIDE 13TH STREET @ CASS SB","wheelchair_boarding":2,"routes":[{"route_id":"19603","agency_id":"70006","route_short_name":"19","route_long_name":"St Louis Ave","route_type":3,"route_color":"#FFFFFF","route_text_color":"#000000"}],"agency_name":"Metro St. Louis"},"geometry":{"type":"Point","coordinates":[-90.19431,38.64082]}},{"type":"Feature","properties":{"stop_id":"6362","stop_code":"6362","stop_name":"ST. LOUIS @ 23RD STREET EB","stop_desc":"NEAR SIDE ST. LOUIS @ 23RD STREET EB","wheelchair_boarding":2,"routes":[{"route_id":"19603","agency_id":"70006","route_short_name":"19","route_long_name":"St Louis Ave","route_type":3,"route_color":"#FFFFFF","route_text_color":"#000000"},{"route_id":"19612","agency_id":"70006","route_short_name":"41","route_long_name":"Lee","route_type":3,"route_color":"#FFFFFF","route_text_color":"#000000"}],"agency_name":"Metro St. Louis"},"geometry":{"type":"Point","coordinates":[-90.20747,38.65212]}},{"type":"Feature","properties":{"stop_id":"7211","stop_code":"7211","stop_name":"DR ML KING @ HAMILTON EB","stop_desc":"FAR SIDE DR ML KING @ HAMILTON EB","wheelchair_boarding":1,"routes":[{"route_id":"19603","agency_id":"70006","route_short_name":"19","route_long_name":"St Louis Ave","route_type":3,"route_color":"#FFFFFF","route_text_color":"#000000"},{"route_id":"19607","agency_id":"70006","route_short_name":"32","route_long_name":"Dr ML King","route_type":3,"route_color":"#FFFFFF","route_text_color":"#000000"}],"agency_name":"Metro St. Louis"},"geometry":{"type":"Point","coordinates":[-90.28278,38.67383]}},{"type":"Feature","properties":{"stop_id":"7214","stop_code":"7214","stop_name":"GOODFELLOW @ THEODOSIA NB","stop_desc":"NEAR SIDE GOODFELLOW @ THEODOSIA NB","wheelchair_boarding":2,"routes":[{"route_id":"19603","agency_id":"70006","route_short_name":"19","route_long_name":"St Louis Ave","route_type":3,"route_color":"#FFFFFF","route_text_color":"#000000"},{"route_id":"19629","agency_id":"70006","route_short_name":"90","route_long_name":"Hampton","route_type":3,"route_color":"#FFFFFF","route_text_color":"#000000"}],"agency_name":"Metro St. Louis"},"geometry":{"type":"Point","coordinates":[-90.27866,38.67296]}},{"type":"Feature","properties":{"stop_id":"7215","stop_code":"7215","stop_name":"GOODFELLOW @ LOTUS NB","stop_desc":"FAR SIDE GOODFELLOW @ LOTUS NB","wheelchair_boarding":2,"routes":[{"route_id":"19603","agency_id":"70006","route_short_name":"19","route_long_name":"St Louis Ave","route_type":3,"route_color":"#FFFFFF","route_text_color":"#000000"},{"route_id":"19629","agency_id":"70006","route_short_name":"90","route_long_name":"Hampton","route_type":3,"route_color":"#FFFFFF","route_text_color":"#000000"}],"agency_name":"Metro St. Louis"},"geometry":{"type":"Point","coordinates":[-90.27751,38.6748]}},{"type":"Feature","properties":{"stop_id":"7216","stop_code":"7216","stop_name":"GOODFELLOW @ HIGHLAND NB","stop_desc":"NEAR SIDE GOODFELLOW @ HIGHLAND NB","wheelchair_boarding":2,"routes":[{"route_id":"19603","agency_id":"70006","route_short_name":"19","route_long_name":"St Louis Ave","route_type":3,"route_color":"#FFFFFF","route_text_color":"#000000"},{"route_id":"19629","agency_id":"70006","route_short_name":"90","route_long_name":"Hampton","route_type":3,"route_color":"#FFFFFF","route_text_color":"#000000"}],"agency_name":"Metro St. Louis"},"geometry":{"type":"Point","coordinates":[-90.27664,38.67608]}},{"type":"Feature","properties":{"stop_id":"7217","stop_code":"7217","stop_name":"GOODFELLOW @ KENNERLY NB","stop_desc":"FAR SIDE GOODFELLOW @ KENNERLY NB","wheelchair_boarding":1,"routes":[{"route_id":"19603","agency_id":"70006","route_short_name":"19","route_long_name":"St Louis Ave","route_type":3,"route_color":"#FFFFFF","route_text_color":"#000000"},{"route_id":"19629","agency_id":"70006","route_short_name":"90","route_long_name":"Hampton","route_type":3,"route_color":"#FFFFFF","route_text_color":"#000000"}],"agency_name":"Metro St. Louis"},"geometry":{"type":"Point","coordinates":[-90.27597,38.67704]}},{"type":"Feature","properties":{"stop_id":"7219","stop_code":"7219","stop_name":"GOODFELLOW @ TERRY NB","stop_desc":"FAR SIDE GOODFELLOW @ TERRY NB","wheelchair_boarding":2,"routes":[{"route_id":"19603","agency_id":"70006","route_short_name":"19","route_long_name":"St Louis Ave","route_type":3,"route_color":"#FFFFFF","route_text_color":"#000000"},{"route_id":"19629","agency_id":"70006","route_short_name":"90","route_long_name":"Hampton","route_type":3,"route_color":"#FFFFFF","route_text_color":"#000000"}],"agency_name":"Metro St. Louis"},"geometry":{"type":"Point","coordinates":[-90.27504,38.67846]}},{"type":"Feature","properties":{"stop_id":"7220","stop_code":"7220","stop_name":"ST. LOUIS @ GOODFELLOW EB","stop_desc":"FAR SIDE ST. LOUIS @ GOODFELLOW EB","wheelchair_boarding":1,"routes":[{"route_id":"19603","agency_id":"70006","route_short_name":"19","route_long_name":"St Louis Ave","route_type":3,"route_color":"#FFFFFF","route_text_color":"#000000"}],"agency_name":"Metro St. Louis"},"geometry":{"type":"Point","coordinates":[-90.27387,38.6797]}},{"type":"Feature","properties":{"stop_id":"7222","stop_code":"7222","stop_name":"ST. LOUIS @ CLARA EB","stop_desc":"FAR SIDE ST. LOUIS @ CLARA EB","wheelchair_boarding":2,"routes":[{"route_id":"19603","agency_id":"70006","route_short_name":"19","route_long_name":"St Louis Ave","route_type":3,"route_color":"#FFFFFF","route_text_color":"#000000"}],"agency_name":"Metro St. Louis"},"geometry":{"type":"Point","coordinates":[-90.26964,38.67815]}},{"type":"Feature","properties":{"stop_id":"7224","stop_code":"7224","stop_name":"ST. LOUIS @ BELT EB","stop_desc":"FAR SIDE ST. LOUIS @ BELT EB","wheelchair_boarding":2,"routes":[{"route_id":"19603","agency_id":"70006","route_short_name":"19","route_long_name":"St Louis Ave","route_type":3,"route_color":"#FFFFFF","route_text_color":"#000000"}],"agency_name":"Metro St. Louis"},"geometry":{"type":"Point","coordinates":[-90.26705,38.6766]}},{"type":"Feature","properties":{"stop_id":"7226","stop_code":"7226","stop_name":"ST. LOUIS @ ARLINGTON EB","stop_desc":"FAR SIDE ST. LOUIS @ ARLINGTON EB","wheelchair_boarding":2,"routes":[{"route_id":"19603","agency_id":"70006","route_short_name":"19","route_long_name":"St Louis Ave","route_type":3,"route_color":"#FFFFFF","route_text_color":"#000000"}],"agency_name":"Metro St. Louis"},"geometry":{"type":"Point","coordinates":[-90.26452,38.67548]}},{"type":"Feature","properties":{"stop_id":"7228","stop_code":"7228","stop_name":"ST. LOUIS @ UNION EB","stop_desc":"NEAR SIDE ST. LOUIS @ UNION EB","wheelchair_boarding":1,"routes":[{"route_id":"19603","agency_id":"70006","route_short_name":"19","route_long_name":"St Louis Ave","route_type":3,"route_color":"#FFFFFF","route_text_color":"#000000"}],"agency_name":"Metro St. Louis"},"geometry":{"type":"Point","coordinates":[-90.26197,38.67436]}},{"type":"Feature","properties":{"stop_id":"7229","stop_code":"7229","stop_name":"ST. LOUIS @ NORWOOD EB","stop_desc":"FAR SIDE ST. LOUIS @ NORWOOD EB","wheelchair_boarding":2,"routes":[{"route_id":"19603","agency_id":"70006","route_short_name":"19","route_long_name":"St Louis Ave","route_type":3,"route_color":"#FFFFFF","route_text_color":"#000000"}],"agency_name":"Metro St. Louis"},"geometry":{"type":"Point","coordinates":[-90.25961,38.67332]}},{"type":"Feature","properties":{"stop_id":"7231","stop_code":"7231","stop_name":"ST. LOUIS @ KINGSHIGHWAY EB","stop_desc":"NEAR SIDE ST. LOUIS @ KINGSHIGHWAY EB","wheelchair_boarding":2,"routes":[{"route_id":"19603","agency_id":"70006","route_short_name":"19","route_long_name":"St Louis Ave","route_type":3,"route_color":"#FFFFFF","route_text_color":"#000000"}],"agency_name":"Metro St. Louis"},"geometry":{"type":"Point","coordinates":[-90.25558,38.67153]}},{"type":"Feature","properties":{"stop_id":"7232","stop_code":"7232","stop_name":"ST. LOUIS @ EUCLID EB","stop_desc":"NEAR SIDE ST. LOUIS @ EUCLID EB","wheelchair_boarding":1,"routes":[{"route_id":"19603","agency_id":"70006","route_short_name":"19","route_long_name":"St Louis Ave","route_type":3,"route_color":"#FFFFFF","route_text_color":"#000000"}],"agency_name":"Metro St. Louis"},"geometry":{"type":"Point","coordinates":[-90.25298,38.6704]}},{"type":"Feature","properties":{"stop_id":"7233","stop_code":"7233","stop_name":"4844 ST. LOUIS EB","stop_desc":"MID-BLOCK 4844 ST. LOUIS EB","wheelchair_boarding":2,"routes":[{"route_id":"19603","agency_id":"70006","route_short_name":"19","route_long_name":"St Louis Ave","route_type":3,"route_color":"#FFFFFF","route_text_color":"#000000"}],"agency_name":"Metro St. Louis"},"geometry":{"type":"Point","coordinates":[-90.25182,38.66921]}},{"type":"Feature","properties":{"stop_id":"7235","stop_code":"7235","stop_name":"ST. LOUIS @ MARCUS EB","stop_desc":"NEAR SIDE ST. LOUIS @ MARCUS EB","wheelchair_boarding":1,"routes":[{"route_id":"19603","agency_id":"70006","route_short_name":"19","route_long_name":"St Louis Ave","route_type":3,"route_color":"#FFFFFF","route_text_color":"#000000"}],"agency_name":"Metro St. Louis"},"geometry":{"type":"Point","coordinates":[-90.24848,38.66763]}},{"type":"Feature","properties":{"stop_id":"7236","stop_code":"7236","stop_name":"ST. LOUIS @ CORA EB","stop_desc":"NEAR SIDE ST. LOUIS @ CORA EB","wheelchair_boarding":2,"routes":[{"route_id":"19603","agency_id":"70006","route_short_name":"19","route_long_name":"St Louis Ave","route_type":3,"route_color":"#FFFFFF","route_text_color":"#000000"}],"agency_name":"Metro St. Louis"},"geometry":{"type":"Point","coordinates":[-90.24684,38.66693]}},{"type":"Feature","properties":{"stop_id":"7237","stop_code":"7237","stop_name":"ST. LOUIS @ TAYLOR EB","stop_desc":"NEAR SIDE ST. LOUIS @ TAYLOR EB","wheelchair_boarding":1,"routes":[{"route_id":"19603","agency_id":"70006","route_short_name":"19","route_long_name":"St Louis Ave","route_type":3,"route_color":"#FFFFFF","route_text_color":"#000000"}],"agency_name":"Metro St. Louis"},"geometry":{"type":"Point","coordinates":[-90.2431,38.66531]}},{"type":"Feature","properties":{"stop_id":"7238","stop_code":"7238","stop_name":"ST. LOUIS @ NEWSTEAD EB","stop_desc":"FAR SIDE ST. LOUIS @ NEWSTEAD EB","wheelchair_boarding":1,"routes":[{"route_id":"19603","agency_id":"70006","route_short_name":"19","route_long_name":"St Louis Ave","route_type":3,"route_color":"#FFFFFF","route_text_color":"#000000"}],"agency_name":"Metro St. Louis"},"geometry":{"type":"Point","coordinates":[-90.24008,38.66398]}},{"type":"Feature","properties":{"stop_id":"7240","stop_code":"7240","stop_name":"ST. LOUIS @ LAMBDIN EB","stop_desc":"NEAR SIDE ST. LOUIS @ LAMBDIN EB","wheelchair_boarding":2,"routes":[{"route_id":"19603","agency_id":"70006","route_short_name":"19","route_long_name":"St Louis Ave","route_type":3,"route_color":"#FFFFFF","route_text_color":"#000000"}],"agency_name":"Metro St. Louis"},"geometry":{"type":"Point","coordinates":[-90.23743,38.66282]}},{"type":"Feature","properties":{"stop_id":"7241","stop_code":"7241","stop_name":"ST. LOUIS @ WHITTIER EB","stop_desc":"NEAR SIDE ST. LOUIS @ WHITTIER EB","wheelchair_boarding":1,"routes":[{"route_id":"19603","agency_id":"70006","route_short_name":"19","route_long_name":"St Louis Ave","route_type":3,"route_color":"#FFFFFF","route_text_color":"#000000"}],"agency_name":"Metro St. Louis"},"geometry":{"type":"Point","coordinates":[-90.23368,38.66119]}},{"type":"Feature","properties":{"stop_id":"7242","stop_code":"7242","stop_name":"ST. LOUIS @ SARAH EB","stop_desc":"NEAR SIDE ST. LOUIS @ SARAH EB","wheelchair_boarding":2,"routes":[{"route_id":"19603","agency_id":"70006","route_short_name":"19","route_long_name":"St Louis Ave","route_type":3,"route_color":"#FFFFFF","route_text_color":"#000000"}],"agency_name":"Metro St. Louis"},"geometry":{"type":"Point","coordinates":[-90.23155,38.66027]}},{"type":"Feature","properties":{"stop_id":"7243","stop_code":"7243","stop_name":"ST. LOUIS @ BISHOP PL SCOTT EB","stop_desc":"FAR SIDE ST. LOUIS @ BISHOP PL SCOTT EB","wheelchair_boarding":2,"routes":[{"route_id":"19603","agency_id":"70006","route_short_name":"19","route_long_name":"St Louis Ave","route_type":3,"route_color":"#FFFFFF","route_text_color":"#000000"}],"agency_name":"Metro St. Louis"},"geometry":{"type":"Point","coordinates":[-90.22932,38.6593]}},{"type":"Feature","properties":{"stop_id":"7244","stop_code":"7244","stop_name":"ST. LOUIS @ VANDEVENTER EB","stop_desc":"NEAR SIDE ST. LOUIS @ VANDEVENTER EB","wheelchair_boarding":1,"routes":[{"route_id":"19603","agency_id":"70006","route_short_name":"19","route_long_name":"St Louis Ave","route_type":3,"route_color":"#FFFFFF","route_text_color":"#000000"}],"agency_name":"Metro St. Louis"},"geometry":{"type":"Point","coordinates":[-90.22707,38.65831]}},{"type":"Feature","properties":{"stop_id":"7245","stop_code":"7245","stop_name":"ST. LOUIS @ PRAIRIE EB","stop_desc":"FAR SIDE ST. LOUIS @ PRAIRIE EB","wheelchair_boarding":2,"routes":[{"route_id":"19603","agency_id":"70006","route_short_name":"19","route_long_name":"St Louis Ave","route_type":3,"route_color":"#FFFFFF","route_text_color":"#000000"}],"agency_name":"Metro St. Louis"},"geometry":{"type":"Point","coordinates":[-90.22418,38.65676]}},{"type":"Feature","properties":{"stop_id":"7247","stop_code":"7247","stop_name":"ST. LOUIS @ GRAND EB","stop_desc":"FAR SIDE ST. LOUIS @ GRAND EB","wheelchair_boarding":1,"routes":[{"route_id":"19603","agency_id":"70006","route_short_name":"19","route_long_name":"St Louis Ave","route_type":3,"route_color":"#FFFFFF","route_text_color":"#000000"}],"agency_name":"Metro St. Louis"},"geometry":{"type":"Point","coordinates":[-90.22089,38.65486]}},{"type":"Feature","properties":{"stop_id":"7249","stop_code":"7249","stop_name":"ST. LOUIS @ GLASGOW EB","stop_desc":"NEAR SIDE ST. LOUIS @ GLASGOW EB","wheelchair_boarding":1,"routes":[{"route_id":"19603","agency_id":"70006","route_short_name":"19","route_long_name":"St Louis Ave","route_type":3,"route_color":"#FFFFFF","route_text_color":"#000000"}],"agency_name":"Metro St. Louis"},"geometry":{"type":"Point","coordinates":[-90.21819,38.65358]}},{"type":"Feature","properties":{"stop_id":"7409","stop_code":"7409","stop_name":"DR ML KING @ HODIAMONT EB","stop_desc":"FAR SIDE DR ML KING @ HODIAMONT EB","wheelchair_boarding":1,"routes":[{"route_id":"19603","agency_id":"70006","route_short_name":"19","route_long_name":"St Louis Ave","route_type":3,"route_color":"#FFFFFF","route_text_color":"#000000"},{"route_id":"19607","agency_id":"70006","route_short_name":"32","route_long_name":"Dr ML King","route_type":3,"route_color":"#FFFFFF","route_text_color":"#000000"}],"agency_name":"Metro St. Louis"},"geometry":{"type":"Point","coordinates":[-90.28557,38.67535]}},{"type":"Feature","properties":{"stop_id":"7424","stop_code":"7424","stop_name":"ROCK ROAD TRANSIT CENTER","wheelchair_boarding":1,"routes":[{"route_id":"19593","agency_id":"70006","route_short_name":"2","route_long_name":"Red","route_type":3,"route_color":"#FFFFFF","route_text_color":"#000000"},{"route_id":"19603","agency_id":"70006","route_short_name":"19","route_long_name":"St Louis Ave","route_type":3,"route_color":"#FFFFFF","route_text_color":"#000000"},{"route_id":"19607","agency_id":"70006","route_short_name":"32","route_long_name":"Dr ML King","route_type":3,"route_color":"#FFFFFF","route_text_color":"#000000"},{"route_id":"19610","agency_id":"70006","route_short_name":"35","route_long_name":"Rock Road","route_type":3,"route_color":"#FFFFFF","route_text_color":"#000000"},{"route_id":"19621","agency_id":"70006","route_short_name":"64","route_long_name":"Lucas-Hunt","route_type":3,"route_color":"#FFFFFF","route_text_color":"#000000"}],"agency_name":"Metro St. Louis"},"geometry":{"type":"Point","coordinates":[-90.30164,38.68516]}},{"type":"Feature","properties":{"stop_id":"7653","stop_code":"7653","stop_name":"CIVIC CENTER TRANSIT CENTER","wheelchair_boarding":1,"routes":[{"route_id":"19594","agency_id":"70006","route_short_name":"4","route_long_name":"Natural Bridge","route_type":3,"route_color":"#FFFFFF","route_text_color":"#000000"},{"route_id":"19598","agency_id":"70006","route_short_name":"10","route_long_name":"Gravois-Lindell","route_type":3,"route_color":"#FFFFFF","route_text_color":"#000000"},{"route_id":"19599","agency_id":"70006","route_short_name":"11","route_long_name":"Chippewa","route_type":3,"route_color":"#FFFFFF","route_text_color":"#000000"},{"route_id":"19603","agency_id":"70006","route_short_name":"19","route_long_name":"St Louis Ave","route_type":3,"route_color":"#FFFFFF","route_text_color":"#000000"}],"agency_name":"Metro St. Louis"},"geometry":{"type":"Point","coordinates":[-90.20281,38.62428]}},{"type":"Feature","properties":{"stop_id":"7964","stop_code":"7964","stop_name":"ST. LOUIS @ PARNELL EB","stop_desc":"NEAR SIDE ST. LOUIS @ PARNELL EB","wheelchair_boarding":2,"routes":[{"route_id":"19603","agency_id":"70006","route_short_name":"19","route_long_name":"St Louis Ave","route_type":3,"route_color":"#FFFFFF","route_text_color":"#000000"}],"agency_name":"Metro St. Louis"},"geometry":{"type":"Point","coordinates":[-90.21158,38.65299]}},{"type":"Feature","properties":{"stop_id":"7967","stop_code":"7967","stop_name":"ST. LOUIS @ 21ST STREET EB","stop_desc":"FAR SIDE ST. LOUIS @ 21ST STREET EB","wheelchair_boarding":1,"routes":[{"route_id":"19603","agency_id":"70006","route_short_name":"19","route_long_name":"St Louis Ave","route_type":3,"route_color":"#FFFFFF","route_text_color":"#000000"},{"route_id":"19612","agency_id":"70006","route_short_name":"41","route_long_name":"Lee","route_type":3,"route_color":"#FFFFFF","route_text_color":"#000000"}],"agency_name":"Metro St. Louis"},"geometry":{"type":"Point","coordinates":[-90.2034,38.65129]}},{"type":"Feature","properties":{"stop_id":"7969","stop_code":"7969","stop_name":"ST. LOUIS @ NORTH FLORISSANT EB","stop_desc":"FAR SIDE ST. LOUIS @ NORTH FLORISSANT EB","wheelchair_boarding":1,"routes":[{"route_id":"19603","agency_id":"70006","route_short_name":"19","route_long_name":"St Louis Ave","route_type":3,"route_color":"#FFFFFF","route_text_color":"#000000"}],"agency_name":"Metro St. Louis"},"geometry":{"type":"Point","coordinates":[-90.19955,38.65064]}},{"type":"Feature","properties":{"stop_id":"7971","stop_code":"7971","stop_name":"ST. LOUIS @ 13TH STREET EB","stop_desc":"NEAR SIDE ST. LOUIS @ 13TH STREET EB","wheelchair_boarding":1,"routes":[{"route_id":"19603","agency_id":"70006","route_short_name":"19","route_long_name":"St Louis Ave","route_type":3,"route_color":"#FFFFFF","route_text_color":"#000000"}],"agency_name":"Metro St. Louis"},"geometry":{"type":"Point","coordinates":[-90.19673,38.65151]}},{"type":"Feature","properties":{"stop_id":"8529","stop_code":"8529","stop_name":"TUCKER @ COLE SB","stop_desc":"NEAR SIDE TUCKER @ COLE SB","wheelchair_boarding":1,"routes":[{"route_id":"19603","agency_id":"70006","route_short_name":"19","route_long_name":"St Louis Ave","route_type":3,"route_color":"#FFFFFF","route_text_color":"#000000"}],"agency_name":"Metro St. Louis"},"geometry":{"type":"Point","coordinates":[-90.19534,38.63591]}},{"type":"Feature","properties":{"stop_id":"9912","stop_code":"9912","stop_name":"SPRUCE @ 13TH STREET WB","stop_desc":"NEAR SIDE SPRUCE @ 13TH STREET WB","wheelchair_boarding":1,"routes":[{"route_id":"19603","agency_id":"70006","route_short_name":"19","route_long_name":"St Louis Ave","route_type":3,"route_color":"#FFFFFF","route_text_color":"#000000"}],"agency_name":"Metro St. Louis"},"geometry":{"type":"Point","coordinates":[-90.20065,38.62459]}}]}