{"type":"FeatureCollection","features":[{"type":"Feature","properties":{"agency_name":"Metro St. Louis","route_id":"19596","agency_id":"70006","route_short_name":"8","route_long_name":"Shaw-Cherokee","route_type":3,"route_color":"#FFFFFF","route_text_color":"#000000"},"geometry":{"type":"MultiLineString","coordinates":[[[-90.25985,38.63585],[-90.25986,38.63575],[-90.25987,38.63603],[-90.25984,38.63624],[-90.25977,38.63625],[-90.25955,38.63612],[-90.25954,38.63585],[-90.25955,38.63571],[-90.26026,38.63302],[-90.26042,38.63213],[-90.26075,38.63053],[-90.25599,38.62951],[-90.25682,38.62712],[-90.2569,38.62698],[-90.25611,38.62345],[-90.2557,38.62179],[-90.25556,38.621],[-90.25556,38.62089],[-90.25562,38.62049],[-90.25589,38.61921],[-90.25609,38.6181],[-90.25639,38.61668],[-90.25358,38.61643],[-90.24525,38.61564],[-90.2457,38.61275],[-90.24609,38.6101],[-90.24649,38.60769],[-90.24145,38.60721],[-90.24152,38.60694],[-90.24186,38.60537],[-90.24225,38.60335],[-90.2422,38.60326],[-90.24225,38.60273],[-90.24242,38.6018],[-90.24282,38.59914],[-90.24288,38.59865],[-90.24336,38.59553],[-90.24052,38.59519],[-90.23458,38.59441],[-90.23343,38.59429],[-90.23229,38.59415],[-90.22545,38.59329],[-90.22582,38.59149],[-90.22603,38.59057],[-90.22619,38.5897],[-90.22648,38.5884],[-90.22656,38.58792],[-90.22699,38.58614],[-90.22713,38.58524],[-90.22794,38.5813],[-90.228,38.58109],[-90.22809,38.58091],[-90.22822,38.58077],[-90.23082,38.57833],[-90.23166,38.57751],[-90.23334,38.57592],[-90.23359,38.57566],[-90.23373,38.5754],[-90.23383,38.57506],[-90.23388,38.57463],[-90.23384,38.57431],[-90.23376,38.57389],[-90.23376,38.57371],[-90.23379,38.57352],[-90.23395,38.57321],[-90.23682,38.56914],[-90.23764,38.56801],[-90.23831,38.56702],[-90.24013,38.56449],[-90.24076,38.56365],[-90.24194,38.56197],[-90.2426,38.561],[-90.24314,38.56028],[-90.24347,38.55988],[-90.24383,38.55957],[-90.24799,38.55619],[-90.2488,38.5555],[-90.25181,38.55283],[-90.25232,38.5524],[-90.25418,38.55076],[-90.25627,38.5489],[-90.26608,38.54027]]]}},{"type":"Feature","properties":{"stop_id":"14792","stop_code":"14792","stop_name":"CENTRAL WEST END TRANSIT CENTER","wheelchair_boarding":1,"routes":[{"route_id":"19592","agency_id":"70006","route_short_name":"1","route_long_name":"Gold","route_type":3,"route_color":"#FFFFFF","route_text_color":"#000000"},{"route_id":"19596","agency_id":"70006","route_short_name":"8","route_long_name":"Shaw-Cherokee","route_type":3,"route_color":"#FFFFFF","route_text_color":"#000000"},{"route_id":"19598","agency_id":"70006","route_short_name":"10","route_long_name":"Gravois-Lindell","route_type":3,"route_color":"#FFFFFF","route_text_color":"#000000"},{"route_id":"19600","agency_id":"70006","route_short_name":"13","route_long_name":"Union","route_type":3,"route_color":"#FFFFFF","route_text_color":"#000000"},{"route_id":"19618","agency_id":"70006","route_short_name":"59","route_long_name":"Oakland","route_type":3,"route_color":"#FFFFFF","route_text_color":"#000000"},{"route_id":"19632","agency_id":"70006","route_short_name":"95","route_long_name":"Kingshighway","route_type":3,"route_color":"#FFFFFF","route_text_color":"#000000"}],"agency_name":"Metro St. Louis"},"geometry":{"type":"Point","coordinates":[-90.25999,38.63568]}},{"type":"Feature","properties":{"stop_id":"15479","stop_code":"15479","stop_name":"TOWER GROVE @ FOLSOM SB","stop_desc":"FAR SIDE TOWER GROVE @ FOLSOM SB","wheelchair_boarding":1,"routes":[{"route_id":"19596","agency_id":"70006","route_short_name":"8","route_long_name":"Shaw-Cherokee","route_type":3,"route_color":"#FFFFFF","route_text_color":"#000000"}],"agency_name":"Metro St. Louis"},"geometry":{"type":"Point","coordinates":[-90.25576,38.62157]}},{"type":"Feature","properties":{"stop_id":"15791","stop_code":"15791","stop_name":"BROADWAY @ MAEDER SB","stop_desc":"NEAR SIDE BROADWAY @ MAEDER SB","wheelchair_boarding":2,"routes":[{"route_id":"19596","agency_id":"70006","route_short_name":"8","route_long_name":"Shaw-Cherokee","route_type":3,"route_color":"#FFFFFF","route_text_color":"#000000"}],"agency_name":"Metro St. Louis"},"geometry":{"type":"Point","coordinates":[-90.23826,38.56728]}},{"type":"Feature","properties":{"stop_id":"15869","stop_code":"15869","stop_name":"JEFFERSON @ CHIPPEWA SB","stop_desc":"NEAR SIDE JEFFERSON @ CHIPPEWA SB","wheelchair_boarding":2,"routes":[{"route_id":"19596","agency_id":"70006","route_short_name":"8","route_long_name":"Shaw-Cherokee","route_type":3,"route_color":"#FFFFFF","route_text_color":"#000000"}],"agency_name":"Metro St. Louis"},"geometry":{"type":"Point","coordinates":[-90.22701,38.58652]}},{"type":"Feature","properties":{"stop_id":"16139","stop_code":"16139","stop_name":"MAGNOLIA @ 39TH STREET EB","stop_desc":"FAR SIDE MAGNOLIA @ 39TH STREET EB","wheelchair_boarding":1,"routes":[{"route_id":"19596","agency_id":"70006","route_short_name":"8","route_long_name":"Shaw-Cherokee","route_type":3,"route_color":"#FFFFFF","route_text_color":"#000000"}],"agency_name":"Metro St. Louis"},"geometry":{"type":"Point","coordinates":[-90.24585,38.60758]}},{"type":"Feature","properties":{"stop_id":"1810","stop_code":"1810","stop_name":"SHAW @ TOWER GROVE EB","stop_desc":"FAR SIDE SHAW @ TOWER GROVE EB","wheelchair_boarding":1,"routes":[{"route_id":"19596","agency_id":"70006","route_short_name":"8","route_long_name":"Shaw-Cherokee","route_type":3,"route_color":"#FFFFFF","route_text_color":"#000000"}],"agency_name":"Metro St. Louis"},"geometry":{"type":"Point","coordinates":[-90.25566,38.61654]}},{"type":"Feature","properties":{"stop_id":"1811","stop_code":"1811","stop_name":"SHAW @ THURMAN EB","stop_desc":"NEAR SIDE SHAW @ THURMAN EB","wheelchair_boarding":1,"routes":[{"route_id":"19596","agency_id":"70006","route_short_name":"8","route_long_name":"Shaw-Cherokee","route_type":3,"route_color":"#FFFFFF","route_text_color":"#000000"}],"agency_name":"Metro St. Louis"},"geometry":{"type":"Point","coordinates":[-90.25085,38.61613]}},{"type":"Feature","properties":{"stop_id":"1812","stop_code":"1812","stop_name":"SHAW @ LAWRENCE EB","stop_desc":"NEAR SIDE SHAW @ LAWRENCE EB","wheelchair_boarding":1,"routes":[{"route_id":"19596","agency_id":"70006","route_short_name":"8","route_long_name":"Shaw-Cherokee","route_type":3,"route_color":"#FFFFFF","route_text_color":"#000000"}],"agency_name":"Metro St. Louis"},"geometry":{"type":"Point","coordinates":[-90.24823,38.61588]}},{"type":"Feature","properties":{"stop_id":"1813","stop_code":"1813","stop_name":"SHAW @ 39TH STREET EB","stop_desc":"NEAR SIDE SHAW @ 39TH STREET EB","wheelchair_boarding":2,"routes":[{"route_id":"19596","agency_id":"70006","route_short_name":"8","route_long_name":"Shaw-Cherokee","route_type":3,"route_color":"#FFFFFF","route_text_color":"#000000"}],"agency_name":"Metro St. Louis"},"geometry":{"type":"Point","coordinates":[-90.24552,38.61562]}},{"type":"Feature","properties":{"stop_id":"1904","stop_code":"1904","stop_name":"BROADWAY @ NEBRASKA SB","stop_desc":"NEAR SIDE BROADWAY @ NEBRASKA SB","wheelchair_boarding":2,"routes":[{"route_id":"19596","agency_id":"70006","route_short_name":"8","route_long_name":"Shaw-Cherokee","route_type":3,"route_color":"#FFFFFF","route_text_color":"#000000"}],"agency_name":"Metro St. Louis"},"geometry":{"type":"Point","coordinates":[-90.2375,38.56834]}},{"type":"Feature","properties":{"stop_id":"1908","stop_code":"1908","stop_name":"BROADWAY @ FASSEN SB","stop_desc":"NEAR SIDE BROADWAY @ FASSEN SB","wheelchair_boarding":2,"routes":[{"route_id":"19596","agency_id":"70006","route_short_name":"8","route_long_name":"Shaw-Cherokee","route_type":3,"route_color":"#FFFFFF","route_text_color":"#000000"}],"agency_name":"Metro St. Louis"},"geometry":{"type":"Point","coordinates":[-90.24136,38.5629]}},{"type":"Feature","properties":{"stop_id":"3376","stop_code":"3376","stop_name":"39TH STREET @ RUSSELL SB","stop_desc":"NEAR SIDE 39TH STREET @ RUSSELL SB","wheelchair_boarding":2,"routes":[{"route_id":"19596","agency_id":"70006","route_short_name":"8","route_long_name":"Shaw-Cherokee","route_type":3,"route_color":"#FFFFFF","route_text_color":"#000000"}],"agency_name":"Metro St. Louis"},"geometry":{"type":"Point","coordinates":[-90.24555,38.61411]}},{"type":"Feature","properties":{"stop_id":"3378","stop_code":"3378","stop_name":"39TH STREET @ FLAD SB","stop_desc":"NEAR SIDE 39TH STREET @ FLAD SB","wheelchair_boarding":1,"routes":[{"route_id":"19596","agency_id":"70006","route_short_name":"8","route_long_name":"Shaw-Cherokee","route_type":3,"route_color":"#FFFFFF","route_text_color":"#000000"}],"agency_name":"Metro St. Louis"},"geometry":{"type":"Point","coordinates":[-90.24586,38.612]}},{"type":"Feature","properties":{"stop_id":"3379","stop_code":"3379","stop_name":"39TH STREET @ SHENANDOAH SB","stop_desc":"NEAR SIDE 39TH STREET @ SHENANDOAH SB","wheelchair_boarding":1,"routes":[{"route_id":"19596","agency_id":"70006","route_short_name":"8","route_long_name":"Shaw-Cherokee","route_type":3,"route_color":"#FFFFFF","route_text_color":"#000000"}],"agency_name":"Metro St. Louis"},"geometry":{"type":"Point","coordinates":[-90.24613,38.61018]}},{"type":"Feature","properties":{"stop_id":"4022","stop_code":"4022","stop_name":"CHEROKEE @ CALIFORNIA EB","stop_desc":"FAR SIDE CHEROKEE @ CALIFORNIA EB","wheelchair_boarding":1,"routes":[{"route_id":"19596","agency_id":"70006","route_short_name":"8","route_long_name":"Shaw-Cherokee","route_type":3,"route_color":"#FFFFFF","route_text_color":"#000000"}],"agency_name":"Metro St. Louis"},"geometry":{"type":"Point","coordinates":[-90.22982,38.5938]}},{"type":"Feature","properties":{"stop_id":"4024","stop_code":"4024","stop_name":"CHEROKEE @ JEFFERSON EB","stop_desc":"NEAR SIDE CHEROKEE @ JEFFERSON EB","wheelchair_boarding":1,"routes":[{"route_id":"19596","agency_id":"70006","route_short_name":"8","route_long_name":"Shaw-Cherokee","route_type":3,"route_color":"#FFFFFF","route_text_color":"#000000"}],"agency_name":"Metro St. Louis"},"geometry":{"type":"Point","coordinates":[-90.22575,38.5933]}},{"type":"Feature","properties":{"stop_id":"4088","stop_code":"4088","stop_name":"GRAND @ MAGNOLIA SB","stop_desc":"FAR SIDE GRAND @ MAGNOLIA SB","wheelchair_boarding":1,"routes":[{"route_id":"19596","agency_id":"70006","route_short_name":"8","route_long_name":"Shaw-Cherokee","route_type":3,"route_color":"#FFFFFF","route_text_color":"#000000"},{"route_id":"19622","agency_id":"70006","route_short_name":"70","route_long_name":"Grand","route_type":3,"route_color":"#FFFFFF","route_text_color":"#000000"}],"agency_name":"Metro St. Louis"},"geometry":{"type":"Point","coordinates":[-90.24159,38.60686]}},{"type":"Feature","properties":{"stop_id":"4089","stop_code":"4089","stop_name":"GRAND @ ARSENAL SB","stop_desc":"NEAR SIDE GRAND @ ARSENAL SB","wheelchair_boarding":1,"routes":[{"route_id":"19596","agency_id":"70006","route_short_name":"8","route_long_name":"Shaw-Cherokee","route_type":3,"route_color":"#FFFFFF","route_text_color":"#000000"},{"route_id":"19622","agency_id":"70006","route_short_name":"70","route_long_name":"Grand","route_type":3,"route_color":"#FFFFFF","route_text_color":"#000000"}],"agency_name":"Metro St. Louis"},"geometry":{"type":"Point","coordinates":[-90.24219,38.60399]}},{"type":"Feature","properties":{"stop_id":"4090","stop_code":"4090","stop_name":"GRAND @ JUNIATA SB","stop_desc":"FAR SIDE GRAND @ JUNIATA SB","wheelchair_boarding":1,"routes":[{"route_id":"19596","agency_id":"70006","route_short_name":"8","route_long_name":"Shaw-Cherokee","route_type":3,"route_color":"#FFFFFF","route_text_color":"#000000"},{"route_id":"19622","agency_id":"70006","route_short_name":"70","route_long_name":"Grand","route_type":3,"route_color":"#FFFFFF","route_text_color":"#000000"}],"agency_name":"Metro St. Louis"},"geometry":{"type":"Point","coordinates":[-90.24267,38.6006]}},{"type":"Feature","properties":{"stop_id":"4093","stop_code":"4093","stop_name":"GRAND @ UTAH SB","stop_desc":"FAR SIDE GRAND @ UTAH SB","wheelchair_boarding":1,"routes":[{"route_id":"19596","agency_id":"70006","route_short_name":"8","route_long_name":"Shaw-Cherokee","route_type":3,"route_color":"#FFFFFF","route_text_color":"#000000"},{"route_id":"19622","agency_id":"70006","route_short_name":"70","route_long_name":"Grand","route_type":3,"route_color":"#FFFFFF","route_text_color":"#000000"}],"agency_name":"Metro St. Louis"},"geometry":{"type":"Point","coordinates":[-90.24324,38.59688]}},{"type":"Feature","properties":{"stop_id":"4106","stop_code":"4106","stop_name":"BROADWAY @ GASCONADE SB","stop_desc":"FAR SIDE BROADWAY @ GASCONADE SB","wheelchair_boarding":2,"routes":[{"route_id":"19596","agency_id":"70006","route_short_name":"8","route_long_name":"Shaw-Cherokee","route_type":3,"route_color":"#FFFFFF","route_text_color":"#000000"},{"route_id":"19623","agency_id":"70006","route_short_name":"73","route_long_name":"Carondelet","route_type":3,"route_color":"#FFFFFF","route_text_color":"#000000"}],"agency_name":"Metro St. Louis"},"geometry":{"type":"Point","coordinates":[-90.22863,38.58051]}},{"type":"Feature","properties":{"stop_id":"412","stop_code":"412","stop_name":"CATALAN TRANSIT CENTER","wheelchair_boarding":1,"routes":[{"route_id":"19596","agency_id":"70006","route_short_name":"8","route_long_name":"Shaw-Cherokee","route_type":3,"route_color":"#FFFFFF","route_text_color":"#000000"}],"agency_name":"Metro St. Louis"},"geometry":{"type":"Point","coordinates":[-90.26593,38.54005]}},{"type":"Feature","properties":{"stop_id":"6458","stop_code":"6458","stop_name":"BROADWAY @ KEOKUK SB","stop_desc":"FAR SIDE BROADWAY @ KEOKUK SB","wheelchair_boarding":1,"routes":[{"route_id":"19596","agency_id":"70006","route_short_name":"8","route_long_name":"Shaw-Cherokee","route_type":3,"route_color":"#FFFFFF","route_text_color":"#000000"},{"route_id":"19623","agency_id":"70006","route_short_name":"73","route_long_name":"Carondelet","route_type":3,"route_color":"#FFFFFF","route_text_color":"#000000"}],"agency_name":"Metro St. Louis"},"geometry":{"type":"Point","coordinates":[-90.2275,38.58404]}},{"type":"Feature","properties":{"stop_id":"6463","stop_code":"6463","stop_name":"BROADWAY @ OSCEOLA SB","stop_desc":"NEAR SIDE BROADWAY @ OSCEOLA SB","wheelchair_boarding":1,"routes":[{"route_id":"19596","agency_id":"70006","route_short_name":"8","route_long_name":"Shaw-Cherokee","route_type":3,"route_color":"#FFFFFF","route_text_color":"#000000"}],"agency_name":"Metro St. Louis"},"geometry":{"type":"Point","coordinates":[-90.23279,38.57656]}},{"type":"Feature","properties":{"stop_id":"6466","stop_code":"6466","stop_name":"BROADWAY @ ITASKA SB","stop_desc":"NEAR SIDE BROADWAY @ ITASKA SB","wheelchair_boarding":1,"routes":[{"route_id":"19596","agency_id":"70006","route_short_name":"8","route_long_name":"Shaw-Cherokee","route_type":3,"route_color":"#FFFFFF","route_text_color":"#000000"}],"agency_name":"Metro St. Louis"},"geometry":{"type":"Point","coordinates":[-90.23563,38.571]}},{"type":"Feature","properties":{"stop_id":"6468","stop_code":"6468","stop_name":"BROADWAY @ DOVER SB","stop_desc":"NEAR SIDE BROADWAY @ DOVER SB","wheelchair_boarding":2,"routes":[{"route_id":"19596","agency_id":"70006","route_short_name":"8","route_long_name":"Shaw-Cherokee","route_type":3,"route_color":"#FFFFFF","route_text_color":"#000000"}],"agency_name":"Metro St. Louis"},"geometry":{"type":"Point","coordinates":[-90.24305,38.56055]}},{"type":"Feature","properties":{"stop_id":"6469","stop_code":"6469","stop_name":"BROADWAY @ FILLMORE SB","stop_desc":"NEAR SIDE BROADWAY @ FILLMORE SB","wheelchair_boarding":1,"routes":[{"route_id":"19596","agency_id":"70006","route_short_name":"8","route_long_name":"Shaw-Cherokee","route_type":3,"route_color":"#FFFFFF","route_text_color":"#000000"}],"agency_name":"Metro St. Louis"},"geometry":{"type":"Point","coordinates":[-90.24464,38.55903]}},{"type":"Feature","properties":{"stop_id":"6472","stop_code":"6472","stop_name":"BROADWAY @ HOLLY HILLS SB","stop_desc":"FAR SIDE BROADWAY @ HOLLY HILLS SB","wheelchair_boarding":2,"routes":[{"route_id":"19596","agency_id":"70006","route_short_name":"8","route_long_name":"Shaw-Cherokee","route_type":3,"route_color":"#FFFFFF","route_text_color":"#000000"}],"agency_name":"Metro St. Louis"},"geometry":{"type":"Point","coordinates":[-90.24835,38.55593]}},{"type":"Feature","properties":{"stop_id":"6475","stop_code":"6475","stop_name":"BROADWAY @ KRAUS SB","stop_desc":"FAR SIDE BROADWAY @ KRAUS SB","wheelchair_boarding":1,"routes":[{"route_id":"19596","agency_id":"70006","route_short_name":"8","route_long_name":"Shaw-Cherokee","route_type":3,"route_color":"#FFFFFF","route_text_color":"#000000"}],"agency_name":"Metro St. Louis"},"geometry":{"type":"Point","coordinates":[-90.25159,38.55308]}},{"type":"Feature","properties":{"stop_id":"6476","stop_code":"6476","stop_name":"BROADWAY @ QUINCY SB","stop_desc":"FAR SIDE BROADWAY @ QUINCY SB","wheelchair_boarding":1,"routes":[{"route_id":"19596","agency_id":"70006","route_short_name":"8","route_long_name":"Shaw-Cherokee","route_type":3,"route_color":"#FFFFFF","route_text_color":"#000000"}],"agency_name":"Metro St. Louis"},"geometry":{"type":"Point","coordinates":[-90.25313,38.55167]}},{"type":"Feature","properties":{"stop_id":"6479","stop_code":"6479","stop_name":"BROADWAY @ UPTON SB","stop_desc":"FAR SIDE BROADWAY @ UPTON SB","wheelchair_boarding":1,"routes":[{"route_id":"19596","agency_id":"70006","route_short_name":"8","route_long_name":"Shaw-Cherokee","route_type":3,"route_color":"#FFFFFF","route_text_color":"#000000"}],"agency_name":"Metro St. Louis"},"geometry":{"type":"Point","coordinates":[-90.25642,38.54885]}},{"type":"Feature","properties":{"stop_id":"6482","stop_code":"6482","stop_name":"BROADWAY @ PRIMM SB","stop_desc":"NEAR SIDE BROADWAY @ PRIMM SB","wheelchair_boarding":1,"routes":[{"route_id":"19596","agency_id":"70006","route_short_name":"8","route_long_name":"Shaw-Cherokee","route_type":3,"route_color":"#FFFFFF","route_text_color":"#000000"}],"agency_name":"Metro St. Louis"},"geometry":{"type":"Point","coordinates":[-90.26022,38.54552]}},{"type":"Feature","properties":{"stop_id":"6485","stop_code":"6485","stop_name":"BROADWAY @ DAVIS SB","stop_desc":"NEAR SIDE BROADWAY @ DAVIS SB","wheelchair_boarding":1,"routes":[{"route_id":"19596","agency_id":"70006","route_short_name":"8","route_long_name":"Shaw-Cherokee","route_type":3,"route_color":"#FFFFFF","route_text_color":"#000000"}],"agency_name":"Metro St. Louis"},"geometry":{"type":"Point","coordinates":[-90.26265,38.54336]}},{"type":"Feature","properties":{"stop_id":"7769","stop_code":"7769","stop_name":"CHEROKEE @ GRAVOIS EB","stop_desc":"NEAR SIDE CHEROKEE @ GRAVOIS EB","wheelchair_boarding":1,"routes":[{"route_id":"19596","agency_id":"70006","route_short_name":"8","route_long_name":"Shaw-Cherokee","route_type":3,"route_color":"#FFFFFF","route_text_color":"#000000"}],"agency_name":"Metro St. Louis"},"geometry":{"type":"Point","coordinates":[-90.24121,38.59524]}},{"type":"Feature","properties":{"stop_id":"7823","stop_code":"7823","stop_name":"CHEROKEE @ COMPTON EB","stop_desc":"NEAR SIDE CHEROKEE @ COMPTON EB","wheelchair_boarding":1,"routes":[{"route_id":"19596","agency_id":"70006","route_short_name":"8","route_long_name":"Shaw-Cherokee","route_type":3,"route_color":"#FFFFFF","route_text_color":"#000000"}],"agency_name":"Metro St. Louis"},"geometry":{"type":"Point","coordinates":[-90.23705,38.5947]}},{"type":"Feature","properties":{"stop_id":"7825","stop_code":"7825","stop_name":"CHEROKEE @ MINNESOTA EB","stop_desc":"FAR SIDE CHEROKEE @ MINNESOTA EB","wheelchair_boarding":1,"routes":[{"route_id":"19596","agency_id":"70006","route_short_name":"8","route_long_name":"Shaw-Cherokee","route_type":3,"route_color":"#FFFFFF","route_text_color":"#000000"}],"agency_name":"Metro St. Louis"},"geometry":{"type":"Point","coordinates":[-90.23438,38.59438]}},{"type":"Feature","properties":{"stop_id":"7826","stop_code":"7826","stop_name":"CHEROKEE @ NEBRASKA EB","stop_desc":"NEAR SIDE CHEROKEE @ NEBRASKA EB","wheelchair_boarding":1,"routes":[{"route_id":"19596","agency_id":"70006","route_short_name":"8","route_long_name":"Shaw-Cherokee","route_type":3,"route_color":"#FFFFFF","route_text_color":"#000000"}],"agency_name":"Metro St. Louis"},"geometry":{"type":"Point","coordinates":[-90.23265,38.59414]}},{"type":"Feature","properties":{"stop_id":"8531","stop_code":"8531","stop_name":"TAYLOR @ MCKINLEY SB","stop_desc":"NEAR SIDE TAYLOR @ MCKINLEY SB","wheelchair_boarding":1,"routes":[{"route_id":"19596","agency_id":"70006","route_short_name":"8","route_long_name":"Shaw-Cherokee","route_type":3,"route_color":"#FFFFFF","route_text_color":"#000000"},{"route_id":"19618","agency_id":"70006","route_short_name":"59","route_long_name":"Oakland","route_type":3,"route_color":"#FFFFFF","route_text_color":"#000000"},{"route_id":"19632","agency_id":"70006","route_short_name":"95","route_long_name":"Kingshighway","route_type":3,"route_color":"#FFFFFF","route_text_color":"#000000"}],"agency_name":"Metro St. Louis"},"geometry":{"type":"Point","coordinates":[-90.26005,38.63412]}},{"type":"Feature","properties":{"stop_id":"8535","stop_code":"8535","stop_name":"CHOUTEAU @ NEWSTEAD EB","stop_desc":"FAR SIDE CHOUTEAU @ NEWSTEAD EB","wheelchair_boarding":1,"routes":[{"route_id":"19596","agency_id":"70006","route_short_name":"8","route_long_name":"Shaw-Cherokee","route_type":3,"route_color":"#FFFFFF","route_text_color":"#000000"}],"agency_name":"Metro St. Louis"},"geometry":{"type":"Point","coordinates":[-90.25813,38.62992]}},{"type":"Feature","properties":{"stop_id":"8536","stop_code":"8536","stop_name":"TOWER GROVE @ CHOUTEAU SB","stop_desc":"FAR SIDE TOWER GROVE @ CHOUTEAU SB","wheelchair_boarding":1,"routes":[{"route_id":"19596","agency_id":"70006","route_short_name":"8","route_long_name":"Shaw-Cherokee","route_type":3,"route_color":"#FFFFFF","route_text_color":"#000000"}],"agency_name":"Metro St. Louis"},"geometry":{"type":"Point","coordinates":[-90.25613,38.62924]}},{"type":"Feature","properties":{"stop_id":"8538","stop_code":"8538","stop_name":"TOWER GROVE @ MANCHESTER SB","stop_desc":"NEAR SIDE TOWER GROVE @ MANCHESTER SB","wheelchair_boarding":1,"routes":[{"route_id":"19596","agency_id":"70006","route_short_name":"8","route_long_name":"Shaw-Cherokee","route_type":3,"route_color":"#FFFFFF","route_text_color":"#000000"}],"agency_name":"Metro St. Louis"},"geometry":{"type":"Point","coordinates":[-90.25687,38.62716]}},{"type":"Feature","properties":{"stop_id":"8542","stop_code":"8542","stop_name":"TOWER GROVE @ HUNT SB","stop_desc":"FAR SIDE TOWER GROVE @ HUNT SB","wheelchair_boarding":1,"routes":[{"route_id":"19596","agency_id":"70006","route_short_name":"8","route_long_name":"Shaw-Cherokee","route_type":3,"route_color":"#FFFFFF","route_text_color":"#000000"}],"agency_name":"Metro St. Louis"},"geometry":{"type":"Point","coordinates":[-90.25604,38.623]}},{"type":"Feature","properties":{"stop_id":"8544","stop_code":"8544","stop_name":"TOWER GROVE @ MCREE SB","stop_desc":"FAR SIDE TOWER GROVE @ MCREE SB","wheelchair_boarding":1,"routes":[{"route_id":"19596","agency_id":"70006","route_short_name":"8","route_long_name":"Shaw-Cherokee","route_type":3,"route_color":"#FFFFFF","route_text_color":"#000000"}],"agency_name":"Metro St. Louis"},"geometry":{"type":"Point","coordinates":[-90.25596,38.61941]}},{"type":"Feature","properties":{"stop_id":"8664","stop_code":"8664","stop_name":"JEFFERSON @ CHEROKEE SB","stop_desc":"FAR SIDE JEFFERSON @ CHEROKEE SB","wheelchair_boarding":1,"routes":[{"route_id":"19596","agency_id":"70006","route_short_name":"8","route_long_name":"Shaw-Cherokee","route_type":3,"route_color":"#FFFFFF","route_text_color":"#000000"},{"route_id":"19599","agency_id":"70006","route_short_name":"11","route_long_name":"Chippewa","route_type":3,"route_color":"#FFFFFF","route_text_color":"#000000"}],"agency_name":"Metro St. Louis"},"geometry":{"type":"Point","coordinates":[-90.2257,38.59275]}},{"type":"Feature","properties":{"stop_id":"8666","stop_code":"8666","stop_name":"JEFFERSON @ MIAMI SB","stop_desc":"FAR SIDE JEFFERSON @ MIAMI SB","wheelchair_boarding":1,"routes":[{"route_id":"19596","agency_id":"70006","route_short_name":"8","route_long_name":"Shaw-Cherokee","route_type":3,"route_color":"#FFFFFF","route_text_color":"#000000"},{"route_id":"19599","agency_id":"70006","route_short_name":"11","route_long_name":"Chippewa","route_type":3,"route_color":"#FFFFFF","route_text_color":"#000000"}],"agency_name":"Metro St. Louis"},"geometry":{"type":"Point","coordinates":[-90.22637,38.58949]}}]}