{"type":"FeatureCollection","features":[{"type":"Feature","properties":{"agency_name":"Metro St. Louis","route_id":"19632","agency_id":"70006","route_short_name":"95","route_long_name":"Kingshighway","route_type":3,"route_color":"#FFFFFF","route_text_color":"#000000"},"geometry":{"type":"MultiLineString","coordinates":[[[-90.22077,38.68623],[-90.22052,38.68594],[-90.22077,38.68623],[-90.22372,38.68469],[-90.22481,38.6841],[-90.22511,38.68385],[-90.22561,38.68338],[-90.22624,38.68272],[-90.22647,38.68267],[-90.22663,38.68266],[-90.22713,38.68275],[-90.2281,38.68321],[-90.22944,38.68392],[-90.22983,38.68419],[-90.23,38.68435],[-90.23621,38.69141],[-90.23685,38.69121],[-90.2399,38.68953],[-90.24226,38.6882],[-90.24643,38.68591],[-90.24669,38.68575],[-90.24686,38.68561],[-90.24708,38.68529],[-90.24715,38.68512],[-90.2479,38.68235],[-90.2481,38.6818],[-90.24832,38.68162],[-90.24843,38.68147],[-90.24967,38.67966],[-90.25122,38.67747],[-90.25293,38.67501],[-90.25375,38.67387],[-90.2554,38.67149],[-90.25599,38.67067],[-90.25765,38.66854],[-90.25927,38.66641],[-90.25992,38.66553],[-90.26149,38.66335],[-90.26154,38.66323],[-90.26155,38.66307],[-90.26172,38.66229],[-90.26186,38.66152],[-90.26219,38.65934],[-90.26292,38.65509],[-90.26314,38.65388],[-90.26433,38.64679],[-90.26477,38.64427],[-90.26484,38.64394],[-90.26508,38.64361],[-90.26514,38.64342],[-90.26578,38.63968],[-90.26235,38.639],[-90.2621,38.63885],[-90.25935,38.63828],[-90.25971,38.6372],[-90.25973,38.63702],[-90.25966,38.63651],[-90.25961,38.63631],[-90.25977,38.63625],[-90.26009,38.6362],[-90.26049,38.63618],[-90.26057,38.63579]],[[-90.26055,38.63577],[-90.26056,38.63578],[-90.2599,38.63564],[-90.25986,38.63575],[-90.25986,38.6361]],[[-90.25955,38.63612],[-90.25977,38.63625],[-90.25955,38.63612],[-90.25954,38.63585],[-90.25955,38.63571],[-90.26026,38.63302],[-90.26356,38.63309],[-90.26332,38.63429],[-90.2632,38.63476],[-90.26589,38.63504],[-90.26653,38.63508],[-90.26661,38.63459],[-90.26662,38.63429],[-90.2666,38.63404],[-90.26642,38.63271],[-90.26616,38.63175],[-90.26606,38.63157],[-90.26582,38.63121],[-90.26568,38.63106],[-90.26521,38.63034],[-90.26514,38.63019],[-90.26498,38.62996],[-90.26477,38.62958],[-90.26464,38.62919],[-90.2645,38.62896],[-90.26466,38.62795],[-90.26472,38.62746],[-90.26498,38.62588],[-90.26568,38.62247],[-90.26585,38.62155],[-90.2661,38.6204],[-90.26636,38.6191],[-90.26651,38.6185],[-90.26672,38.61734],[-90.2674,38.614],[-90.26755,38.61312],[-90.26795,38.61133],[-90.26826,38.60979],[-90.26917,38.60552],[-90.26943,38.60366],[-90.26995,38.6011],[-90.27021,38.59972],[-90.27047,38.59857],[-90.27121,38.59485],[-90.27131,38.59443],[-90.27141,38.59416],[-90.2718,38.59358],[-90.2722,38.59303],[-90.27582,38.58782],[-90.27603,38.58755],[-90.27617,38.58734],[-90.27622,38.58724],[-90.27629,38.58695],[-90.27661,38.58519],[-90.27675,38.58483],[-90.27757,38.58335],[-90.27884,38.58096],[-90.27913,38.58053],[-90.27936,38.58027],[-90.27962,38.58004],[-90.27992,38.57982],[-90.28043,38.57954],[-90.28105,38.57929],[-90.28121,38.57921],[-90.28161,38.57897],[-90.28194,38.57869],[-90.28214,38.57847],[-90.28237,38.57815],[-90.28441,38.57436],[-90.28449,38.57419],[-90.28455,38.57395],[-90.28452,38.57368],[-90.28379,38.57135],[-90.28585,38.56942],[-90.28624,38.56909],[-90.28654,38.56888],[-90.29076,38.56634],[-90.29259,38.56527],[-90.29417,38.56429],[-90.2943,38.56446],[-90.29447,38.56476],[-90.29407,38.56491],[-90.29395,38.56491]]]}},{"type":"Feature","properties":{"stop_id":"13487","stop_code":"13487","stop_name":"NORTH BROADWAY TRANSIT CENTER","wheelchair_boarding":1,"routes":[{"route_id":"19622","agency_id":"70006","route_short_name":"70","route_long_name":"Grand","route_type":3,"route_color":"#FFFFFF","route_text_color":"#000000"},{"route_id":"19632","agency_id":"70006","route_short_name":"95","route_long_name":"Kingshighway","route_type":3,"route_color":"#FFFFFF","route_text_color":"#000000"}],"agency_name":"Metro St. Louis"},"geometry":{"type":"Point","coordinates":[-90.22054,38.6861]}},{"type":"Feature","properties":{"stop_id":"13631","stop_code":"13631","stop_name":"KINGSHIGHWAY @ ARSENAL SB","stop_desc":"FAR SIDE KINGSHIGHWAY @ ARSENAL SB","wheelchair_boarding":1,"routes":[{"route_id":"19632","agency_id":"70006","route_short_name":"95","route_long_name":"Kingshighway","route_type":3,"route_color":"#FFFFFF","route_text_color":"#000000"}],"agency_name":"Metro St. Louis"},"geometry":{"type":"Point","coordinates":[-90.26936,38.60485]}},{"type":"Feature","properties":{"stop_id":"14778","stop_code":"14778","stop_name":"KINGSHIGHWAY @ SCHOLLMEYER SB","stop_desc":"FAR SIDE KINGSHIGHWAY @ SCHOLLMEYER SB","wheelchair_boarding":2,"routes":[{"route_id":"19632","agency_id":"70006","route_short_name":"95","route_long_name":"Kingshighway","route_type":3,"route_color":"#FFFFFF","route_text_color":"#000000"}],"agency_name":"Metro St. Louis"},"geometry":{"type":"Point","coordinates":[-90.28423,38.57225]}},{"type":"Feature","properties":{"stop_id":"14792","stop_code":"14792","stop_name":"CENTRAL WEST END TRANSIT CENTER","wheelchair_boarding":1,"routes":[{"route_id":"19592","agency_id":"70006","route_short_name":"1","route_long_name":"Gold","route_type":3,"route_color":"#FFFFFF","route_text_color":"#000000"},{"route_id":"19596","agency_id":"70006","route_short_name":"8","route_long_name":"Shaw-Cherokee","route_type":3,"route_color":"#FFFFFF","route_text_color":"#000000"},{"route_id":"19598","agency_id":"70006","route_short_name":"10","route_long_name":"Gravois-Lindell","route_type":3,"route_color":"#FFFFFF","route_text_color":"#000000"},{"route_id":"19600","agency_id":"70006","route_short_name":"13","route_long_name":"Union","route_type":3,"route_color":"#FFFFFF","route_text_color":"#000000"},{"route_id":"19618","agency_id":"70006","route_short_name":"59","route_long_name":"Oakland","route_type":3,"route_color":"#FFFFFF","route_text_color":"#000000"},{"route_id":"19632","agency_id":"70006","route_short_name":"95","route_long_name":"Kingshighway","route_type":3,"route_color":"#FFFFFF","route_text_color":"#000000"}],"agency_name":"Metro St. Louis"},"geometry":{"type":"Point","coordinates":[-90.25999,38.63568]}},{"type":"Feature","properties":{"stop_id":"15787","stop_code":"15787","stop_name":"EUCLID @ BARNES JEWISH HOSPITAL PLAZA NB","stop_desc":"FAR SIDE EUCLID @ BARNES JEWISH HOSPITAL PLAZA NB","wheelchair_boarding":1,"routes":[{"route_id":"19618","agency_id":"70006","route_short_name":"59","route_long_name":"Oakland","route_type":3,"route_color":"#FFFFFF","route_text_color":"#000000"},{"route_id":"19632","agency_id":"70006","route_short_name":"95","route_long_name":"Kingshighway","route_type":3,"route_color":"#FFFFFF","route_text_color":"#000000"}],"agency_name":"Metro St. Louis"},"geometry":{"type":"Point","coordinates":[-90.26321,38.63461]}},{"type":"Feature","properties":{"stop_id":"16159","stop_code":"16159","stop_name":"TAYLOR @ I-70 OVERPASS SB","stop_desc":"NEAR SIDE TAYLOR @ I-70 OVERPASS SB","wheelchair_boarding":2,"routes":[{"route_id":"19632","agency_id":"70006","route_short_name":"95","route_long_name":"Kingshighway","route_type":3,"route_color":"#FFFFFF","route_text_color":"#000000"}],"agency_name":"Metro St. Louis"},"geometry":{"type":"Point","coordinates":[-90.22518,38.6839]}},{"type":"Feature","properties":{"stop_id":"16178","stop_code":"16178","stop_name":"KINGSHIGHWAY @ DELMAR SB","stop_desc":"NEAR SIDE KINGSHIGHWAY @ DELMAR SB","wheelchair_boarding":1,"routes":[{"route_id":"19632","agency_id":"70006","route_short_name":"95","route_long_name":"Kingshighway","route_type":3,"route_color":"#FFFFFF","route_text_color":"#000000"}],"agency_name":"Metro St. Louis"},"geometry":{"type":"Point","coordinates":[-90.26358,38.65181]}},{"type":"Feature","properties":{"stop_id":"16191","stop_code":"16191","stop_name":"WEST FLORISSANT @ I-70 EXIT 245B NB","stop_desc":"FAR SIDE WEST FLORISSANT @ I-70 EXIT 245B NB","wheelchair_boarding":1,"routes":[{"route_id":"19624","agency_id":"70006","route_short_name":"74","route_long_name":"Florissant","route_type":3,"route_color":"#FFFFFF","route_text_color":"#000000"},{"route_id":"19632","agency_id":"70006","route_short_name":"95","route_long_name":"Kingshighway","route_type":3,"route_color":"#FFFFFF","route_text_color":"#000000"}],"agency_name":"Metro St. Louis"},"geometry":{"type":"Point","coordinates":[-90.23059,38.68511]}},{"type":"Feature","properties":{"stop_id":"2272","stop_code":"2272","stop_name":"KINGSHIGHWAY @ WEST FLORISSANT SB","stop_desc":"FAR SIDE KINGSHIGHWAY @ WEST FLORISSANT SB","wheelchair_boarding":1,"routes":[{"route_id":"19632","agency_id":"70006","route_short_name":"95","route_long_name":"Kingshighway","route_type":3,"route_color":"#FFFFFF","route_text_color":"#000000"}],"agency_name":"Metro St. Louis"},"geometry":{"type":"Point","coordinates":[-90.23671,38.69132]}},{"type":"Feature","properties":{"stop_id":"2273","stop_code":"2273","stop_name":"KINGSHIGHWAY @ HARNEY SB","stop_desc":"NEAR SIDE KINGSHIGHWAY @ HARNEY SB","wheelchair_boarding":2,"routes":[{"route_id":"19632","agency_id":"70006","route_short_name":"95","route_long_name":"Kingshighway","route_type":3,"route_color":"#FFFFFF","route_text_color":"#000000"}],"agency_name":"Metro St. Louis"},"geometry":{"type":"Point","coordinates":[-90.23878,38.69014]}},{"type":"Feature","properties":{"stop_id":"2274","stop_code":"2274","stop_name":"KINGSHIGHWAY @ THEKLA SB","stop_desc":"FAR SIDE KINGSHIGHWAY @ THEKLA SB","wheelchair_boarding":1,"routes":[{"route_id":"19632","agency_id":"70006","route_short_name":"95","route_long_name":"Kingshighway","route_type":3,"route_color":"#FFFFFF","route_text_color":"#000000"}],"agency_name":"Metro St. Louis"},"geometry":{"type":"Point","coordinates":[-90.24186,38.68847]}},{"type":"Feature","properties":{"stop_id":"2276","stop_code":"2276","stop_name":"KINGSHIGHWAY @ LILLIAN SB","stop_desc":"NEAR SIDE KINGSHIGHWAY @ LILLIAN SB","wheelchair_boarding":1,"routes":[{"route_id":"19632","agency_id":"70006","route_short_name":"95","route_long_name":"Kingshighway","route_type":3,"route_color":"#FFFFFF","route_text_color":"#000000"}],"agency_name":"Metro St. Louis"},"geometry":{"type":"Point","coordinates":[-90.24465,38.68695]}},{"type":"Feature","properties":{"stop_id":"2277","stop_code":"2277","stop_name":"KINGSHIGHWAY @ BIRCHER SB","stop_desc":"FAR SIDE KINGSHIGHWAY @ BIRCHER SB","wheelchair_boarding":2,"routes":[{"route_id":"19612","agency_id":"70006","route_short_name":"41","route_long_name":"Lee","route_type":3,"route_color":"#FFFFFF","route_text_color":"#000000"},{"route_id":"19632","agency_id":"70006","route_short_name":"95","route_long_name":"Kingshighway","route_type":3,"route_color":"#FFFFFF","route_text_color":"#000000"}],"agency_name":"Metro St. Louis"},"geometry":{"type":"Point","coordinates":[-90.24719,38.68526]}},{"type":"Feature","properties":{"stop_id":"2280","stop_code":"2280","stop_name":"KINGSHIGHWAY @ PENROSE SB","stop_desc":"NEAR SIDE KINGSHIGHWAY @ PENROSE SB","wheelchair_boarding":1,"routes":[{"route_id":"19612","agency_id":"70006","route_short_name":"41","route_long_name":"Lee","route_type":3,"route_color":"#FFFFFF","route_text_color":"#000000"},{"route_id":"19632","agency_id":"70006","route_short_name":"95","route_long_name":"Kingshighway","route_type":3,"route_color":"#FFFFFF","route_text_color":"#000000"}],"agency_name":"Metro St. Louis"},"geometry":{"type":"Point","coordinates":[-90.24778,38.68323]}},{"type":"Feature","properties":{"stop_id":"2281","stop_code":"2281","stop_name":"KINGSHIGHWAY @ BROWN SB","stop_desc":"FAR SIDE KINGSHIGHWAY @ BROWN SB","wheelchair_boarding":1,"routes":[{"route_id":"19632","agency_id":"70006","route_short_name":"95","route_long_name":"Kingshighway","route_type":3,"route_color":"#FFFFFF","route_text_color":"#000000"}],"agency_name":"Metro St. Louis"},"geometry":{"type":"Point","coordinates":[-90.24914,38.6805]}},{"type":"Feature","properties":{"stop_id":"2282","stop_code":"2282","stop_name":"KINGSHIGHWAY @ MARGERETTA SB","stop_desc":"MID-BLOCK KINGSHIGHWAY @ MARGERETTA SB","wheelchair_boarding":2,"routes":[{"route_id":"19632","agency_id":"70006","route_short_name":"95","route_long_name":"Kingshighway","route_type":3,"route_color":"#FFFFFF","route_text_color":"#000000"}],"agency_name":"Metro St. Louis"},"geometry":{"type":"Point","coordinates":[-90.2507,38.67824]}},{"type":"Feature","properties":{"stop_id":"2283","stop_code":"2283","stop_name":"KINGSHIGHWAY @ NATURAL BRIDGE SB","stop_desc":"NEAR SIDE KINGSHIGHWAY @ NATURAL BRIDGE SB","wheelchair_boarding":1,"routes":[{"route_id":"19632","agency_id":"70006","route_short_name":"95","route_long_name":"Kingshighway","route_type":3,"route_color":"#FFFFFF","route_text_color":"#000000"}],"agency_name":"Metro St. Louis"},"geometry":{"type":"Point","coordinates":[-90.25164,38.67692]}},{"type":"Feature","properties":{"stop_id":"2284","stop_code":"2284","stop_name":"KINGSHIGHWAY @ NATURAL BRIDGE SB","stop_desc":"FAR SIDE KINGSHIGHWAY @ NATURAL BRIDGE SB","wheelchair_boarding":1,"routes":[{"route_id":"19632","agency_id":"70006","route_short_name":"95","route_long_name":"Kingshighway","route_type":3,"route_color":"#FFFFFF","route_text_color":"#000000"}],"agency_name":"Metro St. Louis"},"geometry":{"type":"Point","coordinates":[-90.2522,38.67613]}},{"type":"Feature","properties":{"stop_id":"2285","stop_code":"2285","stop_name":"KINGSHIGHWAY @ LEXINGTON SB","stop_desc":"NEAR SIDE KINGSHIGHWAY @ LEXINGTON SB","wheelchair_boarding":2,"routes":[{"route_id":"19632","agency_id":"70006","route_short_name":"95","route_long_name":"Kingshighway","route_type":3,"route_color":"#FFFFFF","route_text_color":"#000000"}],"agency_name":"Metro St. Louis"},"geometry":{"type":"Point","coordinates":[-90.25292,38.67511]}},{"type":"Feature","properties":{"stop_id":"2287","stop_code":"2287","stop_name":"KINGSHIGHWAY @ ST. LOUIS SB","stop_desc":"FAR SIDE KINGSHIGHWAY @ ST. LOUIS SB","wheelchair_boarding":2,"routes":[{"route_id":"19632","agency_id":"70006","route_short_name":"95","route_long_name":"Kingshighway","route_type":3,"route_color":"#FFFFFF","route_text_color":"#000000"}],"agency_name":"Metro St. Louis"},"geometry":{"type":"Point","coordinates":[-90.25566,38.67115]}},{"type":"Feature","properties":{"stop_id":"2288","stop_code":"2288","stop_name":"KINGSHIGHWAY @ MAFFITT SB","stop_desc":"NEAR SIDE KINGSHIGHWAY @ MAFFITT SB","wheelchair_boarding":1,"routes":[{"route_id":"19632","agency_id":"70006","route_short_name":"95","route_long_name":"Kingshighway","route_type":3,"route_color":"#FFFFFF","route_text_color":"#000000"}],"agency_name":"Metro St. Louis"},"geometry":{"type":"Point","coordinates":[-90.25659,38.66992]}},{"type":"Feature","properties":{"stop_id":"2290","stop_code":"2290","stop_name":"KINGSHIGHWAY @ HIGHLAND SB","stop_desc":"NEAR SIDE KINGSHIGHWAY @ HIGHLAND SB","wheelchair_boarding":1,"routes":[{"route_id":"19632","agency_id":"70006","route_short_name":"95","route_long_name":"Kingshighway","route_type":3,"route_color":"#FFFFFF","route_text_color":"#000000"}],"agency_name":"Metro St. Louis"},"geometry":{"type":"Point","coordinates":[-90.25785,38.66832]}},{"type":"Feature","properties":{"stop_id":"2292","stop_code":"2292","stop_name":"KINGSHIGHWAY @ LOTUS SB","stop_desc":"NEAR SIDE KINGSHIGHWAY @ LOTUS SB","wheelchair_boarding":2,"routes":[{"route_id":"19632","agency_id":"70006","route_short_name":"95","route_long_name":"Kingshighway","route_type":3,"route_color":"#FFFFFF","route_text_color":"#000000"}],"agency_name":"Metro St. Louis"},"geometry":{"type":"Point","coordinates":[-90.25919,38.66656]}},{"type":"Feature","properties":{"stop_id":"2294","stop_code":"2294","stop_name":"KINGSHIGHWAY @ DR ML KING SB","stop_desc":"NEAR SIDE KINGSHIGHWAY @ DR ML KING SB","wheelchair_boarding":1,"routes":[{"route_id":"19632","agency_id":"70006","route_short_name":"95","route_long_name":"Kingshighway","route_type":3,"route_color":"#FFFFFF","route_text_color":"#000000"}],"agency_name":"Metro St. Louis"},"geometry":{"type":"Point","coordinates":[-90.26147,38.66336]}},{"type":"Feature","properties":{"stop_id":"2295","stop_code":"2295","stop_name":"KINGSHIGHWAY @ DR ML KING SB","stop_desc":"FAR SIDE KINGSHIGHWAY @ DR ML KING SB","wheelchair_boarding":1,"routes":[{"route_id":"19632","agency_id":"70006","route_short_name":"95","route_long_name":"Kingshighway","route_type":3,"route_color":"#FFFFFF","route_text_color":"#000000"}],"agency_name":"Metro St. Louis"},"geometry":{"type":"Point","coordinates":[-90.26172,38.66286]}},{"type":"Feature","properties":{"stop_id":"2296","stop_code":"2296","stop_name":"KINGSHIGHWAY @ PAGE SB","stop_desc":"FAR SIDE KINGSHIGHWAY @ PAGE SB","wheelchair_boarding":1,"routes":[{"route_id":"19632","agency_id":"70006","route_short_name":"95","route_long_name":"Kingshighway","route_type":3,"route_color":"#FFFFFF","route_text_color":"#000000"}],"agency_name":"Metro St. Louis"},"geometry":{"type":"Point","coordinates":[-90.26225,38.65963]}},{"type":"Feature","properties":{"stop_id":"2297","stop_code":"2297","stop_name":"KINGSHIGHWAY @ VERNON SB","stop_desc":"NEAR SIDE KINGSHIGHWAY @ VERNON SB","wheelchair_boarding":1,"routes":[{"route_id":"19632","agency_id":"70006","route_short_name":"95","route_long_name":"Kingshighway","route_type":3,"route_color":"#FFFFFF","route_text_color":"#000000"}],"agency_name":"Metro St. Louis"},"geometry":{"type":"Point","coordinates":[-90.26247,38.65824]}},{"type":"Feature","properties":{"stop_id":"2299","stop_code":"2299","stop_name":"KINGSHIGHWAY @ CABANNE SB","stop_desc":"NEAR SIDE KINGSHIGHWAY @ CABANNE SB","wheelchair_boarding":2,"routes":[{"route_id":"19632","agency_id":"70006","route_short_name":"95","route_long_name":"Kingshighway","route_type":3,"route_color":"#FFFFFF","route_text_color":"#000000"}],"agency_name":"Metro St. Louis"},"geometry":{"type":"Point","coordinates":[-90.2628,38.65631]}},{"type":"Feature","properties":{"stop_id":"2300","stop_code":"2300","stop_name":"KINGSHIGHWAY @ HODIAMONT RIGHT OF WAY SB","stop_desc":"FAR SIDE KINGSHIGHWAY @ HODIAMONT RIGHT OF WAY SB","wheelchair_boarding":1,"routes":[{"route_id":"19632","agency_id":"70006","route_short_name":"95","route_long_name":"Kingshighway","route_type":3,"route_color":"#FFFFFF","route_text_color":"#000000"}],"agency_name":"Metro St. Louis"},"geometry":{"type":"Point","coordinates":[-90.26316,38.65427]}},{"type":"Feature","properties":{"stop_id":"2302","stop_code":"2302","stop_name":"KINGSHIGHWAY @ DELMAR SB","stop_desc":"FAR SIDE KINGSHIGHWAY @ DELMAR SB","wheelchair_boarding":1,"routes":[{"route_id":"19632","agency_id":"70006","route_short_name":"95","route_long_name":"Kingshighway","route_type":3,"route_color":"#FFFFFF","route_text_color":"#000000"}],"agency_name":"Metro St. Louis"},"geometry":{"type":"Point","coordinates":[-90.26367,38.65136]}},{"type":"Feature","properties":{"stop_id":"2303","stop_code":"2303","stop_name":"KINGSHIGHWAY @ MCPHERSON SB","stop_desc":"NEAR SIDE KINGSHIGHWAY @ MCPHERSON SB","wheelchair_boarding":1,"routes":[{"route_id":"19632","agency_id":"70006","route_short_name":"95","route_long_name":"Kingshighway","route_type":3,"route_color":"#FFFFFF","route_text_color":"#000000"}],"agency_name":"Metro St. Louis"},"geometry":{"type":"Point","coordinates":[-90.26386,38.65]}},{"type":"Feature","properties":{"stop_id":"2304","stop_code":"2304","stop_name":"KINGSHIGHWAY @ WATERMAN SB","stop_desc":"NEAR SIDE KINGSHIGHWAY @ WATERMAN SB","wheelchair_boarding":1,"routes":[{"route_id":"19632","agency_id":"70006","route_short_name":"95","route_long_name":"Kingshighway","route_type":3,"route_color":"#FFFFFF","route_text_color":"#000000"}],"agency_name":"Metro St. Louis"},"geometry":{"type":"Point","coordinates":[-90.26413,38.64842]}},{"type":"Feature","properties":{"stop_id":"2305","stop_code":"2305","stop_name":"KINGSHIGHWAY @ MARYLAND SB","stop_desc":"NEAR SIDE KINGSHIGHWAY @ MARYLAND SB","wheelchair_boarding":1,"routes":[{"route_id":"19592","agency_id":"70006","route_short_name":"1","route_long_name":"Gold","route_type":3,"route_color":"#FFFFFF","route_text_color":"#000000"},{"route_id":"19632","agency_id":"70006","route_short_name":"95","route_long_name":"Kingshighway","route_type":3,"route_color":"#FFFFFF","route_text_color":"#000000"}],"agency_name":"Metro St. Louis"},"geometry":{"type":"Point","coordinates":[-90.26462,38.64553]}},{"type":"Feature","properties":{"stop_id":"2306","stop_code":"2306","stop_name":"KINGSHIGHWAY @ LINDELL SB","stop_desc":"NEAR SIDE KINGSHIGHWAY @ LINDELL SB","wheelchair_boarding":1,"routes":[{"route_id":"19592","agency_id":"70006","route_short_name":"1","route_long_name":"Gold","route_type":3,"route_color":"#FFFFFF","route_text_color":"#000000"},{"route_id":"19632","agency_id":"70006","route_short_name":"95","route_long_name":"Kingshighway","route_type":3,"route_color":"#FFFFFF","route_text_color":"#000000"}],"agency_name":"Metro St. Louis"},"geometry":{"type":"Point","coordinates":[-90.26484,38.64431]}},{"type":"Feature","properties":{"stop_id":"2308","stop_code":"2308","stop_name":"FOREST PARK @ EUCLID EB","stop_desc":"FAR SIDE FOREST PARK @ EUCLID EB","wheelchair_boarding":1,"routes":[{"route_id":"19592","agency_id":"70006","route_short_name":"1","route_long_name":"Gold","route_type":3,"route_color":"#FFFFFF","route_text_color":"#000000"},{"route_id":"19598","agency_id":"70006","route_short_name":"10","route_long_name":"Gravois-Lindell","route_type":3,"route_color":"#FFFFFF","route_text_color":"#000000"},{"route_id":"19632","agency_id":"70006","route_short_name":"95","route_long_name":"Kingshighway","route_type":3,"route_color":"#FFFFFF","route_text_color":"#000000"}],"agency_name":"Metro St. Louis"},"geometry":{"type":"Point","coordinates":[-90.26217,38.63878]}},{"type":"Feature","properties":{"stop_id":"2309","stop_code":"2309","stop_name":"KINGSHIGHWAY @ OAKLAND  SB","stop_desc":"FAR SIDE KINGSHIGHWAY @ OAKLAND  SB","wheelchair_boarding":1,"routes":[{"route_id":"19632","agency_id":"70006","route_short_name":"95","route_long_name":"Kingshighway","route_type":3,"route_color":"#FFFFFF","route_text_color":"#000000"}],"agency_name":"Metro St. Louis"},"geometry":{"type":"Point","coordinates":[-90.26473,38.62835]}},{"type":"Feature","properties":{"stop_id":"2310","stop_code":"2310","stop_name":"KINGSHIGHWAY @ MANCHESTER SB","stop_desc":"NEAR SIDE KINGSHIGHWAY @ MANCHESTER SB","wheelchair_boarding":1,"routes":[{"route_id":"19632","agency_id":"70006","route_short_name":"95","route_long_name":"Kingshighway","route_type":3,"route_color":"#FFFFFF","route_text_color":"#000000"}],"agency_name":"Metro St. Louis"},"geometry":{"type":"Point","coordinates":[-90.26501,38.62645]}},{"type":"Feature","properties":{"stop_id":"2313","stop_code":"2313","stop_name":"KINGSHIGHWAY @ SHAW SB","stop_desc":"NEAR SIDE KINGSHIGHWAY @ SHAW SB","wheelchair_boarding":1,"routes":[{"route_id":"19632","agency_id":"70006","route_short_name":"95","route_long_name":"Kingshighway","route_type":3,"route_color":"#FFFFFF","route_text_color":"#000000"}],"agency_name":"Metro St. Louis"},"geometry":{"type":"Point","coordinates":[-90.26679,38.61758]}},{"type":"Feature","properties":{"stop_id":"2314","stop_code":"2314","stop_name":"KINGSHIGHWAY @ SOUTHWEST SB","stop_desc":"FAR SIDE KINGSHIGHWAY @ SOUTHWEST SB","wheelchair_boarding":1,"routes":[{"route_id":"19632","agency_id":"70006","route_short_name":"95","route_long_name":"Kingshighway","route_type":3,"route_color":"#FFFFFF","route_text_color":"#000000"}],"agency_name":"Metro St. Louis"},"geometry":{"type":"Point","coordinates":[-90.26792,38.61188]}},{"type":"Feature","properties":{"stop_id":"2316","stop_code":"2316","stop_name":"KINGSHIGHWAY @ MAGNOLIA SB","stop_desc":"FAR SIDE KINGSHIGHWAY @ MAGNOLIA SB","wheelchair_boarding":2,"routes":[{"route_id":"19632","agency_id":"70006","route_short_name":"95","route_long_name":"Kingshighway","route_type":3,"route_color":"#FFFFFF","route_text_color":"#000000"}],"agency_name":"Metro St. Louis"},"geometry":{"type":"Point","coordinates":[-90.26844,38.60947]}},{"type":"Feature","properties":{"stop_id":"2317","stop_code":"2317","stop_name":"KINGSHIGHWAY @ OLEATHA SB","stop_desc":"NEAR SIDE KINGSHIGHWAY @ OLEATHA SB","wheelchair_boarding":1,"routes":[{"route_id":"19632","agency_id":"70006","route_short_name":"95","route_long_name":"Kingshighway","route_type":3,"route_color":"#FFFFFF","route_text_color":"#000000"}],"agency_name":"Metro St. Louis"},"geometry":{"type":"Point","coordinates":[-90.27107,38.5961]}},{"type":"Feature","properties":{"stop_id":"2319","stop_code":"2319","stop_name":"KINGSHIGHWAY @ CHIPPEWA SB","stop_desc":"FAR SIDE KINGSHIGHWAY @ CHIPPEWA SB","wheelchair_boarding":1,"routes":[{"route_id":"19632","agency_id":"70006","route_short_name":"95","route_long_name":"Kingshighway","route_type":3,"route_color":"#FFFFFF","route_text_color":"#000000"}],"agency_name":"Metro St. Louis"},"geometry":{"type":"Point","coordinates":[-90.27363,38.59123]}},{"type":"Feature","properties":{"stop_id":"2321","stop_code":"2321","stop_name":"KINGSHIGHWAY @ BANCROFT SB","stop_desc":"FAR SIDE KINGSHIGHWAY @ BANCROFT SB","wheelchair_boarding":1,"routes":[{"route_id":"19632","agency_id":"70006","route_short_name":"95","route_long_name":"Kingshighway","route_type":3,"route_color":"#FFFFFF","route_text_color":"#000000"}],"agency_name":"Metro St. Louis"},"geometry":{"type":"Point","coordinates":[-90.27493,38.58932]}},{"type":"Feature","properties":{"stop_id":"2323","stop_code":"2323","stop_name":"KINGSHIGHWAY @ DEVONSHIRE SB","stop_desc":"NEAR SIDE KINGSHIGHWAY @ DEVONSHIRE SB","wheelchair_boarding":1,"routes":[{"route_id":"19632","agency_id":"70006","route_short_name":"95","route_long_name":"Kingshighway","route_type":3,"route_color":"#FFFFFF","route_text_color":"#000000"}],"agency_name":"Metro St. Louis"},"geometry":{"type":"Point","coordinates":[-90.27636,38.58709]}},{"type":"Feature","properties":{"stop_id":"2325","stop_code":"2325","stop_name":"KINGSHIGHWAY @ NOTTINGHAM SB","stop_desc":"NEAR SIDE KINGSHIGHWAY @ NOTTINGHAM SB","wheelchair_boarding":2,"routes":[{"route_id":"19632","agency_id":"70006","route_short_name":"95","route_long_name":"Kingshighway","route_type":3,"route_color":"#FFFFFF","route_text_color":"#000000"}],"agency_name":"Metro St. Louis"},"geometry":{"type":"Point","coordinates":[-90.27669,38.58538]}},{"type":"Feature","properties":{"stop_id":"2329","stop_code":"2329","stop_name":"KINGSHIGHWAY @ EICHELBERGER SB","stop_desc":"FAR SIDE KINGSHIGHWAY @ EICHELBERGER SB","wheelchair_boarding":1,"routes":[{"route_id":"19632","agency_id":"70006","route_short_name":"95","route_long_name":"Kingshighway","route_type":3,"route_color":"#FFFFFF","route_text_color":"#000000"}],"agency_name":"Metro St. Louis"},"geometry":{"type":"Point","coordinates":[-90.27902,38.58084]}},{"type":"Feature","properties":{"stop_id":"2343","stop_code":"2343","stop_name":"KINGSHIGHWAY @ MCREE SB","stop_desc":"FAR SIDE KINGSHIGHWAY @ MCREE SB","wheelchair_boarding":1,"routes":[{"route_id":"19632","agency_id":"70006","route_short_name":"95","route_long_name":"Kingshighway","route_type":3,"route_color":"#FFFFFF","route_text_color":"#000000"}],"agency_name":"Metro St. Louis"},"geometry":{"type":"Point","coordinates":[-90.2663,38.62006]}},{"type":"Feature","properties":{"stop_id":"2384","stop_code":"2384","stop_name":"WEST FLORISSANT @ EUCLID NB","stop_desc":"NEAR SIDE WEST FLORISSANT @ EUCLID NB","wheelchair_boarding":1,"routes":[{"route_id":"19624","agency_id":"70006","route_short_name":"74","route_long_name":"Florissant","route_type":3,"route_color":"#FFFFFF","route_text_color":"#000000"},{"route_id":"19632","agency_id":"70006","route_short_name":"95","route_long_name":"Kingshighway","route_type":3,"route_color":"#FFFFFF","route_text_color":"#000000"}],"agency_name":"Metro St. Louis"},"geometry":{"type":"Point","coordinates":[-90.2343,38.68936]}},{"type":"Feature","properties":{"stop_id":"2385","stop_code":"2385","stop_name":"WEST FLORISSANT @ SHREVE NB","stop_desc":"FAR SIDE WEST FLORISSANT @ SHREVE NB","wheelchair_boarding":1,"routes":[{"route_id":"19624","agency_id":"70006","route_short_name":"74","route_long_name":"Florissant","route_type":3,"route_color":"#FFFFFF","route_text_color":"#000000"},{"route_id":"19632","agency_id":"70006","route_short_name":"95","route_long_name":"Kingshighway","route_type":3,"route_color":"#FFFFFF","route_text_color":"#000000"}],"agency_name":"Metro St. Louis"},"geometry":{"type":"Point","coordinates":[-90.23214,38.6869]}},{"type":"Feature","properties":{"stop_id":"3390","stop_code":"3390","stop_name":"KINGSHIGHWAY @ ODELL SB","stop_desc":"NEAR SIDE KINGSHIGHWAY @ ODELL SB","wheelchair_boarding":2,"routes":[{"route_id":"19632","agency_id":"70006","route_short_name":"95","route_long_name":"Kingshighway","route_type":3,"route_color":"#FFFFFF","route_text_color":"#000000"}],"agency_name":"Metro St. Louis"},"geometry":{"type":"Point","coordinates":[-90.26905,38.60645]}},{"type":"Feature","properties":{"stop_id":"3392","stop_code":"3392","stop_name":"KINGSHIGHWAY @ CONNECTICUT WB","stop_desc":"FAR SIDE KINGSHIGHWAY @ CONNECTICUT WB","wheelchair_boarding":1,"routes":[{"route_id":"19632","agency_id":"70006","route_short_name":"95","route_long_name":"Kingshighway","route_type":3,"route_color":"#FFFFFF","route_text_color":"#000000"}],"agency_name":"Metro St. Louis"},"geometry":{"type":"Point","coordinates":[-90.26987,38.60205]}},{"type":"Feature","properties":{"stop_id":"3393","stop_code":"3393","stop_name":"KINGSHIGHWAY @ FYLER SB","stop_desc":"FAR SIDE KINGSHIGHWAY @ FYLER SB","wheelchair_boarding":2,"routes":[{"route_id":"19632","agency_id":"70006","route_short_name":"95","route_long_name":"Kingshighway","route_type":3,"route_color":"#FFFFFF","route_text_color":"#000000"}],"agency_name":"Metro St. Louis"},"geometry":{"type":"Point","coordinates":[-90.27043,38.59929]}},{"type":"Feature","properties":{"stop_id":"5332","stop_code":"5332","stop_name":"TAYLOR @ PARKVIEW PLACE SB","stop_desc":"NEAR SIDE TAYLOR @ PARKVIEW PLACE SB","wheelchair_boarding":1,"routes":[{"route_id":"19592","agency_id":"70006","route_short_name":"1","route_long_name":"Gold","route_type":3,"route_color":"#FFFFFF","route_text_color":"#000000"},{"route_id":"19598","agency_id":"70006","route_short_name":"10","route_long_name":"Gravois-Lindell","route_type":3,"route_color":"#FFFFFF","route_text_color":"#000000"},{"route_id":"19600","agency_id":"70006","route_short_name":"13","route_long_name":"Union","route_type":3,"route_color":"#FFFFFF","route_text_color":"#000000"},{"route_id":"19602","agency_id":"70006","route_short_name":"18","route_long_name":"Taylor","route_type":3,"route_color":"#FFFFFF","route_text_color":"#000000"},{"route_id":"19613","agency_id":"70006","route_short_name":"42","route_long_name":"Sarah","route_type":3,"route_color":"#FFFFFF","route_text_color":"#000000"},{"route_id":"19632","agency_id":"70006","route_short_name":"95","route_long_name":"Kingshighway","route_type":3,"route_color":"#FFFFFF","route_text_color":"#000000"}],"agency_name":"Metro St. Louis"},"geometry":{"type":"Point","coordinates":[-90.25974,38.6373]}},{"type":"Feature","properties":{"stop_id":"5336","stop_code":"5336","stop_name":"BARNES JEWISH HOSPITAL PLAZA WB","stop_desc":"MID-BLOCK BARNES JEWISH HOSPITAL PLAZA WB","wheelchair_boarding":1,"routes":[{"route_id":"19618","agency_id":"70006","route_short_name":"59","route_long_name":"Oakland","route_type":3,"route_color":"#FFFFFF","route_text_color":"#000000"},{"route_id":"19632","agency_id":"70006","route_short_name":"95","route_long_name":"Kingshighway","route_type":3,"route_color":"#FFFFFF","route_text_color":"#000000"}],"agency_name":"Metro St. Louis"},"geometry":{"type":"Point","coordinates":[-90.26495,38.63483]}},{"type":"Feature","properties":{"stop_id":"7593","stop_code":"7593","stop_name":"GRAVOIS @ NAGEL WB","stop_desc":"FAR SIDE GRAVOIS @ NAGEL WB","wheelchair_boarding":1,"routes":[{"route_id":"19598","agency_id":"70006","route_short_name":"10","route_long_name":"Gravois-Lindell","route_type":3,"route_color":"#FFFFFF","route_text_color":"#000000"},{"route_id":"19632","agency_id":"70006","route_short_name":"95","route_long_name":"Kingshighway","route_type":3,"route_color":"#FFFFFF","route_text_color":"#000000"}],"agency_name":"Metro St. Louis"},"geometry":{"type":"Point","coordinates":[-90.28787,38.56816]}},{"type":"Feature","properties":{"stop_id":"7679","stop_code":"7679","stop_name":"GRAVOIS @ LOUGHBOROUGH WB","stop_desc":"FAR SIDE GRAVOIS @ LOUGHBOROUGH WB","wheelchair_boarding":1,"routes":[{"route_id":"19598","agency_id":"70006","route_short_name":"10","route_long_name":"Gravois-Lindell","route_type":3,"route_color":"#FFFFFF","route_text_color":"#000000"},{"route_id":"19632","agency_id":"70006","route_short_name":"95","route_long_name":"Kingshighway","route_type":3,"route_color":"#FFFFFF","route_text_color":"#000000"}],"agency_name":"Metro St. Louis"},"geometry":{"type":"Point","coordinates":[-90.28539,38.56996]}},{"type":"Feature","properties":{"stop_id":"768","stop_code":"768","stop_name":"GRAVOIS-HAMPTON TRANSIT CENTER","wheelchair_boarding":1,"routes":[{"route_id":"19598","agency_id":"70006","route_short_name":"10","route_long_name":"Gravois-Lindell","route_type":3,"route_color":"#FFFFFF","route_text_color":"#000000"},{"route_id":"19629","agency_id":"70006","route_short_name":"90","route_long_name":"Hampton","route_type":3,"route_color":"#FFFFFF","route_text_color":"#000000"},{"route_id":"19632","agency_id":"70006","route_short_name":"95","route_long_name":"Kingshighway","route_type":3,"route_color":"#FFFFFF","route_text_color":"#000000"}],"agency_name":"Metro St. Louis"},"geometry":{"type":"Point","coordinates":[-90.29389,38.56476]}},{"type":"Feature","properties":{"stop_id":"7681","stop_code":"7681","stop_name":"GRAVOIS @ ALLEMANIA WB","stop_desc":"NEAR SIDE GRAVOIS @ ALLEMANIA WB","wheelchair_boarding":1,"routes":[{"route_id":"19598","agency_id":"70006","route_short_name":"10","route_long_name":"Gravois-Lindell","route_type":3,"route_color":"#FFFFFF","route_text_color":"#000000"},{"route_id":"19632","agency_id":"70006","route_short_name":"95","route_long_name":"Kingshighway","route_type":3,"route_color":"#FFFFFF","route_text_color":"#000000"}],"agency_name":"Metro St. Louis"},"geometry":{"type":"Point","coordinates":[-90.29188,38.56574]}},{"type":"Feature","properties":{"stop_id":"8531","stop_code":"8531","stop_name":"TAYLOR @ MCKINLEY SB","stop_desc":"NEAR SIDE TAYLOR @ MCKINLEY SB","wheelchair_boarding":1,"routes":[{"route_id":"19596","agency_id":"70006","route_short_name":"8","route_long_name":"Shaw-Cherokee","route_type":3,"route_color":"#FFFFFF","route_text_color":"#000000"},{"route_id":"19618","agency_id":"70006","route_short_name":"59","route_long_name":"Oakland","route_type":3,"route_color":"#FFFFFF","route_text_color":"#000000"},{"route_id":"19632","agency_id":"70006","route_short_name":"95","route_long_name":"Kingshighway","route_type":3,"route_color":"#FFFFFF","route_text_color":"#000000"}],"agency_name":"Metro St. Louis"},"geometry":{"type":"Point","coordinates":[-90.26005,38.63412]}},{"type":"Feature","properties":{"stop_id":"8532","stop_code":"8532","stop_name":"CLAYTON @ TAYLOR WB","stop_desc":"FAR SIDE CLAYTON @ TAYLOR WB","wheelchair_boarding":2,"routes":[{"route_id":"19618","agency_id":"70006","route_short_name":"59","route_long_name":"Oakland","route_type":3,"route_color":"#FFFFFF","route_text_color":"#000000"},{"route_id":"19632","agency_id":"70006","route_short_name":"95","route_long_name":"Kingshighway","route_type":3,"route_color":"#FFFFFF","route_text_color":"#000000"}],"agency_name":"Metro St. Louis"},"geometry":{"type":"Point","coordinates":[-90.26083,38.63308]}},{"type":"Feature","properties":{"stop_id":"8939","stop_code":"8939","stop_name":"KINGSHIGHWAY @ MILENTZ SB","stop_desc":"FAR SIDE KINGSHIGHWAY @ MILENTZ SB","wheelchair_boarding":2,"routes":[{"route_id":"19632","agency_id":"70006","route_short_name":"95","route_long_name":"Kingshighway","route_type":3,"route_color":"#FFFFFF","route_text_color":"#000000"}],"agency_name":"Metro St. Louis"},"geometry":{"type":"Point","coordinates":[-90.28232,38.5784]}}]}