{"type":"FeatureCollection","features":[{"type":"Feature","properties":{"agency_name":"Metro St. Louis","route_id":"19635","agency_id":"70006","route_short_name":"100","route_long_name":"Hazelwood","route_type":3,"route_color":"#FFFFFF","route_text_color":"#000000"},"geometry":{"type":"MultiLineString","coordinates":[[[-90.31539,38.71975],[-90.3153,38.71956],[-90.31539,38.71975],[-90.31561,38.71975],[-90.31577,38.71967],[-90.31586,38.7195],[-90.31606,38.71875],[-90.3161,38.71825],[-90.31606,38.71782],[-90.31624,38.71782],[-90.31782,38.71823],[-90.31762,38.71869],[-90.31721,38.71952],[-90.31716,38.71967],[-90.3171,38.72013],[-90.31713,38.72098],[-90.31719,38.72146],[-90.31718,38.72166],[-90.31708,38.7221],[-90.31685,38.7229],[-90.31677,38.72334],[-90.31679,38.72365],[-90.31687,38.72395],[-90.31696,38.72414],[-90.31723,38.72455],[-90.31906,38.72665],[-90.31928,38.72689],[-90.31953,38.72712],[-90.3198,38.72732],[-90.32011,38.7275],[-90.32373,38.72935],[-90.32411,38.72958],[-90.32439,38.72978],[-90.32519,38.73046],[-90.32658,38.73149],[-90.32729,38.73206],[-90.33078,38.73469],[-90.33102,38.73493],[-90.33123,38.73519],[-90.33162,38.73574],[-90.33447,38.74017],[-90.33456,38.74036],[-90.33465,38.74067],[-90.33469,38.74089],[-90.3347,38.74116],[-90.33469,38.7432],[-90.33471,38.74461],[-90.33491,38.74773],[-90.335,38.7489],[-90.33508,38.74955],[-90.33554,38.74995],[-90.33637,38.74968],[-90.33676,38.74963],[-90.33726,38.74963],[-90.33801,38.74967],[-90.34037,38.74967],[-90.34329,38.7497],[-90.34532,38.74969],[-90.34561,38.74971],[-90.34655,38.74972],[-90.34712,38.74975],[-90.3473,38.74974],[-90.34766,38.74985],[-90.34796,38.75],[-90.34822,38.75017],[-90.34837,38.75031],[-90.34852,38.75048],[-90.34865,38.75067],[-90.3488,38.75106],[-90.34882,38.75143],[-90.34877,38.75423],[-90.34875,38.75632],[-90.34876,38.75663],[-90.34879,38.75683],[-90.34885,38.75702],[-90.34894,38.7572],[-90.34926,38.75759],[-90.34952,38.75777],[-90.34972,38.75788],[-90.35071,38.75828],[-90.35289,38.75913],[-90.35519,38.76002],[-90.3556,38.76014],[-90.35612,38.76024],[-90.35658,38.76027],[-90.35704,38.76025],[-90.35972,38.75996],[-90.36002,38.75994],[-90.36049,38.75995],[-90.36104,38.76004],[-90.3614,38.76014],[-90.36178,38.76029],[-90.36216,38.76048],[-90.36267,38.76077],[-90.36337,38.7612],[-90.36699,38.76331],[-90.36932,38.76472],[-90.37573,38.76852],[-90.37765,38.76945],[-90.3781,38.76893],[-90.38006,38.76687],[-90.38127,38.76551],[-90.38154,38.76523],[-90.38176,38.76504],[-90.38237,38.76457],[-90.38311,38.76501],[-90.38349,38.76529],[-90.38394,38.76569],[-90.38433,38.76609],[-90.38464,38.7665],[-90.38491,38.76693],[-90.38512,38.76736],[-90.38574,38.76891],[-90.38589,38.76925],[-90.38608,38.76945],[-90.38635,38.76963],[-90.3832,38.7729],[-90.3859,38.77447],[-90.38695,38.77442],[-90.38791,38.77391],[-90.38839,38.77369],[-90.38881,38.77355],[-90.38925,38.77346],[-90.39036,38.77332],[-90.39058,38.77327],[-90.39079,38.77317],[-90.39097,38.77305],[-90.39389,38.77001],[-90.39495,38.76894],[-90.39619,38.77017],[-90.39668,38.77058],[-90.39692,38.77075],[-90.39902,38.77199],[-90.40065,38.77288],[-90.40193,38.77322],[-90.40222,38.77315],[-90.40264,38.773],[-90.40315,38.77273],[-90.40333,38.77261],[-90.40431,38.77183],[-90.40486,38.77155],[-90.40512,38.77145],[-90.40546,38.77138],[-90.40574,38.77135],[-90.40607,38.77135],[-90.40634,38.77138],[-90.40664,38.77144],[-90.40687,38.77151],[-90.40725,38.77166],[-90.408,38.77202],[-90.40838,38.77223],[-90.40859,38.77232],[-90.41053,38.77372],[-90.41144,38.77445],[-90.41205,38.77508],[-90.41441,38.77764],[-90.41532,38.77881],[-90.4157,38.77937],[-90.41596,38.77979],[-90.41649,38.78081],[-90.41732,38.78234],[-90.41746,38.78272],[-90.41755,38.78313],[-90.41756,38.78326],[-90.41754,38.78342],[-90.41751,38.78358],[-90.41745,38.78374],[-90.41727,38.78402],[-90.41712,38.78417],[-90.41676,38.78446],[-90.41653,38.78462],[-90.41612,38.78486],[-90.41533,38.78526],[-90.4152,38.78528],[-90.41493,38.7852],[-90.4148,38.78505],[-90.41462,38.78475],[-90.41449,38.78441],[-90.41445,38.78421],[-90.41443,38.78382],[-90.41445,38.7832],[-90.41448,38.78301],[-90.41398,38.78299],[-90.41377,38.78302],[-90.41334,38.78314],[-90.4122,38.78363],[-90.412,38.78374],[-90.41136,38.78415],[-90.41108,38.7843],[-90.40984,38.78483],[-90.40672,38.78681],[-90.40649,38.78705],[-90.40615,38.78751],[-90.41173,38.79293],[-90.41212,38.79316],[-90.41253,38.79326],[-90.41297,38.79329],[-90.41335,38.79324],[-90.41362,38.79315],[-90.41376,38.79334],[-90.41377,38.79348],[-90.41365,38.79365],[-90.4088,38.79749],[-90.40441,38.79831],[-90.40377,38.79807],[-90.40088,38.79631],[-90.40276,38.7944]],[[-90.3654,38.76258],[-90.3645,38.76185],[-90.3654,38.76258],[-90.36516,38.76261],[-90.36502,38.76267],[-90.36482,38.76288],[-90.36481,38.76292],[-90.36483,38.76295],[-90.36502,38.76305],[-90.36506,38.76305],[-90.36532,38.76279],[-90.3654,38.76258]]]}},{"type":"Feature","properties":{"stop_id":"13565","stop_code":"13565","stop_name":"CAMPUS PARKWAY @ JAMES MCDONNELL WB","stop_desc":"FAR SIDE CAMPUS PARKWAY @ JAMES MCDONNELL WB","wheelchair_boarding":2,"routes":[{"route_id":"19635","agency_id":"70006","route_short_name":"100","route_long_name":"Hazelwood","route_type":3,"route_color":"#FFFFFF","route_text_color":"#000000"}],"agency_name":"Metro St. Louis"},"geometry":{"type":"Point","coordinates":[-90.38713,38.77443]}},{"type":"Feature","properties":{"stop_id":"13636","stop_code":"13636","stop_name":"AIRPORT @ NORTH HANLEY WB","stop_desc":"FAR SIDE AIRPORT @ NORTH HANLEY WB","wheelchair_boarding":1,"routes":[{"route_id":"19635","agency_id":"70006","route_short_name":"100","route_long_name":"Hazelwood","route_type":3,"route_color":"#FFFFFF","route_text_color":"#000000"}],"agency_name":"Metro St. Louis"},"geometry":{"type":"Point","coordinates":[-90.33584,38.74995]}},{"type":"Feature","properties":{"stop_id":"14654","stop_code":"14654","stop_name":"NORTH HANLEY @ MADISON NB","stop_desc":"FAR SIDE NORTH HANLEY @ MADISON NB","wheelchair_boarding":1,"routes":[{"route_id":"19620","agency_id":"70006","route_short_name":"61","route_long_name":"Chambers Rd","route_type":3,"route_color":"#FFFFFF","route_text_color":"#000000"},{"route_id":"19625","agency_id":"70006","route_short_name":"76","route_long_name":"N Hanley Shuttle","route_type":3,"route_color":"#FFFFFF","route_text_color":"#000000"},{"route_id":"19626","agency_id":"70006","route_short_name":"77","route_long_name":"Village Square","route_type":3,"route_color":"#FFFFFF","route_text_color":"#000000"},{"route_id":"19635","agency_id":"70006","route_short_name":"100","route_long_name":"Hazelwood","route_type":3,"route_color":"#FFFFFF","route_text_color":"#000000"}],"agency_name":"Metro St. Louis"},"geometry":{"type":"Point","coordinates":[-90.33479,38.74691]}},{"type":"Feature","properties":{"stop_id":"15205","stop_code":"15205","stop_name":"CAMPUS PARKWAY @ HORNET SB","stop_desc":"NEAR SIDE CAMPUS PARKWAY @ HORNET SB","wheelchair_boarding":2,"routes":[{"route_id":"19635","agency_id":"70006","route_short_name":"100","route_long_name":"Hazelwood","route_type":3,"route_color":"#FFFFFF","route_text_color":"#000000"}],"agency_name":"Metro St. Louis"},"geometry":{"type":"Point","coordinates":[-90.39362,38.77038]}},{"type":"Feature","properties":{"stop_id":"15207","stop_code":"15207","stop_name":"PHANTOM @ HAZELWOOD LOGISTICS CENTER NB","stop_desc":"FAR SIDE PHANTOM @ HAZELWOOD LOGISTICS CENTER NB","wheelchair_boarding":2,"routes":[{"route_id":"19635","agency_id":"70006","route_short_name":"100","route_long_name":"Hazelwood","route_type":3,"route_color":"#FFFFFF","route_text_color":"#000000"}],"agency_name":"Metro St. Louis"},"geometry":{"type":"Point","coordinates":[-90.38607,38.76988]}},{"type":"Feature","properties":{"stop_id":"15209","stop_code":"15209","stop_name":"MISSOURI BOTTOM @ OFF RAMP 22B-A I-270 WB","stop_desc":"MID-BLOCK MISSOURI BOTTOM @ OFF RAMP 22B-A I-270 WB","wheelchair_boarding":2,"routes":[{"route_id":"19635","agency_id":"70006","route_short_name":"100","route_long_name":"Hazelwood","route_type":3,"route_color":"#FFFFFF","route_text_color":"#000000"}],"agency_name":"Metro St. Louis"},"geometry":{"type":"Point","coordinates":[-90.39836,38.7717]}},{"type":"Feature","properties":{"stop_id":"15619","stop_code":"15619","stop_name":"VALLEY INDUSTRIES LOOP","stop_desc":"MID-BLOCK VALLEY INDUSTRIES LOOP","wheelchair_boarding":1,"routes":[{"route_id":"19635","agency_id":"70006","route_short_name":"100","route_long_name":"Hazelwood","route_type":3,"route_color":"#FFFFFF","route_text_color":"#000000"}],"agency_name":"Metro St. Louis"},"geometry":{"type":"Point","coordinates":[-90.36456,38.76293]}},{"type":"Feature","properties":{"stop_id":"16063","stop_code":"16063","stop_name":"NORTH HANLEY TRANSIT CENTER","wheelchair_boarding":1,"routes":[{"route_id":"19628","agency_id":"70006","route_short_name":"79","route_long_name":"Ferguson-Clayton","route_type":3,"route_color":"#FFFFFF","route_text_color":"#000000"},{"route_id":"19634","agency_id":"70006","route_short_name":"98","route_long_name":"Ballas-North Hanley","route_type":3,"route_color":"#FFFFFF","route_text_color":"#000000"},{"route_id":"19635","agency_id":"70006","route_short_name":"100","route_long_name":"Hazelwood","route_type":3,"route_color":"#FFFFFF","route_text_color":"#000000"}],"agency_name":"Metro St. Louis"},"geometry":{"type":"Point","coordinates":[-90.31522,38.71962]}},{"type":"Feature","properties":{"stop_id":"16147","stop_code":"16147","stop_name":"MCDONNELL @ GENAIRE NB","stop_desc":"NEAR SIDE MCDONNELL @ GENAIRE NB","wheelchair_boarding":2,"routes":[{"route_id":"19635","agency_id":"70006","route_short_name":"100","route_long_name":"Hazelwood","route_type":3,"route_color":"#FFFFFF","route_text_color":"#000000"}],"agency_name":"Metro St. Louis"},"geometry":{"type":"Point","coordinates":[-90.34871,38.75116]}},{"type":"Feature","properties":{"stop_id":"16190","stop_code":"16190","stop_name":"MCDONNELL @ BYASSEE NB","stop_desc":"FAR SIDE MCDONNELL @ BYASSEE NB","wheelchair_boarding":2,"routes":[{"route_id":"19635","agency_id":"70006","route_short_name":"100","route_long_name":"Hazelwood","route_type":3,"route_color":"#FFFFFF","route_text_color":"#000000"}],"agency_name":"Metro St. Louis"},"geometry":{"type":"Point","coordinates":[-90.36355,38.76136]}},{"type":"Feature","properties":{"stop_id":"16355","stop_code":"16355","stop_name":"HAZELWOOD LOGISTICS @ FEE FEE WB","stop_desc":"FAR SIDE HAZELWOOD LOGISTICS @ FEE FEE WB","wheelchair_boarding":2,"routes":[{"route_id":"19635","agency_id":"70006","route_short_name":"100","route_long_name":"Hazelwood","route_type":3,"route_color":"#FFFFFF","route_text_color":"#000000"}],"agency_name":"Metro St. Louis"},"geometry":{"type":"Point","coordinates":[-90.38253,38.76476]}},{"type":"Feature","properties":{"stop_id":"16356","stop_code":"16356","stop_name":"441 HAZELWOOD LOGISTICS CENTER WB","stop_desc":"NEAR SIDE 441 HAZELWOOD LOGISTICS CENTER WB","wheelchair_boarding":1,"routes":[{"route_id":"19635","agency_id":"70006","route_short_name":"100","route_long_name":"Hazelwood","route_type":3,"route_color":"#FFFFFF","route_text_color":"#000000"}],"agency_name":"Metro St. Louis"},"geometry":{"type":"Point","coordinates":[-90.38468,38.76666]}},{"type":"Feature","properties":{"stop_id":"16403","stop_code":"16403","stop_name":"PARK 370 @ PARK 370 PLACE NB","stop_desc":"NEAR SIDE PARK 370 @ PARK 370 PLACE NB","wheelchair_boarding":2,"routes":[{"route_id":"19635","agency_id":"70006","route_short_name":"100","route_long_name":"Hazelwood","route_type":3,"route_color":"#FFFFFF","route_text_color":"#000000"}],"agency_name":"Metro St. Louis"},"geometry":{"type":"Point","coordinates":[-90.40929,38.79062]}},{"type":"Feature","properties":{"stop_id":"16404","stop_code":"16404","stop_name":"NORTH HANLEY @ IRVINGTON NB","stop_desc":"FAR SIDE NORTH HANLEY @ IRVINGTON NB","wheelchair_boarding":2,"routes":[{"route_id":"19620","agency_id":"70006","route_short_name":"61","route_long_name":"Chambers Rd","route_type":3,"route_color":"#FFFFFF","route_text_color":"#000000"},{"route_id":"19625","agency_id":"70006","route_short_name":"76","route_long_name":"N Hanley Shuttle","route_type":3,"route_color":"#FFFFFF","route_text_color":"#000000"},{"route_id":"19626","agency_id":"70006","route_short_name":"77","route_long_name":"Village Square","route_type":3,"route_color":"#FFFFFF","route_text_color":"#000000"},{"route_id":"19635","agency_id":"70006","route_short_name":"100","route_long_name":"Hazelwood","route_type":3,"route_color":"#FFFFFF","route_text_color":"#000000"}],"agency_name":"Metro St. Louis"},"geometry":{"type":"Point","coordinates":[-90.33064,38.73465]}},{"type":"Feature","properties":{"stop_id":"16413","stop_code":"16413","stop_name":"TRADEPORT COURT TIME POINT","wheelchair_boarding":2,"routes":[{"route_id":"19635","agency_id":"70006","route_short_name":"100","route_long_name":"Hazelwood","route_type":3,"route_color":"#FFFFFF","route_text_color":"#000000"}],"agency_name":"Metro St. Louis"},"geometry":{"type":"Point","coordinates":[-90.40291,38.79435]}},{"type":"Feature","properties":{"stop_id":"16414","stop_code":"16414","stop_name":"TRADE ACCESS @ TRADEPORT NB","stop_desc":"NEAR SIDE TRADE ACCESS @ TRADEPORT NB","wheelchair_boarding":1,"routes":[{"route_id":"19635","agency_id":"70006","route_short_name":"100","route_long_name":"Hazelwood","route_type":3,"route_color":"#FFFFFF","route_text_color":"#000000"}],"agency_name":"Metro St. Louis"},"geometry":{"type":"Point","coordinates":[-90.40689,38.79937]}},{"type":"Feature","properties":{"stop_id":"16415","stop_code":"16415","stop_name":"TRADEPORT @ TRADEPORT COURT EB","stop_desc":"NEAR SIDE TRADEPORT @ TRADEPORT COURT EB","wheelchair_boarding":1,"routes":[{"route_id":"19635","agency_id":"70006","route_short_name":"100","route_long_name":"Hazelwood","route_type":3,"route_color":"#FFFFFF","route_text_color":"#000000"}],"agency_name":"Metro St. Louis"},"geometry":{"type":"Point","coordinates":[-90.40111,38.79642]}},{"type":"Feature","properties":{"stop_id":"16421","stop_code":"16421","stop_name":"PARK 370 @ PARK 370 COURT NB","stop_desc":"FAR SIDE PARK 370 @ PARK 370 COURT NB","wheelchair_boarding":2,"routes":[{"route_id":"19635","agency_id":"70006","route_short_name":"100","route_long_name":"Hazelwood","route_type":3,"route_color":"#FFFFFF","route_text_color":"#000000"}],"agency_name":"Metro St. Louis"},"geometry":{"type":"Point","coordinates":[-90.40647,38.78792]}},{"type":"Feature","properties":{"stop_id":"16422","stop_code":"16422","stop_name":"1605 PARK 370 NB","stop_desc":"NEAR SIDE 1605 PARK 370 NB","wheelchair_boarding":1,"routes":[{"route_id":"19635","agency_id":"70006","route_short_name":"100","route_long_name":"Hazelwood","route_type":3,"route_color":"#FFFFFF","route_text_color":"#000000"}],"agency_name":"Metro St. Louis"},"geometry":{"type":"Point","coordinates":[-90.41081,38.79212]}},{"type":"Feature","properties":{"stop_id":"16502","stop_code":"16502","stop_name":"FEE FEE @ MCDONNELL SB","stop_desc":"FAR SIDE FEE FEE @ MCDONNELL SB","wheelchair_boarding":2,"routes":[{"route_id":"19635","agency_id":"70006","route_short_name":"100","route_long_name":"Hazelwood","route_type":3,"route_color":"#FFFFFF","route_text_color":"#000000"}],"agency_name":"Metro St. Louis"},"geometry":{"type":"Point","coordinates":[-90.37774,38.76948]}},{"type":"Feature","properties":{"stop_id":"16542","stop_code":"16542","stop_name":"370 OFFRAMP @ ST LOUIS MILLS BLVD NB","stop_desc":"NEAR SIDE 370 OFFRAMP @ ST LOUIS MILLS BLVD NB","wheelchair_boarding":2,"routes":[{"route_id":"19635","agency_id":"70006","route_short_name":"100","route_long_name":"Hazelwood","route_type":3,"route_color":"#FFFFFF","route_text_color":"#000000"}],"agency_name":"Metro St. Louis"},"geometry":{"type":"Point","coordinates":[-90.41546,38.78515]}},{"type":"Feature","properties":{"stop_id":"16543","stop_code":"16543","stop_name":"PARK 370 @ ST LOUIS MILLS BLVD EB","stop_desc":"FAR SIDE PARK 370 @ ST LOUIS MILLS BLVD EB","wheelchair_boarding":2,"routes":[{"route_id":"19635","agency_id":"70006","route_short_name":"100","route_long_name":"Hazelwood","route_type":3,"route_color":"#FFFFFF","route_text_color":"#000000"}],"agency_name":"Metro St. Louis"},"geometry":{"type":"Point","coordinates":[-90.41324,38.78309]}},{"type":"Feature","properties":{"stop_id":"4581","stop_code":"4581","stop_name":"AIRPORT @ BUILDING 101 WB","stop_desc":"NEAR SIDE AIRPORT @ BUILDING 101 WB","wheelchair_boarding":2,"routes":[{"route_id":"19635","agency_id":"70006","route_short_name":"100","route_long_name":"Hazelwood","route_type":3,"route_color":"#FFFFFF","route_text_color":"#000000"}],"agency_name":"Metro St. Louis"},"geometry":{"type":"Point","coordinates":[-90.34346,38.74977]}},{"type":"Feature","properties":{"stop_id":"4586","stop_code":"4586","stop_name":"MCDONNELL @ LINDBERGH WB","stop_desc":"FAR SIDE MCDONNELL @ LINDBERGH WB","wheelchair_boarding":2,"routes":[{"route_id":"19635","agency_id":"70006","route_short_name":"100","route_long_name":"Hazelwood","route_type":3,"route_color":"#FFFFFF","route_text_color":"#000000"}],"agency_name":"Metro St. Louis"},"geometry":{"type":"Point","coordinates":[-90.37036,38.76548]}},{"type":"Feature","properties":{"stop_id":"4589","stop_code":"4589","stop_name":"MCDONNELL @ PHANTOM WB","stop_desc":"FAR SIDE MCDONNELL @ PHANTOM WB","wheelchair_boarding":2,"routes":[{"route_id":"19635","agency_id":"70006","route_short_name":"100","route_long_name":"Hazelwood","route_type":3,"route_color":"#FFFFFF","route_text_color":"#000000"}],"agency_name":"Metro St. Louis"},"geometry":{"type":"Point","coordinates":[-90.38359,38.77329]}},{"type":"Feature","properties":{"stop_id":"4595","stop_code":"4595","stop_name":"CAMPUS PARKWAY @ 5775 CAMPUS PARKWAY WB","stop_desc":"NEAR SIDE CAMPUS PARKWAY @ 5775 CAMPUS PARKWAY WB","wheelchair_boarding":1,"routes":[{"route_id":"19635","agency_id":"70006","route_short_name":"100","route_long_name":"Hazelwood","route_type":3,"route_color":"#FFFFFF","route_text_color":"#000000"}],"agency_name":"Metro St. Louis"},"geometry":{"type":"Point","coordinates":[-90.38984,38.77343]}},{"type":"Feature","properties":{"stop_id":"4604","stop_code":"4604","stop_name":"5757 PHANTOM NB","stop_desc":"NEAR SIDE 5757 PHANTOM NB","wheelchair_boarding":2,"routes":[{"route_id":"19635","agency_id":"70006","route_short_name":"100","route_long_name":"Hazelwood","route_type":3,"route_color":"#FFFFFF","route_text_color":"#000000"}],"agency_name":"Metro St. Louis"},"geometry":{"type":"Point","coordinates":[-90.38454,38.77144]}},{"type":"Feature","properties":{"stop_id":"5725","stop_code":"5725","stop_name":"MCDONNELL @ GATE 102 BOEING NB","stop_desc":"NEAR SIDE MCDONNELL @ GATE 102 BOEING NB","wheelchair_boarding":1,"routes":[{"route_id":"19635","agency_id":"70006","route_short_name":"100","route_long_name":"Hazelwood","route_type":3,"route_color":"#FFFFFF","route_text_color":"#000000"}],"agency_name":"Metro St. Louis"},"geometry":{"type":"Point","coordinates":[-90.34867,38.75575]}},{"type":"Feature","properties":{"stop_id":"5729","stop_code":"5729","stop_name":"MCDONNELL @ VALLEY INDUSTRIES NB","stop_desc":"NEAR SIDE MCDONNELL @ VALLEY INDUSTRIES NB","wheelchair_boarding":1,"routes":[{"route_id":"19635","agency_id":"70006","route_short_name":"100","route_long_name":"Hazelwood","route_type":3,"route_color":"#FFFFFF","route_text_color":"#000000"}],"agency_name":"Metro St. Louis"},"geometry":{"type":"Point","coordinates":[-90.36541,38.76244]}},{"type":"Feature","properties":{"stop_id":"5730","stop_code":"5730","stop_name":"MCDONNELL @ BUILDING 221 NB","stop_desc":"MID-BLOCK MCDONNELL @ BUILDING 221 NB","wheelchair_boarding":1,"routes":[{"route_id":"19635","agency_id":"70006","route_short_name":"100","route_long_name":"Hazelwood","route_type":3,"route_color":"#FFFFFF","route_text_color":"#000000"}],"agency_name":"Metro St. Louis"},"geometry":{"type":"Point","coordinates":[-90.36742,38.76363]}},{"type":"Feature","properties":{"stop_id":"6064","stop_code":"6064","stop_name":"NORTH HANLEY @ EVANS NB","stop_desc":"NEAR SIDE NORTH HANLEY @ EVANS NB","wheelchair_boarding":1,"routes":[{"route_id":"19620","agency_id":"70006","route_short_name":"61","route_long_name":"Chambers Rd","route_type":3,"route_color":"#FFFFFF","route_text_color":"#000000"},{"route_id":"19625","agency_id":"70006","route_short_name":"76","route_long_name":"N Hanley Shuttle","route_type":3,"route_color":"#FFFFFF","route_text_color":"#000000"},{"route_id":"19626","agency_id":"70006","route_short_name":"77","route_long_name":"Village Square","route_type":3,"route_color":"#FFFFFF","route_text_color":"#000000"},{"route_id":"19635","agency_id":"70006","route_short_name":"100","route_long_name":"Hazelwood","route_type":3,"route_color":"#FFFFFF","route_text_color":"#000000"}],"agency_name":"Metro St. Louis"},"geometry":{"type":"Point","coordinates":[-90.3168,38.72282]}},{"type":"Feature","properties":{"stop_id":"6067","stop_code":"6067","stop_name":"NORTH HANLEY @ ZEV NB","stop_desc":"FAR SIDE NORTH HANLEY @ ZEV NB","wheelchair_boarding":1,"routes":[{"route_id":"19620","agency_id":"70006","route_short_name":"61","route_long_name":"Chambers Rd","route_type":3,"route_color":"#FFFFFF","route_text_color":"#000000"},{"route_id":"19625","agency_id":"70006","route_short_name":"76","route_long_name":"N Hanley Shuttle","route_type":3,"route_color":"#FFFFFF","route_text_color":"#000000"},{"route_id":"19626","agency_id":"70006","route_short_name":"77","route_long_name":"Village Square","route_type":3,"route_color":"#FFFFFF","route_text_color":"#000000"},{"route_id":"19635","agency_id":"70006","route_short_name":"100","route_long_name":"Hazelwood","route_type":3,"route_color":"#FFFFFF","route_text_color":"#000000"}],"agency_name":"Metro St. Louis"},"geometry":{"type":"Point","coordinates":[-90.3216,38.72835]}},{"type":"Feature","properties":{"stop_id":"6068","stop_code":"6068","stop_name":"NORTH HANLEY @ REV JOHN MITCHELL NB","stop_desc":"NEAR SIDE NORTH HANLEY @ REV JOHN MITCHELL NB","wheelchair_boarding":1,"routes":[{"route_id":"19620","agency_id":"70006","route_short_name":"61","route_long_name":"Chambers Rd","route_type":3,"route_color":"#FFFFFF","route_text_color":"#000000"},{"route_id":"19625","agency_id":"70006","route_short_name":"76","route_long_name":"N Hanley Shuttle","route_type":3,"route_color":"#FFFFFF","route_text_color":"#000000"},{"route_id":"19626","agency_id":"70006","route_short_name":"77","route_long_name":"Village Square","route_type":3,"route_color":"#FFFFFF","route_text_color":"#000000"},{"route_id":"19635","agency_id":"70006","route_short_name":"100","route_long_name":"Hazelwood","route_type":3,"route_color":"#FFFFFF","route_text_color":"#000000"}],"agency_name":"Metro St. Louis"},"geometry":{"type":"Point","coordinates":[-90.32493,38.73034]}},{"type":"Feature","properties":{"stop_id":"6078","stop_code":"6078","stop_name":"NORTH HANLEY @ SCUDDER NB","stop_desc":"NEAR SIDE NORTH HANLEY @ SCUDDER NB","wheelchair_boarding":1,"routes":[{"route_id":"19620","agency_id":"70006","route_short_name":"61","route_long_name":"Chambers Rd","route_type":3,"route_color":"#FFFFFF","route_text_color":"#000000"},{"route_id":"19625","agency_id":"70006","route_short_name":"76","route_long_name":"N Hanley Shuttle","route_type":3,"route_color":"#FFFFFF","route_text_color":"#000000"},{"route_id":"19626","agency_id":"70006","route_short_name":"77","route_long_name":"Village Square","route_type":3,"route_color":"#FFFFFF","route_text_color":"#000000"},{"route_id":"19635","agency_id":"70006","route_short_name":"100","route_long_name":"Hazelwood","route_type":3,"route_color":"#FFFFFF","route_text_color":"#000000"}],"agency_name":"Metro St. Louis"},"geometry":{"type":"Point","coordinates":[-90.3346,38.74079]}},{"type":"Feature","properties":{"stop_id":"6079","stop_code":"6079","stop_name":"5860 NORTH HANLEY NB","stop_desc":"MID-BLOCK 5860 NORTH HANLEY NB","wheelchair_boarding":1,"routes":[{"route_id":"19620","agency_id":"70006","route_short_name":"61","route_long_name":"Chambers Rd","route_type":3,"route_color":"#FFFFFF","route_text_color":"#000000"},{"route_id":"19625","agency_id":"70006","route_short_name":"76","route_long_name":"N Hanley Shuttle","route_type":3,"route_color":"#FFFFFF","route_text_color":"#000000"},{"route_id":"19626","agency_id":"70006","route_short_name":"77","route_long_name":"Village Square","route_type":3,"route_color":"#FFFFFF","route_text_color":"#000000"},{"route_id":"19635","agency_id":"70006","route_short_name":"100","route_long_name":"Hazelwood","route_type":3,"route_color":"#FFFFFF","route_text_color":"#000000"}],"agency_name":"Metro St. Louis"},"geometry":{"type":"Point","coordinates":[-90.33463,38.74285]}},{"type":"Feature","properties":{"stop_id":"6080","stop_code":"6080","stop_name":"NORTH HANLEY @ 5TH AVENUE NB","stop_desc":"FAR SIDE NORTH HANLEY @ 5TH AVENUE NB","wheelchair_boarding":1,"routes":[{"route_id":"19620","agency_id":"70006","route_short_name":"61","route_long_name":"Chambers Rd","route_type":3,"route_color":"#FFFFFF","route_text_color":"#000000"},{"route_id":"19625","agency_id":"70006","route_short_name":"76","route_long_name":"N Hanley Shuttle","route_type":3,"route_color":"#FFFFFF","route_text_color":"#000000"},{"route_id":"19626","agency_id":"70006","route_short_name":"77","route_long_name":"Village Square","route_type":3,"route_color":"#FFFFFF","route_text_color":"#000000"},{"route_id":"19635","agency_id":"70006","route_short_name":"100","route_long_name":"Hazelwood","route_type":3,"route_color":"#FFFFFF","route_text_color":"#000000"}],"agency_name":"Metro St. Louis"},"geometry":{"type":"Point","coordinates":[-90.33468,38.74538]}}]}