{"type":"FeatureCollection","features":[{"type":"Feature","properties":{"agency_name":"Metro St. Louis","route_id":"19592","agency_id":"70006","route_short_name":"1","route_long_name":"Gold","route_type":3,"route_color":"#FFFFFF","route_text_color":"#000000"},"geometry":{"type":"MultiLineString","coordinates":[[[-90.30814,38.64688],[-90.30889,38.64696],[-90.30814,38.64688],[-90.30817,38.64666],[-90.30122,38.64598],[-90.30103,38.64735],[-90.3007,38.64932],[-90.30064,38.64993],[-90.30058,38.65029],[-90.29678,38.65054],[-90.29469,38.65035],[-90.29213,38.65007],[-90.29003,38.64988],[-90.28992,38.64988],[-90.28966,38.65005],[-90.28873,38.65022],[-90.28512,38.64986],[-90.28529,38.64866],[-90.28295,38.64845],[-90.27834,38.64798],[-90.27422,38.6476],[-90.27403,38.64878],[-90.27246,38.64905],[-90.27022,38.6488],[-90.26605,38.64839],[-90.26451,38.64822],[-90.2641,38.64815],[-90.26479,38.64416],[-90.26484,38.64394],[-90.26508,38.64361],[-90.26514,38.64342],[-90.2658,38.63957],[-90.26305,38.63901],[-90.26275,38.63901],[-90.26258,38.63905],[-90.26235,38.639],[-90.2621,38.63885],[-90.25935,38.63828],[-90.25971,38.6372],[-90.25973,38.63702],[-90.25966,38.63651],[-90.25961,38.63631],[-90.25977,38.63625],[-90.26009,38.6362],[-90.26049,38.63618],[-90.26058,38.6358],[-90.26054,38.63577]]]}},{"type":"Feature","properties":{"stop_id":"13426","stop_code":"13426","stop_name":"WATERMAN @ DEBALIVIERE EB","stop_desc":"NEAR SIDE WATERMAN @ DEBALIVIERE EB","wheelchair_boarding":1,"routes":[{"route_id":"19592","agency_id":"70006","route_short_name":"1","route_long_name":"Gold","route_type":3,"route_color":"#FFFFFF","route_text_color":"#000000"}],"agency_name":"Metro St. Louis"},"geometry":{"type":"Point","coordinates":[-90.2854,38.64988]}},{"type":"Feature","properties":{"stop_id":"13427","stop_code":"13427","stop_name":"PERSHING @ DEBALIVIERE EB","stop_desc":"FAR SIDE PERSHING @ DEBALIVIERE EB","wheelchair_boarding":1,"routes":[{"route_id":"19592","agency_id":"70006","route_short_name":"1","route_long_name":"Gold","route_type":3,"route_color":"#FFFFFF","route_text_color":"#000000"}],"agency_name":"Metro St. Louis"},"geometry":{"type":"Point","coordinates":[-90.28477,38.64858]}},{"type":"Feature","properties":{"stop_id":"13428","stop_code":"13428","stop_name":"PERSHING @ BELT EB","stop_desc":"NEAR SIDE PERSHING @ BELT EB","wheelchair_boarding":2,"routes":[{"route_id":"19592","agency_id":"70006","route_short_name":"1","route_long_name":"Gold","route_type":3,"route_color":"#FFFFFF","route_text_color":"#000000"}],"agency_name":"Metro St. Louis"},"geometry":{"type":"Point","coordinates":[-90.27889,38.64802]}},{"type":"Feature","properties":{"stop_id":"13516","stop_code":"13516","stop_name":"PERSHING @ CLARA EB","stop_desc":"FAR SIDE PERSHING @ CLARA EB","wheelchair_boarding":2,"routes":[{"route_id":"19592","agency_id":"70006","route_short_name":"1","route_long_name":"Gold","route_type":3,"route_color":"#FFFFFF","route_text_color":"#000000"}],"agency_name":"Metro St. Louis"},"geometry":{"type":"Point","coordinates":[-90.2823,38.64836]}},{"type":"Feature","properties":{"stop_id":"13518","stop_code":"13518","stop_name":"5370 PERSHING EB","stop_desc":"MID-BLOCK 5370 PERSHING EB","wheelchair_boarding":2,"routes":[{"route_id":"19592","agency_id":"70006","route_short_name":"1","route_long_name":"Gold","route_type":3,"route_color":"#FFFFFF","route_text_color":"#000000"}],"agency_name":"Metro St. Louis"},"geometry":{"type":"Point","coordinates":[-90.27712,38.64784]}},{"type":"Feature","properties":{"stop_id":"14484","stop_code":"14484","stop_name":"SKINKER @ PERSHING NB","stop_desc":"FAR SIDE SKINKER @ PERSHING NB","wheelchair_boarding":1,"routes":[{"route_id":"19592","agency_id":"70006","route_short_name":"1","route_long_name":"Gold","route_type":3,"route_color":"#FFFFFF","route_text_color":"#000000"},{"route_id":"19593","agency_id":"70006","route_short_name":"2","route_long_name":"Red","route_type":3,"route_color":"#FFFFFF","route_text_color":"#000000"},{"route_id":"19601","agency_id":"70006","route_short_name":"16","route_long_name":"City Limits","route_type":3,"route_color":"#FFFFFF","route_text_color":"#000000"}],"agency_name":"Metro St. Louis"},"geometry":{"type":"Point","coordinates":[-90.3005,38.65018]}},{"type":"Feature","properties":{"stop_id":"14792","stop_code":"14792","stop_name":"CENTRAL WEST END TRANSIT CENTER","wheelchair_boarding":1,"routes":[{"route_id":"19592","agency_id":"70006","route_short_name":"1","route_long_name":"Gold","route_type":3,"route_color":"#FFFFFF","route_text_color":"#000000"},{"route_id":"19596","agency_id":"70006","route_short_name":"8","route_long_name":"Shaw-Cherokee","route_type":3,"route_color":"#FFFFFF","route_text_color":"#000000"},{"route_id":"19598","agency_id":"70006","route_short_name":"10","route_long_name":"Gravois-Lindell","route_type":3,"route_color":"#FFFFFF","route_text_color":"#000000"},{"route_id":"19600","agency_id":"70006","route_short_name":"13","route_long_name":"Union","route_type":3,"route_color":"#FFFFFF","route_text_color":"#000000"},{"route_id":"19618","agency_id":"70006","route_short_name":"59","route_long_name":"Oakland","route_type":3,"route_color":"#FFFFFF","route_text_color":"#000000"},{"route_id":"19632","agency_id":"70006","route_short_name":"95","route_long_name":"Kingshighway","route_type":3,"route_color":"#FFFFFF","route_text_color":"#000000"}],"agency_name":"Metro St. Louis"},"geometry":{"type":"Point","coordinates":[-90.25999,38.63568]}},{"type":"Feature","properties":{"stop_id":"14818","stop_code":"14818","stop_name":"MALLINCKRODT CENTER","wheelchair_boarding":1,"routes":[{"route_id":"19592","agency_id":"70006","route_short_name":"1","route_long_name":"Gold","route_type":3,"route_color":"#FFFFFF","route_text_color":"#000000"},{"route_id":"19593","agency_id":"70006","route_short_name":"2","route_long_name":"Red","route_type":3,"route_color":"#FFFFFF","route_text_color":"#000000"},{"route_id":"19595","agency_id":"70006","route_short_name":"5","route_long_name":"Green","route_type":3,"route_color":"#FFFFFF","route_text_color":"#000000"}],"agency_name":"Metro St. Louis"},"geometry":{"type":"Point","coordinates":[-90.30886,38.64695]}},{"type":"Feature","properties":{"stop_id":"15018","stop_code":"15018","stop_name":"FORSYTH @ WRIGHTON WAY EB","stop_desc":"MID-BLOCK FORSYTH @ WRIGHTON WAY EB","wheelchair_boarding":2,"routes":[{"route_id":"19592","agency_id":"70006","route_short_name":"1","route_long_name":"Gold","route_type":3,"route_color":"#FFFFFF","route_text_color":"#000000"},{"route_id":"19593","agency_id":"70006","route_short_name":"2","route_long_name":"Red","route_type":3,"route_color":"#FFFFFF","route_text_color":"#000000"}],"agency_name":"Metro St. Louis"},"geometry":{"type":"Point","coordinates":[-90.30322,38.64615]}},{"type":"Feature","properties":{"stop_id":"15072","stop_code":"15072","stop_name":"UNION @ PERSHING NB","stop_desc":"FAR SIDE UNION @ PERSHING NB","wheelchair_boarding":1,"routes":[{"route_id":"19592","agency_id":"70006","route_short_name":"1","route_long_name":"Gold","route_type":3,"route_color":"#FFFFFF","route_text_color":"#000000"},{"route_id":"19600","agency_id":"70006","route_short_name":"13","route_long_name":"Union","route_type":3,"route_color":"#FFFFFF","route_text_color":"#000000"}],"agency_name":"Metro St. Louis"},"geometry":{"type":"Point","coordinates":[-90.27404,38.64794]}},{"type":"Feature","properties":{"stop_id":"2305","stop_code":"2305","stop_name":"KINGSHIGHWAY @ MARYLAND SB","stop_desc":"NEAR SIDE KINGSHIGHWAY @ MARYLAND SB","wheelchair_boarding":1,"routes":[{"route_id":"19592","agency_id":"70006","route_short_name":"1","route_long_name":"Gold","route_type":3,"route_color":"#FFFFFF","route_text_color":"#000000"},{"route_id":"19632","agency_id":"70006","route_short_name":"95","route_long_name":"Kingshighway","route_type":3,"route_color":"#FFFFFF","route_text_color":"#000000"}],"agency_name":"Metro St. Louis"},"geometry":{"type":"Point","coordinates":[-90.26462,38.64553]}},{"type":"Feature","properties":{"stop_id":"2306","stop_code":"2306","stop_name":"KINGSHIGHWAY @ LINDELL SB","stop_desc":"NEAR SIDE KINGSHIGHWAY @ LINDELL SB","wheelchair_boarding":1,"routes":[{"route_id":"19592","agency_id":"70006","route_short_name":"1","route_long_name":"Gold","route_type":3,"route_color":"#FFFFFF","route_text_color":"#000000"},{"route_id":"19632","agency_id":"70006","route_short_name":"95","route_long_name":"Kingshighway","route_type":3,"route_color":"#FFFFFF","route_text_color":"#000000"}],"agency_name":"Metro St. Louis"},"geometry":{"type":"Point","coordinates":[-90.26484,38.64431]}},{"type":"Feature","properties":{"stop_id":"2308","stop_code":"2308","stop_name":"FOREST PARK @ EUCLID EB","stop_desc":"FAR SIDE FOREST PARK @ EUCLID EB","wheelchair_boarding":1,"routes":[{"route_id":"19592","agency_id":"70006","route_short_name":"1","route_long_name":"Gold","route_type":3,"route_color":"#FFFFFF","route_text_color":"#000000"},{"route_id":"19598","agency_id":"70006","route_short_name":"10","route_long_name":"Gravois-Lindell","route_type":3,"route_color":"#FFFFFF","route_text_color":"#000000"},{"route_id":"19632","agency_id":"70006","route_short_name":"95","route_long_name":"Kingshighway","route_type":3,"route_color":"#FFFFFF","route_text_color":"#000000"}],"agency_name":"Metro St. Louis"},"geometry":{"type":"Point","coordinates":[-90.26217,38.63878]}},{"type":"Feature","properties":{"stop_id":"2638","stop_code":"2638","stop_name":"WATERMAN @ SKINKER EB","stop_desc":"FAR SIDE WATERMAN @ SKINKER EB","wheelchair_boarding":2,"routes":[{"route_id":"19592","agency_id":"70006","route_short_name":"1","route_long_name":"Gold","route_type":3,"route_color":"#FFFFFF","route_text_color":"#000000"}],"agency_name":"Metro St. Louis"},"geometry":{"type":"Point","coordinates":[-90.30015,38.65084]}},{"type":"Feature","properties":{"stop_id":"2732","stop_code":"2732","stop_name":"SKINKER @ FORSYTH NB","stop_desc":"FAR SIDE SKINKER @ FORSYTH NB","wheelchair_boarding":1,"routes":[{"route_id":"19592","agency_id":"70006","route_short_name":"1","route_long_name":"Gold","route_type":3,"route_color":"#FFFFFF","route_text_color":"#000000"},{"route_id":"19593","agency_id":"70006","route_short_name":"2","route_long_name":"Red","route_type":3,"route_color":"#FFFFFF","route_text_color":"#000000"},{"route_id":"19601","agency_id":"70006","route_short_name":"16","route_long_name":"City Limits","route_type":3,"route_color":"#FFFFFF","route_text_color":"#000000"}],"agency_name":"Metro St. Louis"},"geometry":{"type":"Point","coordinates":[-90.30103,38.64661]}},{"type":"Feature","properties":{"stop_id":"2734","stop_code":"2734","stop_name":"WATERMAN @ ROSEDALE EB","stop_desc":"NEAR SIDE WATERMAN @ ROSEDALE EB","wheelchair_boarding":2,"routes":[{"route_id":"19592","agency_id":"70006","route_short_name":"1","route_long_name":"Gold","route_type":3,"route_color":"#FFFFFF","route_text_color":"#000000"}],"agency_name":"Metro St. Louis"},"geometry":{"type":"Point","coordinates":[-90.29696,38.65052]}},{"type":"Feature","properties":{"stop_id":"2735","stop_code":"2735","stop_name":"WATERMAN @ DES PERES EB","stop_desc":"NEAR SIDE WATERMAN @ DES PERES EB","wheelchair_boarding":1,"routes":[{"route_id":"19592","agency_id":"70006","route_short_name":"1","route_long_name":"Gold","route_type":3,"route_color":"#FFFFFF","route_text_color":"#000000"}],"agency_name":"Metro St. Louis"},"geometry":{"type":"Point","coordinates":[-90.29461,38.6503]}},{"type":"Feature","properties":{"stop_id":"2737","stop_code":"2737","stop_name":"WATERMAN @ LAUREL EB","stop_desc":"NEAR SIDE WATERMAN @ LAUREL EB","wheelchair_boarding":2,"routes":[{"route_id":"19592","agency_id":"70006","route_short_name":"1","route_long_name":"Gold","route_type":3,"route_color":"#FFFFFF","route_text_color":"#000000"}],"agency_name":"Metro St. Louis"},"geometry":{"type":"Point","coordinates":[-90.29021,38.64987]}},{"type":"Feature","properties":{"stop_id":"2738","stop_code":"2738","stop_name":"WATERMAN @ DE GIVERVILLE EB","stop_desc":"NEAR SIDE WATERMAN @ DE GIVERVILLE EB","wheelchair_boarding":1,"routes":[{"route_id":"19592","agency_id":"70006","route_short_name":"1","route_long_name":"Gold","route_type":3,"route_color":"#FFFFFF","route_text_color":"#000000"}],"agency_name":"Metro St. Louis"},"geometry":{"type":"Point","coordinates":[-90.28917,38.65027]}},{"type":"Feature","properties":{"stop_id":"5332","stop_code":"5332","stop_name":"TAYLOR @ PARKVIEW PLACE SB","stop_desc":"NEAR SIDE TAYLOR @ PARKVIEW PLACE SB","wheelchair_boarding":1,"routes":[{"route_id":"19592","agency_id":"70006","route_short_name":"1","route_long_name":"Gold","route_type":3,"route_color":"#FFFFFF","route_text_color":"#000000"},{"route_id":"19598","agency_id":"70006","route_short_name":"10","route_long_name":"Gravois-Lindell","route_type":3,"route_color":"#FFFFFF","route_text_color":"#000000"},{"route_id":"19600","agency_id":"70006","route_short_name":"13","route_long_name":"Union","route_type":3,"route_color":"#FFFFFF","route_text_color":"#000000"},{"route_id":"19602","agency_id":"70006","route_short_name":"18","route_long_name":"Taylor","route_type":3,"route_color":"#FFFFFF","route_text_color":"#000000"},{"route_id":"19613","agency_id":"70006","route_short_name":"42","route_long_name":"Sarah","route_type":3,"route_color":"#FFFFFF","route_text_color":"#000000"},{"route_id":"19632","agency_id":"70006","route_short_name":"95","route_long_name":"Kingshighway","route_type":3,"route_color":"#FFFFFF","route_text_color":"#000000"}],"agency_name":"Metro St. Louis"},"geometry":{"type":"Point","coordinates":[-90.25974,38.6373]}},{"type":"Feature","properties":{"stop_id":"8601","stop_code":"8601","stop_name":"WATERMAN @ UNION EB","stop_desc":"FAR SIDE WATERMAN @ UNION EB","wheelchair_boarding":2,"routes":[{"route_id":"19592","agency_id":"70006","route_short_name":"1","route_long_name":"Gold","route_type":3,"route_color":"#FFFFFF","route_text_color":"#000000"}],"agency_name":"Metro St. Louis"},"geometry":{"type":"Point","coordinates":[-90.27341,38.6491]}},{"type":"Feature","properties":{"stop_id":"8602","stop_code":"8602","stop_name":"WATERMAN @ LAKE EB","stop_desc":"NEAR SIDE WATERMAN @ LAKE EB","wheelchair_boarding":2,"routes":[{"route_id":"19592","agency_id":"70006","route_short_name":"1","route_long_name":"Gold","route_type":3,"route_color":"#FFFFFF","route_text_color":"#000000"}],"agency_name":"Metro St. Louis"},"geometry":{"type":"Point","coordinates":[-90.27046,38.6488]}},{"type":"Feature","properties":{"stop_id":"8603","stop_code":"8603","stop_name":"5082 WATERMAN EB","stop_desc":"MID-BLOCK 5082 WATERMAN EB","wheelchair_boarding":2,"routes":[{"route_id":"19592","agency_id":"70006","route_short_name":"1","route_long_name":"Gold","route_type":3,"route_color":"#FFFFFF","route_text_color":"#000000"}],"agency_name":"Metro St. Louis"},"geometry":{"type":"Point","coordinates":[-90.26718,38.64849]}},{"type":"Feature","properties":{"stop_id":"8604","stop_code":"8604","stop_name":"WATERMAN @ KINGSHIGHWAY EB","stop_desc":"NEAR SIDE WATERMAN @ KINGSHIGHWAY EB","wheelchair_boarding":1,"routes":[{"route_id":"19592","agency_id":"70006","route_short_name":"1","route_long_name":"Gold","route_type":3,"route_color":"#FFFFFF","route_text_color":"#000000"}],"agency_name":"Metro St. Louis"},"geometry":{"type":"Point","coordinates":[-90.2646,38.64822]}}]}