{"type":"FeatureCollection","features":[{"type":"Feature","properties":{"agency_name":"Metro St. Louis","route_id":"19593","agency_id":"70006","route_short_name":"2","route_long_name":"Red","route_type":3,"route_color":"#FFFFFF","route_text_color":"#000000"},"geometry":{"type":"MultiLineString","coordinates":[[[-90.30817,38.64666],[-90.30814,38.64688],[-90.30817,38.64666],[-90.30122,38.64598],[-90.30103,38.64735],[-90.3007,38.64932],[-90.30062,38.65006],[-90.29985,38.65453],[-90.29977,38.65507],[-90.29911,38.65539],[-90.29601,38.65508],[-90.29604,38.65541],[-90.29608,38.65562],[-90.29582,38.65575],[-90.29533,38.65568],[-90.29512,38.65559],[-90.29503,38.65552],[-90.29496,38.65543],[-90.29469,38.65495]],[[-90.29615,38.65583],[-90.29608,38.65562],[-90.29615,38.65583],[-90.29636,38.65604],[-90.29654,38.65616],[-90.29673,38.65626],[-90.29703,38.65636],[-90.29772,38.65645],[-90.29949,38.65661],[-90.29941,38.65719],[-90.29934,38.65751],[-90.29926,38.6578],[-90.299,38.65839],[-90.29955,38.65862],[-90.30039,38.659],[-90.30162,38.65959],[-90.30284,38.66026],[-90.3044,38.66123],[-90.30503,38.66157],[-90.30567,38.6618],[-90.30622,38.66194],[-90.30667,38.66201],[-90.31103,38.66245],[-90.3157,38.6629],[-90.31566,38.66326],[-90.31568,38.66348],[-90.31572,38.66367],[-90.31581,38.66391],[-90.31617,38.66451],[-90.31627,38.66483],[-90.31629,38.66505],[-90.31628,38.66516],[-90.31542,38.66541],[-90.31287,38.66385],[-90.31259,38.6637],[-90.31245,38.66364],[-90.31194,38.66349],[-90.31168,38.66344],[-90.3109,38.66336],[-90.31058,38.66531],[-90.30913,38.67464],[-90.30867,38.67746],[-90.30832,38.67857],[-90.308,38.67939],[-90.30762,38.68111],[-90.30716,38.68331],[-90.30705,38.68362],[-90.30658,38.68418],[-90.30505,38.68571],[-90.30283,38.68454],[-90.30212,38.68467],[-90.30195,38.68459],[-90.30182,38.68464],[-90.30164,38.68487]],[[-90.33776,38.62784],[-90.33776,38.62782],[-90.33773,38.62789],[-90.33767,38.62781],[-90.33742,38.6277],[-90.33728,38.62768],[-90.33643,38.62764],[-90.33604,38.62764],[-90.33586,38.62762],[-90.33547,38.62762],[-90.33518,38.62765],[-90.33492,38.62714],[-90.33498,38.62532],[-90.33502,38.62484],[-90.33498,38.62437],[-90.33491,38.62416],[-90.33478,38.6239],[-90.33456,38.62354],[-90.33444,38.62331],[-90.33436,38.62311],[-90.33433,38.62296],[-90.33432,38.62273],[-90.33312,38.62273],[-90.33313,38.62132],[-90.33429,38.6213],[-90.33432,38.62273],[-90.33611,38.62277],[-90.33726,38.62247],[-90.33774,38.6224],[-90.33815,38.62239],[-90.33879,38.62248],[-90.33943,38.62263],[-90.33987,38.62275],[-90.34059,38.62299],[-90.34178,38.62343],[-90.34221,38.62375],[-90.34278,38.62403],[-90.34656,38.62412],[-90.34742,38.62394],[-90.34759,38.62394],[-90.34774,38.62398],[-90.34787,38.62407],[-90.34717,38.62472],[-90.34696,38.62496],[-90.34685,38.62512],[-90.34677,38.62528],[-90.34664,38.6257],[-90.3466,38.62591],[-90.34657,38.62643],[-90.34626,38.62916],[-90.34623,38.62975],[-90.34623,38.63036],[-90.34616,38.63115],[-90.34615,38.63146],[-90.34603,38.63261],[-90.34575,38.63604],[-90.34569,38.63653],[-90.34557,38.63784],[-90.34539,38.63795],[-90.3452,38.63803],[-90.3446,38.63803],[-90.34394,38.63797],[-90.34354,38.63792],[-90.34342,38.63788],[-90.34325,38.63786],[-90.34139,38.63767],[-90.34054,38.63763],[-90.33653,38.6377],[-90.33514,38.63775],[-90.33455,38.63774],[-90.3343,38.63772],[-90.33304,38.63751],[-90.33248,38.63739],[-90.32901,38.63672],[-90.32727,38.63635],[-90.32595,38.63609],[-90.32496,38.63592],[-90.32053,38.63523],[-90.31948,38.63489],[-90.31878,38.63481],[-90.31855,38.63484],[-90.31839,38.63556],[-90.31813,38.63687],[-90.31789,38.63833],[-90.31772,38.63911],[-90.31768,38.63943],[-90.31752,38.64014],[-90.31727,38.64072],[-90.31709,38.64121],[-90.31696,38.64165],[-90.31649,38.64401],[-90.31596,38.64654],[-90.31586,38.64711],[-90.31401,38.64722],[-90.3125,38.64709],[-90.31197,38.64702],[-90.31094,38.64693],[-90.31018,38.64714],[-90.30889,38.64696]]]}},{"type":"Feature","properties":{"stop_id":"14484","stop_code":"14484","stop_name":"SKINKER @ PERSHING NB","stop_desc":"FAR SIDE SKINKER @ PERSHING NB","wheelchair_boarding":1,"routes":[{"route_id":"19592","agency_id":"70006","route_short_name":"1","route_long_name":"Gold","route_type":3,"route_color":"#FFFFFF","route_text_color":"#000000"},{"route_id":"19593","agency_id":"70006","route_short_name":"2","route_long_name":"Red","route_type":3,"route_color":"#FFFFFF","route_text_color":"#000000"},{"route_id":"19601","agency_id":"70006","route_short_name":"16","route_long_name":"City Limits","route_type":3,"route_color":"#FFFFFF","route_text_color":"#000000"}],"agency_name":"Metro St. Louis"},"geometry":{"type":"Point","coordinates":[-90.3005,38.65018]}},{"type":"Feature","properties":{"stop_id":"14779","stop_code":"14779","stop_name":"BRENTWOOD I-64 TRANSIT CENTER","wheelchair_boarding":1,"routes":[{"route_id":"19593","agency_id":"70006","route_short_name":"2","route_long_name":"Red","route_type":3,"route_color":"#FFFFFF","route_text_color":"#000000"},{"route_id":"19606","agency_id":"70006","route_short_name":"31","route_long_name":"Chouteau","route_type":3,"route_color":"#FFFFFF","route_text_color":"#000000"}],"agency_name":"Metro St. Louis"},"geometry":{"type":"Point","coordinates":[-90.33777,38.62757]}},{"type":"Feature","properties":{"stop_id":"14818","stop_code":"14818","stop_name":"MALLINCKRODT CENTER","wheelchair_boarding":1,"routes":[{"route_id":"19592","agency_id":"70006","route_short_name":"1","route_long_name":"Gold","route_type":3,"route_color":"#FFFFFF","route_text_color":"#000000"},{"route_id":"19593","agency_id":"70006","route_short_name":"2","route_long_name":"Red","route_type":3,"route_color":"#FFFFFF","route_text_color":"#000000"},{"route_id":"19595","agency_id":"70006","route_short_name":"5","route_long_name":"Green","route_type":3,"route_color":"#FFFFFF","route_text_color":"#000000"}],"agency_name":"Metro St. Louis"},"geometry":{"type":"Point","coordinates":[-90.30886,38.64695]}},{"type":"Feature","properties":{"stop_id":"14942","stop_code":"14942","stop_name":"MAPLEWOOD COMMONS @ CORCORAN SB","stop_desc":"NEAR SIDE MAPLEWOOD COMMONS @ CORCORAN SB","wheelchair_boarding":1,"routes":[{"route_id":"19593","agency_id":"70006","route_short_name":"2","route_long_name":"Red","route_type":3,"route_color":"#FFFFFF","route_text_color":"#000000"},{"route_id":"19606","agency_id":"70006","route_short_name":"31","route_long_name":"Chouteau","route_type":3,"route_color":"#FFFFFF","route_text_color":"#000000"}],"agency_name":"Metro St. Louis"},"geometry":{"type":"Point","coordinates":[-90.3332,38.62215]}},{"type":"Feature","properties":{"stop_id":"15018","stop_code":"15018","stop_name":"FORSYTH @ WRIGHTON WAY EB","stop_desc":"MID-BLOCK FORSYTH @ WRIGHTON WAY EB","wheelchair_boarding":2,"routes":[{"route_id":"19592","agency_id":"70006","route_short_name":"1","route_long_name":"Gold","route_type":3,"route_color":"#FFFFFF","route_text_color":"#000000"},{"route_id":"19593","agency_id":"70006","route_short_name":"2","route_long_name":"Red","route_type":3,"route_color":"#FFFFFF","route_text_color":"#000000"}],"agency_name":"Metro St. Louis"},"geometry":{"type":"Point","coordinates":[-90.30322,38.64615]}},{"type":"Feature","properties":{"stop_id":"15027","stop_code":"15027","stop_name":"STRASSNER @ URBAN WB","stop_desc":"NEAR SIDE STRASSNER @ URBAN WB","wheelchair_boarding":2,"routes":[{"route_id":"19593","agency_id":"70006","route_short_name":"2","route_long_name":"Red","route_type":3,"route_color":"#FFFFFF","route_text_color":"#000000"}],"agency_name":"Metro St. Louis"},"geometry":{"type":"Point","coordinates":[-90.34652,38.62417]}},{"type":"Feature","properties":{"stop_id":"15051","stop_code":"15051","stop_name":"ENRIGHT @ ROSEDALE WB","stop_desc":"FAR SIDE ENRIGHT @ ROSEDALE WB","wheelchair_boarding":2,"routes":[{"route_id":"19593","agency_id":"70006","route_short_name":"2","route_long_name":"Red","route_type":3,"route_color":"#FFFFFF","route_text_color":"#000000"},{"route_id":"19601","agency_id":"70006","route_short_name":"16","route_long_name":"City Limits","route_type":3,"route_color":"#FFFFFF","route_text_color":"#000000"},{"route_id":"19630","agency_id":"70006","route_short_name":"91","route_long_name":"Olive","route_type":3,"route_color":"#FFFFFF","route_text_color":"#000000"}],"agency_name":"Metro St. Louis"},"geometry":{"type":"Point","coordinates":[-90.29733,38.65645]}},{"type":"Feature","properties":{"stop_id":"15061","stop_code":"15061","stop_name":"VERNON @ EASTGATE WB","stop_desc":"NEAR SIDE VERNON @ EASTGATE WB","wheelchair_boarding":2,"routes":[{"route_id":"19593","agency_id":"70006","route_short_name":"2","route_long_name":"Red","route_type":3,"route_color":"#FFFFFF","route_text_color":"#000000"}],"agency_name":"Metro St. Louis"},"geometry":{"type":"Point","coordinates":[-90.29964,38.6587]}},{"type":"Feature","properties":{"stop_id":"15062","stop_code":"15062","stop_name":"VERNON @ WESTGATE WB","stop_desc":"FAR SIDE VERNON @ WESTGATE WB","wheelchair_boarding":2,"routes":[{"route_id":"19593","agency_id":"70006","route_short_name":"2","route_long_name":"Red","route_type":3,"route_color":"#FFFFFF","route_text_color":"#000000"}],"agency_name":"Metro St. Louis"},"geometry":{"type":"Point","coordinates":[-90.30484,38.66152]}},{"type":"Feature","properties":{"stop_id":"15063","stop_code":"15063","stop_name":"VERNON @ KINGSLAND WB","stop_desc":"NEAR SIDE VERNON @ KINGSLAND WB","wheelchair_boarding":2,"routes":[{"route_id":"19593","agency_id":"70006","route_short_name":"2","route_long_name":"Red","route_type":3,"route_color":"#FFFFFF","route_text_color":"#000000"}],"agency_name":"Metro St. Louis"},"geometry":{"type":"Point","coordinates":[-90.30751,38.66217]}},{"type":"Feature","properties":{"stop_id":"15064","stop_code":"15064","stop_name":"VERNON @ FERGUSON WB","stop_desc":"NEAR SIDE VERNON @ FERGUSON WB","wheelchair_boarding":2,"routes":[{"route_id":"19593","agency_id":"70006","route_short_name":"2","route_long_name":"Red","route_type":3,"route_color":"#FFFFFF","route_text_color":"#000000"}],"agency_name":"Metro St. Louis"},"geometry":{"type":"Point","coordinates":[-90.3107,38.66247]}},{"type":"Feature","properties":{"stop_id":"15065","stop_code":"15065","stop_name":"PENNSYLVANIA @ UCITY SHOPPING CTR NB","stop_desc":"FAR SIDE PENNSYLVANIA @ UCITY SHOPPING CTR NB","wheelchair_boarding":1,"routes":[{"route_id":"19593","agency_id":"70006","route_short_name":"2","route_long_name":"Red","route_type":3,"route_color":"#FFFFFF","route_text_color":"#000000"}],"agency_name":"Metro St. Louis"},"geometry":{"type":"Point","coordinates":[-90.3162,38.66455]}},{"type":"Feature","properties":{"stop_id":"15844","stop_code":"15844","stop_name":"STRASSNER @ HANLEY INDUSTRIAL COURT WB","stop_desc":"MID-BLOCK STRASSNER @ HANLEY INDUSTRIAL COURT WB","wheelchair_boarding":2,"routes":[{"route_id":"19593","agency_id":"70006","route_short_name":"2","route_long_name":"Red","route_type":3,"route_color":"#FFFFFF","route_text_color":"#000000"}],"agency_name":"Metro St. Louis"},"geometry":{"type":"Point","coordinates":[-90.33885,38.62253]}},{"type":"Feature","properties":{"stop_id":"15845","stop_code":"15845","stop_name":"1443 STRASSNER WB","stop_desc":"MID-BLOCK 1443 STRASSNER WB","wheelchair_boarding":2,"routes":[{"route_id":"19593","agency_id":"70006","route_short_name":"2","route_long_name":"Red","route_type":3,"route_color":"#FFFFFF","route_text_color":"#000000"}],"agency_name":"Metro St. Louis"},"geometry":{"type":"Point","coordinates":[-90.34183,38.62349]}},{"type":"Feature","properties":{"stop_id":"15846","stop_code":"15846","stop_name":"STRASSNER @ BRENTWOOD PARK WB","stop_desc":"MID-BLOCK STRASSNER @ BRENTWOOD PARK WB","wheelchair_boarding":2,"routes":[{"route_id":"19593","agency_id":"70006","route_short_name":"2","route_long_name":"Red","route_type":3,"route_color":"#FFFFFF","route_text_color":"#000000"}],"agency_name":"Metro St. Louis"},"geometry":{"type":"Point","coordinates":[-90.34521,38.62416]}},{"type":"Feature","properties":{"stop_id":"16061","stop_code":"16061","stop_name":"BIG BEND @ SHEPLEY NB","stop_desc":"NEAR SIDE BIG BEND @ SHEPLEY NB","wheelchair_boarding":2,"routes":[{"route_id":"19593","agency_id":"70006","route_short_name":"2","route_long_name":"Red","route_type":3,"route_color":"#FFFFFF","route_text_color":"#000000"}],"agency_name":"Metro St. Louis"},"geometry":{"type":"Point","coordinates":[-90.31606,38.64539]}},{"type":"Feature","properties":{"stop_id":"16127","stop_code":"16127","stop_name":"1271 STRASSNER WB","stop_desc":"MID-BLOCK 1271 STRASSNER WB","wheelchair_boarding":2,"routes":[{"route_id":"19593","agency_id":"70006","route_short_name":"2","route_long_name":"Red","route_type":3,"route_color":"#FFFFFF","route_text_color":"#000000"}],"agency_name":"Metro St. Louis"},"geometry":{"type":"Point","coordinates":[-90.33618,38.62285]}},{"type":"Feature","properties":{"stop_id":"16143","stop_code":"16143","stop_name":"6950 OLIVE EB","stop_desc":"MID-BLOCK 6950 OLIVE EB","wheelchair_boarding":1,"routes":[{"route_id":"19593","agency_id":"70006","route_short_name":"2","route_long_name":"Red","route_type":3,"route_color":"#FFFFFF","route_text_color":"#000000"},{"route_id":"19630","agency_id":"70006","route_short_name":"91","route_long_name":"Olive","route_type":3,"route_color":"#FFFFFF","route_text_color":"#000000"}],"agency_name":"Metro St. Louis"},"geometry":{"type":"Point","coordinates":[-90.31405,38.6645]}},{"type":"Feature","properties":{"stop_id":"16198","stop_code":"16198","stop_name":"FERGUSON @ PAGE NB","stop_desc":"FAR SIDE FERGUSON @ PAGE NB","wheelchair_boarding":2,"routes":[{"route_id":"19593","agency_id":"70006","route_short_name":"2","route_long_name":"Red","route_type":3,"route_color":"#FFFFFF","route_text_color":"#000000"}],"agency_name":"Metro St. Louis"},"geometry":{"type":"Point","coordinates":[-90.30902,38.67517]}},{"type":"Feature","properties":{"stop_id":"16363","stop_code":"16363","stop_name":"BIG BEND @ SOUTHMOOR NB","stop_desc":"FAR SIDE BIG BEND @ SOUTHMOOR NB","wheelchair_boarding":2,"routes":[{"route_id":"19593","agency_id":"70006","route_short_name":"2","route_long_name":"Red","route_type":3,"route_color":"#FFFFFF","route_text_color":"#000000"}],"agency_name":"Metro St. Louis"},"geometry":{"type":"Point","coordinates":[-90.31754,38.63965]}},{"type":"Feature","properties":{"stop_id":"16546","stop_code":"16546","stop_name":"BIG BEND @ WYDOWN NB","stop_desc":"NEAR SIDE BIG BEND @ WYDOWN NB","wheelchair_boarding":2,"routes":[{"route_id":"19593","agency_id":"70006","route_short_name":"2","route_long_name":"Red","route_type":3,"route_color":"#FFFFFF","route_text_color":"#000000"}],"agency_name":"Metro St. Louis"},"geometry":{"type":"Point","coordinates":[-90.31657,38.64311]}},{"type":"Feature","properties":{"stop_id":"2096","stop_code":"2096","stop_name":"DELMAR @ 6144 DELMAR EB","stop_desc":"MID-BLOCK DELMAR @ 6144 DELMAR EB","wheelchair_boarding":1,"routes":[{"route_id":"19593","agency_id":"70006","route_short_name":"2","route_long_name":"Red","route_type":3,"route_color":"#FFFFFF","route_text_color":"#000000"},{"route_id":"19601","agency_id":"70006","route_short_name":"16","route_long_name":"City Limits","route_type":3,"route_color":"#FFFFFF","route_text_color":"#000000"},{"route_id":"19633","agency_id":"70006","route_short_name":"97","route_long_name":"Delmar","route_type":3,"route_color":"#FFFFFF","route_text_color":"#000000"}],"agency_name":"Metro St. Louis"},"geometry":{"type":"Point","coordinates":[-90.29771,38.65516]}},{"type":"Feature","properties":{"stop_id":"2097","stop_code":"2097","stop_name":"DELMAR LOOP TRANSIT CENTER EB","wheelchair_boarding":1,"routes":[{"route_id":"19593","agency_id":"70006","route_short_name":"2","route_long_name":"Red","route_type":3,"route_color":"#FFFFFF","route_text_color":"#000000"},{"route_id":"19601","agency_id":"70006","route_short_name":"16","route_long_name":"City Limits","route_type":3,"route_color":"#FFFFFF","route_text_color":"#000000"},{"route_id":"19630","agency_id":"70006","route_short_name":"91","route_long_name":"Olive","route_type":3,"route_color":"#FFFFFF","route_text_color":"#000000"},{"route_id":"19633","agency_id":"70006","route_short_name":"97","route_long_name":"Delmar","route_type":3,"route_color":"#FFFFFF","route_text_color":"#000000"}],"agency_name":"Metro St. Louis"},"geometry":{"type":"Point","coordinates":[-90.29527,38.65562]}},{"type":"Feature","properties":{"stop_id":"2732","stop_code":"2732","stop_name":"SKINKER @ FORSYTH NB","stop_desc":"FAR SIDE SKINKER @ FORSYTH NB","wheelchair_boarding":1,"routes":[{"route_id":"19592","agency_id":"70006","route_short_name":"1","route_long_name":"Gold","route_type":3,"route_color":"#FFFFFF","route_text_color":"#000000"},{"route_id":"19593","agency_id":"70006","route_short_name":"2","route_long_name":"Red","route_type":3,"route_color":"#FFFFFF","route_text_color":"#000000"},{"route_id":"19601","agency_id":"70006","route_short_name":"16","route_long_name":"City Limits","route_type":3,"route_color":"#FFFFFF","route_text_color":"#000000"}],"agency_name":"Metro St. Louis"},"geometry":{"type":"Point","coordinates":[-90.30103,38.64661]}},{"type":"Feature","properties":{"stop_id":"4176","stop_code":"4176","stop_name":"FORSYTH @  BIG BEND EB","stop_desc":"FAR SIDE FORSYTH @  BIG BEND EB","wheelchair_boarding":1,"routes":[{"route_id":"19593","agency_id":"70006","route_short_name":"2","route_long_name":"Red","route_type":3,"route_color":"#FFFFFF","route_text_color":"#000000"}],"agency_name":"Metro St. Louis"},"geometry":{"type":"Point","coordinates":[-90.3152,38.64732]}},{"type":"Feature","properties":{"stop_id":"4357","stop_code":"4357","stop_name":"FERGUSON @ JULIAN NB","stop_desc":"NEAR SIDE FERGUSON @ JULIAN NB","wheelchair_boarding":2,"routes":[{"route_id":"19593","agency_id":"70006","route_short_name":"2","route_long_name":"Red","route_type":3,"route_color":"#FFFFFF","route_text_color":"#000000"}],"agency_name":"Metro St. Louis"},"geometry":{"type":"Point","coordinates":[-90.3098,38.66986]}},{"type":"Feature","properties":{"stop_id":"4358","stop_code":"4358","stop_name":"FERGUSON @ RAYMOND NB","stop_desc":"FAR SIDE FERGUSON @ RAYMOND NB","wheelchair_boarding":2,"routes":[{"route_id":"19593","agency_id":"70006","route_short_name":"2","route_long_name":"Red","route_type":3,"route_color":"#FFFFFF","route_text_color":"#000000"}],"agency_name":"Metro St. Louis"},"geometry":{"type":"Point","coordinates":[-90.30953,38.67182]}},{"type":"Feature","properties":{"stop_id":"4360","stop_code":"4360","stop_name":"FERGUSON @ PAGE NB","stop_desc":"NEAR SIDE FERGUSON @ PAGE NB","wheelchair_boarding":2,"routes":[{"route_id":"19593","agency_id":"70006","route_short_name":"2","route_long_name":"Red","route_type":3,"route_color":"#FFFFFF","route_text_color":"#000000"}],"agency_name":"Metro St. Louis"},"geometry":{"type":"Point","coordinates":[-90.30913,38.67436]}},{"type":"Feature","properties":{"stop_id":"4721","stop_code":"4721","stop_name":"FERGUSON @ ETZEL NB","stop_desc":"NEAR SIDE FERGUSON @ ETZEL NB","wheelchair_boarding":2,"routes":[{"route_id":"19593","agency_id":"70006","route_short_name":"2","route_long_name":"Red","route_type":3,"route_color":"#FFFFFF","route_text_color":"#000000"}],"agency_name":"Metro St. Louis"},"geometry":{"type":"Point","coordinates":[-90.3102,38.6671]}},{"type":"Feature","properties":{"stop_id":"5424","stop_code":"5424","stop_name":"CLAYTON @ FRANCIS PLACE EB","stop_desc":"FAR SIDE CLAYTON @ FRANCIS PLACE EB","wheelchair_boarding":2,"routes":[{"route_id":"19593","agency_id":"70006","route_short_name":"2","route_long_name":"Red","route_type":3,"route_color":"#FFFFFF","route_text_color":"#000000"}],"agency_name":"Metro St. Louis"},"geometry":{"type":"Point","coordinates":[-90.34417,38.63788]}},{"type":"Feature","properties":{"stop_id":"5425","stop_code":"5425","stop_name":"CLAYTON @ CRESCENT EB","stop_desc":"NEAR SIDE CLAYTON @ CRESCENT EB","wheelchair_boarding":2,"routes":[{"route_id":"19593","agency_id":"70006","route_short_name":"2","route_long_name":"Red","route_type":3,"route_color":"#FFFFFF","route_text_color":"#000000"}],"agency_name":"Metro St. Louis"},"geometry":{"type":"Point","coordinates":[-90.34219,38.63774]}},{"type":"Feature","properties":{"stop_id":"5426","stop_code":"5426","stop_name":"CLAYTON @ LINDEN EB","stop_desc":"NEAR SIDE CLAYTON @ LINDEN EB","wheelchair_boarding":2,"routes":[{"route_id":"19593","agency_id":"70006","route_short_name":"2","route_long_name":"Red","route_type":3,"route_color":"#FFFFFF","route_text_color":"#000000"}],"agency_name":"Metro St. Louis"},"geometry":{"type":"Point","coordinates":[-90.33982,38.63762]}},{"type":"Feature","properties":{"stop_id":"5427","stop_code":"5427","stop_name":"CLAYTON @ HANLEY EB","stop_desc":"FAR SIDE CLAYTON @ HANLEY EB","wheelchair_boarding":1,"routes":[{"route_id":"19593","agency_id":"70006","route_short_name":"2","route_long_name":"Red","route_type":3,"route_color":"#FFFFFF","route_text_color":"#000000"}],"agency_name":"Metro St. Louis"},"geometry":{"type":"Point","coordinates":[-90.3351,38.63767]}},{"type":"Feature","properties":{"stop_id":"5428","stop_code":"5428","stop_name":"CLAYTON @ CROMWELL EB","stop_desc":"NEAR SIDE CLAYTON @ CROMWELL EB","wheelchair_boarding":2,"routes":[{"route_id":"19593","agency_id":"70006","route_short_name":"2","route_long_name":"Red","route_type":3,"route_color":"#FFFFFF","route_text_color":"#000000"}],"agency_name":"Metro St. Louis"},"geometry":{"type":"Point","coordinates":[-90.33284,38.63738]}},{"type":"Feature","properties":{"stop_id":"5429","stop_code":"5429","stop_name":"CLAYTON @ GLEN RIDGE EB","stop_desc":"FAR SIDE CLAYTON @ GLEN RIDGE EB","wheelchair_boarding":2,"routes":[{"route_id":"19593","agency_id":"70006","route_short_name":"2","route_long_name":"Red","route_type":3,"route_color":"#FFFFFF","route_text_color":"#000000"}],"agency_name":"Metro St. Louis"},"geometry":{"type":"Point","coordinates":[-90.32965,38.63673]}},{"type":"Feature","properties":{"stop_id":"5431","stop_code":"5431","stop_name":"CLAYTON @ BOLAND PLACE EB","stop_desc":"FAR SIDE CLAYTON @ BOLAND PLACE EB","wheelchair_boarding":1,"routes":[{"route_id":"19593","agency_id":"70006","route_short_name":"2","route_long_name":"Red","route_type":3,"route_color":"#FFFFFF","route_text_color":"#000000"}],"agency_name":"Metro St. Louis"},"geometry":{"type":"Point","coordinates":[-90.32476,38.63581]}},{"type":"Feature","properties":{"stop_id":"5433","stop_code":"5433","stop_name":"CLAYTON @ CLAYTONIA TERRACE EB","stop_desc":"FAR SIDE CLAYTON @ CLAYTONIA TERRACE EB","wheelchair_boarding":1,"routes":[{"route_id":"19593","agency_id":"70006","route_short_name":"2","route_long_name":"Red","route_type":3,"route_color":"#FFFFFF","route_text_color":"#000000"}],"agency_name":"Metro St. Louis"},"geometry":{"type":"Point","coordinates":[-90.32071,38.63519]}},{"type":"Feature","properties":{"stop_id":"5933","stop_code":"5933","stop_name":"HANLEY @ ELINOR SB","stop_desc":"FAR SIDE HANLEY @ ELINOR SB","wheelchair_boarding":2,"routes":[{"route_id":"19593","agency_id":"70006","route_short_name":"2","route_long_name":"Red","route_type":3,"route_color":"#FFFFFF","route_text_color":"#000000"},{"route_id":"19606","agency_id":"70006","route_short_name":"31","route_long_name":"Chouteau","route_type":3,"route_color":"#FFFFFF","route_text_color":"#000000"}],"agency_name":"Metro St. Louis"},"geometry":{"type":"Point","coordinates":[-90.33511,38.62481]}},{"type":"Feature","properties":{"stop_id":"7420","stop_code":"7420","stop_name":"FERGUSON @ ROBBINS NB","stop_desc":"NEAR SIDE FERGUSON @ ROBBINS NB","wheelchair_boarding":1,"routes":[{"route_id":"19593","agency_id":"70006","route_short_name":"2","route_long_name":"Red","route_type":3,"route_color":"#FFFFFF","route_text_color":"#000000"}],"agency_name":"Metro St. Louis"},"geometry":{"type":"Point","coordinates":[-90.30866,38.67737]}},{"type":"Feature","properties":{"stop_id":"7421","stop_code":"7421","stop_name":"1404 FERGUSON NB","stop_desc":"MID-BLOCK 1404 FERGUSON NB","wheelchair_boarding":2,"routes":[{"route_id":"19593","agency_id":"70006","route_short_name":"2","route_long_name":"Red","route_type":3,"route_color":"#FFFFFF","route_text_color":"#000000"}],"agency_name":"Metro St. Louis"},"geometry":{"type":"Point","coordinates":[-90.30759,38.6809]}},{"type":"Feature","properties":{"stop_id":"7422","stop_code":"7422","stop_name":"FERGUSON @ RIDGE NB","stop_desc":"NEAR SIDE FERGUSON @ RIDGE NB","wheelchair_boarding":2,"routes":[{"route_id":"19593","agency_id":"70006","route_short_name":"2","route_long_name":"Red","route_type":3,"route_color":"#FFFFFF","route_text_color":"#000000"}],"agency_name":"Metro St. Louis"},"geometry":{"type":"Point","coordinates":[-90.30705,38.68357]}},{"type":"Feature","properties":{"stop_id":"7423","stop_code":"7423","stop_name":"ST. CHARLES ROCK ROAD @ FERGUSON EB","stop_desc":"FAR SIDE ST. CHARLES ROCK ROAD @ FERGUSON EB","wheelchair_boarding":2,"routes":[{"route_id":"19593","agency_id":"70006","route_short_name":"2","route_long_name":"Red","route_type":3,"route_color":"#FFFFFF","route_text_color":"#000000"},{"route_id":"19610","agency_id":"70006","route_short_name":"35","route_long_name":"Rock Road","route_type":3,"route_color":"#FFFFFF","route_text_color":"#000000"}],"agency_name":"Metro St. Louis"},"geometry":{"type":"Point","coordinates":[-90.30465,38.68545]}},{"type":"Feature","properties":{"stop_id":"7424","stop_code":"7424","stop_name":"ROCK ROAD TRANSIT CENTER","wheelchair_boarding":1,"routes":[{"route_id":"19593","agency_id":"70006","route_short_name":"2","route_long_name":"Red","route_type":3,"route_color":"#FFFFFF","route_text_color":"#000000"},{"route_id":"19603","agency_id":"70006","route_short_name":"19","route_long_name":"St Louis Ave","route_type":3,"route_color":"#FFFFFF","route_text_color":"#000000"},{"route_id":"19607","agency_id":"70006","route_short_name":"32","route_long_name":"Dr ML King","route_type":3,"route_color":"#FFFFFF","route_text_color":"#000000"},{"route_id":"19610","agency_id":"70006","route_short_name":"35","route_long_name":"Rock Road","route_type":3,"route_color":"#FFFFFF","route_text_color":"#000000"},{"route_id":"19621","agency_id":"70006","route_short_name":"64","route_long_name":"Lucas-Hunt","route_type":3,"route_color":"#FFFFFF","route_text_color":"#000000"}],"agency_name":"Metro St. Louis"},"geometry":{"type":"Point","coordinates":[-90.30164,38.68516]}},{"type":"Feature","properties":{"stop_id":"8270","stop_code":"8270","stop_name":"BRENTWOOD @ ROSE NB","stop_desc":"NEAR SIDE BRENTWOOD @ ROSE NB","wheelchair_boarding":2,"routes":[{"route_id":"19593","agency_id":"70006","route_short_name":"2","route_long_name":"Red","route_type":3,"route_color":"#FFFFFF","route_text_color":"#000000"}],"agency_name":"Metro St. Louis"},"geometry":{"type":"Point","coordinates":[-90.34653,38.62624]}},{"type":"Feature","properties":{"stop_id":"8272","stop_code":"8272","stop_name":"BRENTWOOD @ DARST NB","stop_desc":"FAR SIDE BRENTWOOD @ DARST NB","wheelchair_boarding":1,"routes":[{"route_id":"19593","agency_id":"70006","route_short_name":"2","route_long_name":"Red","route_type":3,"route_color":"#FFFFFF","route_text_color":"#000000"}],"agency_name":"Metro St. Louis"},"geometry":{"type":"Point","coordinates":[-90.34587,38.63353]}},{"type":"Feature","properties":{"stop_id":"8364","stop_code":"8364","stop_name":"SKINKER @ WATERMAN NB","stop_desc":"FAR SIDE SKINKER @ WATERMAN NB","wheelchair_boarding":1,"routes":[{"route_id":"19593","agency_id":"70006","route_short_name":"2","route_long_name":"Red","route_type":3,"route_color":"#FFFFFF","route_text_color":"#000000"},{"route_id":"19601","agency_id":"70006","route_short_name":"16","route_long_name":"City Limits","route_type":3,"route_color":"#FFFFFF","route_text_color":"#000000"}],"agency_name":"Metro St. Louis"},"geometry":{"type":"Point","coordinates":[-90.3003,38.65116]}},{"type":"Feature","properties":{"stop_id":"8366","stop_code":"8366","stop_name":"SKINKER @ WESTMINSTER PLACE NB","stop_desc":"NEAR SIDE SKINKER @ WESTMINSTER PLACE NB","wheelchair_boarding":1,"routes":[{"route_id":"19593","agency_id":"70006","route_short_name":"2","route_long_name":"Red","route_type":3,"route_color":"#FFFFFF","route_text_color":"#000000"},{"route_id":"19601","agency_id":"70006","route_short_name":"16","route_long_name":"City Limits","route_type":3,"route_color":"#FFFFFF","route_text_color":"#000000"}],"agency_name":"Metro St. Louis"},"geometry":{"type":"Point","coordinates":[-90.29993,38.65353]}},{"type":"Feature","properties":{"stop_id":"8367","stop_code":"8367","stop_name":"SKINKER @ DELMAR NB","stop_desc":"NEAR SIDE SKINKER @ DELMAR NB","wheelchair_boarding":1,"routes":[{"route_id":"19593","agency_id":"70006","route_short_name":"2","route_long_name":"Red","route_type":3,"route_color":"#FFFFFF","route_text_color":"#000000"},{"route_id":"19601","agency_id":"70006","route_short_name":"16","route_long_name":"City Limits","route_type":3,"route_color":"#FFFFFF","route_text_color":"#000000"}],"agency_name":"Metro St. Louis"},"geometry":{"type":"Point","coordinates":[-90.29968,38.65491]}}]}