{"type":"FeatureCollection","features":[{"type":"Feature","properties":{"agency_name":"Metro St. Louis","route_id":"19606","agency_id":"70006","route_short_name":"31","route_long_name":"Chouteau","route_type":3,"route_color":"#FFFFFF","route_text_color":"#000000"},"geometry":{"type":"MultiLineString","coordinates":[[[-90.20307,38.62409],[-90.20307,38.62411],[-90.20306,38.62405],[-90.20302,38.624],[-90.20284,38.62393],[-90.20279,38.62373],[-90.20306,38.62309],[-90.2033,38.62246],[-90.20337,38.62232],[-90.20371,38.62141],[-90.2042,38.6203],[-90.20455,38.61933],[-90.2054,38.61949],[-90.21224,38.6209],[-90.21721,38.62196],[-90.21897,38.62231],[-90.22995,38.6246],[-90.23249,38.62511],[-90.23401,38.62545],[-90.24048,38.62678],[-90.24266,38.62721],[-90.24328,38.62736],[-90.24484,38.62766],[-90.2459,38.62791],[-90.24706,38.62816],[-90.24785,38.62822],[-90.25522,38.62722],[-90.26162,38.62633],[-90.26435,38.62597],[-90.26675,38.62563],[-90.26813,38.62541],[-90.26827,38.62538],[-90.27092,38.6246],[-90.27162,38.62442],[-90.2725,38.62427],[-90.2806,38.62334],[-90.2904,38.62217],[-90.29157,38.62201],[-90.29213,38.62189],[-90.29268,38.62174],[-90.29423,38.62126],[-90.29736,38.62023],[-90.30204,38.61874],[-90.30474,38.61786],[-90.30551,38.61763],[-90.30594,38.61752],[-90.30693,38.6172],[-90.30841,38.61676],[-90.31003,38.61625],[-90.31031,38.61615],[-90.31121,38.61575],[-90.31168,38.61549],[-90.31257,38.61496],[-90.31336,38.61446],[-90.31362,38.61432],[-90.31391,38.61422],[-90.31906,38.61282],[-90.32013,38.61251],[-90.32096,38.61234],[-90.32163,38.61227],[-90.32198,38.61228],[-90.32243,38.61233],[-90.33004,38.61352],[-90.33096,38.61361],[-90.33132,38.61358],[-90.3321,38.61345],[-90.33237,38.61337],[-90.33302,38.61311],[-90.33357,38.6128],[-90.33365,38.61298],[-90.33379,38.61339],[-90.33393,38.61409],[-90.33407,38.61466],[-90.33442,38.6163],[-90.3345,38.61678],[-90.3345,38.61696],[-90.33447,38.61723],[-90.33437,38.61794],[-90.33431,38.6189],[-90.33432,38.62001],[-90.33429,38.6213],[-90.33432,38.62273],[-90.33312,38.62273],[-90.33313,38.62132],[-90.33429,38.6213]],[[-90.33433,38.62296],[-90.33432,38.62273],[-90.33433,38.62296],[-90.33436,38.62311],[-90.33444,38.62331],[-90.33456,38.62354],[-90.33478,38.6239],[-90.33491,38.62416],[-90.33498,38.62437],[-90.33502,38.62484],[-90.33498,38.62532],[-90.3349,38.62765],[-90.33486,38.62833],[-90.33472,38.62849],[-90.33454,38.62861],[-90.33411,38.62876],[-90.33403,38.62884],[-90.33398,38.62892],[-90.33398,38.62897],[-90.33401,38.62909],[-90.33406,38.62915],[-90.33416,38.62922],[-90.3343,38.62926],[-90.33492,38.62925],[-90.33636,38.62927],[-90.33675,38.62925],[-90.33691,38.62922],[-90.33763,38.62922],[-90.33771,38.62898],[-90.33773,38.62853],[-90.33773,38.62789],[-90.33776,38.62784],[-90.33778,38.62775],[-90.33786,38.62756],[-90.33788,38.62718],[-90.33798,38.62705],[-90.33803,38.62691],[-90.33801,38.62677],[-90.33797,38.62668],[-90.33792,38.62663],[-90.33787,38.62661],[-90.33779,38.62662],[-90.33773,38.62666],[-90.33759,38.6268],[-90.33752,38.62693],[-90.33754,38.62702],[-90.33757,38.62707],[-90.33767,38.62714],[-90.33777,38.62717]]]}},{"type":"Feature","properties":{"stop_id":"14496","stop_code":"14496","stop_name":"CIVIC CENTER TRANSIT CENTER","wheelchair_boarding":1,"routes":[{"route_id":"19598","agency_id":"70006","route_short_name":"10","route_long_name":"Gravois-Lindell","route_type":3,"route_color":"#FFFFFF","route_text_color":"#000000"},{"route_id":"19605","agency_id":"70006","route_short_name":"30","route_long_name":"Arsenal","route_type":3,"route_color":"#FFFFFF","route_text_color":"#000000"},{"route_id":"19606","agency_id":"70006","route_short_name":"31","route_long_name":"Chouteau","route_type":3,"route_color":"#FFFFFF","route_text_color":"#000000"},{"route_id":"19607","agency_id":"70006","route_short_name":"32","route_long_name":"Dr ML King","route_type":3,"route_color":"#FFFFFF","route_text_color":"#000000"}],"agency_name":"Metro St. Louis"},"geometry":{"type":"Point","coordinates":[-90.20298,38.6243]}},{"type":"Feature","properties":{"stop_id":"14522","stop_code":"14522","stop_name":"CHOUTEAU @ VIRGINIA WB","stop_desc":"NEAR SIDE CHOUTEAU @ VIRGINIA WB","wheelchair_boarding":1,"routes":[{"route_id":"19606","agency_id":"70006","route_short_name":"31","route_long_name":"Chouteau","route_type":3,"route_color":"#FFFFFF","route_text_color":"#000000"}],"agency_name":"Metro St. Louis"},"geometry":{"type":"Point","coordinates":[-90.23102,38.62487]}},{"type":"Feature","properties":{"stop_id":"14779","stop_code":"14779","stop_name":"BRENTWOOD I-64 TRANSIT CENTER","wheelchair_boarding":1,"routes":[{"route_id":"19593","agency_id":"70006","route_short_name":"2","route_long_name":"Red","route_type":3,"route_color":"#FFFFFF","route_text_color":"#000000"},{"route_id":"19606","agency_id":"70006","route_short_name":"31","route_long_name":"Chouteau","route_type":3,"route_color":"#FFFFFF","route_text_color":"#000000"}],"agency_name":"Metro St. Louis"},"geometry":{"type":"Point","coordinates":[-90.33777,38.62757]}},{"type":"Feature","properties":{"stop_id":"14942","stop_code":"14942","stop_name":"MAPLEWOOD COMMONS @ CORCORAN SB","stop_desc":"NEAR SIDE MAPLEWOOD COMMONS @ CORCORAN SB","wheelchair_boarding":1,"routes":[{"route_id":"19593","agency_id":"70006","route_short_name":"2","route_long_name":"Red","route_type":3,"route_color":"#FFFFFF","route_text_color":"#000000"},{"route_id":"19606","agency_id":"70006","route_short_name":"31","route_long_name":"Chouteau","route_type":3,"route_color":"#FFFFFF","route_text_color":"#000000"}],"agency_name":"Metro St. Louis"},"geometry":{"type":"Point","coordinates":[-90.3332,38.62215]}},{"type":"Feature","properties":{"stop_id":"15111","stop_code":"15111","stop_name":"14TH STREET @ CHOUTEAU SB","stop_desc":"FAR SIDE 14TH STREET @ CHOUTEAU SB","wheelchair_boarding":1,"routes":[{"route_id":"19599","agency_id":"70006","route_short_name":"11","route_long_name":"Chippewa","route_type":3,"route_color":"#FFFFFF","route_text_color":"#000000"},{"route_id":"19606","agency_id":"70006","route_short_name":"31","route_long_name":"Chouteau","route_type":3,"route_color":"#FFFFFF","route_text_color":"#000000"}],"agency_name":"Metro St. Louis"},"geometry":{"type":"Point","coordinates":[-90.20438,38.61994]}},{"type":"Feature","properties":{"stop_id":"15756","stop_code":"15756","stop_name":"MANCHESTER @ PRATHER WB","stop_desc":"FAR SIDE MANCHESTER @ PRATHER WB","wheelchair_boarding":1,"routes":[{"route_id":"19606","agency_id":"70006","route_short_name":"31","route_long_name":"Chouteau","route_type":3,"route_color":"#FFFFFF","route_text_color":"#000000"}],"agency_name":"Metro St. Louis"},"geometry":{"type":"Point","coordinates":[-90.30503,38.61785]}},{"type":"Feature","properties":{"stop_id":"16467","stop_code":"16467","stop_name":"MANCHESTER @ MAPLEWOOD TC WB","stop_desc":"FAR SIDE MANCHESTER @ MAPLEWOOD TC WB","wheelchair_boarding":2,"routes":[{"route_id":"19606","agency_id":"70006","route_short_name":"31","route_long_name":"Chouteau","route_type":3,"route_color":"#FFFFFF","route_text_color":"#000000"}],"agency_name":"Metro St. Louis"},"geometry":{"type":"Point","coordinates":[-90.33106,38.61367]}},{"type":"Feature","properties":{"stop_id":"1848","stop_code":"1848","stop_name":"MANCHESTER @ NOONAN SB","stop_desc":"FAR SIDE MANCHESTER @ NOONAN SB","wheelchair_boarding":1,"routes":[{"route_id":"19606","agency_id":"70006","route_short_name":"31","route_long_name":"Chouteau","route_type":3,"route_color":"#FFFFFF","route_text_color":"#000000"}],"agency_name":"Metro St. Louis"},"geometry":{"type":"Point","coordinates":[-90.30795,38.61695]}},{"type":"Feature","properties":{"stop_id":"1850","stop_code":"1850","stop_name":"MANCHESTER @ YALE SB","stop_desc":"FAR SIDE MANCHESTER @ YALE SB","wheelchair_boarding":1,"routes":[{"route_id":"19606","agency_id":"70006","route_short_name":"31","route_long_name":"Chouteau","route_type":3,"route_color":"#FFFFFF","route_text_color":"#000000"}],"agency_name":"Metro St. Louis"},"geometry":{"type":"Point","coordinates":[-90.31278,38.61487]}},{"type":"Feature","properties":{"stop_id":"1853","stop_code":"1853","stop_name":"MANCHESTER @ OAKVIEW TERRACE WB","stop_desc":"NEAR SIDE MANCHESTER @ OAKVIEW TERRACE WB","wheelchair_boarding":1,"routes":[{"route_id":"19606","agency_id":"70006","route_short_name":"31","route_long_name":"Chouteau","route_type":3,"route_color":"#FFFFFF","route_text_color":"#000000"}],"agency_name":"Metro St. Louis"},"geometry":{"type":"Point","coordinates":[-90.31699,38.61344]}},{"type":"Feature","properties":{"stop_id":"4920","stop_code":"4920","stop_name":"CHOUTEAU @ 14TH STREET WB","stop_desc":"FAR SIDE CHOUTEAU @ 14TH STREET WB","wheelchair_boarding":1,"routes":[{"route_id":"19599","agency_id":"70006","route_short_name":"11","route_long_name":"Chippewa","route_type":3,"route_color":"#FFFFFF","route_text_color":"#000000"},{"route_id":"19606","agency_id":"70006","route_short_name":"31","route_long_name":"Chouteau","route_type":3,"route_color":"#FFFFFF","route_text_color":"#000000"}],"agency_name":"Metro St. Louis"},"geometry":{"type":"Point","coordinates":[-90.20585,38.61966]}},{"type":"Feature","properties":{"stop_id":"4922","stop_code":"4922","stop_name":"CHOUTEAU @ 18TH STREET WB","stop_desc":"FAR SIDE CHOUTEAU @ 18TH STREET WB","wheelchair_boarding":1,"routes":[{"route_id":"19599","agency_id":"70006","route_short_name":"11","route_long_name":"Chippewa","route_type":3,"route_color":"#FFFFFF","route_text_color":"#000000"},{"route_id":"19606","agency_id":"70006","route_short_name":"31","route_long_name":"Chouteau","route_type":3,"route_color":"#FFFFFF","route_text_color":"#000000"}],"agency_name":"Metro St. Louis"},"geometry":{"type":"Point","coordinates":[-90.21001,38.62053]}},{"type":"Feature","properties":{"stop_id":"4923","stop_code":"4923","stop_name":"CHOUTEAU @ MISSISSIPPI WB","stop_desc":"FAR SIDE CHOUTEAU @ MISSISSIPPI WB","wheelchair_boarding":1,"routes":[{"route_id":"19599","agency_id":"70006","route_short_name":"11","route_long_name":"Chippewa","route_type":3,"route_color":"#FFFFFF","route_text_color":"#000000"},{"route_id":"19606","agency_id":"70006","route_short_name":"31","route_long_name":"Chouteau","route_type":3,"route_color":"#FFFFFF","route_text_color":"#000000"}],"agency_name":"Metro St. Louis"},"geometry":{"type":"Point","coordinates":[-90.21224,38.621]}},{"type":"Feature","properties":{"stop_id":"4924","stop_code":"4924","stop_name":"CHOUTEAU @ 22ND STREET WB","stop_desc":"FAR SIDE CHOUTEAU @ 22ND STREET WB","wheelchair_boarding":2,"routes":[{"route_id":"19599","agency_id":"70006","route_short_name":"11","route_long_name":"Chippewa","route_type":3,"route_color":"#FFFFFF","route_text_color":"#000000"},{"route_id":"19606","agency_id":"70006","route_short_name":"31","route_long_name":"Chouteau","route_type":3,"route_color":"#FFFFFF","route_text_color":"#000000"}],"agency_name":"Metro St. Louis"},"geometry":{"type":"Point","coordinates":[-90.21491,38.62155]}},{"type":"Feature","properties":{"stop_id":"4926","stop_code":"4926","stop_name":"CHOUTEAU @ JEFFERSON WB","stop_desc":"FAR SIDE CHOUTEAU @ JEFFERSON WB","wheelchair_boarding":1,"routes":[{"route_id":"19606","agency_id":"70006","route_short_name":"31","route_long_name":"Chouteau","route_type":3,"route_color":"#FFFFFF","route_text_color":"#000000"}],"agency_name":"Metro St. Louis"},"geometry":{"type":"Point","coordinates":[-90.21998,38.62254]}},{"type":"Feature","properties":{"stop_id":"4928","stop_code":"4928","stop_name":"CHOUTEAU @ CALIFORNIA WB","stop_desc":"FAR SIDE CHOUTEAU @ CALIFORNIA WB","wheelchair_boarding":1,"routes":[{"route_id":"19606","agency_id":"70006","route_short_name":"31","route_long_name":"Chouteau","route_type":3,"route_color":"#FFFFFF","route_text_color":"#000000"}],"agency_name":"Metro St. Louis"},"geometry":{"type":"Point","coordinates":[-90.2241,38.62344]}},{"type":"Feature","properties":{"stop_id":"4931","stop_code":"4931","stop_name":"CHOUTEAU @ CARDINAL WB","stop_desc":"FAR SIDE CHOUTEAU @ CARDINAL WB","wheelchair_boarding":1,"routes":[{"route_id":"19606","agency_id":"70006","route_short_name":"31","route_long_name":"Chouteau","route_type":3,"route_color":"#FFFFFF","route_text_color":"#000000"}],"agency_name":"Metro St. Louis"},"geometry":{"type":"Point","coordinates":[-90.22844,38.62436]}},{"type":"Feature","properties":{"stop_id":"4935","stop_code":"4935","stop_name":"CHOUTEAU @ THERESA WB","stop_desc":"NEAR SIDE CHOUTEAU @ THERESA WB","wheelchair_boarding":2,"routes":[{"route_id":"19606","agency_id":"70006","route_short_name":"31","route_long_name":"Chouteau","route_type":3,"route_color":"#FFFFFF","route_text_color":"#000000"}],"agency_name":"Metro St. Louis"},"geometry":{"type":"Point","coordinates":[-90.2337,38.62545]}},{"type":"Feature","properties":{"stop_id":"4936","stop_code":"4936","stop_name":"CHOUTEAU @ GRAND WB","stop_desc":"FAR SIDE CHOUTEAU @ GRAND WB","wheelchair_boarding":1,"routes":[{"route_id":"19606","agency_id":"70006","route_short_name":"31","route_long_name":"Chouteau","route_type":3,"route_color":"#FFFFFF","route_text_color":"#000000"}],"agency_name":"Metro St. Louis"},"geometry":{"type":"Point","coordinates":[-90.23747,38.62621]}},{"type":"Feature","properties":{"stop_id":"4937","stop_code":"4937","stop_name":"CHOUTEAU @ SPRING WB","stop_desc":"NEAR SIDE CHOUTEAU @ SPRING WB","wheelchair_boarding":2,"routes":[{"route_id":"19606","agency_id":"70006","route_short_name":"31","route_long_name":"Chouteau","route_type":3,"route_color":"#FFFFFF","route_text_color":"#000000"}],"agency_name":"Metro St. Louis"},"geometry":{"type":"Point","coordinates":[-90.23998,38.62674]}},{"type":"Feature","properties":{"stop_id":"4940","stop_code":"4940","stop_name":"MANCHESTER @ SARAH WB","stop_desc":"NEAR SIDE MANCHESTER @ SARAH WB","wheelchair_boarding":1,"routes":[{"route_id":"19606","agency_id":"70006","route_short_name":"31","route_long_name":"Chouteau","route_type":3,"route_color":"#FFFFFF","route_text_color":"#000000"}],"agency_name":"Metro St. Louis"},"geometry":{"type":"Point","coordinates":[-90.24991,38.62802]}},{"type":"Feature","properties":{"stop_id":"4942","stop_code":"4942","stop_name":"MANCHESTER @ BOYLE WB","stop_desc":"NEAR SIDE MANCHESTER @ BOYLE WB","wheelchair_boarding":1,"routes":[{"route_id":"19606","agency_id":"70006","route_short_name":"31","route_long_name":"Chouteau","route_type":3,"route_color":"#FFFFFF","route_text_color":"#000000"}],"agency_name":"Metro St. Louis"},"geometry":{"type":"Point","coordinates":[-90.25388,38.62747]}},{"type":"Feature","properties":{"stop_id":"4943","stop_code":"4943","stop_name":"MANCHESTER @ TOWER GROVE WB","stop_desc":"NEAR SIDE MANCHESTER @ TOWER GROVE WB","wheelchair_boarding":1,"routes":[{"route_id":"19606","agency_id":"70006","route_short_name":"31","route_long_name":"Chouteau","route_type":3,"route_color":"#FFFFFF","route_text_color":"#000000"}],"agency_name":"Metro St. Louis"},"geometry":{"type":"Point","coordinates":[-90.25647,38.62708]}},{"type":"Feature","properties":{"stop_id":"4944","stop_code":"4944","stop_name":"MANCHESTER @ NEWSTEAD WB","stop_desc":"FAR SIDE MANCHESTER @ NEWSTEAD WB","wheelchair_boarding":1,"routes":[{"route_id":"19606","agency_id":"70006","route_short_name":"31","route_long_name":"Chouteau","route_type":3,"route_color":"#FFFFFF","route_text_color":"#000000"}],"agency_name":"Metro St. Louis"},"geometry":{"type":"Point","coordinates":[-90.25921,38.62673]}},{"type":"Feature","properties":{"stop_id":"4945","stop_code":"4945","stop_name":"MANCHESTER @ TAYLOR WB","stop_desc":"NEAR SIDE MANCHESTER @ TAYLOR WB","wheelchair_boarding":1,"routes":[{"route_id":"19606","agency_id":"70006","route_short_name":"31","route_long_name":"Chouteau","route_type":3,"route_color":"#FFFFFF","route_text_color":"#000000"}],"agency_name":"Metro St. Louis"},"geometry":{"type":"Point","coordinates":[-90.26124,38.62646]}},{"type":"Feature","properties":{"stop_id":"4946","stop_code":"4946","stop_name":"MANCHESTER @ KINGSHIGHWAY WB","stop_desc":"NEAR SIDE MANCHESTER @ KINGSHIGHWAY WB","wheelchair_boarding":1,"routes":[{"route_id":"19606","agency_id":"70006","route_short_name":"31","route_long_name":"Chouteau","route_type":3,"route_color":"#FFFFFF","route_text_color":"#000000"}],"agency_name":"Metro St. Louis"},"geometry":{"type":"Point","coordinates":[-90.2646,38.626]}},{"type":"Feature","properties":{"stop_id":"4947","stop_code":"4947","stop_name":"5011 MANCHESTER WB","stop_desc":"MID-BLOCK 5011 MANCHESTER WB","wheelchair_boarding":1,"routes":[{"route_id":"19606","agency_id":"70006","route_short_name":"31","route_long_name":"Chouteau","route_type":3,"route_color":"#FFFFFF","route_text_color":"#000000"}],"agency_name":"Metro St. Louis"},"geometry":{"type":"Point","coordinates":[-90.26781,38.6255]}},{"type":"Feature","properties":{"stop_id":"4950","stop_code":"4950","stop_name":"MANCHESTER @ MACKLIND WB","stop_desc":"NEAR SIDE MANCHESTER @ MACKLIND WB","wheelchair_boarding":1,"routes":[{"route_id":"19606","agency_id":"70006","route_short_name":"31","route_long_name":"Chouteau","route_type":3,"route_color":"#FFFFFF","route_text_color":"#000000"}],"agency_name":"Metro St. Louis"},"geometry":{"type":"Point","coordinates":[-90.27628,38.6239]}},{"type":"Feature","properties":{"stop_id":"4952","stop_code":"4952","stop_name":"MANCHESTER @ SUBLETTE WB","stop_desc":"FAR SIDE MANCHESTER @ SUBLETTE WB","wheelchair_boarding":1,"routes":[{"route_id":"19606","agency_id":"70006","route_short_name":"31","route_long_name":"Chouteau","route_type":3,"route_color":"#FFFFFF","route_text_color":"#000000"}],"agency_name":"Metro St. Louis"},"geometry":{"type":"Point","coordinates":[-90.28055,38.62341]}},{"type":"Feature","properties":{"stop_id":"4954","stop_code":"4954","stop_name":"MANCHESTER @ SULPHUR WB","stop_desc":"NEAR SIDE MANCHESTER @ SULPHUR WB","wheelchair_boarding":1,"routes":[{"route_id":"19606","agency_id":"70006","route_short_name":"31","route_long_name":"Chouteau","route_type":3,"route_color":"#FFFFFF","route_text_color":"#000000"}],"agency_name":"Metro St. Louis"},"geometry":{"type":"Point","coordinates":[-90.28615,38.62273]}},{"type":"Feature","properties":{"stop_id":"4955","stop_code":"4955","stop_name":"MANCHESTER @ HAMPTON WB","stop_desc":"FAR SIDE MANCHESTER @ HAMPTON WB","wheelchair_boarding":1,"routes":[{"route_id":"19606","agency_id":"70006","route_short_name":"31","route_long_name":"Chouteau","route_type":3,"route_color":"#FFFFFF","route_text_color":"#000000"}],"agency_name":"Metro St. Louis"},"geometry":{"type":"Point","coordinates":[-90.28869,38.62244]}},{"type":"Feature","properties":{"stop_id":"4956","stop_code":"4956","stop_name":"MANCHESTER @ GRAHAM WB","stop_desc":"FAR SIDE MANCHESTER @ GRAHAM WB","wheelchair_boarding":1,"routes":[{"route_id":"19606","agency_id":"70006","route_short_name":"31","route_long_name":"Chouteau","route_type":3,"route_color":"#FFFFFF","route_text_color":"#000000"}],"agency_name":"Metro St. Louis"},"geometry":{"type":"Point","coordinates":[-90.29067,38.62218]}},{"type":"Feature","properties":{"stop_id":"4958","stop_code":"4958","stop_name":"MANCHESTER @ DALE WB","stop_desc":"NEAR SIDE MANCHESTER @ DALE WB","wheelchair_boarding":1,"routes":[{"route_id":"19606","agency_id":"70006","route_short_name":"31","route_long_name":"Chouteau","route_type":3,"route_color":"#FFFFFF","route_text_color":"#000000"}],"agency_name":"Metro St. Louis"},"geometry":{"type":"Point","coordinates":[-90.29517,38.62101]}},{"type":"Feature","properties":{"stop_id":"4960","stop_code":"4960","stop_name":"MANCHESTER @ MITCHELL WB","stop_desc":"FAR SIDE MANCHESTER @ MITCHELL WB","wheelchair_boarding":2,"routes":[{"route_id":"19606","agency_id":"70006","route_short_name":"31","route_long_name":"Chouteau","route_type":3,"route_color":"#FFFFFF","route_text_color":"#000000"}],"agency_name":"Metro St. Louis"},"geometry":{"type":"Point","coordinates":[-90.29831,38.62003]}},{"type":"Feature","properties":{"stop_id":"4962","stop_code":"4962","stop_name":"MANCHESTER @ KRAFT WB","stop_desc":"FAR SIDE MANCHESTER @ KRAFT WB","wheelchair_boarding":1,"routes":[{"route_id":"19606","agency_id":"70006","route_short_name":"31","route_long_name":"Chouteau","route_type":3,"route_color":"#FFFFFF","route_text_color":"#000000"}],"agency_name":"Metro St. Louis"},"geometry":{"type":"Point","coordinates":[-90.30225,38.61876]}},{"type":"Feature","properties":{"stop_id":"4964","stop_code":"4964","stop_name":"MANCHESTER @ SUTTON WB","stop_desc":"NEAR SIDE MANCHESTER @ SUTTON WB","wheelchair_boarding":1,"routes":[{"route_id":"19606","agency_id":"70006","route_short_name":"31","route_long_name":"Chouteau","route_type":3,"route_color":"#FFFFFF","route_text_color":"#000000"}],"agency_name":"Metro St. Louis"},"geometry":{"type":"Point","coordinates":[-90.31948,38.61278]}},{"type":"Feature","properties":{"stop_id":"4966","stop_code":"4966","stop_name":"MANCHESTER @ BIG BEND WB","stop_desc":"FAR SIDE MANCHESTER @ BIG BEND WB","wheelchair_boarding":1,"routes":[{"route_id":"19606","agency_id":"70006","route_short_name":"31","route_long_name":"Chouteau","route_type":3,"route_color":"#FFFFFF","route_text_color":"#000000"}],"agency_name":"Metro St. Louis"},"geometry":{"type":"Point","coordinates":[-90.32399,38.61267]}},{"type":"Feature","properties":{"stop_id":"4968","stop_code":"4968","stop_name":"MANCHESTER  @ LACLEDE STATION ROAD WB","stop_desc":"NEAR SIDE MANCHESTER  @ LACLEDE STATION ROAD WB","wheelchair_boarding":1,"routes":[{"route_id":"19606","agency_id":"70006","route_short_name":"31","route_long_name":"Chouteau","route_type":3,"route_color":"#FFFFFF","route_text_color":"#000000"}],"agency_name":"Metro St. Louis"},"geometry":{"type":"Point","coordinates":[-90.32764,38.61318]}},{"type":"Feature","properties":{"stop_id":"4970","stop_code":"4970","stop_name":"MANCHESTER @ HANLEY WB","stop_desc":"NEAR SIDE MANCHESTER @ HANLEY WB","wheelchair_boarding":1,"routes":[{"route_id":"19606","agency_id":"70006","route_short_name":"31","route_long_name":"Chouteau","route_type":3,"route_color":"#FFFFFF","route_text_color":"#000000"},{"route_id":"19616","agency_id":"70006","route_short_name":"57","route_long_name":"Manchester","route_type":3,"route_color":"#FFFFFF","route_text_color":"#000000"}],"agency_name":"Metro St. Louis"},"geometry":{"type":"Point","coordinates":[-90.33291,38.61324]}},{"type":"Feature","properties":{"stop_id":"5960","stop_code":"5960","stop_name":"HANLEY @ LITZSINGER NB","stop_desc":"NEAR SIDE HANLEY @ LITZSINGER NB","wheelchair_boarding":2,"routes":[{"route_id":"19606","agency_id":"70006","route_short_name":"31","route_long_name":"Chouteau","route_type":3,"route_color":"#FFFFFF","route_text_color":"#000000"}],"agency_name":"Metro St. Louis"},"geometry":{"type":"Point","coordinates":[-90.33435,38.61643]}},{"type":"Feature","properties":{"stop_id":"5967","stop_code":"5967","stop_name":"HANLEY @ ELINOR NB","stop_desc":"NEAR SIDE HANLEY @ ELINOR NB","wheelchair_boarding":1,"routes":[{"route_id":"19593","agency_id":"70006","route_short_name":"2","route_long_name":"Red","route_type":3,"route_color":"#FFFFFF","route_text_color":"#000000"},{"route_id":"19606","agency_id":"70006","route_short_name":"31","route_long_name":"Chouteau","route_type":3,"route_color":"#FFFFFF","route_text_color":"#000000"}],"agency_name":"Metro St. Louis"},"geometry":{"type":"Point","coordinates":[-90.33491,38.62491]}}]}