{"type":"FeatureCollection","features":[{"type":"Feature","properties":{"agency_name":"Metro St. Louis","route_id":"19631","agency_id":"70006","route_short_name":"94","route_long_name":"Page","route_type":3,"route_color":"#FFFFFF","route_text_color":"#000000"},"geometry":{"type":"MultiLineString","coordinates":[[[-90.44401,38.71356],[-90.44404,38.71275],[-90.44396,38.71452],[-90.44327,38.71452],[-90.4416,38.71168],[-90.44156,38.71146],[-90.44148,38.71127],[-90.44143,38.71109],[-90.44141,38.71019],[-90.4457,38.71019],[-90.44569,38.70921],[-90.44571,38.70893],[-90.44577,38.70871],[-90.44586,38.70849],[-90.44644,38.70751],[-90.44711,38.70643],[-90.44759,38.70572],[-90.44764,38.70554],[-90.44761,38.70535],[-90.44758,38.70527],[-90.44747,38.70513],[-90.44627,38.70418],[-90.44606,38.70399],[-90.446,38.7039],[-90.44592,38.70369],[-90.44591,38.70358],[-90.44593,38.70337],[-90.44601,38.70318],[-90.44623,38.70293],[-90.44422,38.70179],[-90.44401,38.70164],[-90.44365,38.7013],[-90.44339,38.70095],[-90.44319,38.70056],[-90.44313,38.7004],[-90.44226,38.69749],[-90.43828,38.69805],[-90.43762,38.69812],[-90.43677,38.69818],[-90.43655,38.69818],[-90.43408,38.69802],[-90.43368,38.69792],[-90.43311,38.69773],[-90.43146,38.69714],[-90.43107,38.69704],[-90.43076,38.69699],[-90.43048,38.69698],[-90.42985,38.69703],[-90.42913,38.69716],[-90.42964,38.69885],[-90.4297,38.69919],[-90.42973,38.69969],[-90.4297,38.70058],[-90.42972,38.70089],[-90.42974,38.701],[-90.42996,38.70153],[-90.43006,38.70169],[-90.43017,38.70183],[-90.43105,38.7031],[-90.43146,38.7036],[-90.43163,38.70385],[-90.43193,38.70445],[-90.43205,38.70489],[-90.4321,38.70537],[-90.43213,38.70609],[-90.43217,38.70654],[-90.43094,38.70655],[-90.42432,38.70696],[-90.42314,38.70483],[-90.42311,38.70463],[-90.42302,38.70446],[-90.42023,38.70083],[-90.42017,38.70068],[-90.42015,38.70049],[-90.42017,38.70029],[-90.42023,38.70011],[-90.42042,38.69971],[-90.4205,38.69945],[-90.42049,38.69931],[-90.42043,38.69909],[-90.42042,38.69891],[-90.42047,38.69846],[-90.41957,38.69828],[-90.4157,38.69762],[-90.41502,38.69748],[-90.41164,38.69685],[-90.4082,38.69625],[-90.40532,38.69571],[-90.405,38.69563],[-90.40469,38.69559],[-90.40428,38.69542],[-90.40377,38.69512],[-90.40247,38.6942],[-90.40209,38.69391],[-90.40125,38.69333],[-90.40083,38.69307],[-90.40053,38.69291],[-90.40028,38.69281],[-90.39997,38.6927],[-90.39956,38.69259],[-90.39879,38.69248],[-90.39301,38.69189],[-90.39205,38.69178],[-90.39242,38.68952],[-90.38929,38.68919],[-90.38909,38.69039]],[[-90.39124,38.6917],[-90.39213,38.69127],[-90.39124,38.6917],[-90.38446,38.69097],[-90.38128,38.69059],[-90.38063,38.69048],[-90.38028,38.69038],[-90.37651,38.68905],[-90.37596,38.68888],[-90.37495,38.68871],[-90.37184,38.68826],[-90.37032,38.68801],[-90.36887,38.68781],[-90.36738,38.68765],[-90.36298,38.68722],[-90.3579,38.68659],[-90.35751,38.68653],[-90.35691,38.68649],[-90.35537,38.68651],[-90.35426,38.6865],[-90.35168,38.68646],[-90.35118,38.68643],[-90.35098,38.68639],[-90.35074,38.68632],[-90.34936,38.68573],[-90.34898,38.68563],[-90.34866,38.6856],[-90.34268,38.68558],[-90.34245,38.68557],[-90.34197,38.68551],[-90.34156,38.68541],[-90.33619,38.68368],[-90.33587,38.6836],[-90.33542,38.68358],[-90.32879,38.68355],[-90.32861,38.68349],[-90.32793,38.68311],[-90.32095,38.67913],[-90.32037,38.67886],[-90.31879,38.67832],[-90.31535,38.67718],[-90.31434,38.67679],[-90.31323,38.6763],[-90.30957,38.6748],[-90.30913,38.67464],[-90.30853,38.67452],[-90.30555,38.67411],[-90.30315,38.67375],[-90.30094,38.6733],[-90.30133,38.67218],[-90.30161,38.67116],[-90.30219,38.6692],[-90.30054,38.6689],[-90.30023,38.66888],[-90.29901,38.6689],[-90.29841,38.66887],[-90.29466,38.66852],[-90.29447,38.66968],[-90.29401,38.67107],[-90.29204,38.67144],[-90.29162,38.67134],[-90.29133,38.67125],[-90.29116,38.67118],[-90.29062,38.67091],[-90.28984,38.67049],[-90.28897,38.66999],[-90.28809,38.66953],[-90.28377,38.6672],[-90.28316,38.66689],[-90.28227,38.66638],[-90.27615,38.66312],[-90.27371,38.66178],[-90.27223,38.66099],[-90.27201,38.66092],[-90.27146,38.66086],[-90.26262,38.65995],[-90.25865,38.65958],[-90.25832,38.65951],[-90.24023,38.65156],[-90.23856,38.65084],[-90.23485,38.6492],[-90.23263,38.6482],[-90.23116,38.64758],[-90.22819,38.64628],[-90.22731,38.64587],[-90.22589,38.64524],[-90.22575,38.64518],[-90.22553,38.64512],[-90.22542,38.64511],[-90.22504,38.64464],[-90.22451,38.64411],[-90.22428,38.64391],[-90.22399,38.64369],[-90.22402,38.64356],[-90.22404,38.64329],[-90.22398,38.64033],[-90.22402,38.64015],[-90.22416,38.63983],[-90.22557,38.63573],[-90.22578,38.63515],[-90.22656,38.63314],[-90.22728,38.63106],[-90.22635,38.63104],[-90.22326,38.63105],[-90.2215,38.6311],[-90.22037,38.63115],[-90.21896,38.63117],[-90.21635,38.63117],[-90.21589,38.63114],[-90.21479,38.631],[-90.21229,38.63049],[-90.21136,38.63032],[-90.21045,38.63013],[-90.20694,38.62945],[-90.20459,38.62887],[-90.20239,38.62842],[-90.20104,38.62808],[-90.20188,38.62591],[-90.20235,38.62487],[-90.20273,38.62389],[-90.20302,38.624],[-90.20306,38.62405],[-90.20307,38.62411],[-90.20293,38.62434],[-90.20271,38.62491],[-90.20271,38.62522],[-90.20267,38.62563],[-90.20264,38.62566],[-90.20259,38.62568],[-90.20252,38.62567],[-90.20248,38.62564]],[[-90.39124,38.6917],[-90.39205,38.69178]]]}},{"type":"Feature","properties":{"stop_id":"13440","stop_code":"13440","stop_name":"COMPTON @ OLIVE SB","stop_desc":"NEAR SIDE COMPTON @ OLIVE SB","wheelchair_boarding":1,"routes":[{"route_id":"19631","agency_id":"70006","route_short_name":"94","route_long_name":"Page","route_type":3,"route_color":"#FFFFFF","route_text_color":"#000000"}],"agency_name":"Metro St. Louis"},"geometry":{"type":"Point","coordinates":[-90.22553,38.63596]}},{"type":"Feature","properties":{"stop_id":"13446","stop_code":"13446","stop_name":"COMPTON @ FRANKLIN SB","stop_desc":"NEAR SIDE COMPTON @ FRANKLIN SB","wheelchair_boarding":1,"routes":[{"route_id":"19631","agency_id":"70006","route_short_name":"94","route_long_name":"Page","route_type":3,"route_color":"#FFFFFF","route_text_color":"#000000"}],"agency_name":"Metro St. Louis"},"geometry":{"type":"Point","coordinates":[-90.22408,38.64042]}},{"type":"Feature","properties":{"stop_id":"13767","stop_code":"13767","stop_name":"PAGE @ SARAH EB","stop_desc":"NEAR SIDE PAGE @ SARAH EB","wheelchair_boarding":1,"routes":[{"route_id":"19631","agency_id":"70006","route_short_name":"94","route_long_name":"Page","route_type":3,"route_color":"#FFFFFF","route_text_color":"#000000"}],"agency_name":"Metro St. Louis"},"geometry":{"type":"Point","coordinates":[-90.23887,38.65089]}},{"type":"Feature","properties":{"stop_id":"13768","stop_code":"13768","stop_name":"PAGE @ GRAND EB","stop_desc":"FAR SIDE PAGE @ GRAND EB","wheelchair_boarding":1,"routes":[{"route_id":"19631","agency_id":"70006","route_short_name":"94","route_long_name":"Page","route_type":3,"route_color":"#FFFFFF","route_text_color":"#000000"}],"agency_name":"Metro St. Louis"},"geometry":{"type":"Point","coordinates":[-90.22679,38.64556]}},{"type":"Feature","properties":{"stop_id":"13849","stop_code":"13849","stop_name":"PAGE @ NEWSTEAD EB","stop_desc":"NEAR SIDE PAGE @ NEWSTEAD EB","wheelchair_boarding":1,"routes":[{"route_id":"19631","agency_id":"70006","route_short_name":"94","route_long_name":"Page","route_type":3,"route_color":"#FFFFFF","route_text_color":"#000000"}],"agency_name":"Metro St. Louis"},"geometry":{"type":"Point","coordinates":[-90.24704,38.65447]}},{"type":"Feature","properties":{"stop_id":"13850","stop_code":"13850","stop_name":"PAGE @ PENDLETON EB","stop_desc":"NEAR SIDE PAGE @ PENDLETON EB","wheelchair_boarding":2,"routes":[{"route_id":"19631","agency_id":"70006","route_short_name":"94","route_long_name":"Page","route_type":3,"route_color":"#FFFFFF","route_text_color":"#000000"}],"agency_name":"Metro St. Louis"},"geometry":{"type":"Point","coordinates":[-90.24436,38.65328]}},{"type":"Feature","properties":{"stop_id":"13851","stop_code":"13851","stop_name":"PAGE @ WHITTIER EB","stop_desc":"NEAR SIDE PAGE @ WHITTIER EB","wheelchair_boarding":1,"routes":[{"route_id":"19631","agency_id":"70006","route_short_name":"94","route_long_name":"Page","route_type":3,"route_color":"#FFFFFF","route_text_color":"#000000"}],"agency_name":"Metro St. Louis"},"geometry":{"type":"Point","coordinates":[-90.24066,38.65169]}},{"type":"Feature","properties":{"stop_id":"13853","stop_code":"13853","stop_name":"PAGE @ VANDEVENTER EB","stop_desc":"NEAR SIDE PAGE @ VANDEVENTER EB","wheelchair_boarding":1,"routes":[{"route_id":"19631","agency_id":"70006","route_short_name":"94","route_long_name":"Page","route_type":3,"route_color":"#FFFFFF","route_text_color":"#000000"}],"agency_name":"Metro St. Louis"},"geometry":{"type":"Point","coordinates":[-90.23429,38.64886]}},{"type":"Feature","properties":{"stop_id":"13854","stop_code":"13854","stop_name":"PAGE @ PRAIRIE EB","stop_desc":"NEAR SIDE PAGE @ PRAIRIE EB","wheelchair_boarding":2,"routes":[{"route_id":"19631","agency_id":"70006","route_short_name":"94","route_long_name":"Page","route_type":3,"route_color":"#FFFFFF","route_text_color":"#000000"}],"agency_name":"Metro St. Louis"},"geometry":{"type":"Point","coordinates":[-90.23159,38.64775]}},{"type":"Feature","properties":{"stop_id":"13855","stop_code":"13855","stop_name":"PAGE @ SPRING EB","stop_desc":"FAR SIDE PAGE @ SPRING EB","wheelchair_boarding":1,"routes":[{"route_id":"19631","agency_id":"70006","route_short_name":"94","route_long_name":"Page","route_type":3,"route_color":"#FFFFFF","route_text_color":"#000000"}],"agency_name":"Metro St. Louis"},"geometry":{"type":"Point","coordinates":[-90.22879,38.64644]}},{"type":"Feature","properties":{"stop_id":"13966","stop_code":"13966","stop_name":"LIGHT HOUSE FOR THE BLIND EB","stop_desc":"MID-BLOCK LIGHT HOUSE FOR THE BLIND EB","wheelchair_boarding":2,"routes":[{"route_id":"19614","agency_id":"70006","route_short_name":"49","route_long_name":"Lindbergh","route_type":3,"route_color":"#FFFFFF","route_text_color":"#000000"},{"route_id":"19631","agency_id":"70006","route_short_name":"94","route_long_name":"Page","route_type":3,"route_color":"#FFFFFF","route_text_color":"#000000"}],"agency_name":"Metro St. Louis"},"geometry":{"type":"Point","coordinates":[-90.39165,38.68939]}},{"type":"Feature","properties":{"stop_id":"14495","stop_code":"14495","stop_name":"LACKLAND @ ALTOM EB","stop_desc":"FAR SIDE LACKLAND @ ALTOM EB","wheelchair_boarding":2,"routes":[{"route_id":"19631","agency_id":"70006","route_short_name":"94","route_long_name":"Page","route_type":3,"route_color":"#FFFFFF","route_text_color":"#000000"}],"agency_name":"Metro St. Louis"},"geometry":{"type":"Point","coordinates":[-90.44079,38.69758]}},{"type":"Feature","properties":{"stop_id":"14686","stop_code":"14686","stop_name":"WELDON PARKWAY @ KIMLER SB","stop_desc":"NEAR SIDE WELDON PARKWAY @ KIMLER SB","wheelchair_boarding":1,"routes":[{"route_id":"19631","agency_id":"70006","route_short_name":"94","route_long_name":"Page","route_type":3,"route_color":"#FFFFFF","route_text_color":"#000000"}],"agency_name":"Metro St. Louis"},"geometry":{"type":"Point","coordinates":[-90.44152,38.71029]}},{"type":"Feature","properties":{"stop_id":"14966","stop_code":"14966","stop_name":"PLYMOUTH @ SUTTER EB","stop_desc":"FAR SIDE PLYMOUTH @ SUTTER EB","wheelchair_boarding":1,"routes":[{"route_id":"19631","agency_id":"70006","route_short_name":"94","route_long_name":"Page","route_type":3,"route_color":"#FFFFFF","route_text_color":"#000000"}],"agency_name":"Metro St. Louis"},"geometry":{"type":"Point","coordinates":[-90.30184,38.66909]}},{"type":"Feature","properties":{"stop_id":"15192","stop_code":"15192","stop_name":"COMPTON @ SAMUEL SHEPARD SB","stop_desc":"NEAR SIDE COMPTON @ SAMUEL SHEPARD SB","wheelchair_boarding":2,"routes":[{"route_id":"19631","agency_id":"70006","route_short_name":"94","route_long_name":"Page","route_type":3,"route_color":"#FFFFFF","route_text_color":"#000000"}],"agency_name":"Metro St. Louis"},"geometry":{"type":"Point","coordinates":[-90.22464,38.63851]}},{"type":"Feature","properties":{"stop_id":"15676","stop_code":"15676","stop_name":"BALL @ PAGE SERVICE SB","stop_desc":"NEAR SIDE BALL @ PAGE SERVICE SB","wheelchair_boarding":1,"routes":[{"route_id":"19631","agency_id":"70006","route_short_name":"94","route_long_name":"Page","route_type":3,"route_color":"#FFFFFF","route_text_color":"#000000"}],"agency_name":"Metro St. Louis"},"geometry":{"type":"Point","coordinates":[-90.42022,38.7002]}},{"type":"Feature","properties":{"stop_id":"15688","stop_code":"15688","stop_name":"ADIE @ NORTHLINE INDUSTRIAL EB","stop_desc":"NEAR SIDE ADIE @ NORTHLINE INDUSTRIAL EB","wheelchair_boarding":2,"routes":[{"route_id":"19631","agency_id":"70006","route_short_name":"94","route_long_name":"Page","route_type":3,"route_color":"#FFFFFF","route_text_color":"#000000"}],"agency_name":"Metro St. Louis"},"geometry":{"type":"Point","coordinates":[-90.43024,38.70657]}},{"type":"Feature","properties":{"stop_id":"15689","stop_code":"15689","stop_name":"ADIE @ ROCK ISLAND EB","stop_desc":"FAR SIDE ADIE @ ROCK ISLAND EB","wheelchair_boarding":1,"routes":[{"route_id":"19631","agency_id":"70006","route_short_name":"94","route_long_name":"Page","route_type":3,"route_color":"#FFFFFF","route_text_color":"#000000"}],"agency_name":"Metro St. Louis"},"geometry":{"type":"Point","coordinates":[-90.42818,38.7067]}},{"type":"Feature","properties":{"stop_id":"15690","stop_code":"15690","stop_name":"ADIE @ VERNA EB","stop_desc":"NEAR SIDE ADIE @ VERNA EB","wheelchair_boarding":1,"routes":[{"route_id":"19631","agency_id":"70006","route_short_name":"94","route_long_name":"Page","route_type":3,"route_color":"#FFFFFF","route_text_color":"#000000"}],"agency_name":"Metro St. Louis"},"geometry":{"type":"Point","coordinates":[-90.4245,38.70689]}},{"type":"Feature","properties":{"stop_id":"15692","stop_code":"15692","stop_name":"BALL @ LAKESIDE CROSSING COURT SB","stop_desc":"NEAR SIDE BALL @ LAKESIDE CROSSING COURT SB","wheelchair_boarding":2,"routes":[{"route_id":"19631","agency_id":"70006","route_short_name":"94","route_long_name":"Page","route_type":3,"route_color":"#FFFFFF","route_text_color":"#000000"}],"agency_name":"Metro St. Louis"},"geometry":{"type":"Point","coordinates":[-90.42251,38.70371]}},{"type":"Feature","properties":{"stop_id":"15693","stop_code":"15693","stop_name":"BALL @ LAKESIDE SERVICE SB","stop_desc":"NEAR SIDE BALL @ LAKESIDE SERVICE SB","wheelchair_boarding":2,"routes":[{"route_id":"19631","agency_id":"70006","route_short_name":"94","route_long_name":"Page","route_type":3,"route_color":"#FFFFFF","route_text_color":"#000000"}],"agency_name":"Metro St. Louis"},"geometry":{"type":"Point","coordinates":[-90.4209,38.70166]}},{"type":"Feature","properties":{"stop_id":"15707","stop_code":"15707","stop_name":"CIVIC CENTER TRANSIT CENTER","wheelchair_boarding":1,"routes":[{"route_id":"19631","agency_id":"70006","route_short_name":"94","route_long_name":"Page","route_type":3,"route_color":"#FFFFFF","route_text_color":"#000000"},{"route_id":"19633","agency_id":"70006","route_short_name":"97","route_long_name":"Delmar","route_type":3,"route_color":"#FFFFFF","route_text_color":"#000000"}],"agency_name":"Metro St. Louis"},"geometry":{"type":"Point","coordinates":[-90.20252,38.62525]}},{"type":"Feature","properties":{"stop_id":"1589","stop_code":"1589","stop_name":"MARKET @ 20TH STREET EB","stop_desc":"FAR SIDE MARKET @ 20TH STREET EB","wheelchair_boarding":1,"routes":[{"route_id":"19594","agency_id":"70006","route_short_name":"4","route_long_name":"Natural Bridge","route_type":3,"route_color":"#FFFFFF","route_text_color":"#000000"},{"route_id":"19631","agency_id":"70006","route_short_name":"94","route_long_name":"Page","route_type":3,"route_color":"#FFFFFF","route_text_color":"#000000"}],"agency_name":"Metro St. Louis"},"geometry":{"type":"Point","coordinates":[-90.20867,38.62971]}},{"type":"Feature","properties":{"stop_id":"1591","stop_code":"1591","stop_name":"MARKET @ 16TH STREET EB","stop_desc":"FAR SIDE MARKET @ 16TH STREET EB","wheelchair_boarding":1,"routes":[{"route_id":"19594","agency_id":"70006","route_short_name":"4","route_long_name":"Natural Bridge","route_type":3,"route_color":"#FFFFFF","route_text_color":"#000000"},{"route_id":"19631","agency_id":"70006","route_short_name":"94","route_long_name":"Page","route_type":3,"route_color":"#FFFFFF","route_text_color":"#000000"}],"agency_name":"Metro St. Louis"},"geometry":{"type":"Point","coordinates":[-90.20362,38.62859]}},{"type":"Feature","properties":{"stop_id":"15938","stop_code":"15938","stop_name":"PROGRESS PARKWAY @ DORSETT EB","stop_desc":"FAR SIDE PROGRESS PARKWAY @ DORSETT EB","wheelchair_boarding":2,"routes":[{"route_id":"19631","agency_id":"70006","route_short_name":"94","route_long_name":"Page","route_type":3,"route_color":"#FFFFFF","route_text_color":"#000000"}],"agency_name":"Metro St. Louis"},"geometry":{"type":"Point","coordinates":[-90.44391,38.71359]}},{"type":"Feature","properties":{"stop_id":"16047","stop_code":"16047","stop_name":"PAGE @ LEROY EB","stop_desc":"FAR SIDE PAGE @ LEROY EB","wheelchair_boarding":1,"routes":[{"route_id":"19631","agency_id":"70006","route_short_name":"94","route_long_name":"Page","route_type":3,"route_color":"#FFFFFF","route_text_color":"#000000"}],"agency_name":"Metro St. Louis"},"geometry":{"type":"Point","coordinates":[-90.3106,38.67518]}},{"type":"Feature","properties":{"stop_id":"16128","stop_code":"16128","stop_name":"COMPTON @ SCHOOL SB","stop_desc":"NEAR SIDE COMPTON @ SCHOOL SB","wheelchair_boarding":1,"routes":[{"route_id":"19631","agency_id":"70006","route_short_name":"94","route_long_name":"Page","route_type":3,"route_color":"#FFFFFF","route_text_color":"#000000"}],"agency_name":"Metro St. Louis"},"geometry":{"type":"Point","coordinates":[-90.22404,38.64229]}},{"type":"Feature","properties":{"stop_id":"16163","stop_code":"16163","stop_name":"10720 PAGE EB","stop_desc":"MID-BLOCK 10720 PAGE EB","wheelchair_boarding":2,"routes":[{"route_id":"19631","agency_id":"70006","route_short_name":"94","route_long_name":"Page","route_type":3,"route_color":"#FFFFFF","route_text_color":"#000000"}],"agency_name":"Metro St. Louis"},"geometry":{"type":"Point","coordinates":[-90.39853,38.69236]}},{"type":"Feature","properties":{"stop_id":"16478","stop_code":"16478","stop_name":"LACKLAND @ CONCOURSE EB","stop_desc":"NEAR SIDE LACKLAND @ CONCOURSE EB","wheelchair_boarding":2,"routes":[{"route_id":"19631","agency_id":"70006","route_short_name":"94","route_long_name":"Page","route_type":3,"route_color":"#FFFFFF","route_text_color":"#000000"}],"agency_name":"Metro St. Louis"},"geometry":{"type":"Point","coordinates":[-90.43822,38.69797]}},{"type":"Feature","properties":{"stop_id":"16480","stop_code":"16480","stop_name":"SCHUETZ @ LACKLAND NB","stop_desc":"FAR SIDE SCHUETZ @ LACKLAND NB","wheelchair_boarding":2,"routes":[{"route_id":"19631","agency_id":"70006","route_short_name":"94","route_long_name":"Page","route_type":3,"route_color":"#FFFFFF","route_text_color":"#000000"}],"agency_name":"Metro St. Louis"},"geometry":{"type":"Point","coordinates":[-90.42915,38.69757]}},{"type":"Feature","properties":{"stop_id":"16482","stop_code":"16482","stop_name":"SCHUETZ @ WESTLINE INDUSTRIAL NB","stop_desc":"FAR SIDE SCHUETZ @ WESTLINE INDUSTRIAL NB","wheelchair_boarding":2,"routes":[{"route_id":"19631","agency_id":"70006","route_short_name":"94","route_long_name":"Page","route_type":3,"route_color":"#FFFFFF","route_text_color":"#000000"}],"agency_name":"Metro St. Louis"},"geometry":{"type":"Point","coordinates":[-90.43111,38.70333]}},{"type":"Feature","properties":{"stop_id":"2470","stop_code":"2470","stop_name":"WESTPORT PLAZA @ FEE FEE EB","stop_desc":"FAR SIDE WESTPORT PLAZA @ FEE FEE EB","wheelchair_boarding":2,"routes":[{"route_id":"19631","agency_id":"70006","route_short_name":"94","route_long_name":"Page","route_type":3,"route_color":"#FFFFFF","route_text_color":"#000000"},{"route_id":"19634","agency_id":"70006","route_short_name":"98","route_long_name":"Ballas-North Hanley","route_type":3,"route_color":"#FFFFFF","route_text_color":"#000000"}],"agency_name":"Metro St. Louis"},"geometry":{"type":"Point","coordinates":[-90.44437,38.70184]}},{"type":"Feature","properties":{"stop_id":"2495","stop_code":"2495","stop_name":"WELLSTON TRANSIT CENTER EB","wheelchair_boarding":1,"routes":[{"route_id":"19631","agency_id":"70006","route_short_name":"94","route_long_name":"Page","route_type":3,"route_color":"#FFFFFF","route_text_color":"#000000"}],"agency_name":"Metro St. Louis"},"geometry":{"type":"Point","coordinates":[-90.29896,38.66885]}},{"type":"Feature","properties":{"stop_id":"2496","stop_code":"2496","stop_name":"PLYMOUTH @ STEPHEN JONES EB","stop_desc":"NEAR SIDE PLYMOUTH @ STEPHEN JONES EB","wheelchair_boarding":2,"routes":[{"route_id":"19631","agency_id":"70006","route_short_name":"94","route_long_name":"Page","route_type":3,"route_color":"#FFFFFF","route_text_color":"#000000"}],"agency_name":"Metro St. Louis"},"geometry":{"type":"Point","coordinates":[-90.29504,38.66855]}},{"type":"Feature","properties":{"stop_id":"2497","stop_code":"2497","stop_name":"STEPHEN JONES @ WAGNER EB","stop_desc":"FAR SIDE STEPHEN JONES @ WAGNER EB","wheelchair_boarding":2,"routes":[{"route_id":"19631","agency_id":"70006","route_short_name":"94","route_long_name":"Page","route_type":3,"route_color":"#FFFFFF","route_text_color":"#000000"}],"agency_name":"Metro St. Louis"},"geometry":{"type":"Point","coordinates":[-90.29403,38.67087]}},{"type":"Feature","properties":{"stop_id":"2498","stop_code":"2498","stop_name":"PAGE @ SKINKER EB","stop_desc":"NEAR SIDE PAGE @ SKINKER EB","wheelchair_boarding":2,"routes":[{"route_id":"19631","agency_id":"70006","route_short_name":"94","route_long_name":"Page","route_type":3,"route_color":"#FFFFFF","route_text_color":"#000000"}],"agency_name":"Metro St. Louis"},"geometry":{"type":"Point","coordinates":[-90.29019,38.67057]}},{"type":"Feature","properties":{"stop_id":"2499","stop_code":"2499","stop_name":"PAGE @ AMHERST EB","stop_desc":"FAR SIDE PAGE @ AMHERST EB","wheelchair_boarding":1,"routes":[{"route_id":"19631","agency_id":"70006","route_short_name":"94","route_long_name":"Page","route_type":3,"route_color":"#FFFFFF","route_text_color":"#000000"}],"agency_name":"Metro St. Louis"},"geometry":{"type":"Point","coordinates":[-90.28784,38.66931]}},{"type":"Feature","properties":{"stop_id":"2500","stop_code":"2500","stop_name":"PAGE @ HAMILTON EB","stop_desc":"NEAR SIDE PAGE @ HAMILTON EB","wheelchair_boarding":1,"routes":[{"route_id":"19631","agency_id":"70006","route_short_name":"94","route_long_name":"Page","route_type":3,"route_color":"#FFFFFF","route_text_color":"#000000"}],"agency_name":"Metro St. Louis"},"geometry":{"type":"Point","coordinates":[-90.28642,38.66855]}},{"type":"Feature","properties":{"stop_id":"2501","stop_code":"2501","stop_name":"PAGE @ GOODFELLOW EB","stop_desc":"FAR SIDE PAGE @ GOODFELLOW EB","wheelchair_boarding":1,"routes":[{"route_id":"19631","agency_id":"70006","route_short_name":"94","route_long_name":"Page","route_type":3,"route_color":"#FFFFFF","route_text_color":"#000000"}],"agency_name":"Metro St. Louis"},"geometry":{"type":"Point","coordinates":[-90.28289,38.66667]}},{"type":"Feature","properties":{"stop_id":"2503","stop_code":"2503","stop_name":"PAGE @ CLARA EB","stop_desc":"NEAR SIDE PAGE @ CLARA EB","wheelchair_boarding":1,"routes":[{"route_id":"19631","agency_id":"70006","route_short_name":"94","route_long_name":"Page","route_type":3,"route_color":"#FFFFFF","route_text_color":"#000000"}],"agency_name":"Metro St. Louis"},"geometry":{"type":"Point","coordinates":[-90.27985,38.665]}},{"type":"Feature","properties":{"stop_id":"2505","stop_code":"2505","stop_name":"PAGE @ BELT EB","stop_desc":"NEAR SIDE PAGE @ BELT EB","wheelchair_boarding":1,"routes":[{"route_id":"19631","agency_id":"70006","route_short_name":"94","route_long_name":"Page","route_type":3,"route_color":"#FFFFFF","route_text_color":"#000000"}],"agency_name":"Metro St. Louis"},"geometry":{"type":"Point","coordinates":[-90.27645,38.66316]}},{"type":"Feature","properties":{"stop_id":"2506","stop_code":"2506","stop_name":"PAGE @ ARLINGTON EB","stop_desc":"FAR SIDE PAGE @ ARLINGTON EB","wheelchair_boarding":1,"routes":[{"route_id":"19631","agency_id":"70006","route_short_name":"94","route_long_name":"Page","route_type":3,"route_color":"#FFFFFF","route_text_color":"#000000"}],"agency_name":"Metro St. Louis"},"geometry":{"type":"Point","coordinates":[-90.27433,38.66205]}},{"type":"Feature","properties":{"stop_id":"2507","stop_code":"2507","stop_name":"PAGE @ UNION EB","stop_desc":"FAR SIDE PAGE @ UNION EB","wheelchair_boarding":1,"routes":[{"route_id":"19631","agency_id":"70006","route_short_name":"94","route_long_name":"Page","route_type":3,"route_color":"#FFFFFF","route_text_color":"#000000"}],"agency_name":"Metro St. Louis"},"geometry":{"type":"Point","coordinates":[-90.2715,38.6608]}},{"type":"Feature","properties":{"stop_id":"2508","stop_code":"2508","stop_name":"PAGE @ CLARENDON EB","stop_desc":"FAR SIDE PAGE @ CLARENDON EB","wheelchair_boarding":2,"routes":[{"route_id":"19631","agency_id":"70006","route_short_name":"94","route_long_name":"Page","route_type":3,"route_color":"#FFFFFF","route_text_color":"#000000"}],"agency_name":"Metro St. Louis"},"geometry":{"type":"Point","coordinates":[-90.26894,38.66054]}},{"type":"Feature","properties":{"stop_id":"2509","stop_code":"2509","stop_name":"PAGE @ ACADEMY EB","stop_desc":"NEAR SIDE PAGE @ ACADEMY EB","wheelchair_boarding":1,"routes":[{"route_id":"19631","agency_id":"70006","route_short_name":"94","route_long_name":"Page","route_type":3,"route_color":"#FFFFFF","route_text_color":"#000000"}],"agency_name":"Metro St. Louis"},"geometry":{"type":"Point","coordinates":[-90.26592,38.66023]}},{"type":"Feature","properties":{"stop_id":"2510","stop_code":"2510","stop_name":"PAGE @ KINGSHIGHWAY EB","stop_desc":"FAR SIDE PAGE @ KINGSHIGHWAY EB","wheelchair_boarding":1,"routes":[{"route_id":"19631","agency_id":"70006","route_short_name":"94","route_long_name":"Page","route_type":3,"route_color":"#FFFFFF","route_text_color":"#000000"}],"agency_name":"Metro St. Louis"},"geometry":{"type":"Point","coordinates":[-90.26186,38.65981]}},{"type":"Feature","properties":{"stop_id":"2512","stop_code":"2512","stop_name":"PAGE @ EUCLID EB","stop_desc":"FAR SIDE PAGE @ EUCLID EB","wheelchair_boarding":1,"routes":[{"route_id":"19631","agency_id":"70006","route_short_name":"94","route_long_name":"Page","route_type":3,"route_color":"#FFFFFF","route_text_color":"#000000"}],"agency_name":"Metro St. Louis"},"geometry":{"type":"Point","coordinates":[-90.25901,38.65957]}},{"type":"Feature","properties":{"stop_id":"2514","stop_code":"2514","stop_name":"PAGE @ WALTON EB","stop_desc":"FAR SIDE PAGE @ WALTON EB","wheelchair_boarding":1,"routes":[{"route_id":"19631","agency_id":"70006","route_short_name":"94","route_long_name":"Page","route_type":3,"route_color":"#FFFFFF","route_text_color":"#000000"}],"agency_name":"Metro St. Louis"},"geometry":{"type":"Point","coordinates":[-90.25597,38.65841]}},{"type":"Feature","properties":{"stop_id":"2516","stop_code":"2516","stop_name":"PAGE @ REV GH PRUITT PLACE EB","stop_desc":"NEAR SIDE PAGE @ REV GH PRUITT PLACE EB","wheelchair_boarding":1,"routes":[{"route_id":"19631","agency_id":"70006","route_short_name":"94","route_long_name":"Page","route_type":3,"route_color":"#FFFFFF","route_text_color":"#000000"}],"agency_name":"Metro St. Louis"},"geometry":{"type":"Point","coordinates":[-90.25278,38.657]}},{"type":"Feature","properties":{"stop_id":"2517","stop_code":"2517","stop_name":"PAGE @ TAYLOR EB","stop_desc":"FAR SIDE PAGE @ TAYLOR EB","wheelchair_boarding":1,"routes":[{"route_id":"19631","agency_id":"70006","route_short_name":"94","route_long_name":"Page","route_type":3,"route_color":"#FFFFFF","route_text_color":"#000000"}],"agency_name":"Metro St. Louis"},"geometry":{"type":"Point","coordinates":[-90.2493,38.65546]}},{"type":"Feature","properties":{"stop_id":"2543","stop_code":"2543","stop_name":"WESTPORT PLAZA @ PROGRESS PARKWAY EB","stop_desc":"FAR SIDE WESTPORT PLAZA @ PROGRESS PARKWAY EB","wheelchair_boarding":2,"routes":[{"route_id":"19631","agency_id":"70006","route_short_name":"94","route_long_name":"Page","route_type":3,"route_color":"#FFFFFF","route_text_color":"#000000"},{"route_id":"19634","agency_id":"70006","route_short_name":"98","route_long_name":"Ballas-North Hanley","route_type":3,"route_color":"#FFFFFF","route_text_color":"#000000"}],"agency_name":"Metro St. Louis"},"geometry":{"type":"Point","coordinates":[-90.44581,38.70265]}},{"type":"Feature","properties":{"stop_id":"2544","stop_code":"2544","stop_name":"PROGRESS PARKWAY @ WESTPORT PLAZA SB","stop_desc":"NEAR SIDE PROGRESS PARKWAY @ WESTPORT PLAZA SB","wheelchair_boarding":2,"routes":[{"route_id":"19631","agency_id":"70006","route_short_name":"94","route_long_name":"Page","route_type":3,"route_color":"#FFFFFF","route_text_color":"#000000"}],"agency_name":"Metro St. Louis"},"geometry":{"type":"Point","coordinates":[-90.44601,38.70322]}},{"type":"Feature","properties":{"stop_id":"2571","stop_code":"2571","stop_name":"PAGE @ RUCKERT EB","stop_desc":"NEAR SIDE PAGE @ RUCKERT EB","wheelchair_boarding":2,"routes":[{"route_id":"19631","agency_id":"70006","route_short_name":"94","route_long_name":"Page","route_type":3,"route_color":"#FFFFFF","route_text_color":"#000000"}],"agency_name":"Metro St. Louis"},"geometry":{"type":"Point","coordinates":[-90.40383,38.69507]}},{"type":"Feature","properties":{"stop_id":"2572","stop_code":"2572","stop_name":"PAGE @ GALT INDUSTRIAL EB","stop_desc":"FAR SIDE PAGE @ GALT INDUSTRIAL EB","wheelchair_boarding":2,"routes":[{"route_id":"19631","agency_id":"70006","route_short_name":"94","route_long_name":"Page","route_type":3,"route_color":"#FFFFFF","route_text_color":"#000000"}],"agency_name":"Metro St. Louis"},"geometry":{"type":"Point","coordinates":[-90.40096,38.69306]}},{"type":"Feature","properties":{"stop_id":"2573","stop_code":"2573","stop_name":"PAGE @ WARSON EB","stop_desc":"FAR SIDE PAGE @ WARSON EB","wheelchair_boarding":2,"routes":[{"route_id":"19631","agency_id":"70006","route_short_name":"94","route_long_name":"Page","route_type":3,"route_color":"#FFFFFF","route_text_color":"#000000"}],"agency_name":"Metro St. Louis"},"geometry":{"type":"Point","coordinates":[-90.39512,38.69198]}},{"type":"Feature","properties":{"stop_id":"2574","stop_code":"2574","stop_name":"PAGE @ ASHBY EB","stop_desc":"FAR SIDE PAGE @ ASHBY EB","wheelchair_boarding":2,"routes":[{"route_id":"19631","agency_id":"70006","route_short_name":"94","route_long_name":"Page","route_type":3,"route_color":"#FFFFFF","route_text_color":"#000000"}],"agency_name":"Metro St. Louis"},"geometry":{"type":"Point","coordinates":[-90.39147,38.69164]}},{"type":"Feature","properties":{"stop_id":"2576","stop_code":"2576","stop_name":"PAGE @ PAGE INDUSTRIAL EB","stop_desc":"NEAR SIDE PAGE @ PAGE INDUSTRIAL EB","wheelchair_boarding":2,"routes":[{"route_id":"19631","agency_id":"70006","route_short_name":"94","route_long_name":"Page","route_type":3,"route_color":"#FFFFFF","route_text_color":"#000000"}],"agency_name":"Metro St. Louis"},"geometry":{"type":"Point","coordinates":[-90.38568,38.691]}},{"type":"Feature","properties":{"stop_id":"2577","stop_code":"2577","stop_name":"PAGE @ LOTSIE EB","stop_desc":"FAR SIDE PAGE @ LOTSIE EB","wheelchair_boarding":2,"routes":[{"route_id":"19631","agency_id":"70006","route_short_name":"94","route_long_name":"Page","route_type":3,"route_color":"#FFFFFF","route_text_color":"#000000"}],"agency_name":"Metro St. Louis"},"geometry":{"type":"Point","coordinates":[-90.38258,38.69065]}},{"type":"Feature","properties":{"stop_id":"2578","stop_code":"2578","stop_name":"9900 PAGE EB","stop_desc":"MID-BLOCK 9900 PAGE EB","wheelchair_boarding":1,"routes":[{"route_id":"19631","agency_id":"70006","route_short_name":"94","route_long_name":"Page","route_type":3,"route_color":"#FFFFFF","route_text_color":"#000000"}],"agency_name":"Metro St. Louis"},"geometry":{"type":"Point","coordinates":[-90.37826,38.68957]}},{"type":"Feature","properties":{"stop_id":"2580","stop_code":"2580","stop_name":"PAGE @ SPENCER EB","stop_desc":"FAR SIDE PAGE @ SPENCER EB","wheelchair_boarding":1,"routes":[{"route_id":"19631","agency_id":"70006","route_short_name":"94","route_long_name":"Page","route_type":3,"route_color":"#FFFFFF","route_text_color":"#000000"}],"agency_name":"Metro St. Louis"},"geometry":{"type":"Point","coordinates":[-90.37219,38.68821]}},{"type":"Feature","properties":{"stop_id":"2581","stop_code":"2581","stop_name":"PAGE @ BURNS EB","stop_desc":"NEAR SIDE PAGE @ BURNS EB","wheelchair_boarding":1,"routes":[{"route_id":"19631","agency_id":"70006","route_short_name":"94","route_long_name":"Page","route_type":3,"route_color":"#FFFFFF","route_text_color":"#000000"}],"agency_name":"Metro St. Louis"},"geometry":{"type":"Point","coordinates":[-90.36765,38.68758]}},{"type":"Feature","properties":{"stop_id":"2582","stop_code":"2582","stop_name":"PAGE @ PRICE EB","stop_desc":"NEAR SIDE PAGE @ PRICE EB","wheelchair_boarding":1,"routes":[{"route_id":"19631","agency_id":"70006","route_short_name":"94","route_long_name":"Page","route_type":3,"route_color":"#FFFFFF","route_text_color":"#000000"}],"agency_name":"Metro St. Louis"},"geometry":{"type":"Point","coordinates":[-90.36396,38.68721]}},{"type":"Feature","properties":{"stop_id":"2584","stop_code":"2584","stop_name":"PAGE @ SCHNUCKS OVERLAND PLAZA EB","stop_desc":"MID-BLOCK PAGE @ SCHNUCKS OVERLAND PLAZA EB","wheelchair_boarding":1,"routes":[{"route_id":"19631","agency_id":"70006","route_short_name":"94","route_long_name":"Page","route_type":3,"route_color":"#FFFFFF","route_text_color":"#000000"}],"agency_name":"Metro St. Louis"},"geometry":{"type":"Point","coordinates":[-90.35879,38.68661]}},{"type":"Feature","properties":{"stop_id":"2585","stop_code":"2585","stop_name":"PAGE @ BELT WAY EB","stop_desc":"NEAR SIDE PAGE @ BELT WAY EB","wheelchair_boarding":2,"routes":[{"route_id":"19631","agency_id":"70006","route_short_name":"94","route_long_name":"Page","route_type":3,"route_color":"#FFFFFF","route_text_color":"#000000"}],"agency_name":"Metro St. Louis"},"geometry":{"type":"Point","coordinates":[-90.35238,38.68638]}},{"type":"Feature","properties":{"stop_id":"2586","stop_code":"2586","stop_name":"PAGE @ WALTON EB","stop_desc":"FAR SIDE PAGE @ WALTON EB","wheelchair_boarding":2,"routes":[{"route_id":"19631","agency_id":"70006","route_short_name":"94","route_long_name":"Page","route_type":3,"route_color":"#FFFFFF","route_text_color":"#000000"}],"agency_name":"Metro St. Louis"},"geometry":{"type":"Point","coordinates":[-90.34717,38.68551]}},{"type":"Feature","properties":{"stop_id":"2587","stop_code":"2587","stop_name":"PAGE @ CRYSTAL INDUSTRIAL COURT EB","stop_desc":"NEAR SIDE PAGE @ CRYSTAL INDUSTRIAL COURT EB","wheelchair_boarding":1,"routes":[{"route_id":"19631","agency_id":"70006","route_short_name":"94","route_long_name":"Page","route_type":3,"route_color":"#FFFFFF","route_text_color":"#000000"}],"agency_name":"Metro St. Louis"},"geometry":{"type":"Point","coordinates":[-90.34399,38.68553]}},{"type":"Feature","properties":{"stop_id":"2588","stop_code":"2588","stop_name":"PAGE @ ERMES EB","stop_desc":"FAR SIDE PAGE @ ERMES EB","wheelchair_boarding":2,"routes":[{"route_id":"19631","agency_id":"70006","route_short_name":"94","route_long_name":"Page","route_type":3,"route_color":"#FFFFFF","route_text_color":"#000000"}],"agency_name":"Metro St. Louis"},"geometry":{"type":"Point","coordinates":[-90.33877,38.68443]}},{"type":"Feature","properties":{"stop_id":"2590","stop_code":"2590","stop_name":"PAGE @ NORTH AND SOUTH EB","stop_desc":"NEAR SIDE PAGE @ NORTH AND SOUTH EB","wheelchair_boarding":2,"routes":[{"route_id":"19631","agency_id":"70006","route_short_name":"94","route_long_name":"Page","route_type":3,"route_color":"#FFFFFF","route_text_color":"#000000"}],"agency_name":"Metro St. Louis"},"geometry":{"type":"Point","coordinates":[-90.3362,38.68359]}},{"type":"Feature","properties":{"stop_id":"2591","stop_code":"2591","stop_name":"PAGE @ HARRISON EB","stop_desc":"FAR SIDE PAGE @ HARRISON EB","wheelchair_boarding":2,"routes":[{"route_id":"19631","agency_id":"70006","route_short_name":"94","route_long_name":"Page","route_type":3,"route_color":"#FFFFFF","route_text_color":"#000000"}],"agency_name":"Metro St. Louis"},"geometry":{"type":"Point","coordinates":[-90.33322,38.68351]}},{"type":"Feature","properties":{"stop_id":"2593","stop_code":"2593","stop_name":"PAGE @ HANLEY EB","stop_desc":"NEAR SIDE PAGE @ HANLEY EB","wheelchair_boarding":1,"routes":[{"route_id":"19631","agency_id":"70006","route_short_name":"94","route_long_name":"Page","route_type":3,"route_color":"#FFFFFF","route_text_color":"#000000"}],"agency_name":"Metro St. Louis"},"geometry":{"type":"Point","coordinates":[-90.32964,38.68346]}},{"type":"Feature","properties":{"stop_id":"2595","stop_code":"2595","stop_name":"PAGE @ QUENDO EB","stop_desc":"FAR SIDE PAGE @ QUENDO EB","wheelchair_boarding":2,"routes":[{"route_id":"19631","agency_id":"70006","route_short_name":"94","route_long_name":"Page","route_type":3,"route_color":"#FFFFFF","route_text_color":"#000000"}],"agency_name":"Metro St. Louis"},"geometry":{"type":"Point","coordinates":[-90.32417,38.68089]}},{"type":"Feature","properties":{"stop_id":"2597","stop_code":"2597","stop_name":"PAGE @ FARIS EB","stop_desc":"FAR SIDE PAGE @ FARIS EB","wheelchair_boarding":1,"routes":[{"route_id":"19631","agency_id":"70006","route_short_name":"94","route_long_name":"Page","route_type":3,"route_color":"#FFFFFF","route_text_color":"#000000"}],"agency_name":"Metro St. Louis"},"geometry":{"type":"Point","coordinates":[-90.32012,38.67872]}},{"type":"Feature","properties":{"stop_id":"2598","stop_code":"2598","stop_name":"PAGE @ NIXON EB","stop_desc":"FAR SIDE PAGE @ NIXON EB","wheelchair_boarding":2,"routes":[{"route_id":"19631","agency_id":"70006","route_short_name":"94","route_long_name":"Page","route_type":3,"route_color":"#FFFFFF","route_text_color":"#000000"}],"agency_name":"Metro St. Louis"},"geometry":{"type":"Point","coordinates":[-90.31846,38.67817]}},{"type":"Feature","properties":{"stop_id":"2599","stop_code":"2599","stop_name":"PAGE @ VERL PLACE EB","stop_desc":"FAR SIDE PAGE @ VERL PLACE EB","wheelchair_boarding":2,"routes":[{"route_id":"19631","agency_id":"70006","route_short_name":"94","route_long_name":"Page","route_type":3,"route_color":"#FFFFFF","route_text_color":"#000000"}],"agency_name":"Metro St. Louis"},"geometry":{"type":"Point","coordinates":[-90.31605,38.67737]}},{"type":"Feature","properties":{"stop_id":"2601","stop_code":"2601","stop_name":"PAGE @ GRIEFIELD PLACE EB","stop_desc":"NEAR SIDE PAGE @ GRIEFIELD PLACE EB","wheelchair_boarding":1,"routes":[{"route_id":"19631","agency_id":"70006","route_short_name":"94","route_long_name":"Page","route_type":3,"route_color":"#FFFFFF","route_text_color":"#000000"}],"agency_name":"Metro St. Louis"},"geometry":{"type":"Point","coordinates":[-90.31305,38.67617]}},{"type":"Feature","properties":{"stop_id":"2603","stop_code":"2603","stop_name":"SUTTER @ JULIAN SB","stop_desc":"NEAR SIDE SUTTER @ JULIAN SB","wheelchair_boarding":2,"routes":[{"route_id":"19631","agency_id":"70006","route_short_name":"94","route_long_name":"Page","route_type":3,"route_color":"#FFFFFF","route_text_color":"#000000"}],"agency_name":"Metro St. Louis"},"geometry":{"type":"Point","coordinates":[-90.30194,38.67022]}},{"type":"Feature","properties":{"stop_id":"5475","stop_code":"5475","stop_name":"COMPTON @ LACLEDE SB","stop_desc":"FAR SIDE COMPTON @ LACLEDE SB","wheelchair_boarding":1,"routes":[{"route_id":"19631","agency_id":"70006","route_short_name":"94","route_long_name":"Page","route_type":3,"route_color":"#FFFFFF","route_text_color":"#000000"}],"agency_name":"Metro St. Louis"},"geometry":{"type":"Point","coordinates":[-90.22693,38.6324]}},{"type":"Feature","properties":{"stop_id":"5477","stop_code":"5477","stop_name":"MARKET @ GARRISON EB","stop_desc":"NEAR SIDE MARKET @ GARRISON EB","wheelchair_boarding":1,"routes":[{"route_id":"19631","agency_id":"70006","route_short_name":"94","route_long_name":"Page","route_type":3,"route_color":"#FFFFFF","route_text_color":"#000000"}],"agency_name":"Metro St. Louis"},"geometry":{"type":"Point","coordinates":[-90.22387,38.63097]}},{"type":"Feature","properties":{"stop_id":"5479","stop_code":"5479","stop_name":"2820 MARKET EB","stop_desc":"MID-BLOCK 2820 MARKET EB","wheelchair_boarding":1,"routes":[{"route_id":"19631","agency_id":"70006","route_short_name":"94","route_long_name":"Page","route_type":3,"route_color":"#FFFFFF","route_text_color":"#000000"}],"agency_name":"Metro St. Louis"},"geometry":{"type":"Point","coordinates":[-90.21977,38.63107]}},{"type":"Feature","properties":{"stop_id":"5480","stop_code":"5480","stop_name":"MARKET @ BEAUMONT EB","stop_desc":"FAR SIDE MARKET @ BEAUMONT EB","wheelchair_boarding":1,"routes":[{"route_id":"19631","agency_id":"70006","route_short_name":"94","route_long_name":"Page","route_type":3,"route_color":"#FFFFFF","route_text_color":"#000000"}],"agency_name":"Metro St. Louis"},"geometry":{"type":"Point","coordinates":[-90.21707,38.63114]}},{"type":"Feature","properties":{"stop_id":"6968","stop_code":"6968","stop_name":"77 PROGRESS PARKWAY SB","stop_desc":"NEAR SIDE 77 PROGRESS PARKWAY SB","wheelchair_boarding":2,"routes":[{"route_id":"19631","agency_id":"70006","route_short_name":"94","route_long_name":"Page","route_type":3,"route_color":"#FFFFFF","route_text_color":"#000000"}],"agency_name":"Metro St. Louis"},"geometry":{"type":"Point","coordinates":[-90.44629,38.70785]}},{"type":"Feature","properties":{"stop_id":"6969","stop_code":"6969","stop_name":"PROGRESS PARKWAY @ KIMLER SB","stop_desc":"FAR SIDE PROGRESS PARKWAY @ KIMLER SB","wheelchair_boarding":1,"routes":[{"route_id":"19631","agency_id":"70006","route_short_name":"94","route_long_name":"Page","route_type":3,"route_color":"#FFFFFF","route_text_color":"#000000"}],"agency_name":"Metro St. Louis"},"geometry":{"type":"Point","coordinates":[-90.44581,38.71009]}},{"type":"Feature","properties":{"stop_id":"7130","stop_code":"7130","stop_name":"DR ML KING @ COMPTON EB","stop_desc":"NEAR SIDE DR ML KING @ COMPTON EB","wheelchair_boarding":1,"routes":[{"route_id":"19631","agency_id":"70006","route_short_name":"94","route_long_name":"Page","route_type":3,"route_color":"#FFFFFF","route_text_color":"#000000"}],"agency_name":"Metro St. Louis"},"geometry":{"type":"Point","coordinates":[-90.22444,38.64394]}},{"type":"Feature","properties":{"stop_id":"7201","stop_code":"7201","stop_name":"PAGE @ FERGUSON EB","stop_desc":"FAR SIDE PAGE @ FERGUSON EB","wheelchair_boarding":1,"routes":[{"route_id":"19631","agency_id":"70006","route_short_name":"94","route_long_name":"Page","route_type":3,"route_color":"#FFFFFF","route_text_color":"#000000"}],"agency_name":"Metro St. Louis"},"geometry":{"type":"Point","coordinates":[-90.30842,38.67442]}},{"type":"Feature","properties":{"stop_id":"7202","stop_code":"7202","stop_name":"PAGE @ GRUNER PLACE EB","stop_desc":"NEAR SIDE PAGE @ GRUNER PLACE EB","wheelchair_boarding":2,"routes":[{"route_id":"19631","agency_id":"70006","route_short_name":"94","route_long_name":"Page","route_type":3,"route_color":"#FFFFFF","route_text_color":"#000000"}],"agency_name":"Metro St. Louis"},"geometry":{"type":"Point","coordinates":[-90.30428,38.67383]}},{"type":"Feature","properties":{"stop_id":"7855","stop_code":"7855","stop_name":"14TH STREET @ MARKET SB","stop_desc":"MID-BLOCK 14TH STREET @ MARKET SB","wheelchair_boarding":1,"routes":[{"route_id":"19594","agency_id":"70006","route_short_name":"4","route_long_name":"Natural Bridge","route_type":3,"route_color":"#FFFFFF","route_text_color":"#000000"},{"route_id":"19598","agency_id":"70006","route_short_name":"10","route_long_name":"Gravois-Lindell","route_type":3,"route_color":"#FFFFFF","route_text_color":"#000000"},{"route_id":"19607","agency_id":"70006","route_short_name":"32","route_long_name":"Dr ML King","route_type":3,"route_color":"#FFFFFF","route_text_color":"#000000"},{"route_id":"19611","agency_id":"70006","route_short_name":"40","route_long_name":"Broadway-Halls Ferry","route_type":3,"route_color":"#FFFFFF","route_text_color":"#000000"},{"route_id":"19612","agency_id":"70006","route_short_name":"41","route_long_name":"Lee","route_type":3,"route_color":"#FFFFFF","route_text_color":"#000000"},{"route_id":"19624","agency_id":"70006","route_short_name":"74","route_long_name":"Florissant","route_type":3,"route_color":"#FFFFFF","route_text_color":"#000000"},{"route_id":"19631","agency_id":"70006","route_short_name":"94","route_long_name":"Page","route_type":3,"route_color":"#FFFFFF","route_text_color":"#000000"},{"route_id":"19633","agency_id":"70006","route_short_name":"97","route_long_name":"Delmar","route_type":3,"route_color":"#FFFFFF","route_text_color":"#000000"}],"agency_name":"Metro St. Louis"},"geometry":{"type":"Point","coordinates":[-90.20127,38.62775]}},{"type":"Feature","properties":{"stop_id":"8839","stop_code":"8839","stop_name":"MARKET @ 23RD STREET EB","stop_desc":"NEAR SIDE MARKET @ 23RD STREET EB","wheelchair_boarding":1,"routes":[{"route_id":"19594","agency_id":"70006","route_short_name":"4","route_long_name":"Natural Bridge","route_type":3,"route_color":"#FFFFFF","route_text_color":"#000000"},{"route_id":"19631","agency_id":"70006","route_short_name":"94","route_long_name":"Page","route_type":3,"route_color":"#FFFFFF","route_text_color":"#000000"}],"agency_name":"Metro St. Louis"},"geometry":{"type":"Point","coordinates":[-90.21427,38.63079]}},{"type":"Feature","properties":{"stop_id":"8840","stop_code":"8840","stop_name":"MARKET @ 22ND STREET EB","stop_desc":"NEAR SIDE MARKET @ 22ND STREET EB","wheelchair_boarding":1,"routes":[{"route_id":"19594","agency_id":"70006","route_short_name":"4","route_long_name":"Natural Bridge","route_type":3,"route_color":"#FFFFFF","route_text_color":"#000000"},{"route_id":"19631","agency_id":"70006","route_short_name":"94","route_long_name":"Page","route_type":3,"route_color":"#FFFFFF","route_text_color":"#000000"}],"agency_name":"Metro St. Louis"},"geometry":{"type":"Point","coordinates":[-90.21278,38.6305]}},{"type":"Feature","properties":{"stop_id":"8842","stop_code":"8842","stop_name":"MARKET @ 18TH STREET EB","stop_desc":"FAR SIDE MARKET @ 18TH STREET EB","wheelchair_boarding":1,"routes":[{"route_id":"19594","agency_id":"70006","route_short_name":"4","route_long_name":"Natural Bridge","route_type":3,"route_color":"#FFFFFF","route_text_color":"#000000"},{"route_id":"19631","agency_id":"70006","route_short_name":"94","route_long_name":"Page","route_type":3,"route_color":"#FFFFFF","route_text_color":"#000000"}],"agency_name":"Metro St. Louis"},"geometry":{"type":"Point","coordinates":[-90.20609,38.62909]}}]}