{"type":"FeatureCollection","features":[{"type":"Feature","properties":{"agency_name":"Metro St. Louis","route_id":"19618","agency_id":"70006","route_short_name":"59","route_long_name":"Oakland","route_type":3,"route_color":"#FFFFFF","route_text_color":"#000000"},"geometry":{"type":"MultiLineString","coordinates":[[[-90.31443,38.63265],[-90.31441,38.63281],[-90.31443,38.63265],[-90.31212,38.63242],[-90.31196,38.63347],[-90.31087,38.63401],[-90.30599,38.63355],[-90.30595,38.63348],[-90.30582,38.63337],[-90.305,38.63291],[-90.30452,38.63266],[-90.30444,38.63256],[-90.30402,38.63232],[-90.30363,38.63213],[-90.30314,38.63185],[-90.30299,38.63179],[-90.30264,38.63157],[-90.30039,38.63032],[-90.30005,38.63015],[-90.29955,38.62994],[-90.29902,38.62979],[-90.29846,38.62967],[-90.29723,38.62954],[-90.2965,38.62944],[-90.29577,38.62929],[-90.29289,38.62858],[-90.29204,38.62853],[-90.29162,38.62853],[-90.29097,38.62859],[-90.29075,38.62864],[-90.29033,38.62879],[-90.28599,38.63059],[-90.28577,38.6307],[-90.28496,38.63074],[-90.28453,38.6307],[-90.28441,38.63065],[-90.28114,38.63033],[-90.28079,38.6303],[-90.28067,38.63032],[-90.27128,38.62942],[-90.2712,38.62939],[-90.27089,38.62935],[-90.26637,38.62889],[-90.26588,38.62885],[-90.26573,38.62887],[-90.26453,38.62878],[-90.2645,38.62896],[-90.26442,38.62924],[-90.2645,38.62955],[-90.26463,38.6298],[-90.26483,38.63012],[-90.26515,38.63055],[-90.26552,38.63112],[-90.26567,38.63143],[-90.26588,38.63177],[-90.26605,38.63217],[-90.26619,38.63275],[-90.26633,38.6336],[-90.26638,38.634],[-90.26641,38.63444],[-90.26639,38.6347],[-90.26589,38.63504],[-90.2632,38.63476],[-90.26332,38.63429],[-90.26356,38.63309],[-90.26026,38.63302],[-90.25955,38.63571],[-90.25954,38.63585],[-90.25955,38.63612],[-90.25977,38.63625],[-90.26009,38.6362],[-90.26049,38.63618]]]}},{"type":"Feature","properties":{"stop_id":"13386","stop_code":"13386","stop_name":"HIGHLAND TERRACE @ RICHMOND CENTER SB","stop_desc":"FAR SIDE HIGHLAND TERRACE @ RICHMOND CENTER SB","wheelchair_boarding":2,"routes":[{"route_id":"19618","agency_id":"70006","route_short_name":"59","route_long_name":"Oakland","route_type":3,"route_color":"#FFFFFF","route_text_color":"#000000"}],"agency_name":"Metro St. Louis"},"geometry":{"type":"Point","coordinates":[-90.31436,38.63335]}},{"type":"Feature","properties":{"stop_id":"13400","stop_code":"13400","stop_name":"BELLEVUE @ CLAYTON NB","stop_desc":"NEAR SIDE BELLEVUE @ CLAYTON NB","wheelchair_boarding":1,"routes":[{"route_id":"19601","agency_id":"70006","route_short_name":"16","route_long_name":"City Limits","route_type":3,"route_color":"#FFFFFF","route_text_color":"#000000"},{"route_id":"19618","agency_id":"70006","route_short_name":"59","route_long_name":"Oakland","route_type":3,"route_color":"#FFFFFF","route_text_color":"#000000"}],"agency_name":"Metro St. Louis"},"geometry":{"type":"Point","coordinates":[-90.31205,38.63276]}},{"type":"Feature","properties":{"stop_id":"14792","stop_code":"14792","stop_name":"CENTRAL WEST END TRANSIT CENTER","wheelchair_boarding":1,"routes":[{"route_id":"19592","agency_id":"70006","route_short_name":"1","route_long_name":"Gold","route_type":3,"route_color":"#FFFFFF","route_text_color":"#000000"},{"route_id":"19596","agency_id":"70006","route_short_name":"8","route_long_name":"Shaw-Cherokee","route_type":3,"route_color":"#FFFFFF","route_text_color":"#000000"},{"route_id":"19598","agency_id":"70006","route_short_name":"10","route_long_name":"Gravois-Lindell","route_type":3,"route_color":"#FFFFFF","route_text_color":"#000000"},{"route_id":"19600","agency_id":"70006","route_short_name":"13","route_long_name":"Union","route_type":3,"route_color":"#FFFFFF","route_text_color":"#000000"},{"route_id":"19618","agency_id":"70006","route_short_name":"59","route_long_name":"Oakland","route_type":3,"route_color":"#FFFFFF","route_text_color":"#000000"},{"route_id":"19632","agency_id":"70006","route_short_name":"95","route_long_name":"Kingshighway","route_type":3,"route_color":"#FFFFFF","route_text_color":"#000000"}],"agency_name":"Metro St. Louis"},"geometry":{"type":"Point","coordinates":[-90.25999,38.63568]}},{"type":"Feature","properties":{"stop_id":"15070","stop_code":"15070","stop_name":"CLAYTON @ EUCLID EB","stop_desc":"FAR SIDE CLAYTON @ EUCLID EB","wheelchair_boarding":1,"routes":[{"route_id":"19618","agency_id":"70006","route_short_name":"59","route_long_name":"Oakland","route_type":3,"route_color":"#FFFFFF","route_text_color":"#000000"},{"route_id":"19632","agency_id":"70006","route_short_name":"95","route_long_name":"Kingshighway","route_type":3,"route_color":"#FFFFFF","route_text_color":"#000000"}],"agency_name":"Metro St. Louis"},"geometry":{"type":"Point","coordinates":[-90.26242,38.63305]}},{"type":"Feature","properties":{"stop_id":"15229","stop_code":"15229","stop_name":"EUCLID @ MCKINLEY SB","stop_desc":"FAR SIDE EUCLID @ MCKINLEY SB","wheelchair_boarding":2,"routes":[{"route_id":"19618","agency_id":"70006","route_short_name":"59","route_long_name":"Oakland","route_type":3,"route_color":"#FFFFFF","route_text_color":"#000000"},{"route_id":"19632","agency_id":"70006","route_short_name":"95","route_long_name":"Kingshighway","route_type":3,"route_color":"#FFFFFF","route_text_color":"#000000"}],"agency_name":"Metro St. Louis"},"geometry":{"type":"Point","coordinates":[-90.26333,38.63442]}},{"type":"Feature","properties":{"stop_id":"15859","stop_code":"15859","stop_name":"CLAYTON @ LOUISVILLE EB","stop_desc":"NEAR SIDE CLAYTON @ LOUISVILLE EB","wheelchair_boarding":2,"routes":[{"route_id":"19618","agency_id":"70006","route_short_name":"59","route_long_name":"Oakland","route_type":3,"route_color":"#FFFFFF","route_text_color":"#000000"}],"agency_name":"Metro St. Louis"},"geometry":{"type":"Point","coordinates":[-90.29755,38.62956]}},{"type":"Feature","properties":{"stop_id":"5420","stop_code":"5420","stop_name":"CLAYTON @ GRAHAM EB","stop_desc":"FAR SIDE CLAYTON @ GRAHAM EB","wheelchair_boarding":1,"routes":[{"route_id":"19618","agency_id":"70006","route_short_name":"59","route_long_name":"Oakland","route_type":3,"route_color":"#FFFFFF","route_text_color":"#000000"}],"agency_name":"Metro St. Louis"},"geometry":{"type":"Point","coordinates":[-90.29121,38.6285]}},{"type":"Feature","properties":{"stop_id":"5423","stop_code":"5423","stop_name":"CLAYTON @ HAMPTON EB","stop_desc":"NEAR SIDE CLAYTON @ HAMPTON EB","wheelchair_boarding":1,"routes":[{"route_id":"19618","agency_id":"70006","route_short_name":"59","route_long_name":"Oakland","route_type":3,"route_color":"#FFFFFF","route_text_color":"#000000"}],"agency_name":"Metro St. Louis"},"geometry":{"type":"Point","coordinates":[-90.28775,38.62983]}},{"type":"Feature","properties":{"stop_id":"5438","stop_code":"5438","stop_name":"CLAYTON @ DE MUN EB","stop_desc":"FAR SIDE CLAYTON @ DE MUN EB","wheelchair_boarding":2,"routes":[{"route_id":"19601","agency_id":"70006","route_short_name":"16","route_long_name":"City Limits","route_type":3,"route_color":"#FFFFFF","route_text_color":"#000000"},{"route_id":"19618","agency_id":"70006","route_short_name":"59","route_long_name":"Oakland","route_type":3,"route_color":"#FFFFFF","route_text_color":"#000000"}],"agency_name":"Metro St. Louis"},"geometry":{"type":"Point","coordinates":[-90.30943,38.63388]}},{"type":"Feature","properties":{"stop_id":"5448","stop_code":"5448","stop_name":"OAKLAND @ OAKVIEW PLACE EB","stop_desc":"FAR SIDE OAKLAND @ OAKVIEW PLACE EB","wheelchair_boarding":1,"routes":[{"route_id":"19618","agency_id":"70006","route_short_name":"59","route_long_name":"Oakland","route_type":3,"route_color":"#FFFFFF","route_text_color":"#000000"}],"agency_name":"Metro St. Louis"},"geometry":{"type":"Point","coordinates":[-90.28422,38.6306]}},{"type":"Feature","properties":{"stop_id":"5450","stop_code":"5450","stop_name":"OAKLAND @ HIGHLANDER EB","stop_desc":"MID-BLOCK OAKLAND @ HIGHLANDER EB","wheelchair_boarding":1,"routes":[{"route_id":"19618","agency_id":"70006","route_short_name":"59","route_long_name":"Oakland","route_type":3,"route_color":"#FFFFFF","route_text_color":"#000000"}],"agency_name":"Metro St. Louis"},"geometry":{"type":"Point","coordinates":[-90.27959,38.63013]}},{"type":"Feature","properties":{"stop_id":"5451","stop_code":"5451","stop_name":"OAKLAND @ STLCC FOREST PARK EB","stop_desc":"MID-BLOCK OAKLAND @ STLCC FOREST PARK EB","wheelchair_boarding":1,"routes":[{"route_id":"19618","agency_id":"70006","route_short_name":"59","route_long_name":"Oakland","route_type":3,"route_color":"#FFFFFF","route_text_color":"#000000"}],"agency_name":"Metro St. Louis"},"geometry":{"type":"Point","coordinates":[-90.27597,38.62977]}},{"type":"Feature","properties":{"stop_id":"5452","stop_code":"5452","stop_name":"OAKLAND @ MACKLIND EB","stop_desc":"FAR SIDE OAKLAND @ MACKLIND EB","wheelchair_boarding":1,"routes":[{"route_id":"19618","agency_id":"70006","route_short_name":"59","route_long_name":"Oakland","route_type":3,"route_color":"#FFFFFF","route_text_color":"#000000"}],"agency_name":"Metro St. Louis"},"geometry":{"type":"Point","coordinates":[-90.27381,38.62962]}},{"type":"Feature","properties":{"stop_id":"5453","stop_code":"5453","stop_name":"OAKLAND @ ST. LOUIS SCIENCE CENTER EB","stop_desc":"NEAR SIDE OAKLAND @ ST. LOUIS SCIENCE CENTER EB","wheelchair_boarding":2,"routes":[{"route_id":"19618","agency_id":"70006","route_short_name":"59","route_long_name":"Oakland","route_type":3,"route_color":"#FFFFFF","route_text_color":"#000000"}],"agency_name":"Metro St. Louis"},"geometry":{"type":"Point","coordinates":[-90.27005,38.62922]}},{"type":"Feature","properties":{"stop_id":"5454","stop_code":"5454","stop_name":"OAKLAND @ SLU HIGH SCHOOL EB","stop_desc":"MID-BLOCK OAKLAND @ SLU HIGH SCHOOL EB","wheelchair_boarding":2,"routes":[{"route_id":"19618","agency_id":"70006","route_short_name":"59","route_long_name":"Oakland","route_type":3,"route_color":"#FFFFFF","route_text_color":"#000000"}],"agency_name":"Metro St. Louis"},"geometry":{"type":"Point","coordinates":[-90.26647,38.62888]}},{"type":"Feature","properties":{"stop_id":"5456","stop_code":"5456","stop_name":"KINGSHIGHWAY @ OAKLAND NB","stop_desc":"FAR SIDE KINGSHIGHWAY @ OAKLAND NB","wheelchair_boarding":1,"routes":[{"route_id":"19618","agency_id":"70006","route_short_name":"59","route_long_name":"Oakland","route_type":3,"route_color":"#FFFFFF","route_text_color":"#000000"},{"route_id":"19632","agency_id":"70006","route_short_name":"95","route_long_name":"Kingshighway","route_type":3,"route_color":"#FFFFFF","route_text_color":"#000000"}],"agency_name":"Metro St. Louis"},"geometry":{"type":"Point","coordinates":[-90.26437,38.62921]}},{"type":"Feature","properties":{"stop_id":"5459","stop_code":"5459","stop_name":"BARNES JEWISH HOSPITAL PLAZA EB","stop_desc":"MID-BLOCK BARNES JEWISH HOSPITAL PLAZA EB","wheelchair_boarding":1,"routes":[{"route_id":"19618","agency_id":"70006","route_short_name":"59","route_long_name":"Oakland","route_type":3,"route_color":"#FFFFFF","route_text_color":"#000000"},{"route_id":"19632","agency_id":"70006","route_short_name":"95","route_long_name":"Kingshighway","route_type":3,"route_color":"#FFFFFF","route_text_color":"#000000"}],"agency_name":"Metro St. Louis"},"geometry":{"type":"Point","coordinates":[-90.26458,38.63495]}},{"type":"Feature","properties":{"stop_id":"8356","stop_code":"8356","stop_name":"CLAYTON @ KRAFT EB","stop_desc":"NEAR SIDE CLAYTON @ KRAFT EB","wheelchair_boarding":1,"routes":[{"route_id":"19618","agency_id":"70006","route_short_name":"59","route_long_name":"Oakland","route_type":3,"route_color":"#FFFFFF","route_text_color":"#000000"}],"agency_name":"Metro St. Louis"},"geometry":{"type":"Point","coordinates":[-90.3006,38.63036]}},{"type":"Feature","properties":{"stop_id":"8571","stop_code":"8571","stop_name":"TAYLOR @ CLAYTON NB","stop_desc":"FAR SIDE TAYLOR @ CLAYTON NB","wheelchair_boarding":2,"routes":[{"route_id":"19596","agency_id":"70006","route_short_name":"8","route_long_name":"Shaw-Cherokee","route_type":3,"route_color":"#FFFFFF","route_text_color":"#000000"},{"route_id":"19618","agency_id":"70006","route_short_name":"59","route_long_name":"Oakland","route_type":3,"route_color":"#FFFFFF","route_text_color":"#000000"},{"route_id":"19632","agency_id":"70006","route_short_name":"95","route_long_name":"Kingshighway","route_type":3,"route_color":"#FFFFFF","route_text_color":"#000000"}],"agency_name":"Metro St. Louis"},"geometry":{"type":"Point","coordinates":[-90.2601,38.63346]}}]}