{"type":"FeatureCollection","features":[{"type":"Feature","properties":{"agency_name":"Metro St. Louis","route_id":"19605","agency_id":"70006","route_short_name":"30","route_long_name":"Arsenal","route_type":3,"route_color":"#FFFFFF","route_text_color":"#000000"},"geometry":{"type":"MultiLineString","coordinates":[[[-90.20277,38.62474],[-90.20285,38.62455],[-90.20271,38.62491],[-90.20271,38.62522],[-90.20267,38.62561],[-90.20262,38.62567],[-90.20253,38.62568],[-90.20248,38.62564],[-90.20246,38.62559],[-90.20257,38.62504],[-90.20253,38.62498],[-90.20231,38.62495],[-90.20279,38.62373],[-90.20306,38.62309],[-90.20315,38.62283],[-90.20337,38.62232],[-90.20371,38.62141],[-90.2042,38.6203],[-90.20455,38.61933],[-90.19677,38.61778],[-90.19587,38.61758],[-90.19341,38.61709],[-90.1939,38.61607],[-90.19427,38.61541],[-90.1945,38.61496],[-90.19502,38.61409],[-90.19514,38.61392],[-90.19549,38.61349],[-90.19561,38.61336],[-90.19576,38.61323],[-90.19629,38.61286],[-90.19647,38.61277],[-90.19708,38.61253],[-90.19763,38.61228],[-90.19795,38.6121],[-90.19818,38.61195],[-90.19843,38.61177],[-90.19868,38.61155],[-90.1998,38.61039],[-90.2022,38.60778],[-90.20284,38.60689],[-90.20331,38.60631],[-90.20349,38.60601],[-90.20413,38.60509],[-90.20732,38.60061],[-90.20771,38.60004],[-90.20786,38.59977],[-90.20799,38.59944],[-90.20818,38.59879],[-90.20829,38.59851],[-90.20845,38.5982],[-90.20887,38.59763],[-90.20894,38.59751],[-90.20894,38.59735],[-90.21076,38.59513],[-90.21032,38.59501],[-90.20932,38.59408],[-90.209,38.59382],[-90.20907,38.59374],[-90.21049,38.59284],[-90.2112,38.5924],[-90.21153,38.59223],[-90.21195,38.59265],[-90.21241,38.59306],[-90.21166,38.59402],[-90.21151,38.59417],[-90.21076,38.59513],[-90.21284,38.59574],[-90.21625,38.59667],[-90.219,38.59746],[-90.22053,38.59788],[-90.22426,38.59894],[-90.2265,38.59955],[-90.2309,38.60079],[-90.23199,38.60106],[-90.23265,38.6012],[-90.23423,38.60164],[-90.23484,38.60179],[-90.2354,38.60188],[-90.23653,38.60202],[-90.23995,38.60242],[-90.24225,38.60273],[-90.24257,38.60286],[-90.24278,38.60291],[-90.24305,38.60294],[-90.24604,38.60321],[-90.26626,38.60512],[-90.26668,38.60515],[-90.26799,38.60511],[-90.26923,38.60503],[-90.27037,38.60512],[-90.274,38.60551],[-90.27592,38.60568],[-90.28541,38.60664],[-90.29227,38.60731],[-90.29302,38.60712],[-90.29436,38.60581],[-90.2947,38.60553],[-90.29485,38.60544],[-90.2952,38.60529],[-90.29688,38.60476],[-90.29721,38.60461],[-90.29752,38.60441],[-90.29767,38.60428],[-90.29791,38.60402],[-90.29888,38.60267],[-90.29952,38.60136],[-90.30003,38.60026],[-90.30008,38.6001],[-90.30012,38.5999],[-90.30046,38.59775],[-90.30051,38.59748],[-90.30059,38.59718],[-90.30177,38.59322],[-90.30194,38.59274],[-90.30222,38.59228],[-90.30589,38.59053],[-90.30689,38.59007],[-90.31231,38.58746],[-90.31268,38.58724],[-90.31328,38.58683],[-90.31377,38.58647],[-90.31445,38.5873],[-90.31475,38.58769],[-90.31486,38.58779],[-90.31496,38.58784],[-90.31535,38.58791],[-90.31555,38.58799],[-90.31616,38.58866],[-90.31643,38.58913],[-90.31668,38.58986],[-90.31684,38.59018],[-90.31701,38.59043],[-90.31713,38.59059],[-90.31735,38.59082],[-90.31764,38.59105],[-90.31804,38.59132],[-90.31823,38.59148],[-90.31844,38.59174],[-90.31846,38.59199],[-90.31842,38.59254],[-90.31848,38.59266],[-90.31856,38.59279],[-90.3186,38.59282]]]}},{"type":"Feature","properties":{"stop_id":"10539","stop_code":"10539","stop_name":"2ND STREET @ ARSENAL SB","stop_desc":"MID-BLOCK 2ND STREET @ ARSENAL SB","wheelchair_boarding":2,"routes":[{"route_id":"19605","agency_id":"70006","route_short_name":"30","route_long_name":"Arsenal","route_type":3,"route_color":"#FFFFFF","route_text_color":"#000000"}],"agency_name":"Metro St. Louis"},"geometry":{"type":"Point","coordinates":[-90.2104,38.59298]}},{"type":"Feature","properties":{"stop_id":"13370","stop_code":"13370","stop_name":"ARSENAL @ 2ND STREET EB","stop_desc":"NEAR SIDE ARSENAL @ 2ND STREET EB","wheelchair_boarding":2,"routes":[{"route_id":"19605","agency_id":"70006","route_short_name":"30","route_long_name":"Arsenal","route_type":3,"route_color":"#FFFFFF","route_text_color":"#000000"}],"agency_name":"Metro St. Louis"},"geometry":{"type":"Point","coordinates":[-90.20938,38.59414]}},{"type":"Feature","properties":{"stop_id":"14496","stop_code":"14496","stop_name":"CIVIC CENTER TRANSIT CENTER","wheelchair_boarding":1,"routes":[{"route_id":"19598","agency_id":"70006","route_short_name":"10","route_long_name":"Gravois-Lindell","route_type":3,"route_color":"#FFFFFF","route_text_color":"#000000"},{"route_id":"19605","agency_id":"70006","route_short_name":"30","route_long_name":"Arsenal","route_type":3,"route_color":"#FFFFFF","route_text_color":"#000000"},{"route_id":"19606","agency_id":"70006","route_short_name":"31","route_long_name":"Chouteau","route_type":3,"route_color":"#FFFFFF","route_text_color":"#000000"},{"route_id":"19607","agency_id":"70006","route_short_name":"32","route_long_name":"Dr ML King","route_type":3,"route_color":"#FFFFFF","route_text_color":"#000000"}],"agency_name":"Metro St. Louis"},"geometry":{"type":"Point","coordinates":[-90.20298,38.6243]}},{"type":"Feature","properties":{"stop_id":"14769","stop_code":"14769","stop_name":"SHREWSBURY-LANSDOWNE I-44 TRANSIT CENTER","wheelchair_boarding":1,"routes":[{"route_id":"19599","agency_id":"70006","route_short_name":"11","route_long_name":"Chippewa","route_type":3,"route_color":"#FFFFFF","route_text_color":"#000000"},{"route_id":"19601","agency_id":"70006","route_short_name":"16","route_long_name":"City Limits","route_type":3,"route_color":"#FFFFFF","route_text_color":"#000000"},{"route_id":"19604","agency_id":"70006","route_short_name":"21","route_long_name":"Watson Rd","route_type":3,"route_color":"#FFFFFF","route_text_color":"#000000"},{"route_id":"19605","agency_id":"70006","route_short_name":"30","route_long_name":"Arsenal","route_type":3,"route_color":"#FFFFFF","route_text_color":"#000000"}],"agency_name":"Metro St. Louis"},"geometry":{"type":"Point","coordinates":[-90.31925,38.59277]}},{"type":"Feature","properties":{"stop_id":"14807","stop_code":"14807","stop_name":"CHOUTEAU @ 14TH STREET EB","stop_desc":"FAR SIDE CHOUTEAU @ 14TH STREET EB","wheelchair_boarding":1,"routes":[{"route_id":"19598","agency_id":"70006","route_short_name":"10","route_long_name":"Gravois-Lindell","route_type":3,"route_color":"#FFFFFF","route_text_color":"#000000"},{"route_id":"19605","agency_id":"70006","route_short_name":"30","route_long_name":"Arsenal","route_type":3,"route_color":"#FFFFFF","route_text_color":"#000000"},{"route_id":"19623","agency_id":"70006","route_short_name":"73","route_long_name":"Carondelet","route_type":3,"route_color":"#FFFFFF","route_text_color":"#000000"}],"agency_name":"Metro St. Louis"},"geometry":{"type":"Point","coordinates":[-90.20396,38.61915]}},{"type":"Feature","properties":{"stop_id":"1624","stop_code":"1624","stop_name":"CHOUTEAU @ 7TH STREET EB","stop_desc":"NEAR SIDE CHOUTEAU @ 7TH STREET EB","wheelchair_boarding":1,"routes":[{"route_id":"19605","agency_id":"70006","route_short_name":"30","route_long_name":"Arsenal","route_type":3,"route_color":"#FFFFFF","route_text_color":"#000000"}],"agency_name":"Metro St. Louis"},"geometry":{"type":"Point","coordinates":[-90.19636,38.6176]}},{"type":"Feature","properties":{"stop_id":"1693","stop_code":"1693","stop_name":"BROADWAY @ HICKORY SB","stop_desc":"NEAR SIDE BROADWAY @ HICKORY SB","wheelchair_boarding":1,"routes":[{"route_id":"19605","agency_id":"70006","route_short_name":"30","route_long_name":"Arsenal","route_type":3,"route_color":"#FFFFFF","route_text_color":"#000000"}],"agency_name":"Metro St. Louis"},"geometry":{"type":"Point","coordinates":[-90.1944,38.61525]}},{"type":"Feature","properties":{"stop_id":"1737","stop_code":"1737","stop_name":"ARSENAL @ SUBLETTE WB","stop_desc":"FAR SIDE ARSENAL @ SUBLETTE WB","wheelchair_boarding":2,"routes":[{"route_id":"19605","agency_id":"70006","route_short_name":"30","route_long_name":"Arsenal","route_type":3,"route_color":"#FFFFFF","route_text_color":"#000000"}],"agency_name":"Metro St. Louis"},"geometry":{"type":"Point","coordinates":[-90.28175,38.60631]}},{"type":"Feature","properties":{"stop_id":"1739","stop_code":"1739","stop_name":"ARSENAL @ PARC RIDGE WAY WB","stop_desc":"FAR SIDE ARSENAL @ PARC RIDGE WAY WB","wheelchair_boarding":2,"routes":[{"route_id":"19605","agency_id":"70006","route_short_name":"30","route_long_name":"Arsenal","route_type":3,"route_color":"#FFFFFF","route_text_color":"#000000"}],"agency_name":"Metro St. Louis"},"geometry":{"type":"Point","coordinates":[-90.28595,38.60672]}},{"type":"Feature","properties":{"stop_id":"1740","stop_code":"1740","stop_name":"ARSENAL @ 59TH STREET WB","stop_desc":"FAR SIDE ARSENAL @ 59TH STREET WB","wheelchair_boarding":2,"routes":[{"route_id":"19605","agency_id":"70006","route_short_name":"30","route_long_name":"Arsenal","route_type":3,"route_color":"#FFFFFF","route_text_color":"#000000"}],"agency_name":"Metro St. Louis"},"geometry":{"type":"Point","coordinates":[-90.28748,38.60688]}},{"type":"Feature","properties":{"stop_id":"1741","stop_code":"1741","stop_name":"ARSENAL @ HAMPTON WB","stop_desc":"FAR SIDE ARSENAL @ HAMPTON WB","wheelchair_boarding":1,"routes":[{"route_id":"19605","agency_id":"70006","route_short_name":"30","route_long_name":"Arsenal","route_type":3,"route_color":"#FFFFFF","route_text_color":"#000000"}],"agency_name":"Metro St. Louis"},"geometry":{"type":"Point","coordinates":[-90.28918,38.60706]}},{"type":"Feature","properties":{"stop_id":"2780","stop_code":"2780","stop_name":"WATSON @ CLIFTON SB","stop_desc":"NEAR SIDE WATSON @ CLIFTON SB","wheelchair_boarding":2,"routes":[{"route_id":"19605","agency_id":"70006","route_short_name":"30","route_long_name":"Arsenal","route_type":3,"route_color":"#FFFFFF","route_text_color":"#000000"}],"agency_name":"Metro St. Louis"},"geometry":{"type":"Point","coordinates":[-90.29316,38.60714]}},{"type":"Feature","properties":{"stop_id":"2782","stop_code":"2782","stop_name":"WATSON @ SCANLAN SB","stop_desc":"FAR SIDE WATSON @ SCANLAN SB","wheelchair_boarding":2,"routes":[{"route_id":"19605","agency_id":"70006","route_short_name":"30","route_long_name":"Arsenal","route_type":3,"route_color":"#FFFFFF","route_text_color":"#000000"}],"agency_name":"Metro St. Louis"},"geometry":{"type":"Point","coordinates":[-90.29658,38.60495]}},{"type":"Feature","properties":{"stop_id":"2784","stop_code":"2784","stop_name":"WATSON @ FYLER SB","stop_desc":"FAR SIDE WATSON @ FYLER SB","wheelchair_boarding":2,"routes":[{"route_id":"19605","agency_id":"70006","route_short_name":"30","route_long_name":"Arsenal","route_type":3,"route_color":"#FFFFFF","route_text_color":"#000000"}],"agency_name":"Metro St. Louis"},"geometry":{"type":"Point","coordinates":[-90.2991,38.60246]}},{"type":"Feature","properties":{"stop_id":"2785","stop_code":"2785","stop_name":"WATSON @ MARQUETTE SB","stop_desc":"NEAR SIDE WATSON @ MARQUETTE SB","wheelchair_boarding":1,"routes":[{"route_id":"19605","agency_id":"70006","route_short_name":"30","route_long_name":"Arsenal","route_type":3,"route_color":"#FFFFFF","route_text_color":"#000000"}],"agency_name":"Metro St. Louis"},"geometry":{"type":"Point","coordinates":[-90.30021,38.59987]}},{"type":"Feature","properties":{"stop_id":"2786","stop_code":"2786","stop_name":"WATSON @ PERNOD SB","stop_desc":"NEAR SIDE WATSON @ PERNOD SB","wheelchair_boarding":2,"routes":[{"route_id":"19605","agency_id":"70006","route_short_name":"30","route_long_name":"Arsenal","route_type":3,"route_color":"#FFFFFF","route_text_color":"#000000"}],"agency_name":"Metro St. Louis"},"geometry":{"type":"Point","coordinates":[-90.30053,38.59774]}},{"type":"Feature","properties":{"stop_id":"2792","stop_code":"2792","stop_name":"WATSON @ LINDENWOOD PLACE SB","stop_desc":"FAR SIDE WATSON @ LINDENWOOD PLACE SB","wheelchair_boarding":2,"routes":[{"route_id":"19605","agency_id":"70006","route_short_name":"30","route_long_name":"Arsenal","route_type":3,"route_color":"#FFFFFF","route_text_color":"#000000"}],"agency_name":"Metro St. Louis"},"geometry":{"type":"Point","coordinates":[-90.3014,38.59476]}},{"type":"Feature","properties":{"stop_id":"2793","stop_code":"2793","stop_name":"WATSON @ CHIPPEWA SB","stop_desc":"NEAR SIDE WATSON @ CHIPPEWA SB","wheelchair_boarding":2,"routes":[{"route_id":"19605","agency_id":"70006","route_short_name":"30","route_long_name":"Arsenal","route_type":3,"route_color":"#FFFFFF","route_text_color":"#000000"}],"agency_name":"Metro St. Louis"},"geometry":{"type":"Point","coordinates":[-90.30191,38.59304]}},{"type":"Feature","properties":{"stop_id":"3391","stop_code":"3391","stop_name":"ARSENAL @ KINGSHIGHWAY WB","stop_desc":"FAR SIDE ARSENAL @ KINGSHIGHWAY WB","wheelchair_boarding":2,"routes":[{"route_id":"19605","agency_id":"70006","route_short_name":"30","route_long_name":"Arsenal","route_type":3,"route_color":"#FFFFFF","route_text_color":"#000000"}],"agency_name":"Metro St. Louis"},"geometry":{"type":"Point","coordinates":[-90.26992,38.60514]}},{"type":"Feature","properties":{"stop_id":"5156","stop_code":"5156","stop_name":"CHOUTEAU @ 11TH STREET EB","stop_desc":"FAR SIDE CHOUTEAU @ 11TH STREET EB","wheelchair_boarding":2,"routes":[{"route_id":"19605","agency_id":"70006","route_short_name":"30","route_long_name":"Arsenal","route_type":3,"route_color":"#FFFFFF","route_text_color":"#000000"}],"agency_name":"Metro St. Louis"},"geometry":{"type":"Point","coordinates":[-90.20091,38.61853]}},{"type":"Feature","properties":{"stop_id":"6584","stop_code":"6584","stop_name":"BROADWAY @ UTAH NB","stop_desc":"FAR SIDE BROADWAY @ UTAH NB","wheelchair_boarding":2,"routes":[{"route_id":"19605","agency_id":"70006","route_short_name":"30","route_long_name":"Arsenal","route_type":3,"route_color":"#FFFFFF","route_text_color":"#000000"},{"route_id":"19623","agency_id":"70006","route_short_name":"73","route_long_name":"Carondelet","route_type":3,"route_color":"#FFFFFF","route_text_color":"#000000"}],"agency_name":"Metro St. Louis"},"geometry":{"type":"Point","coordinates":[-90.21184,38.59362]}},{"type":"Feature","properties":{"stop_id":"7274","stop_code":"7274","stop_name":"BROADWAY @ PARK SB","stop_desc":"FAR SIDE BROADWAY @ PARK SB","wheelchair_boarding":1,"routes":[{"route_id":"19605","agency_id":"70006","route_short_name":"30","route_long_name":"Arsenal","route_type":3,"route_color":"#FFFFFF","route_text_color":"#000000"}],"agency_name":"Metro St. Louis"},"geometry":{"type":"Point","coordinates":[-90.19764,38.61235]}},{"type":"Feature","properties":{"stop_id":"7294","stop_code":"7294","stop_name":"ARSENAL @ MORGANFORD WB","stop_desc":"FAR SIDE ARSENAL @ MORGANFORD WB","wheelchair_boarding":1,"routes":[{"route_id":"19605","agency_id":"70006","route_short_name":"30","route_long_name":"Arsenal","route_type":3,"route_color":"#FFFFFF","route_text_color":"#000000"}],"agency_name":"Metro St. Louis"},"geometry":{"type":"Point","coordinates":[-90.26137,38.60469]}},{"type":"Feature","properties":{"stop_id":"7296","stop_code":"7296","stop_name":"ARSENAL @ PORTIS WB","stop_desc":"NEAR SIDE ARSENAL @ PORTIS WB","wheelchair_boarding":2,"routes":[{"route_id":"19605","agency_id":"70006","route_short_name":"30","route_long_name":"Arsenal","route_type":3,"route_color":"#FFFFFF","route_text_color":"#000000"}],"agency_name":"Metro St. Louis"},"geometry":{"type":"Point","coordinates":[-90.26428,38.60495]}},{"type":"Feature","properties":{"stop_id":"7298","stop_code":"7298","stop_name":"ARSENAL @ MAURY WB","stop_desc":"NEAR SIDE ARSENAL @ MAURY WB","wheelchair_boarding":2,"routes":[{"route_id":"19605","agency_id":"70006","route_short_name":"30","route_long_name":"Arsenal","route_type":3,"route_color":"#FFFFFF","route_text_color":"#000000"}],"agency_name":"Metro St. Louis"},"geometry":{"type":"Point","coordinates":[-90.26676,38.60519]}},{"type":"Feature","properties":{"stop_id":"7299","stop_code":"7299","stop_name":"ARSENAL @ HEREFORD WB","stop_desc":"FAR SIDE ARSENAL @ HEREFORD WB","wheelchair_boarding":2,"routes":[{"route_id":"19605","agency_id":"70006","route_short_name":"30","route_long_name":"Arsenal","route_type":3,"route_color":"#FFFFFF","route_text_color":"#000000"}],"agency_name":"Metro St. Louis"},"geometry":{"type":"Point","coordinates":[-90.27357,38.60548]}},{"type":"Feature","properties":{"stop_id":"7301","stop_code":"7301","stop_name":"ARSENAL @ BRANNON WB","stop_desc":"FAR SIDE ARSENAL @ BRANNON WB","wheelchair_boarding":1,"routes":[{"route_id":"19605","agency_id":"70006","route_short_name":"30","route_long_name":"Arsenal","route_type":3,"route_color":"#FFFFFF","route_text_color":"#000000"}],"agency_name":"Metro St. Louis"},"geometry":{"type":"Point","coordinates":[-90.27614,38.60574]}},{"type":"Feature","properties":{"stop_id":"7302","stop_code":"7302","stop_name":"ARSENAL @ MACKLIND WB","stop_desc":"NEAR SIDE ARSENAL @ MACKLIND WB","wheelchair_boarding":2,"routes":[{"route_id":"19605","agency_id":"70006","route_short_name":"30","route_long_name":"Arsenal","route_type":3,"route_color":"#FFFFFF","route_text_color":"#000000"}],"agency_name":"Metro St. Louis"},"geometry":{"type":"Point","coordinates":[-90.27905,38.60604]}},{"type":"Feature","properties":{"stop_id":"8702","stop_code":"8702","stop_name":"CHIPPEWA @ JAMIESON WB","stop_desc":"FAR SIDE CHIPPEWA @ JAMIESON WB","wheelchair_boarding":1,"routes":[{"route_id":"19605","agency_id":"70006","route_short_name":"30","route_long_name":"Arsenal","route_type":3,"route_color":"#FFFFFF","route_text_color":"#000000"}],"agency_name":"Metro St. Louis"},"geometry":{"type":"Point","coordinates":[-90.30963,38.58885]}},{"type":"Feature","properties":{"stop_id":"8703","stop_code":"8703","stop_name":"CHIPPEWA @ MCCAUSLAND WB","stop_desc":"FAR SIDE CHIPPEWA @ MCCAUSLAND WB","wheelchair_boarding":1,"routes":[{"route_id":"19605","agency_id":"70006","route_short_name":"30","route_long_name":"Arsenal","route_type":3,"route_color":"#FFFFFF","route_text_color":"#000000"}],"agency_name":"Metro St. Louis"},"geometry":{"type":"Point","coordinates":[-90.31207,38.58769]}},{"type":"Feature","properties":{"stop_id":"8961","stop_code":"8961","stop_name":"CHIPPEWA @ DONOVAN WB","stop_desc":"FAR SIDE CHIPPEWA @ DONOVAN WB","wheelchair_boarding":1,"routes":[{"route_id":"19599","agency_id":"70006","route_short_name":"11","route_long_name":"Chippewa","route_type":3,"route_color":"#FFFFFF","route_text_color":"#000000"},{"route_id":"19605","agency_id":"70006","route_short_name":"30","route_long_name":"Arsenal","route_type":3,"route_color":"#FFFFFF","route_text_color":"#000000"}],"agency_name":"Metro St. Louis"},"geometry":{"type":"Point","coordinates":[-90.3036,38.5917]}},{"type":"Feature","properties":{"stop_id":"8962","stop_code":"8962","stop_name":"CHIPPEWA @ LANSDOWNE WB","stop_desc":"FAR SIDE CHIPPEWA @ LANSDOWNE WB","wheelchair_boarding":1,"routes":[{"route_id":"19605","agency_id":"70006","route_short_name":"30","route_long_name":"Arsenal","route_type":3,"route_color":"#FFFFFF","route_text_color":"#000000"}],"agency_name":"Metro St. Louis"},"geometry":{"type":"Point","coordinates":[-90.30578,38.5907]}},{"type":"Feature","properties":{"stop_id":"9302","stop_code":"9302","stop_name":"7TH STREET @ LAFAYETTE SB","stop_desc":"NEAR SIDE 7TH STREET @ LAFAYETTE SB","wheelchair_boarding":1,"routes":[{"route_id":"19605","agency_id":"70006","route_short_name":"30","route_long_name":"Arsenal","route_type":3,"route_color":"#FFFFFF","route_text_color":"#000000"}],"agency_name":"Metro St. Louis"},"geometry":{"type":"Point","coordinates":[-90.20055,38.60969]}},{"type":"Feature","properties":{"stop_id":"9304","stop_code":"9304","stop_name":"7TH STREET @ GEYER SB","stop_desc":"FAR SIDE 7TH STREET @ GEYER SB","wheelchair_boarding":1,"routes":[{"route_id":"19605","agency_id":"70006","route_short_name":"30","route_long_name":"Arsenal","route_type":3,"route_color":"#FFFFFF","route_text_color":"#000000"}],"agency_name":"Metro St. Louis"},"geometry":{"type":"Point","coordinates":[-90.20241,38.60758]}},{"type":"Feature","properties":{"stop_id":"9305","stop_code":"9305","stop_name":"7TH STREET @ RUSSELL SB","stop_desc":"FAR SIDE 7TH STREET @ RUSSELL SB","wheelchair_boarding":1,"routes":[{"route_id":"19605","agency_id":"70006","route_short_name":"30","route_long_name":"Arsenal","route_type":3,"route_color":"#FFFFFF","route_text_color":"#000000"}],"agency_name":"Metro St. Louis"},"geometry":{"type":"Point","coordinates":[-90.20395,38.60545]}},{"type":"Feature","properties":{"stop_id":"9308","stop_code":"9308","stop_name":"7TH STREET @ VICTOR SB","stop_desc":"FAR SIDE 7TH STREET @ VICTOR SB","wheelchair_boarding":2,"routes":[{"route_id":"19605","agency_id":"70006","route_short_name":"30","route_long_name":"Arsenal","route_type":3,"route_color":"#FFFFFF","route_text_color":"#000000"}],"agency_name":"Metro St. Louis"},"geometry":{"type":"Point","coordinates":[-90.20701,38.6011]}},{"type":"Feature","properties":{"stop_id":"9309","stop_code":"9309","stop_name":"BROADWAY @ LYNCH SB","stop_desc":"NEAR SIDE BROADWAY @ LYNCH SB","wheelchair_boarding":1,"routes":[{"route_id":"19605","agency_id":"70006","route_short_name":"30","route_long_name":"Arsenal","route_type":3,"route_color":"#FFFFFF","route_text_color":"#000000"}],"agency_name":"Metro St. Louis"},"geometry":{"type":"Point","coordinates":[-90.20827,38.59889]}},{"type":"Feature","properties":{"stop_id":"9310","stop_code":"9310","stop_name":"BROADWAY @ DORCAS SB","stop_desc":"FAR SIDE BROADWAY @ DORCAS SB","wheelchair_boarding":1,"routes":[{"route_id":"19605","agency_id":"70006","route_short_name":"30","route_long_name":"Arsenal","route_type":3,"route_color":"#FFFFFF","route_text_color":"#000000"},{"route_id":"19623","agency_id":"70006","route_short_name":"73","route_long_name":"Carondelet","route_type":3,"route_color":"#FFFFFF","route_text_color":"#000000"}],"agency_name":"Metro St. Louis"},"geometry":{"type":"Point","coordinates":[-90.20946,38.59688]}},{"type":"Feature","properties":{"stop_id":"9313","stop_code":"9313","stop_name":"ARSENAL @ 9TH STREET WB","stop_desc":"FAR SIDE ARSENAL @ 9TH STREET WB","wheelchair_boarding":1,"routes":[{"route_id":"19605","agency_id":"70006","route_short_name":"30","route_long_name":"Arsenal","route_type":3,"route_color":"#FFFFFF","route_text_color":"#000000"}],"agency_name":"Metro St. Louis"},"geometry":{"type":"Point","coordinates":[-90.21323,38.59593]}},{"type":"Feature","properties":{"stop_id":"9314","stop_code":"9314","stop_name":"ARSENAL @ 13TH STREET WB","stop_desc":"NEAR SIDE ARSENAL @ 13TH STREET WB","wheelchair_boarding":2,"routes":[{"route_id":"19605","agency_id":"70006","route_short_name":"30","route_long_name":"Arsenal","route_type":3,"route_color":"#FFFFFF","route_text_color":"#000000"}],"agency_name":"Metro St. Louis"},"geometry":{"type":"Point","coordinates":[-90.21509,38.59644]}},{"type":"Feature","properties":{"stop_id":"9315","stop_code":"9315","stop_name":"ARSENAL @ LEMP WB","stop_desc":"FAR SIDE ARSENAL @ LEMP WB","wheelchair_boarding":1,"routes":[{"route_id":"19605","agency_id":"70006","route_short_name":"30","route_long_name":"Arsenal","route_type":3,"route_color":"#FFFFFF","route_text_color":"#000000"}],"agency_name":"Metro St. Louis"},"geometry":{"type":"Point","coordinates":[-90.21798,38.59722]}},{"type":"Feature","properties":{"stop_id":"9317","stop_code":"9317","stop_name":"ARSENAL @ WISCONSIN WB","stop_desc":"NEAR SIDE ARSENAL @ WISCONSIN WB","wheelchair_boarding":2,"routes":[{"route_id":"19605","agency_id":"70006","route_short_name":"30","route_long_name":"Arsenal","route_type":3,"route_color":"#FFFFFF","route_text_color":"#000000"}],"agency_name":"Metro St. Louis"},"geometry":{"type":"Point","coordinates":[-90.21991,38.59775]}},{"type":"Feature","properties":{"stop_id":"9320","stop_code":"9320","stop_name":"ARSENAL @ JEFFERSON WB","stop_desc":"FAR SIDE ARSENAL @ JEFFERSON WB","wheelchair_boarding":1,"routes":[{"route_id":"19605","agency_id":"70006","route_short_name":"30","route_long_name":"Arsenal","route_type":3,"route_color":"#FFFFFF","route_text_color":"#000000"}],"agency_name":"Metro St. Louis"},"geometry":{"type":"Point","coordinates":[-90.22465,38.5991]}},{"type":"Feature","properties":{"stop_id":"9321","stop_code":"9321","stop_name":"ARSENAL @ OHIO WB","stop_desc":"NEAR SIDE ARSENAL @ OHIO WB","wheelchair_boarding":1,"routes":[{"route_id":"19605","agency_id":"70006","route_short_name":"30","route_long_name":"Arsenal","route_type":3,"route_color":"#FFFFFF","route_text_color":"#000000"}],"agency_name":"Metro St. Louis"},"geometry":{"type":"Point","coordinates":[-90.22623,38.59954]}},{"type":"Feature","properties":{"stop_id":"9323","stop_code":"9323","stop_name":"ARSENAL @ OREGON WB","stop_desc":"FAR SIDE ARSENAL @ OREGON WB","wheelchair_boarding":1,"routes":[{"route_id":"19605","agency_id":"70006","route_short_name":"30","route_long_name":"Arsenal","route_type":3,"route_color":"#FFFFFF","route_text_color":"#000000"}],"agency_name":"Metro St. Louis"},"geometry":{"type":"Point","coordinates":[-90.23016,38.60061]}},{"type":"Feature","properties":{"stop_id":"9324","stop_code":"9324","stop_name":"ARSENAL @ GRAVOIS WB","stop_desc":"FAR SIDE ARSENAL @ GRAVOIS WB","wheelchair_boarding":2,"routes":[{"route_id":"19605","agency_id":"70006","route_short_name":"30","route_long_name":"Arsenal","route_type":3,"route_color":"#FFFFFF","route_text_color":"#000000"}],"agency_name":"Metro St. Louis"},"geometry":{"type":"Point","coordinates":[-90.23253,38.6012]}},{"type":"Feature","properties":{"stop_id":"9325","stop_code":"9325","stop_name":"ARSENAL @ COMPTON WB","stop_desc":"NEAR SIDE ARSENAL @ COMPTON WB","wheelchair_boarding":2,"routes":[{"route_id":"19605","agency_id":"70006","route_short_name":"30","route_long_name":"Arsenal","route_type":3,"route_color":"#FFFFFF","route_text_color":"#000000"}],"agency_name":"Metro St. Louis"},"geometry":{"type":"Point","coordinates":[-90.23523,38.60189]}},{"type":"Feature","properties":{"stop_id":"9326","stop_code":"9326","stop_name":"ARSENAL @ LOUISIANA WB","stop_desc":"FAR SIDE ARSENAL @ LOUISIANA WB","wheelchair_boarding":1,"routes":[{"route_id":"19605","agency_id":"70006","route_short_name":"30","route_long_name":"Arsenal","route_type":3,"route_color":"#FFFFFF","route_text_color":"#000000"}],"agency_name":"Metro St. Louis"},"geometry":{"type":"Point","coordinates":[-90.23796,38.60221]}},{"type":"Feature","properties":{"stop_id":"9328","stop_code":"9328","stop_name":"ARSENAL @ GRAND WB","stop_desc":"FAR SIDE ARSENAL @ GRAND WB","wheelchair_boarding":2,"routes":[{"route_id":"19605","agency_id":"70006","route_short_name":"30","route_long_name":"Arsenal","route_type":3,"route_color":"#FFFFFF","route_text_color":"#000000"}],"agency_name":"Metro St. Louis"},"geometry":{"type":"Point","coordinates":[-90.24269,38.60295]}},{"type":"Feature","properties":{"stop_id":"9329","stop_code":"9329","stop_name":"ARSENAL @ SPRING WB","stop_desc":"NEAR SIDE ARSENAL @ SPRING WB","wheelchair_boarding":2,"routes":[{"route_id":"19605","agency_id":"70006","route_short_name":"30","route_long_name":"Arsenal","route_type":3,"route_color":"#FFFFFF","route_text_color":"#000000"}],"agency_name":"Metro St. Louis"},"geometry":{"type":"Point","coordinates":[-90.24585,38.60321]}},{"type":"Feature","properties":{"stop_id":"9330","stop_code":"9330","stop_name":"ARSENAL @ GUSTINE WB","stop_desc":"NEAR SIDE ARSENAL @ GUSTINE WB","wheelchair_boarding":1,"routes":[{"route_id":"19605","agency_id":"70006","route_short_name":"30","route_long_name":"Arsenal","route_type":3,"route_color":"#FFFFFF","route_text_color":"#000000"}],"agency_name":"Metro St. Louis"},"geometry":{"type":"Point","coordinates":[-90.24934,38.60353]}},{"type":"Feature","properties":{"stop_id":"9331","stop_code":"9331","stop_name":"ARSENAL @ ROGER PLACE WB","stop_desc":"NEAR SIDE ARSENAL @ ROGER PLACE WB","wheelchair_boarding":1,"routes":[{"route_id":"19605","agency_id":"70006","route_short_name":"30","route_long_name":"Arsenal","route_type":3,"route_color":"#FFFFFF","route_text_color":"#000000"}],"agency_name":"Metro St. Louis"},"geometry":{"type":"Point","coordinates":[-90.25223,38.60382]}},{"type":"Feature","properties":{"stop_id":"9332","stop_code":"9332","stop_name":"ARSENAL @ OAK HILL WB","stop_desc":"NEAR SIDE ARSENAL @ OAK HILL WB","wheelchair_boarding":1,"routes":[{"route_id":"19605","agency_id":"70006","route_short_name":"30","route_long_name":"Arsenal","route_type":3,"route_color":"#FFFFFF","route_text_color":"#000000"}],"agency_name":"Metro St. Louis"},"geometry":{"type":"Point","coordinates":[-90.25486,38.60408]}},{"type":"Feature","properties":{"stop_id":"9333","stop_code":"9333","stop_name":"ARSENAL @ BENT WB","stop_desc":"NEAR SIDE ARSENAL @ BENT WB","wheelchair_boarding":2,"routes":[{"route_id":"19605","agency_id":"70006","route_short_name":"30","route_long_name":"Arsenal","route_type":3,"route_color":"#FFFFFF","route_text_color":"#000000"}],"agency_name":"Metro St. Louis"},"geometry":{"type":"Point","coordinates":[-90.25778,38.60434]}}]}