{"type":"FeatureCollection","features":[{"type":"Feature","properties":{"agency_name":"Metro St. Louis","route_id":"19592","agency_id":"70006","route_short_name":"1","route_long_name":"Gold","route_type":3,"route_color":"#FFFFFF","route_text_color":"#000000"},"geometry":{"type":"MultiLineString","coordinates":[[[-90.25989,38.63564],[-90.25986,38.63575],[-90.25987,38.63603],[-90.25984,38.63624],[-90.25961,38.63631],[-90.25966,38.63651],[-90.25973,38.63702],[-90.25971,38.6372],[-90.2593,38.63843],[-90.26201,38.639],[-90.26215,38.63902],[-90.26235,38.639],[-90.26258,38.63905],[-90.26272,38.63912],[-90.26321,38.63927],[-90.26552,38.63976],[-90.26507,38.64241],[-90.26486,38.64355],[-90.26484,38.64394],[-90.26457,38.64538],[-90.2641,38.64815],[-90.26451,38.64822],[-90.26605,38.64839],[-90.27022,38.6488],[-90.27246,38.64905],[-90.27403,38.64878],[-90.27422,38.6476],[-90.27834,38.64798],[-90.28514,38.64866],[-90.28493,38.64985],[-90.28873,38.65022],[-90.28966,38.65005],[-90.28992,38.64988],[-90.29003,38.64988],[-90.29213,38.65007],[-90.29469,38.65035],[-90.29678,38.65054],[-90.30058,38.65029],[-90.30064,38.64993],[-90.3007,38.64932],[-90.30103,38.64735],[-90.30122,38.64598],[-90.31094,38.64693],[-90.31018,38.64714]]]}},{"type":"Feature","properties":{"stop_id":"14792","stop_code":"14792","stop_name":"CENTRAL WEST END TRANSIT CENTER","wheelchair_boarding":1,"routes":[{"route_id":"19592","agency_id":"70006","route_short_name":"1","route_long_name":"Gold","route_type":3,"route_color":"#FFFFFF","route_text_color":"#000000"},{"route_id":"19596","agency_id":"70006","route_short_name":"8","route_long_name":"Shaw-Cherokee","route_type":3,"route_color":"#FFFFFF","route_text_color":"#000000"},{"route_id":"19598","agency_id":"70006","route_short_name":"10","route_long_name":"Gravois-Lindell","route_type":3,"route_color":"#FFFFFF","route_text_color":"#000000"},{"route_id":"19600","agency_id":"70006","route_short_name":"13","route_long_name":"Union","route_type":3,"route_color":"#FFFFFF","route_text_color":"#000000"},{"route_id":"19618","agency_id":"70006","route_short_name":"59","route_long_name":"Oakland","route_type":3,"route_color":"#FFFFFF","route_text_color":"#000000"},{"route_id":"19632","agency_id":"70006","route_short_name":"95","route_long_name":"Kingshighway","route_type":3,"route_color":"#FFFFFF","route_text_color":"#000000"}],"agency_name":"Metro St. Louis"},"geometry":{"type":"Point","coordinates":[-90.25999,38.63568]}},{"type":"Feature","properties":{"stop_id":"14818","stop_code":"14818","stop_name":"MALLINCKRODT CENTER","wheelchair_boarding":1,"routes":[{"route_id":"19592","agency_id":"70006","route_short_name":"1","route_long_name":"Gold","route_type":3,"route_color":"#FFFFFF","route_text_color":"#000000"},{"route_id":"19593","agency_id":"70006","route_short_name":"2","route_long_name":"Red","route_type":3,"route_color":"#FFFFFF","route_text_color":"#000000"},{"route_id":"19595","agency_id":"70006","route_short_name":"5","route_long_name":"Green","route_type":3,"route_color":"#FFFFFF","route_text_color":"#000000"}],"agency_name":"Metro St. Louis"},"geometry":{"type":"Point","coordinates":[-90.30886,38.64695]}},{"type":"Feature","properties":{"stop_id":"15033","stop_code":"15033","stop_name":"WATERMAN @ UNION WB","stop_desc":"NEAR SIDE WATERMAN @ UNION WB","wheelchair_boarding":2,"routes":[{"route_id":"19592","agency_id":"70006","route_short_name":"1","route_long_name":"Gold","route_type":3,"route_color":"#FFFFFF","route_text_color":"#000000"}],"agency_name":"Metro St. Louis"},"geometry":{"type":"Point","coordinates":[-90.27324,38.64916]}},{"type":"Feature","properties":{"stop_id":"15034","stop_code":"15034","stop_name":"WATERMAN @ SKINKER WB","stop_desc":"NEAR SIDE WATERMAN @ SKINKER WB","wheelchair_boarding":2,"routes":[{"route_id":"19592","agency_id":"70006","route_short_name":"1","route_long_name":"Gold","route_type":3,"route_color":"#FFFFFF","route_text_color":"#000000"}],"agency_name":"Metro St. Louis"},"geometry":{"type":"Point","coordinates":[-90.29981,38.65088]}},{"type":"Feature","properties":{"stop_id":"15068","stop_code":"15068","stop_name":"UNION @ PERSHING SB","stop_desc":"NEAR SIDE UNION @ PERSHING SB","wheelchair_boarding":1,"routes":[{"route_id":"19592","agency_id":"70006","route_short_name":"1","route_long_name":"Gold","route_type":3,"route_color":"#FFFFFF","route_text_color":"#000000"},{"route_id":"19600","agency_id":"70006","route_short_name":"13","route_long_name":"Union","route_type":3,"route_color":"#FFFFFF","route_text_color":"#000000"}],"agency_name":"Metro St. Louis"},"geometry":{"type":"Point","coordinates":[-90.27419,38.64794]}},{"type":"Feature","properties":{"stop_id":"15661","stop_code":"15661","stop_name":"FORSYTH @ HOYT WB","stop_desc":"NEAR SIDE FORSYTH @ HOYT WB","wheelchair_boarding":1,"routes":[{"route_id":"19592","agency_id":"70006","route_short_name":"1","route_long_name":"Gold","route_type":3,"route_color":"#FFFFFF","route_text_color":"#000000"},{"route_id":"19593","agency_id":"70006","route_short_name":"2","route_long_name":"Red","route_type":3,"route_color":"#FFFFFF","route_text_color":"#000000"},{"route_id":"19595","agency_id":"70006","route_short_name":"5","route_long_name":"Green","route_type":3,"route_color":"#FFFFFF","route_text_color":"#000000"}],"agency_name":"Metro St. Louis"},"geometry":{"type":"Point","coordinates":[-90.30412,38.64631]}},{"type":"Feature","properties":{"stop_id":"172","stop_code":"172","stop_name":"SKINKER @ FOREST PARK PARKWAY SB","stop_desc":"NEAR SIDE SKINKER @ FOREST PARK PARKWAY SB","wheelchair_boarding":1,"routes":[{"route_id":"19592","agency_id":"70006","route_short_name":"1","route_long_name":"Gold","route_type":3,"route_color":"#FFFFFF","route_text_color":"#000000"},{"route_id":"19593","agency_id":"70006","route_short_name":"2","route_long_name":"Red","route_type":3,"route_color":"#FFFFFF","route_text_color":"#000000"},{"route_id":"19595","agency_id":"70006","route_short_name":"5","route_long_name":"Green","route_type":3,"route_color":"#FFFFFF","route_text_color":"#000000"},{"route_id":"19601","agency_id":"70006","route_short_name":"16","route_long_name":"City Limits","route_type":3,"route_color":"#FFFFFF","route_text_color":"#000000"}],"agency_name":"Metro St. Louis"},"geometry":{"type":"Point","coordinates":[-90.30074,38.64962]}},{"type":"Feature","properties":{"stop_id":"2347","stop_code":"2347","stop_name":"FOREST PARK @ EUCLID WB","stop_desc":"NEAR SIDE FOREST PARK @ EUCLID WB","wheelchair_boarding":1,"routes":[{"route_id":"19592","agency_id":"70006","route_short_name":"1","route_long_name":"Gold","route_type":3,"route_color":"#FFFFFF","route_text_color":"#000000"},{"route_id":"19598","agency_id":"70006","route_short_name":"10","route_long_name":"Gravois-Lindell","route_type":3,"route_color":"#FFFFFF","route_text_color":"#000000"},{"route_id":"19632","agency_id":"70006","route_short_name":"95","route_long_name":"Kingshighway","route_type":3,"route_color":"#FFFFFF","route_text_color":"#000000"}],"agency_name":"Metro St. Louis"},"geometry":{"type":"Point","coordinates":[-90.26194,38.63906]}},{"type":"Feature","properties":{"stop_id":"2348","stop_code":"2348","stop_name":"KINGSHIGHWAY @ LACLEDE NB","stop_desc":"NEAR SIDE KINGSHIGHWAY @ LACLEDE NB","wheelchair_boarding":1,"routes":[{"route_id":"19592","agency_id":"70006","route_short_name":"1","route_long_name":"Gold","route_type":3,"route_color":"#FFFFFF","route_text_color":"#000000"},{"route_id":"19598","agency_id":"70006","route_short_name":"10","route_long_name":"Gravois-Lindell","route_type":3,"route_color":"#FFFFFF","route_text_color":"#000000"},{"route_id":"19632","agency_id":"70006","route_short_name":"95","route_long_name":"Kingshighway","route_type":3,"route_color":"#FFFFFF","route_text_color":"#000000"}],"agency_name":"Metro St. Louis"},"geometry":{"type":"Point","coordinates":[-90.2653,38.64072]}},{"type":"Feature","properties":{"stop_id":"2349","stop_code":"2349","stop_name":"KINGSHIGHWAY @  LINDELL NB","stop_desc":"NEAR SIDE KINGSHIGHWAY @  LINDELL NB","wheelchair_boarding":1,"routes":[{"route_id":"19592","agency_id":"70006","route_short_name":"1","route_long_name":"Gold","route_type":3,"route_color":"#FFFFFF","route_text_color":"#000000"},{"route_id":"19598","agency_id":"70006","route_short_name":"10","route_long_name":"Gravois-Lindell","route_type":3,"route_color":"#FFFFFF","route_text_color":"#000000"},{"route_id":"19632","agency_id":"70006","route_short_name":"95","route_long_name":"Kingshighway","route_type":3,"route_color":"#FFFFFF","route_text_color":"#000000"}],"agency_name":"Metro St. Louis"},"geometry":{"type":"Point","coordinates":[-90.26481,38.64356]}},{"type":"Feature","properties":{"stop_id":"2350","stop_code":"2350","stop_name":"KINGSHIGHWAY @ MARYLAND NB","stop_desc":"FAR SIDE KINGSHIGHWAY @ MARYLAND NB","wheelchair_boarding":1,"routes":[{"route_id":"19592","agency_id":"70006","route_short_name":"1","route_long_name":"Gold","route_type":3,"route_color":"#FFFFFF","route_text_color":"#000000"},{"route_id":"19632","agency_id":"70006","route_short_name":"95","route_long_name":"Kingshighway","route_type":3,"route_color":"#FFFFFF","route_text_color":"#000000"}],"agency_name":"Metro St. Louis"},"geometry":{"type":"Point","coordinates":[-90.26436,38.646]}},{"type":"Feature","properties":{"stop_id":"2628","stop_code":"2628","stop_name":"5375 PERSHING WB","stop_desc":"MID-BLOCK 5375 PERSHING WB","wheelchair_boarding":2,"routes":[{"route_id":"19592","agency_id":"70006","route_short_name":"1","route_long_name":"Gold","route_type":3,"route_color":"#FFFFFF","route_text_color":"#000000"}],"agency_name":"Metro St. Louis"},"geometry":{"type":"Point","coordinates":[-90.27696,38.64786]}},{"type":"Feature","properties":{"stop_id":"2629","stop_code":"2629","stop_name":"PERSHING @ BELT WB","stop_desc":"NEAR SIDE PERSHING @ BELT WB","wheelchair_boarding":2,"routes":[{"route_id":"19592","agency_id":"70006","route_short_name":"1","route_long_name":"Gold","route_type":3,"route_color":"#FFFFFF","route_text_color":"#000000"}],"agency_name":"Metro St. Louis"},"geometry":{"type":"Point","coordinates":[-90.27822,38.64799]}},{"type":"Feature","properties":{"stop_id":"2631","stop_code":"2631","stop_name":"PERSHING @ CLARA WB","stop_desc":"NEAR SIDE PERSHING @ CLARA WB","wheelchair_boarding":1,"routes":[{"route_id":"19592","agency_id":"70006","route_short_name":"1","route_long_name":"Gold","route_type":3,"route_color":"#FFFFFF","route_text_color":"#000000"}],"agency_name":"Metro St. Louis"},"geometry":{"type":"Point","coordinates":[-90.28278,38.64845]}},{"type":"Feature","properties":{"stop_id":"2632","stop_code":"2632","stop_name":"PERSHING @ DEBALIVIERE WB","stop_desc":"NEAR SIDE PERSHING @ DEBALIVIERE WB","wheelchair_boarding":1,"routes":[{"route_id":"19592","agency_id":"70006","route_short_name":"1","route_long_name":"Gold","route_type":3,"route_color":"#FFFFFF","route_text_color":"#000000"}],"agency_name":"Metro St. Louis"},"geometry":{"type":"Point","coordinates":[-90.28487,38.64866]}},{"type":"Feature","properties":{"stop_id":"2633","stop_code":"2633","stop_name":"WATERMAN @ DE BALIVIERE WB","stop_desc":"FAR SIDE WATERMAN @ DE BALIVIERE WB","wheelchair_boarding":1,"routes":[{"route_id":"19592","agency_id":"70006","route_short_name":"1","route_long_name":"Gold","route_type":3,"route_color":"#FFFFFF","route_text_color":"#000000"}],"agency_name":"Metro St. Louis"},"geometry":{"type":"Point","coordinates":[-90.28539,38.64993]}},{"type":"Feature","properties":{"stop_id":"2634","stop_code":"2634","stop_name":"WATERMAN @ DE GIVERVILLE WB","stop_desc":"NEAR SIDE WATERMAN @ DE GIVERVILLE WB","wheelchair_boarding":2,"routes":[{"route_id":"19592","agency_id":"70006","route_short_name":"1","route_long_name":"Gold","route_type":3,"route_color":"#FFFFFF","route_text_color":"#000000"}],"agency_name":"Metro St. Louis"},"geometry":{"type":"Point","coordinates":[-90.28852,38.65022]}},{"type":"Feature","properties":{"stop_id":"2635","stop_code":"2635","stop_name":"WATERMAN @ NINA PLACE WB","stop_desc":"FAR SIDE WATERMAN @ NINA PLACE WB","wheelchair_boarding":2,"routes":[{"route_id":"19592","agency_id":"70006","route_short_name":"1","route_long_name":"Gold","route_type":3,"route_color":"#FFFFFF","route_text_color":"#000000"}],"agency_name":"Metro St. Louis"},"geometry":{"type":"Point","coordinates":[-90.29122,38.65004]}},{"type":"Feature","properties":{"stop_id":"2636","stop_code":"2636","stop_name":"WATERMAN @ DES PERES WB","stop_desc":"NEAR SIDE WATERMAN @ DES PERES WB","wheelchair_boarding":2,"routes":[{"route_id":"19592","agency_id":"70006","route_short_name":"1","route_long_name":"Gold","route_type":3,"route_color":"#FFFFFF","route_text_color":"#000000"}],"agency_name":"Metro St. Louis"},"geometry":{"type":"Point","coordinates":[-90.2941,38.65032]}},{"type":"Feature","properties":{"stop_id":"2637","stop_code":"2637","stop_name":"WATERMAN @ ROSEDALE WB","stop_desc":"NEAR SIDE WATERMAN @ ROSEDALE WB","wheelchair_boarding":2,"routes":[{"route_id":"19592","agency_id":"70006","route_short_name":"1","route_long_name":"Gold","route_type":3,"route_color":"#FFFFFF","route_text_color":"#000000"}],"agency_name":"Metro St. Louis"},"geometry":{"type":"Point","coordinates":[-90.2965,38.65054]}},{"type":"Feature","properties":{"stop_id":"2639","stop_code":"2639","stop_name":"SKINKER METROLINK @ FOREST PARK PARKWAY SB","stop_desc":"FAR SIDE SKINKER METROLINK @ FOREST PARK PARKWAY SB","wheelchair_boarding":1,"routes":[{"route_id":"19592","agency_id":"70006","route_short_name":"1","route_long_name":"Gold","route_type":3,"route_color":"#FFFFFF","route_text_color":"#000000"},{"route_id":"19593","agency_id":"70006","route_short_name":"2","route_long_name":"Red","route_type":3,"route_color":"#FFFFFF","route_text_color":"#000000"},{"route_id":"19595","agency_id":"70006","route_short_name":"5","route_long_name":"Green","route_type":3,"route_color":"#FFFFFF","route_text_color":"#000000"},{"route_id":"19601","agency_id":"70006","route_short_name":"16","route_long_name":"City Limits","route_type":3,"route_color":"#FFFFFF","route_text_color":"#000000"}],"agency_name":"Metro St. Louis"},"geometry":{"type":"Point","coordinates":[-90.30082,38.64859]}},{"type":"Feature","properties":{"stop_id":"2640","stop_code":"2640","stop_name":"SKINKER @ BROOKINGS SB","stop_desc":"FAR SIDE SKINKER @ BROOKINGS SB","wheelchair_boarding":2,"routes":[{"route_id":"19592","agency_id":"70006","route_short_name":"1","route_long_name":"Gold","route_type":3,"route_color":"#FFFFFF","route_text_color":"#000000"},{"route_id":"19593","agency_id":"70006","route_short_name":"2","route_long_name":"Red","route_type":3,"route_color":"#FFFFFF","route_text_color":"#000000"},{"route_id":"19595","agency_id":"70006","route_short_name":"5","route_long_name":"Green","route_type":3,"route_color":"#FFFFFF","route_text_color":"#000000"},{"route_id":"19601","agency_id":"70006","route_short_name":"16","route_long_name":"City Limits","route_type":3,"route_color":"#FFFFFF","route_text_color":"#000000"}],"agency_name":"Metro St. Louis"},"geometry":{"type":"Point","coordinates":[-90.30113,38.64719]}},{"type":"Feature","properties":{"stop_id":"8605","stop_code":"8605","stop_name":"WATERMAN @ KINGSHIGHWAY WB","stop_desc":"FAR SIDE WATERMAN @ KINGSHIGHWAY WB","wheelchair_boarding":1,"routes":[{"route_id":"19592","agency_id":"70006","route_short_name":"1","route_long_name":"Gold","route_type":3,"route_color":"#FFFFFF","route_text_color":"#000000"}],"agency_name":"Metro St. Louis"},"geometry":{"type":"Point","coordinates":[-90.26453,38.64825]}},{"type":"Feature","properties":{"stop_id":"8606","stop_code":"8606","stop_name":"WATERMAN @ 5079 WATERMAN WB","stop_desc":"MID-BLOCK WATERMAN @ 5079 WATERMAN WB","wheelchair_boarding":1,"routes":[{"route_id":"19592","agency_id":"70006","route_short_name":"1","route_long_name":"Gold","route_type":3,"route_color":"#FFFFFF","route_text_color":"#000000"}],"agency_name":"Metro St. Louis"},"geometry":{"type":"Point","coordinates":[-90.26703,38.6485]}},{"type":"Feature","properties":{"stop_id":"8607","stop_code":"8607","stop_name":"WATERMAN @ LAKE WB","stop_desc":"NEAR SIDE WATERMAN @ LAKE WB","wheelchair_boarding":2,"routes":[{"route_id":"19592","agency_id":"70006","route_short_name":"1","route_long_name":"Gold","route_type":3,"route_color":"#FFFFFF","route_text_color":"#000000"}],"agency_name":"Metro St. Louis"},"geometry":{"type":"Point","coordinates":[-90.26999,38.64881]}}]}