{"type":"FeatureCollection","features":[{"type":"Feature","properties":{"agency_name":"Metro St. Louis","route_id":"19645","agency_id":"70006","route_short_name":"13","route_long_name":"Caseyville","route_type":3,"route_color":"#FFFFFF","route_text_color":"#000000"},"geometry":{"type":"MultiLineString","coordinates":[[[-90.04771,38.5939],[-90.04791,38.59407],[-90.04771,38.5939],[-90.04753,38.59382],[-90.04584,38.59381],[-90.04584,38.59465],[-90.04578,38.59576],[-90.04632,38.59578],[-90.04712,38.59588],[-90.04791,38.59608],[-90.04841,38.59624],[-90.04886,38.59642],[-90.04945,38.5967],[-90.05005,38.59704],[-90.05105,38.59773],[-90.05114,38.59785],[-90.05201,38.59839],[-90.0519,38.5986],[-90.0516,38.59939],[-90.05158,38.59951],[-90.05159,38.59958],[-90.05165,38.5997],[-90.05176,38.59982],[-90.05199,38.59999],[-90.05213,38.60014],[-90.05225,38.60031],[-90.0523,38.60052],[-90.05231,38.60066],[-90.05224,38.60109],[-90.05224,38.60129],[-90.05201,38.60239],[-90.0519,38.60276],[-90.05186,38.60297],[-90.05174,38.60336],[-90.05166,38.60356],[-90.05113,38.60478],[-90.05045,38.60597],[-90.04996,38.6069],[-90.04776,38.61083],[-90.04794,38.6109],[-90.04888,38.6112],[-90.04919,38.61119],[-90.04994,38.61101],[-90.05024,38.61095],[-90.05054,38.61092],[-90.05548,38.61102],[-90.05709,38.61101],[-90.05728,38.61093],[-90.05743,38.61084]],[[-90.04713,38.612],[-90.04776,38.61083],[-90.04662,38.61294],[-90.04618,38.6137],[-90.04578,38.61443],[-90.04534,38.6151],[-90.04481,38.61586],[-90.04449,38.61623],[-90.04418,38.61651],[-90.04365,38.61692],[-90.04281,38.61752],[-90.04225,38.618],[-90.0414,38.61889],[-90.04135,38.61897],[-90.03992,38.62073],[-90.0394,38.62131],[-90.03898,38.62173],[-90.03846,38.6222],[-90.03756,38.62296],[-90.03732,38.62319],[-90.03617,38.62411],[-90.03596,38.62432],[-90.03012,38.63075],[-90.02992,38.63101],[-90.02967,38.63138],[-90.02925,38.63213],[-90.02778,38.6342],[-90.02666,38.63553],[-90.02617,38.63605],[-90.02543,38.63675],[-90.025,38.6371],[-90.02334,38.63854],[-90.0231,38.63873],[-90.02212,38.63962],[-90.02051,38.64103],[-90.01978,38.64163],[-90.01877,38.64252],[-90.01813,38.64306],[-90.0178,38.64336],[-90.01754,38.64363],[-90.01729,38.64394],[-90.01677,38.64481],[-90.01633,38.64564],[-90.01631,38.64574],[-90.01605,38.64621],[-90.01575,38.64613],[-90.014,38.64575],[-90.01312,38.64565],[-90.01269,38.64562],[-90.0122,38.64563],[-90.0118,38.64566],[-90.01093,38.64578],[-90.01055,38.64586],[-90.00696,38.64681],[-90.00251,38.64796],[-89.99522,38.64987],[-89.99452,38.65009],[-89.99375,38.65039],[-89.99263,38.65093],[-89.99166,38.65152],[-89.99134,38.65176],[-89.99103,38.65203],[-89.99067,38.6524],[-89.99046,38.65267],[-89.99031,38.65288],[-89.99007,38.65333],[-89.98997,38.65355],[-89.98992,38.6537],[-89.9898,38.65425],[-89.98975,38.65432],[-89.98953,38.65535],[-89.98939,38.65559],[-89.98916,38.65583],[-89.98904,38.65592],[-89.98889,38.65601],[-89.9887,38.6561],[-89.98851,38.65616],[-89.9883,38.65621],[-89.98776,38.65621],[-89.98732,38.65623],[-89.98642,38.65751],[-89.98292,38.66209],[-89.98269,38.66241],[-89.98251,38.66275],[-89.98244,38.66294],[-89.98237,38.66331],[-89.98235,38.66385],[-89.98239,38.66413],[-89.98255,38.66495],[-89.98271,38.66564],[-89.98291,38.66664],[-89.98297,38.66687],[-89.98313,38.66723],[-89.9843,38.66942],[-89.98456,38.66995],[-89.98477,38.67048],[-89.98481,38.67074],[-89.9848,38.67122],[-89.98527,38.67148],[-89.9875,38.67078]],[[-90.05759,38.60994],[-90.05755,38.61066],[-90.05759,38.60994]]]}},{"type":"Feature","properties":{"stop_id":"11546","stop_code":"11546","stop_name":"ILLINOIS ROUTE 157 @ CALIFORNIA NB","stop_desc":"FAR SIDE ILLINOIS ROUTE 157 @ CALIFORNIA NB","wheelchair_boarding":2,"routes":[{"route_id":"19645","agency_id":"70006","route_short_name":"13","route_long_name":"Caseyville","route_type":3,"route_color":"#FFFFFF","route_text_color":"#000000"}],"agency_name":"Metro St. Louis"},"geometry":{"type":"Point","coordinates":[-90.0517,38.60321]}},{"type":"Feature","properties":{"stop_id":"11547","stop_code":"11547","stop_name":"ILLINOIS ROUTE 157 @ GARDEN NB","stop_desc":"NEAR SIDE ILLINOIS ROUTE 157 @ GARDEN NB","wheelchair_boarding":2,"routes":[{"route_id":"19645","agency_id":"70006","route_short_name":"13","route_long_name":"Caseyville","route_type":3,"route_color":"#FFFFFF","route_text_color":"#000000"}],"agency_name":"Metro St. Louis"},"geometry":{"type":"Point","coordinates":[-90.04906,38.60837]}},{"type":"Feature","properties":{"stop_id":"11548","stop_code":"11548","stop_name":"ILLINOIS ROUTE 157 @ TUCKER NB","stop_desc":"FAR SIDE ILLINOIS ROUTE 157 @ TUCKER NB","wheelchair_boarding":2,"routes":[{"route_id":"19645","agency_id":"70006","route_short_name":"13","route_long_name":"Caseyville","route_type":3,"route_color":"#FFFFFF","route_text_color":"#000000"}],"agency_name":"Metro St. Louis"},"geometry":{"type":"Point","coordinates":[-90.04756,38.61116]}},{"type":"Feature","properties":{"stop_id":"11549","stop_code":"11549","stop_name":"ILLINOIS ROUTE 157 @ RAUCKMAN NB","stop_desc":"NEAR SIDE ILLINOIS ROUTE 157 @ RAUCKMAN NB","wheelchair_boarding":2,"routes":[{"route_id":"19645","agency_id":"70006","route_short_name":"13","route_long_name":"Caseyville","route_type":3,"route_color":"#FFFFFF","route_text_color":"#000000"}],"agency_name":"Metro St. Louis"},"geometry":{"type":"Point","coordinates":[-90.04673,38.61266]}},{"type":"Feature","properties":{"stop_id":"11550","stop_code":"11550","stop_name":"ILLINOIS ROUTE 157 @ PETROFF NB","stop_desc":"FAR SIDE ILLINOIS ROUTE 157 @ PETROFF NB","wheelchair_boarding":2,"routes":[{"route_id":"19645","agency_id":"70006","route_short_name":"13","route_long_name":"Caseyville","route_type":3,"route_color":"#FFFFFF","route_text_color":"#000000"}],"agency_name":"Metro St. Louis"},"geometry":{"type":"Point","coordinates":[-90.04439,38.61627]}},{"type":"Feature","properties":{"stop_id":"11551","stop_code":"11551","stop_name":"ILLINOIS ROUTE 157 @ SASAK PLACE NB","stop_desc":"FAR SIDE ILLINOIS ROUTE 157 @ SASAK PLACE NB","wheelchair_boarding":2,"routes":[{"route_id":"19645","agency_id":"70006","route_short_name":"13","route_long_name":"Caseyville","route_type":3,"route_color":"#FFFFFF","route_text_color":"#000000"}],"agency_name":"Metro St. Louis"},"geometry":{"type":"Point","coordinates":[-90.04251,38.6177]}},{"type":"Feature","properties":{"stop_id":"11552","stop_code":"11552","stop_name":"ILLINOIS ROUTE 157 @ MAPLE NB","stop_desc":"FAR SIDE ILLINOIS ROUTE 157 @ MAPLE NB","wheelchair_boarding":2,"routes":[{"route_id":"19645","agency_id":"70006","route_short_name":"13","route_long_name":"Caseyville","route_type":3,"route_color":"#FFFFFF","route_text_color":"#000000"}],"agency_name":"Metro St. Louis"},"geometry":{"type":"Point","coordinates":[-90.04113,38.61917]}},{"type":"Feature","properties":{"stop_id":"11553","stop_code":"11553","stop_name":"ILLINOIS ROUTE 157 @ BUNKUM NB","stop_desc":"NEAR SIDE ILLINOIS ROUTE 157 @ BUNKUM NB","wheelchair_boarding":2,"routes":[{"route_id":"19645","agency_id":"70006","route_short_name":"13","route_long_name":"Caseyville","route_type":3,"route_color":"#FFFFFF","route_text_color":"#000000"}],"agency_name":"Metro St. Louis"},"geometry":{"type":"Point","coordinates":[-90.04003,38.62051]}},{"type":"Feature","properties":{"stop_id":"11554","stop_code":"11554","stop_name":"89TH STREET @ STERLING PLACE NB","stop_desc":"NEAR SIDE 89TH STREET @ STERLING PLACE NB","wheelchair_boarding":2,"routes":[{"route_id":"19645","agency_id":"70006","route_short_name":"13","route_long_name":"Caseyville","route_type":3,"route_color":"#FFFFFF","route_text_color":"#000000"}],"agency_name":"Metro St. Louis"},"geometry":{"type":"Point","coordinates":[-90.03617,38.6241]}},{"type":"Feature","properties":{"stop_id":"11555","stop_code":"11555","stop_name":"89TH STREET @ BOTANICAL NB","stop_desc":"FAR SIDE 89TH STREET @ BOTANICAL NB","wheelchair_boarding":2,"routes":[{"route_id":"19645","agency_id":"70006","route_short_name":"13","route_long_name":"Caseyville","route_type":3,"route_color":"#FFFFFF","route_text_color":"#000000"}],"agency_name":"Metro St. Louis"},"geometry":{"type":"Point","coordinates":[-90.03501,38.62537]}},{"type":"Feature","properties":{"stop_id":"11564","stop_code":"11564","stop_name":"MAIN @ WASHINGTON NB","stop_desc":"NEAR SIDE MAIN @ WASHINGTON NB","wheelchair_boarding":2,"routes":[{"route_id":"19645","agency_id":"70006","route_short_name":"13","route_long_name":"Caseyville","route_type":3,"route_color":"#FFFFFF","route_text_color":"#000000"}],"agency_name":"Metro St. Louis"},"geometry":{"type":"Point","coordinates":[-90.02705,38.63506]}},{"type":"Feature","properties":{"stop_id":"11593","stop_code":"11593","stop_name":"MORRISON @ CHESTNUT NB","stop_desc":"FAR SIDE MORRISON @ CHESTNUT NB","wheelchair_boarding":2,"routes":[{"route_id":"19645","agency_id":"70006","route_short_name":"13","route_long_name":"Caseyville","route_type":3,"route_color":"#FFFFFF","route_text_color":"#000000"},{"route_id":"19648","agency_id":"70006","route_short_name":"16","route_long_name":"St. Clair Square","route_type":3,"route_color":"#FFFFFF","route_text_color":"#000000"}],"agency_name":"Metro St. Louis"},"geometry":{"type":"Point","coordinates":[-89.98241,38.66438]}},{"type":"Feature","properties":{"stop_id":"11658","stop_code":"11658","stop_name":"MORRISON @ ILLINOIS NB","stop_desc":"FAR SIDE MORRISON @ ILLINOIS NB","wheelchair_boarding":2,"routes":[{"route_id":"19645","agency_id":"70006","route_short_name":"13","route_long_name":"Caseyville","route_type":3,"route_color":"#FFFFFF","route_text_color":"#000000"},{"route_id":"19648","agency_id":"70006","route_short_name":"16","route_long_name":"St. Clair Square","route_type":3,"route_color":"#FFFFFF","route_text_color":"#000000"}],"agency_name":"Metro St. Louis"},"geometry":{"type":"Point","coordinates":[-89.9871,38.65637]}},{"type":"Feature","properties":{"stop_id":"11660","stop_code":"11660","stop_name":"MORRISON @ IDLEWOOD NB","stop_desc":"NEAR SIDE MORRISON @ IDLEWOOD NB","wheelchair_boarding":2,"routes":[{"route_id":"19645","agency_id":"70006","route_short_name":"13","route_long_name":"Caseyville","route_type":3,"route_color":"#FFFFFF","route_text_color":"#000000"},{"route_id":"19648","agency_id":"70006","route_short_name":"16","route_long_name":"St. Clair Square","route_type":3,"route_color":"#FFFFFF","route_text_color":"#000000"}],"agency_name":"Metro St. Louis"},"geometry":{"type":"Point","coordinates":[-89.98485,38.6595]}},{"type":"Feature","properties":{"stop_id":"11661","stop_code":"11661","stop_name":"MORRISON @ CLINTON NB","stop_desc":"NEAR SIDE MORRISON @ CLINTON NB","wheelchair_boarding":2,"routes":[{"route_id":"19645","agency_id":"70006","route_short_name":"13","route_long_name":"Caseyville","route_type":3,"route_color":"#FFFFFF","route_text_color":"#000000"},{"route_id":"19648","agency_id":"70006","route_short_name":"16","route_long_name":"St. Clair Square","route_type":3,"route_color":"#FFFFFF","route_text_color":"#000000"}],"agency_name":"Metro St. Louis"},"geometry":{"type":"Point","coordinates":[-89.98314,38.66174]}},{"type":"Feature","properties":{"stop_id":"11663","stop_code":"11663","stop_name":"MORRISON @ HILL NB","stop_desc":"FAR SIDE MORRISON @ HILL NB","wheelchair_boarding":2,"routes":[{"route_id":"19645","agency_id":"70006","route_short_name":"13","route_long_name":"Caseyville","route_type":3,"route_color":"#FFFFFF","route_text_color":"#000000"},{"route_id":"19648","agency_id":"70006","route_short_name":"16","route_long_name":"St. Clair Square","route_type":3,"route_color":"#FFFFFF","route_text_color":"#000000"}],"agency_name":"Metro St. Louis"},"geometry":{"type":"Point","coordinates":[-89.98345,38.66794]}},{"type":"Feature","properties":{"stop_id":"11665","stop_code":"11665","stop_name":"MORRISON @ CHURCH NB","stop_desc":"FAR SIDE MORRISON @ CHURCH NB","wheelchair_boarding":2,"routes":[{"route_id":"19645","agency_id":"70006","route_short_name":"13","route_long_name":"Caseyville","route_type":3,"route_color":"#FFFFFF","route_text_color":"#000000"},{"route_id":"19648","agency_id":"70006","route_short_name":"16","route_long_name":"St. Clair Square","route_type":3,"route_color":"#FFFFFF","route_text_color":"#000000"}],"agency_name":"Metro St. Louis"},"geometry":{"type":"Point","coordinates":[-89.98411,38.66926]}},{"type":"Feature","properties":{"stop_id":"11687","stop_code":"11687","stop_name":"MAIN @ HOLLYWOOD HEIGHTS NB","stop_desc":"FAR SIDE MAIN @ HOLLYWOOD HEIGHTS NB","wheelchair_boarding":2,"routes":[{"route_id":"19645","agency_id":"70006","route_short_name":"13","route_long_name":"Caseyville","route_type":3,"route_color":"#FFFFFF","route_text_color":"#000000"}],"agency_name":"Metro St. Louis"},"geometry":{"type":"Point","coordinates":[-90.02066,38.64086]}},{"type":"Feature","properties":{"stop_id":"11688","stop_code":"11688","stop_name":"MAIN @ REYNOLDS NB","stop_desc":"FAR SIDE MAIN @ REYNOLDS NB","wheelchair_boarding":2,"routes":[{"route_id":"19645","agency_id":"70006","route_short_name":"13","route_long_name":"Caseyville","route_type":3,"route_color":"#FFFFFF","route_text_color":"#000000"}],"agency_name":"Metro St. Louis"},"geometry":{"type":"Point","coordinates":[-90.02178,38.6399]}},{"type":"Feature","properties":{"stop_id":"11695","stop_code":"11695","stop_name":"MAIN @ LINCOLN NB","stop_desc":"NEAR SIDE MAIN @ LINCOLN NB","wheelchair_boarding":2,"routes":[{"route_id":"19645","agency_id":"70006","route_short_name":"13","route_long_name":"Caseyville","route_type":3,"route_color":"#FFFFFF","route_text_color":"#000000"}],"agency_name":"Metro St. Louis"},"geometry":{"type":"Point","coordinates":[-90.02798,38.63391]}},{"type":"Feature","properties":{"stop_id":"13932","stop_code":"13932","stop_name":"MADISON COUNTY TRANSIT CTR","wheelchair_boarding":1,"routes":[{"route_id":"19645","agency_id":"70006","route_short_name":"13","route_long_name":"Caseyville","route_type":3,"route_color":"#FFFFFF","route_text_color":"#000000"},{"route_id":"19648","agency_id":"70006","route_short_name":"16","route_long_name":"St. Clair Square","route_type":3,"route_color":"#FFFFFF","route_text_color":"#000000"}],"agency_name":"Metro St. Louis"},"geometry":{"type":"Point","coordinates":[-89.98739,38.67064]}},{"type":"Feature","properties":{"stop_id":"14124","stop_code":"14124","stop_name":"FAIRVIEW HEIGHTS TRANSIT CENTER","wheelchair_boarding":1,"routes":[{"route_id":"19636","agency_id":"70006","route_short_name":"1","route_long_name":"Main Street - State Street","route_type":3,"route_color":"#FFFFFF","route_text_color":"#000000"},{"route_id":"19641","agency_id":"70006","route_short_name":"6","route_long_name":"Rosemont","route_type":3,"route_color":"#FFFFFF","route_text_color":"#000000"},{"route_id":"19644","agency_id":"70006","route_short_name":"12","route_long_name":"OFallon-Fairview Heights","route_type":3,"route_color":"#FFFFFF","route_text_color":"#000000"},{"route_id":"19645","agency_id":"70006","route_short_name":"13","route_long_name":"Caseyville","route_type":3,"route_color":"#FFFFFF","route_text_color":"#000000"}],"agency_name":"Metro St. Louis"},"geometry":{"type":"Point","coordinates":[-90.04828,38.5947]}},{"type":"Feature","properties":{"stop_id":"14209","stop_code":"14209","stop_name":"ST. CLAIR @ MAGDALENA WB","stop_desc":"NEAR SIDE ST. CLAIR @ MAGDALENA WB","wheelchair_boarding":2,"routes":[{"route_id":"19636","agency_id":"70006","route_short_name":"1","route_long_name":"Main Street - State Street","route_type":3,"route_color":"#FFFFFF","route_text_color":"#000000"},{"route_id":"19641","agency_id":"70006","route_short_name":"6","route_long_name":"Rosemont","route_type":3,"route_color":"#FFFFFF","route_text_color":"#000000"},{"route_id":"19645","agency_id":"70006","route_short_name":"13","route_long_name":"Caseyville","route_type":3,"route_color":"#FFFFFF","route_text_color":"#000000"}],"agency_name":"Metro St. Louis"},"geometry":{"type":"Point","coordinates":[-90.05067,38.59756]}},{"type":"Feature","properties":{"stop_id":"15345","stop_code":"15345","stop_name":"89TH STREET @ HADFIELD NB","stop_desc":"FAR SIDE 89TH STREET @ HADFIELD NB","wheelchair_boarding":2,"routes":[{"route_id":"19645","agency_id":"70006","route_short_name":"13","route_long_name":"Caseyville","route_type":3,"route_color":"#FFFFFF","route_text_color":"#000000"}],"agency_name":"Metro St. Louis"},"geometry":{"type":"Point","coordinates":[-90.03389,38.62657]}},{"type":"Feature","properties":{"stop_id":"15346","stop_code":"15346","stop_name":"812 MAIN NB","stop_desc":"MID-BLOCK 812 MAIN NB","wheelchair_boarding":2,"routes":[{"route_id":"19645","agency_id":"70006","route_short_name":"13","route_long_name":"Caseyville","route_type":3,"route_color":"#FFFFFF","route_text_color":"#000000"}],"agency_name":"Metro St. Louis"},"geometry":{"type":"Point","coordinates":[-90.03038,38.63045]}},{"type":"Feature","properties":{"stop_id":"15347","stop_code":"15347","stop_name":"MAIN @ HILL NB","stop_desc":"FAR SIDE MAIN @ HILL NB","wheelchair_boarding":2,"routes":[{"route_id":"19645","agency_id":"70006","route_short_name":"13","route_long_name":"Caseyville","route_type":3,"route_color":"#FFFFFF","route_text_color":"#000000"}],"agency_name":"Metro St. Louis"},"geometry":{"type":"Point","coordinates":[-90.02585,38.63632]}},{"type":"Feature","properties":{"stop_id":"15527","stop_code":"15527","stop_name":"MAIN @ SCATES NB","stop_desc":"FAR SIDE MAIN @ SCATES NB","wheelchair_boarding":2,"routes":[{"route_id":"19645","agency_id":"70006","route_short_name":"13","route_long_name":"Caseyville","route_type":3,"route_color":"#FFFFFF","route_text_color":"#000000"}],"agency_name":"Metro St. Louis"},"geometry":{"type":"Point","coordinates":[-90.02426,38.63775]}},{"type":"Feature","properties":{"stop_id":"15592","stop_code":"15592","stop_name":"MORRISON @ CHEROKEE NB","stop_desc":"FAR SIDE MORRISON @ CHEROKEE NB","wheelchair_boarding":2,"routes":[{"route_id":"19645","agency_id":"70006","route_short_name":"13","route_long_name":"Caseyville","route_type":3,"route_color":"#FFFFFF","route_text_color":"#000000"},{"route_id":"19648","agency_id":"70006","route_short_name":"16","route_long_name":"St. Clair Square","route_type":3,"route_color":"#FFFFFF","route_text_color":"#000000"}],"agency_name":"Metro St. Louis"},"geometry":{"type":"Point","coordinates":[-89.986,38.65798]}},{"type":"Feature","properties":{"stop_id":"15604","stop_code":"15604","stop_name":"MORRISON @ HEATHERWOOD EB","stop_desc":"FAR SIDE MORRISON @ HEATHERWOOD EB","wheelchair_boarding":2,"routes":[{"route_id":"19645","agency_id":"70006","route_short_name":"13","route_long_name":"Caseyville","route_type":3,"route_color":"#FFFFFF","route_text_color":"#000000"}],"agency_name":"Metro St. Louis"},"geometry":{"type":"Point","coordinates":[-90.00576,38.64711]}},{"type":"Feature","properties":{"stop_id":"15605","stop_code":"15605","stop_name":"MORRISON @ PONDEROSA HILLS EB","stop_desc":"NEAR SIDE MORRISON @ PONDEROSA HILLS EB","wheelchair_boarding":2,"routes":[{"route_id":"19645","agency_id":"70006","route_short_name":"13","route_long_name":"Caseyville","route_type":3,"route_color":"#FFFFFF","route_text_color":"#000000"}],"agency_name":"Metro St. Louis"},"geometry":{"type":"Point","coordinates":[-90.00239,38.64798]}},{"type":"Feature","properties":{"stop_id":"15606","stop_code":"15606","stop_name":"MORRISON @ CARL EB","stop_desc":"FAR SIDE MORRISON @ CARL EB","wheelchair_boarding":2,"routes":[{"route_id":"19645","agency_id":"70006","route_short_name":"13","route_long_name":"Caseyville","route_type":3,"route_color":"#FFFFFF","route_text_color":"#000000"}],"agency_name":"Metro St. Louis"},"geometry":{"type":"Point","coordinates":[-89.99899,38.64887]}},{"type":"Feature","properties":{"stop_id":"15607","stop_code":"15607","stop_name":"MORRISON @ ST. CLAIR EB","stop_desc":"FAR SIDE MORRISON @ ST. CLAIR EB","wheelchair_boarding":2,"routes":[{"route_id":"19645","agency_id":"70006","route_short_name":"13","route_long_name":"Caseyville","route_type":3,"route_color":"#FFFFFF","route_text_color":"#000000"}],"agency_name":"Metro St. Louis"},"geometry":{"type":"Point","coordinates":[-89.99436,38.65014]}},{"type":"Feature","properties":{"stop_id":"15910","stop_code":"15910","stop_name":"2220 MORRISON EB","stop_desc":"MID-BLOCK 2220 MORRISON EB","wheelchair_boarding":2,"routes":[{"route_id":"19645","agency_id":"70006","route_short_name":"13","route_long_name":"Caseyville","route_type":3,"route_color":"#FFFFFF","route_text_color":"#000000"}],"agency_name":"Metro St. Louis"},"geometry":{"type":"Point","coordinates":[-90.01426,38.64577]}},{"type":"Feature","properties":{"stop_id":"16342","stop_code":"16342","stop_name":"40 TUCKER WB","stop_desc":"MID-BLOCK 40 TUCKER WB","wheelchair_boarding":2,"routes":[{"route_id":"19645","agency_id":"70006","route_short_name":"13","route_long_name":"Caseyville","route_type":3,"route_color":"#FFFFFF","route_text_color":"#000000"}],"agency_name":"Metro St. Louis"},"geometry":{"type":"Point","coordinates":[-90.04982,38.61114]}},{"type":"Feature","properties":{"stop_id":"16343","stop_code":"16343","stop_name":"20 TUCKER WB","stop_desc":"MID-BLOCK 20 TUCKER WB","wheelchair_boarding":2,"routes":[{"route_id":"19645","agency_id":"70006","route_short_name":"13","route_long_name":"Caseyville","route_type":3,"route_color":"#FFFFFF","route_text_color":"#000000"}],"agency_name":"Metro St. Louis"},"geometry":{"type":"Point","coordinates":[-90.05521,38.61104]}},{"type":"Feature","properties":{"stop_id":"16344","stop_code":"16344","stop_name":"12 TUCKER","stop_desc":"MID-BLOCK 12 TUCKER","wheelchair_boarding":2,"routes":[{"route_id":"19645","agency_id":"70006","route_short_name":"13","route_long_name":"Caseyville","route_type":3,"route_color":"#FFFFFF","route_text_color":"#000000"}],"agency_name":"Metro St. Louis"},"geometry":{"type":"Point","coordinates":[-90.05794,38.61048]}},{"type":"Feature","properties":{"stop_id":"16345","stop_code":"16345","stop_name":"40 TUCKER EB","stop_desc":"MID-BLOCK 40 TUCKER EB","wheelchair_boarding":2,"routes":[{"route_id":"19645","agency_id":"70006","route_short_name":"13","route_long_name":"Caseyville","route_type":3,"route_color":"#FFFFFF","route_text_color":"#000000"}],"agency_name":"Metro St. Louis"},"geometry":{"type":"Point","coordinates":[-90.04985,38.61103]}}]}