{"type":"FeatureCollection","features":[{"type":"Feature","properties":{"agency_name":"Metro St. Louis","route_id":"19605","agency_id":"70006","route_short_name":"30","route_long_name":"Arsenal","route_type":3,"route_color":"#FFFFFF","route_text_color":"#000000"},"geometry":{"type":"MultiLineString","coordinates":[[[-90.31943,38.5928],[-90.31913,38.59282],[-90.31943,38.5928],[-90.31983,38.59272],[-90.31988,38.59268],[-90.31991,38.59263],[-90.31989,38.59254],[-90.31984,38.5925],[-90.31977,38.59249],[-90.3194,38.59258],[-90.31876,38.59278],[-90.31856,38.59279],[-90.31844,38.59259],[-90.31842,38.59252],[-90.31846,38.59199],[-90.31844,38.59174],[-90.3184,38.59153],[-90.31831,38.5912],[-90.31822,38.59048],[-90.31816,38.59024],[-90.31808,38.59004],[-90.31789,38.58976],[-90.31773,38.58959],[-90.31755,38.58945],[-90.31616,38.58866],[-90.31315,38.58531],[-90.31308,38.58513],[-90.31308,38.58505],[-90.31317,38.58497],[-90.31332,38.58497],[-90.31339,38.585],[-90.31376,38.58546],[-90.31426,38.58612],[-90.31328,38.58683],[-90.31268,38.58724],[-90.31231,38.58746],[-90.31183,38.5877],[-90.30689,38.59007],[-90.30589,38.59053],[-90.30222,38.59228],[-90.30194,38.59274],[-90.30177,38.59322],[-90.30059,38.59718],[-90.30051,38.59748],[-90.30046,38.59775],[-90.30012,38.5999],[-90.30008,38.6001],[-90.30003,38.60026],[-90.29952,38.60136],[-90.29888,38.60267],[-90.29791,38.60402],[-90.29779,38.60416],[-90.29752,38.60441],[-90.29721,38.60461],[-90.29688,38.60476],[-90.2952,38.60529],[-90.29485,38.60544],[-90.2947,38.60553],[-90.29436,38.60581],[-90.29302,38.60712],[-90.29227,38.60731],[-90.28541,38.60664],[-90.27592,38.60568],[-90.274,38.60551],[-90.27037,38.60512],[-90.26923,38.60503],[-90.26799,38.60511],[-90.26668,38.60515],[-90.26626,38.60512],[-90.24604,38.60321],[-90.24305,38.60294],[-90.24278,38.60291],[-90.24257,38.60286],[-90.24225,38.60273],[-90.23995,38.60242],[-90.23653,38.60202],[-90.2354,38.60188],[-90.23484,38.60179],[-90.23423,38.60164],[-90.23265,38.6012],[-90.23199,38.60106],[-90.2309,38.60079],[-90.2265,38.59955],[-90.22426,38.59894],[-90.22053,38.59788],[-90.219,38.59746],[-90.21625,38.59667],[-90.21284,38.59574],[-90.21032,38.59501],[-90.20932,38.59408],[-90.209,38.59382],[-90.20907,38.59374],[-90.21049,38.59284],[-90.2112,38.5924],[-90.21153,38.59223],[-90.21195,38.59265],[-90.21241,38.59306],[-90.21166,38.59402],[-90.21151,38.59417],[-90.21076,38.59513],[-90.20898,38.59731],[-90.20879,38.59745],[-90.20845,38.59789],[-90.20832,38.59808],[-90.20816,38.59837],[-90.208,38.59875],[-90.20781,38.59939],[-90.20768,38.59973],[-90.20754,38.6],[-90.20709,38.60068],[-90.20238,38.60729],[-90.20202,38.60776],[-90.20047,38.60946],[-90.19967,38.6103],[-90.19894,38.6111],[-90.19859,38.61145],[-90.1983,38.61171],[-90.19779,38.61204],[-90.19741,38.61225],[-90.19695,38.61244],[-90.19618,38.6128],[-90.19573,38.61309],[-90.19553,38.61327],[-90.19519,38.61365],[-90.19499,38.61393],[-90.19441,38.61492],[-90.19355,38.61633],[-90.1933,38.61686],[-90.19328,38.61695],[-90.19331,38.61703],[-90.19341,38.61709],[-90.19587,38.61758],[-90.19677,38.61778],[-90.20455,38.61933],[-90.2042,38.6203],[-90.20371,38.62141],[-90.20337,38.62232],[-90.2033,38.62246],[-90.20306,38.62309],[-90.20279,38.62373],[-90.20284,38.62393],[-90.20302,38.624],[-90.20306,38.62405],[-90.20307,38.62411]]]}},{"type":"Feature","properties":{"stop_id":"10539","stop_code":"10539","stop_name":"2ND STREET @ ARSENAL SB","stop_desc":"MID-BLOCK 2ND STREET @ ARSENAL SB","wheelchair_boarding":2,"routes":[{"route_id":"19605","agency_id":"70006","route_short_name":"30","route_long_name":"Arsenal","route_type":3,"route_color":"#FFFFFF","route_text_color":"#000000"}],"agency_name":"Metro St. Louis"},"geometry":{"type":"Point","coordinates":[-90.2104,38.59298]}},{"type":"Feature","properties":{"stop_id":"13370","stop_code":"13370","stop_name":"ARSENAL @ 2ND STREET EB","stop_desc":"NEAR SIDE ARSENAL @ 2ND STREET EB","wheelchair_boarding":2,"routes":[{"route_id":"19605","agency_id":"70006","route_short_name":"30","route_long_name":"Arsenal","route_type":3,"route_color":"#FFFFFF","route_text_color":"#000000"}],"agency_name":"Metro St. Louis"},"geometry":{"type":"Point","coordinates":[-90.20938,38.59414]}},{"type":"Feature","properties":{"stop_id":"13597","stop_code":"13597","stop_name":"BROADWAY @ PARK NB","stop_desc":"FAR SIDE BROADWAY @ PARK NB","wheelchair_boarding":1,"routes":[{"route_id":"19605","agency_id":"70006","route_short_name":"30","route_long_name":"Arsenal","route_type":3,"route_color":"#FFFFFF","route_text_color":"#000000"}],"agency_name":"Metro St. Louis"},"geometry":{"type":"Point","coordinates":[-90.19593,38.61278]}},{"type":"Feature","properties":{"stop_id":"14496","stop_code":"14496","stop_name":"CIVIC CENTER TRANSIT CENTER","wheelchair_boarding":1,"routes":[{"route_id":"19598","agency_id":"70006","route_short_name":"10","route_long_name":"Gravois-Lindell","route_type":3,"route_color":"#FFFFFF","route_text_color":"#000000"},{"route_id":"19605","agency_id":"70006","route_short_name":"30","route_long_name":"Arsenal","route_type":3,"route_color":"#FFFFFF","route_text_color":"#000000"},{"route_id":"19606","agency_id":"70006","route_short_name":"31","route_long_name":"Chouteau","route_type":3,"route_color":"#FFFFFF","route_text_color":"#000000"},{"route_id":"19607","agency_id":"70006","route_short_name":"32","route_long_name":"Dr ML King","route_type":3,"route_color":"#FFFFFF","route_text_color":"#000000"}],"agency_name":"Metro St. Louis"},"geometry":{"type":"Point","coordinates":[-90.20298,38.6243]}},{"type":"Feature","properties":{"stop_id":"14769","stop_code":"14769","stop_name":"SHREWSBURY-LANSDOWNE I-44 TRANSIT CENTER","wheelchair_boarding":1,"routes":[{"route_id":"19599","agency_id":"70006","route_short_name":"11","route_long_name":"Chippewa","route_type":3,"route_color":"#FFFFFF","route_text_color":"#000000"},{"route_id":"19601","agency_id":"70006","route_short_name":"16","route_long_name":"City Limits","route_type":3,"route_color":"#FFFFFF","route_text_color":"#000000"},{"route_id":"19604","agency_id":"70006","route_short_name":"21","route_long_name":"Watson Rd","route_type":3,"route_color":"#FFFFFF","route_text_color":"#000000"},{"route_id":"19605","agency_id":"70006","route_short_name":"30","route_long_name":"Arsenal","route_type":3,"route_color":"#FFFFFF","route_text_color":"#000000"}],"agency_name":"Metro St. Louis"},"geometry":{"type":"Point","coordinates":[-90.31925,38.59277]}},{"type":"Feature","properties":{"stop_id":"14804","stop_code":"14804","stop_name":"CHOUTEAU @ 14TH STREET WB","stop_desc":"NEAR SIDE CHOUTEAU @ 14TH STREET WB","wheelchair_boarding":1,"routes":[{"route_id":"19598","agency_id":"70006","route_short_name":"10","route_long_name":"Gravois-Lindell","route_type":3,"route_color":"#FFFFFF","route_text_color":"#000000"},{"route_id":"19605","agency_id":"70006","route_short_name":"30","route_long_name":"Arsenal","route_type":3,"route_color":"#FFFFFF","route_text_color":"#000000"}],"agency_name":"Metro St. Louis"},"geometry":{"type":"Point","coordinates":[-90.20404,38.61934]}},{"type":"Feature","properties":{"stop_id":"14805","stop_code":"14805","stop_name":"14TH STREET @ PAPIN NB","stop_desc":"NEAR SIDE 14TH STREET @ PAPIN NB","wheelchair_boarding":2,"routes":[{"route_id":"19598","agency_id":"70006","route_short_name":"10","route_long_name":"Gravois-Lindell","route_type":3,"route_color":"#FFFFFF","route_text_color":"#000000"},{"route_id":"19605","agency_id":"70006","route_short_name":"30","route_long_name":"Arsenal","route_type":3,"route_color":"#FFFFFF","route_text_color":"#000000"},{"route_id":"19606","agency_id":"70006","route_short_name":"31","route_long_name":"Chouteau","route_type":3,"route_color":"#FFFFFF","route_text_color":"#000000"}],"agency_name":"Metro St. Louis"},"geometry":{"type":"Point","coordinates":[-90.20413,38.62022]}},{"type":"Feature","properties":{"stop_id":"14868","stop_code":"14868","stop_name":"ARSENAL @ WATSON EB","stop_desc":"FAR SIDE ARSENAL @ WATSON EB","wheelchair_boarding":1,"routes":[{"route_id":"19605","agency_id":"70006","route_short_name":"30","route_long_name":"Arsenal","route_type":3,"route_color":"#FFFFFF","route_text_color":"#000000"}],"agency_name":"Metro St. Louis"},"geometry":{"type":"Point","coordinates":[-90.29242,38.6073]}},{"type":"Feature","properties":{"stop_id":"15161","stop_code":"15161","stop_name":"ARSENAL @ OHIO EB","stop_desc":"NEAR SIDE ARSENAL @ OHIO EB","wheelchair_boarding":1,"routes":[{"route_id":"19605","agency_id":"70006","route_short_name":"30","route_long_name":"Arsenal","route_type":3,"route_color":"#FFFFFF","route_text_color":"#000000"}],"agency_name":"Metro St. Louis"},"geometry":{"type":"Point","coordinates":[-90.22662,38.59958]}},{"type":"Feature","properties":{"stop_id":"1785","stop_code":"1785","stop_name":"ARSENAL @ HAMPTON EB","stop_desc":"FAR SIDE ARSENAL @ HAMPTON EB","wheelchair_boarding":1,"routes":[{"route_id":"19605","agency_id":"70006","route_short_name":"30","route_long_name":"Arsenal","route_type":3,"route_color":"#FFFFFF","route_text_color":"#000000"}],"agency_name":"Metro St. Louis"},"geometry":{"type":"Point","coordinates":[-90.28854,38.60692]}},{"type":"Feature","properties":{"stop_id":"1787","stop_code":"1787","stop_name":"ARSENAL @ DALTON EB","stop_desc":"FAR SIDE ARSENAL @ DALTON EB","wheelchair_boarding":2,"routes":[{"route_id":"19605","agency_id":"70006","route_short_name":"30","route_long_name":"Arsenal","route_type":3,"route_color":"#FFFFFF","route_text_color":"#000000"}],"agency_name":"Metro St. Louis"},"geometry":{"type":"Point","coordinates":[-90.28559,38.60663]}},{"type":"Feature","properties":{"stop_id":"1789","stop_code":"1789","stop_name":"ARSENAL @ SUBLETTE EB","stop_desc":"NEAR SIDE ARSENAL @ SUBLETTE EB","wheelchair_boarding":1,"routes":[{"route_id":"19605","agency_id":"70006","route_short_name":"30","route_long_name":"Arsenal","route_type":3,"route_color":"#FFFFFF","route_text_color":"#000000"}],"agency_name":"Metro St. Louis"},"geometry":{"type":"Point","coordinates":[-90.28172,38.60624]}},{"type":"Feature","properties":{"stop_id":"1832","stop_code":"1832","stop_name":"BROADWAY @ CONVENT NB","stop_desc":"NEAR SIDE BROADWAY @ CONVENT NB","wheelchair_boarding":2,"routes":[{"route_id":"19605","agency_id":"70006","route_short_name":"30","route_long_name":"Arsenal","route_type":3,"route_color":"#FFFFFF","route_text_color":"#000000"}],"agency_name":"Metro St. Louis"},"geometry":{"type":"Point","coordinates":[-90.19403,38.61542]}},{"type":"Feature","properties":{"stop_id":"2932","stop_code":"2932","stop_name":"WATSON @ CHIPPEWA NB","stop_desc":"FAR SIDE WATSON @ CHIPPEWA NB","wheelchair_boarding":2,"routes":[{"route_id":"19605","agency_id":"70006","route_short_name":"30","route_long_name":"Arsenal","route_type":3,"route_color":"#FFFFFF","route_text_color":"#000000"}],"agency_name":"Metro St. Louis"},"geometry":{"type":"Point","coordinates":[-90.30166,38.59327]}},{"type":"Feature","properties":{"stop_id":"2933","stop_code":"2933","stop_name":"WATSON @ LINDENWOOD PLACE NB","stop_desc":"NEAR SIDE WATSON @ LINDENWOOD PLACE NB","wheelchair_boarding":2,"routes":[{"route_id":"19605","agency_id":"70006","route_short_name":"30","route_long_name":"Arsenal","route_type":3,"route_color":"#FFFFFF","route_text_color":"#000000"}],"agency_name":"Metro St. Louis"},"geometry":{"type":"Point","coordinates":[-90.30122,38.59471]}},{"type":"Feature","properties":{"stop_id":"2935","stop_code":"2935","stop_name":"WATSON @ PERNOD NB","stop_desc":"NEAR SIDE WATSON @ PERNOD NB","wheelchair_boarding":1,"routes":[{"route_id":"19605","agency_id":"70006","route_short_name":"30","route_long_name":"Arsenal","route_type":3,"route_color":"#FFFFFF","route_text_color":"#000000"}],"agency_name":"Metro St. Louis"},"geometry":{"type":"Point","coordinates":[-90.30046,38.59732]}},{"type":"Feature","properties":{"stop_id":"2936","stop_code":"2936","stop_name":"WATSON @ MARQUETTE NB","stop_desc":"NEAR SIDE WATSON @ MARQUETTE NB","wheelchair_boarding":2,"routes":[{"route_id":"19605","agency_id":"70006","route_short_name":"30","route_long_name":"Arsenal","route_type":3,"route_color":"#FFFFFF","route_text_color":"#000000"}],"agency_name":"Metro St. Louis"},"geometry":{"type":"Point","coordinates":[-90.30001,38.59994]}},{"type":"Feature","properties":{"stop_id":"2938","stop_code":"2938","stop_name":"WATSON @ FYLER NB","stop_desc":"NEAR SIDE WATSON @ FYLER NB","wheelchair_boarding":1,"routes":[{"route_id":"19605","agency_id":"70006","route_short_name":"30","route_long_name":"Arsenal","route_type":3,"route_color":"#FFFFFF","route_text_color":"#000000"}],"agency_name":"Metro St. Louis"},"geometry":{"type":"Point","coordinates":[-90.2989,38.60244]}},{"type":"Feature","properties":{"stop_id":"2940","stop_code":"2940","stop_name":"WATSON @ SCANLAN NB","stop_desc":"FAR SIDE WATSON @ SCANLAN NB","wheelchair_boarding":2,"routes":[{"route_id":"19605","agency_id":"70006","route_short_name":"30","route_long_name":"Arsenal","route_type":3,"route_color":"#FFFFFF","route_text_color":"#000000"}],"agency_name":"Metro St. Louis"},"geometry":{"type":"Point","coordinates":[-90.2955,38.60511]}},{"type":"Feature","properties":{"stop_id":"4916","stop_code":"4916","stop_name":"CHOUTEAU @ 7TH STREET WB","stop_desc":"FAR SIDE CHOUTEAU @ 7TH STREET WB","wheelchair_boarding":1,"routes":[{"route_id":"19605","agency_id":"70006","route_short_name":"30","route_long_name":"Arsenal","route_type":3,"route_color":"#FFFFFF","route_text_color":"#000000"}],"agency_name":"Metro St. Louis"},"geometry":{"type":"Point","coordinates":[-90.19622,38.61775]}},{"type":"Feature","properties":{"stop_id":"4917","stop_code":"4917","stop_name":"CHOUTEAU @ 10TH STREET WB","stop_desc":"NEAR SIDE CHOUTEAU @ 10TH STREET WB","wheelchair_boarding":2,"routes":[{"route_id":"19605","agency_id":"70006","route_short_name":"30","route_long_name":"Arsenal","route_type":3,"route_color":"#FFFFFF","route_text_color":"#000000"}],"agency_name":"Metro St. Louis"},"geometry":{"type":"Point","coordinates":[-90.19883,38.61826]}},{"type":"Feature","properties":{"stop_id":"6584","stop_code":"6584","stop_name":"BROADWAY @ UTAH NB","stop_desc":"FAR SIDE BROADWAY @ UTAH NB","wheelchair_boarding":2,"routes":[{"route_id":"19605","agency_id":"70006","route_short_name":"30","route_long_name":"Arsenal","route_type":3,"route_color":"#FFFFFF","route_text_color":"#000000"},{"route_id":"19623","agency_id":"70006","route_short_name":"73","route_long_name":"Carondelet","route_type":3,"route_color":"#FFFFFF","route_text_color":"#000000"}],"agency_name":"Metro St. Louis"},"geometry":{"type":"Point","coordinates":[-90.21184,38.59362]}},{"type":"Feature","properties":{"stop_id":"7320","stop_code":"7320","stop_name":"ARSENAL @ MACKLIND EB","stop_desc":"FAR SIDE ARSENAL @ MACKLIND EB","wheelchair_boarding":1,"routes":[{"route_id":"19605","agency_id":"70006","route_short_name":"30","route_long_name":"Arsenal","route_type":3,"route_color":"#FFFFFF","route_text_color":"#000000"}],"agency_name":"Metro St. Louis"},"geometry":{"type":"Point","coordinates":[-90.27898,38.60594]}},{"type":"Feature","properties":{"stop_id":"7321","stop_code":"7321","stop_name":"ARSENAL @ BRANNON EB","stop_desc":"NEAR SIDE ARSENAL @ BRANNON EB","wheelchair_boarding":2,"routes":[{"route_id":"19605","agency_id":"70006","route_short_name":"30","route_long_name":"Arsenal","route_type":3,"route_color":"#FFFFFF","route_text_color":"#000000"}],"agency_name":"Metro St. Louis"},"geometry":{"type":"Point","coordinates":[-90.27614,38.6057]}},{"type":"Feature","properties":{"stop_id":"7322","stop_code":"7322","stop_name":"ARSENAL @ HEREFORD EB","stop_desc":"NEAR SIDE ARSENAL @ HEREFORD EB","wheelchair_boarding":2,"routes":[{"route_id":"19605","agency_id":"70006","route_short_name":"30","route_long_name":"Arsenal","route_type":3,"route_color":"#FFFFFF","route_text_color":"#000000"}],"agency_name":"Metro St. Louis"},"geometry":{"type":"Point","coordinates":[-90.27354,38.60541]}},{"type":"Feature","properties":{"stop_id":"7325","stop_code":"7325","stop_name":"ARSENAL @ KINGSHIGHWAY EB","stop_desc":"FAR SIDE ARSENAL @ KINGSHIGHWAY EB","wheelchair_boarding":2,"routes":[{"route_id":"19605","agency_id":"70006","route_short_name":"30","route_long_name":"Arsenal","route_type":3,"route_color":"#FFFFFF","route_text_color":"#000000"}],"agency_name":"Metro St. Louis"},"geometry":{"type":"Point","coordinates":[-90.26881,38.605]}},{"type":"Feature","properties":{"stop_id":"7327","stop_code":"7327","stop_name":"ARSENAL @ PORTIS EB","stop_desc":"NEAR SIDE ARSENAL @ PORTIS EB","wheelchair_boarding":2,"routes":[{"route_id":"19605","agency_id":"70006","route_short_name":"30","route_long_name":"Arsenal","route_type":3,"route_color":"#FFFFFF","route_text_color":"#000000"}],"agency_name":"Metro St. Louis"},"geometry":{"type":"Point","coordinates":[-90.26472,38.60491]}},{"type":"Feature","properties":{"stop_id":"8782","stop_code":"8782","stop_name":"CHIPPEWA @ MCCAUSLAND EB","stop_desc":"NEAR SIDE CHIPPEWA @ MCCAUSLAND EB","wheelchair_boarding":1,"routes":[{"route_id":"19605","agency_id":"70006","route_short_name":"30","route_long_name":"Arsenal","route_type":3,"route_color":"#FFFFFF","route_text_color":"#000000"}],"agency_name":"Metro St. Louis"},"geometry":{"type":"Point","coordinates":[-90.31247,38.58725]}},{"type":"Feature","properties":{"stop_id":"8783","stop_code":"8783","stop_name":"CHIPPEWA @ JAMIESON EB","stop_desc":"FAR SIDE CHIPPEWA @ JAMIESON EB","wheelchair_boarding":1,"routes":[{"route_id":"19605","agency_id":"70006","route_short_name":"30","route_long_name":"Arsenal","route_type":3,"route_color":"#FFFFFF","route_text_color":"#000000"}],"agency_name":"Metro St. Louis"},"geometry":{"type":"Point","coordinates":[-90.30855,38.5892]}},{"type":"Feature","properties":{"stop_id":"8967","stop_code":"8967","stop_name":"CHIPPEWA @ IVANHOE EB","stop_desc":"NEAR SIDE CHIPPEWA @ IVANHOE EB","wheelchair_boarding":1,"routes":[{"route_id":"19605","agency_id":"70006","route_short_name":"30","route_long_name":"Arsenal","route_type":3,"route_color":"#FFFFFF","route_text_color":"#000000"}],"agency_name":"Metro St. Louis"},"geometry":{"type":"Point","coordinates":[-90.30599,38.59042]}},{"type":"Feature","properties":{"stop_id":"8968","stop_code":"8968","stop_name":"CHIPPEWA @ LANSDOWNE EB","stop_desc":"FAR SIDE CHIPPEWA @ LANSDOWNE EB","wheelchair_boarding":1,"routes":[{"route_id":"19599","agency_id":"70006","route_short_name":"11","route_long_name":"Chippewa","route_type":3,"route_color":"#FFFFFF","route_text_color":"#000000"},{"route_id":"19605","agency_id":"70006","route_short_name":"30","route_long_name":"Arsenal","route_type":3,"route_color":"#FFFFFF","route_text_color":"#000000"}],"agency_name":"Metro St. Louis"},"geometry":{"type":"Point","coordinates":[-90.30393,38.5914]}},{"type":"Feature","properties":{"stop_id":"9473","stop_code":"9473","stop_name":"ARSENAL @ MORGANFORD EB","stop_desc":"FAR SIDE ARSENAL @ MORGANFORD EB","wheelchair_boarding":1,"routes":[{"route_id":"19605","agency_id":"70006","route_short_name":"30","route_long_name":"Arsenal","route_type":3,"route_color":"#FFFFFF","route_text_color":"#000000"}],"agency_name":"Metro St. Louis"},"geometry":{"type":"Point","coordinates":[-90.26093,38.60455]}},{"type":"Feature","properties":{"stop_id":"9474","stop_code":"9474","stop_name":"ARSENAL @ BENT EB","stop_desc":"NEAR SIDE ARSENAL @ BENT EB","wheelchair_boarding":2,"routes":[{"route_id":"19605","agency_id":"70006","route_short_name":"30","route_long_name":"Arsenal","route_type":3,"route_color":"#FFFFFF","route_text_color":"#000000"}],"agency_name":"Metro St. Louis"},"geometry":{"type":"Point","coordinates":[-90.25795,38.60427]}},{"type":"Feature","properties":{"stop_id":"9475","stop_code":"9475","stop_name":"ARSENAL @ OAK HILL EB","stop_desc":"NEAR SIDE ARSENAL @ OAK HILL EB","wheelchair_boarding":1,"routes":[{"route_id":"19605","agency_id":"70006","route_short_name":"30","route_long_name":"Arsenal","route_type":3,"route_color":"#FFFFFF","route_text_color":"#000000"}],"agency_name":"Metro St. Louis"},"geometry":{"type":"Point","coordinates":[-90.25525,38.60404]}},{"type":"Feature","properties":{"stop_id":"9476","stop_code":"9476","stop_name":"ARSENAL @ ROGER PLACE EB","stop_desc":"NEAR SIDE ARSENAL @ ROGER PLACE EB","wheelchair_boarding":2,"routes":[{"route_id":"19605","agency_id":"70006","route_short_name":"30","route_long_name":"Arsenal","route_type":3,"route_color":"#FFFFFF","route_text_color":"#000000"}],"agency_name":"Metro St. Louis"},"geometry":{"type":"Point","coordinates":[-90.2526,38.60377]}},{"type":"Feature","properties":{"stop_id":"9477","stop_code":"9477","stop_name":"ARSENAL @ GUSTINE EB","stop_desc":"NEAR SIDE ARSENAL @ GUSTINE EB","wheelchair_boarding":2,"routes":[{"route_id":"19605","agency_id":"70006","route_short_name":"30","route_long_name":"Arsenal","route_type":3,"route_color":"#FFFFFF","route_text_color":"#000000"}],"agency_name":"Metro St. Louis"},"geometry":{"type":"Point","coordinates":[-90.24973,38.60351]}},{"type":"Feature","properties":{"stop_id":"9490","stop_code":"9490","stop_name":"ARSENAL @ SPRING EB","stop_desc":"NEAR SIDE ARSENAL @ SPRING EB","wheelchair_boarding":2,"routes":[{"route_id":"19605","agency_id":"70006","route_short_name":"30","route_long_name":"Arsenal","route_type":3,"route_color":"#FFFFFF","route_text_color":"#000000"}],"agency_name":"Metro St. Louis"},"geometry":{"type":"Point","coordinates":[-90.24627,38.60318]}},{"type":"Feature","properties":{"stop_id":"9491","stop_code":"9491","stop_name":"ARSENAL @ GRAND EB","stop_desc":"FAR SIDE ARSENAL @ GRAND EB","wheelchair_boarding":1,"routes":[{"route_id":"19605","agency_id":"70006","route_short_name":"30","route_long_name":"Arsenal","route_type":3,"route_color":"#FFFFFF","route_text_color":"#000000"}],"agency_name":"Metro St. Louis"},"geometry":{"type":"Point","coordinates":[-90.24167,38.6026]}},{"type":"Feature","properties":{"stop_id":"9493","stop_code":"9493","stop_name":"ARSENAL @ LOUISIANA EB","stop_desc":"FAR SIDE ARSENAL @ LOUISIANA EB","wheelchair_boarding":2,"routes":[{"route_id":"19605","agency_id":"70006","route_short_name":"30","route_long_name":"Arsenal","route_type":3,"route_color":"#FFFFFF","route_text_color":"#000000"}],"agency_name":"Metro St. Louis"},"geometry":{"type":"Point","coordinates":[-90.2374,38.60211]}},{"type":"Feature","properties":{"stop_id":"9494","stop_code":"9494","stop_name":"ARSENAL @ COMPTON EB","stop_desc":"NEAR SIDE ARSENAL @ COMPTON EB","wheelchair_boarding":2,"routes":[{"route_id":"19605","agency_id":"70006","route_short_name":"30","route_long_name":"Arsenal","route_type":3,"route_color":"#FFFFFF","route_text_color":"#000000"}],"agency_name":"Metro St. Louis"},"geometry":{"type":"Point","coordinates":[-90.23559,38.6019]}},{"type":"Feature","properties":{"stop_id":"9495","stop_code":"9495","stop_name":"ARSENAL @ GRAVOIS EB","stop_desc":"NEAR SIDE ARSENAL @ GRAVOIS EB","wheelchair_boarding":1,"routes":[{"route_id":"19605","agency_id":"70006","route_short_name":"30","route_long_name":"Arsenal","route_type":3,"route_color":"#FFFFFF","route_text_color":"#000000"}],"agency_name":"Metro St. Louis"},"geometry":{"type":"Point","coordinates":[-90.23281,38.60118]}},{"type":"Feature","properties":{"stop_id":"9496","stop_code":"9496","stop_name":"ARSENAL @ NEBRASKA EB","stop_desc":"NEAR SIDE ARSENAL @ NEBRASKA EB","wheelchair_boarding":2,"routes":[{"route_id":"19605","agency_id":"70006","route_short_name":"30","route_long_name":"Arsenal","route_type":3,"route_color":"#FFFFFF","route_text_color":"#000000"}],"agency_name":"Metro St. Louis"},"geometry":{"type":"Point","coordinates":[-90.23122,38.60086]}},{"type":"Feature","properties":{"stop_id":"9498","stop_code":"9498","stop_name":"ARSENAL @ JEFFERSON EB","stop_desc":"FAR SIDE ARSENAL @ JEFFERSON EB","wheelchair_boarding":2,"routes":[{"route_id":"19605","agency_id":"70006","route_short_name":"30","route_long_name":"Arsenal","route_type":3,"route_color":"#FFFFFF","route_text_color":"#000000"}],"agency_name":"Metro St. Louis"},"geometry":{"type":"Point","coordinates":[-90.22378,38.59878]}},{"type":"Feature","properties":{"stop_id":"9500","stop_code":"9500","stop_name":"ARSENAL @ MISSOURI EB","stop_desc":"FAR SIDE ARSENAL @ MISSOURI EB","wheelchair_boarding":2,"routes":[{"route_id":"19605","agency_id":"70006","route_short_name":"30","route_long_name":"Arsenal","route_type":3,"route_color":"#FFFFFF","route_text_color":"#000000"}],"agency_name":"Metro St. Louis"},"geometry":{"type":"Point","coordinates":[-90.222,38.59827]}},{"type":"Feature","properties":{"stop_id":"9502","stop_code":"9502","stop_name":"ARSENAL @ WISCONSIN EB","stop_desc":"FAR SIDE ARSENAL @ WISCONSIN EB","wheelchair_boarding":1,"routes":[{"route_id":"19605","agency_id":"70006","route_short_name":"30","route_long_name":"Arsenal","route_type":3,"route_color":"#FFFFFF","route_text_color":"#000000"}],"agency_name":"Metro St. Louis"},"geometry":{"type":"Point","coordinates":[-90.21984,38.59765]}},{"type":"Feature","properties":{"stop_id":"9503","stop_code":"9503","stop_name":"ARSENAL @ LEMP EB","stop_desc":"FAR SIDE ARSENAL @ LEMP EB","wheelchair_boarding":1,"routes":[{"route_id":"19605","agency_id":"70006","route_short_name":"30","route_long_name":"Arsenal","route_type":3,"route_color":"#FFFFFF","route_text_color":"#000000"}],"agency_name":"Metro St. Louis"},"geometry":{"type":"Point","coordinates":[-90.21737,38.59696]}},{"type":"Feature","properties":{"stop_id":"9504","stop_code":"9504","stop_name":"ARSENAL @ 13TH STREET EB","stop_desc":"FAR SIDE ARSENAL @ 13TH STREET EB","wheelchair_boarding":1,"routes":[{"route_id":"19605","agency_id":"70006","route_short_name":"30","route_long_name":"Arsenal","route_type":3,"route_color":"#FFFFFF","route_text_color":"#000000"}],"agency_name":"Metro St. Louis"},"geometry":{"type":"Point","coordinates":[-90.21481,38.59628]}},{"type":"Feature","properties":{"stop_id":"9506","stop_code":"9506","stop_name":"ARSENAL @ BUSCH PLACE EB","stop_desc":"FAR SIDE ARSENAL @ BUSCH PLACE EB","wheelchair_boarding":1,"routes":[{"route_id":"19605","agency_id":"70006","route_short_name":"30","route_long_name":"Arsenal","route_type":3,"route_color":"#FFFFFF","route_text_color":"#000000"}],"agency_name":"Metro St. Louis"},"geometry":{"type":"Point","coordinates":[-90.21153,38.59535]}},{"type":"Feature","properties":{"stop_id":"9507","stop_code":"9507","stop_name":"BROADWAY @ ARSENAL NB","stop_desc":"FAR SIDE BROADWAY @ ARSENAL NB","wheelchair_boarding":2,"routes":[{"route_id":"19605","agency_id":"70006","route_short_name":"30","route_long_name":"Arsenal","route_type":3,"route_color":"#FFFFFF","route_text_color":"#000000"},{"route_id":"19623","agency_id":"70006","route_short_name":"73","route_long_name":"Carondelet","route_type":3,"route_color":"#FFFFFF","route_text_color":"#000000"}],"agency_name":"Metro St. Louis"},"geometry":{"type":"Point","coordinates":[-90.21108,38.59465]}},{"type":"Feature","properties":{"stop_id":"9509","stop_code":"9509","stop_name":"BROADWAY @ DORCAS NB","stop_desc":"FAR SIDE BROADWAY @ DORCAS NB","wheelchair_boarding":1,"routes":[{"route_id":"19605","agency_id":"70006","route_short_name":"30","route_long_name":"Arsenal","route_type":3,"route_color":"#FFFFFF","route_text_color":"#000000"},{"route_id":"19623","agency_id":"70006","route_short_name":"73","route_long_name":"Carondelet","route_type":3,"route_color":"#FFFFFF","route_text_color":"#000000"}],"agency_name":"Metro St. Louis"},"geometry":{"type":"Point","coordinates":[-90.20863,38.59759]}},{"type":"Feature","properties":{"stop_id":"9510","stop_code":"9510","stop_name":"BROADWAY @ LYNCH NB","stop_desc":"FAR SIDE BROADWAY @ LYNCH NB","wheelchair_boarding":1,"routes":[{"route_id":"19605","agency_id":"70006","route_short_name":"30","route_long_name":"Arsenal","route_type":3,"route_color":"#FFFFFF","route_text_color":"#000000"}],"agency_name":"Metro St. Louis"},"geometry":{"type":"Point","coordinates":[-90.20785,38.59895]}},{"type":"Feature","properties":{"stop_id":"9511","stop_code":"9511","stop_name":"7TH STREET @ SIDNEY NB","stop_desc":"FAR SIDE 7TH STREET @ SIDNEY NB","wheelchair_boarding":1,"routes":[{"route_id":"19605","agency_id":"70006","route_short_name":"30","route_long_name":"Arsenal","route_type":3,"route_color":"#FFFFFF","route_text_color":"#000000"}],"agency_name":"Metro St. Louis"},"geometry":{"type":"Point","coordinates":[-90.20683,38.60091]}},{"type":"Feature","properties":{"stop_id":"9515","stop_code":"9515","stop_name":"7TH STREET @ RUSSELL NB","stop_desc":"NEAR SIDE 7TH STREET @ RUSSELL NB","wheelchair_boarding":2,"routes":[{"route_id":"19605","agency_id":"70006","route_short_name":"30","route_long_name":"Arsenal","route_type":3,"route_color":"#FFFFFF","route_text_color":"#000000"}],"agency_name":"Metro St. Louis"},"geometry":{"type":"Point","coordinates":[-90.20358,38.60542]}},{"type":"Feature","properties":{"stop_id":"9516","stop_code":"9516","stop_name":"7TH STREET @ GEYER NB","stop_desc":"FAR SIDE 7TH STREET @ GEYER NB","wheelchair_boarding":1,"routes":[{"route_id":"19605","agency_id":"70006","route_short_name":"30","route_long_name":"Arsenal","route_type":3,"route_color":"#FFFFFF","route_text_color":"#000000"}],"agency_name":"Metro St. Louis"},"geometry":{"type":"Point","coordinates":[-90.20173,38.60796]}},{"type":"Feature","properties":{"stop_id":"9517","stop_code":"9517","stop_name":"7TH STREET @ LAFAYETTE NB","stop_desc":"FAR SIDE 7TH STREET @ LAFAYETTE NB","wheelchair_boarding":1,"routes":[{"route_id":"19605","agency_id":"70006","route_short_name":"30","route_long_name":"Arsenal","route_type":3,"route_color":"#FFFFFF","route_text_color":"#000000"}],"agency_name":"Metro St. Louis"},"geometry":{"type":"Point","coordinates":[-90.20007,38.60977]}}]}