{"type":"FeatureCollection","features":[{"type":"Feature","properties":{"agency_name":"Metro St. Louis","route_id":"19612","agency_id":"70006","route_short_name":"41","route_long_name":"Lee","route_type":3,"route_color":"#FFFFFF","route_text_color":"#000000"},"geometry":{"type":"MultiLineString","coordinates":[[[-90.22394,38.72734],[-90.22397,38.72733],[-90.22388,38.7274],[-90.22386,38.72748],[-90.22406,38.72761],[-90.22596,38.72711],[-90.22664,38.72704],[-90.22696,38.72699],[-90.22792,38.72679],[-90.22873,38.72652],[-90.23006,38.72587],[-90.23428,38.72358],[-90.23463,38.7234],[-90.23505,38.72322],[-90.23535,38.72311],[-90.23566,38.72303],[-90.23607,38.72295],[-90.23638,38.72291],[-90.237,38.72285],[-90.23974,38.72266],[-90.2398,38.72277],[-90.23992,38.72285],[-90.24036,38.72287],[-90.24051,38.7228],[-90.24059,38.72272],[-90.24064,38.72259],[-90.24065,38.72248],[-90.24058,38.72234],[-90.24053,38.72227],[-90.24046,38.72222],[-90.24016,38.72216],[-90.24007,38.72217],[-90.23976,38.72187],[-90.2376,38.71832],[-90.23748,38.71816],[-90.2372,38.71785],[-90.23687,38.71755],[-90.23663,38.71736],[-90.23372,38.71531],[-90.24015,38.71595],[-90.24125,38.71607],[-90.24154,38.71529],[-90.24159,38.71506],[-90.24167,38.71485],[-90.24191,38.71454],[-90.24269,38.71371],[-90.24396,38.71243],[-90.24424,38.71211],[-90.24636,38.71],[-90.25248,38.70379],[-90.25273,38.70354],[-90.25291,38.70339],[-90.24999,38.70004],[-90.2493,38.69923],[-90.24859,38.69844],[-90.24796,38.69769],[-90.24539,38.69476],[-90.24977,38.69238],[-90.24782,38.69021],[-90.24716,38.68945],[-90.24478,38.68682],[-90.24643,38.68591],[-90.24669,38.68575],[-90.24686,38.68561],[-90.247,38.68542],[-90.24708,38.68529],[-90.24715,38.68512],[-90.24723,38.68486],[-90.2479,38.68235],[-90.2481,38.6818],[-90.24832,38.68162],[-90.24889,38.6808],[-90.24767,38.68028],[-90.24597,38.67952],[-90.24567,38.67979],[-90.24557,38.67976],[-90.23809,38.67645],[-90.23791,38.67639],[-90.23773,38.67636],[-90.23717,38.67636],[-90.23674,38.67618],[-90.23296,38.67452],[-90.22846,38.67257],[-90.2271,38.67197],[-90.22546,38.67122],[-90.22437,38.67078],[-90.22321,38.67026],[-90.21752,38.6678],[-90.21335,38.66597],[-90.21367,38.66554],[-90.21266,38.66506],[-90.21077,38.66425],[-90.21129,38.66352],[-90.21092,38.66331],[-90.21069,38.66312],[-90.21054,38.66289],[-90.21002,38.66178],[-90.20885,38.65941],[-90.20834,38.65834],[-90.20792,38.65753],[-90.20787,38.65742],[-90.20786,38.65736],[-90.2079,38.65727],[-90.20797,38.6572],[-90.20799,38.65711],[-90.20799,38.65696],[-90.2078,38.65621],[-90.20779,38.6561],[-90.20818,38.65508],[-90.20873,38.65356],[-90.20874,38.65344],[-90.20904,38.65255],[-90.20284,38.65124],[-90.20359,38.64895],[-90.20439,38.6467],[-90.20446,38.64646],[-90.20444,38.64623],[-90.2045,38.64602],[-90.20506,38.64443],[-90.2051,38.64427],[-90.2053,38.64377],[-90.20538,38.64351],[-90.20516,38.64347],[-90.2057,38.64194],[-90.20594,38.64119],[-90.20597,38.64099],[-90.20594,38.64081],[-90.2057,38.64015],[-90.20568,38.64],[-90.2057,38.63986],[-90.20614,38.63861],[-90.2032,38.638],[-90.19949,38.6372],[-90.19879,38.63707],[-90.19733,38.63676],[-90.19778,38.63549],[-90.19819,38.63423],[-90.19841,38.63363],[-90.19851,38.63346],[-90.1987,38.63325],[-90.19895,38.63303],[-90.1992,38.63284],[-90.19938,38.63265],[-90.1995,38.6325],[-90.19959,38.63235],[-90.2,38.63124],[-90.20027,38.63028],[-90.20056,38.62954],[-90.20104,38.62808],[-90.20188,38.62591],[-90.20235,38.62487],[-90.20273,38.62389],[-90.203,38.62398],[-90.20305,38.62403],[-90.20307,38.62409],[-90.20293,38.62434],[-90.20271,38.62491]]]}},{"type":"Feature","properties":{"stop_id":"127","stop_code":"127","stop_name":"THEKLA @ EMERSON SB","stop_desc":"NEAR SIDE THEKLA @ EMERSON SB","wheelchair_boarding":2,"routes":[{"route_id":"19612","agency_id":"70006","route_short_name":"41","route_long_name":"Lee","route_type":3,"route_color":"#FFFFFF","route_text_color":"#000000"}],"agency_name":"Metro St. Louis"},"geometry":{"type":"Point","coordinates":[-90.24555,38.69487]}},{"type":"Feature","properties":{"stop_id":"13240","stop_code":"13240","stop_name":"EMERSON @ THEKLA SB","stop_desc":"FAR SIDE EMERSON @ THEKLA SB","wheelchair_boarding":2,"routes":[{"route_id":"19612","agency_id":"70006","route_short_name":"41","route_long_name":"Lee","route_type":3,"route_color":"#FFFFFF","route_text_color":"#000000"}],"agency_name":"Metro St. Louis"},"geometry":{"type":"Point","coordinates":[-90.2464,38.69424]}},{"type":"Feature","properties":{"stop_id":"14436","stop_code":"14436","stop_name":"RIVERVIEW @ WEST FLORISSANT SB","stop_desc":"FAR SIDE RIVERVIEW @ WEST FLORISSANT SB","wheelchair_boarding":1,"routes":[{"route_id":"19612","agency_id":"70006","route_short_name":"41","route_long_name":"Lee","route_type":3,"route_color":"#FFFFFF","route_text_color":"#000000"}],"agency_name":"Metro St. Louis"},"geometry":{"type":"Point","coordinates":[-90.24978,38.70658]}},{"type":"Feature","properties":{"stop_id":"14499","stop_code":"14499","stop_name":"14TH STREET @ PINE SB","stop_desc":"NEAR SIDE 14TH STREET @ PINE SB","wheelchair_boarding":1,"routes":[{"route_id":"19598","agency_id":"70006","route_short_name":"10","route_long_name":"Gravois-Lindell","route_type":3,"route_color":"#FFFFFF","route_text_color":"#000000"},{"route_id":"19607","agency_id":"70006","route_short_name":"32","route_long_name":"Dr ML King","route_type":3,"route_color":"#FFFFFF","route_text_color":"#000000"},{"route_id":"19611","agency_id":"70006","route_short_name":"40","route_long_name":"Broadway-Halls Ferry","route_type":3,"route_color":"#FFFFFF","route_text_color":"#000000"},{"route_id":"19612","agency_id":"70006","route_short_name":"41","route_long_name":"Lee","route_type":3,"route_color":"#FFFFFF","route_text_color":"#000000"},{"route_id":"19624","agency_id":"70006","route_short_name":"74","route_long_name":"Florissant","route_type":3,"route_color":"#FFFFFF","route_text_color":"#000000"},{"route_id":"19633","agency_id":"70006","route_short_name":"97","route_long_name":"Delmar","route_type":3,"route_color":"#FFFFFF","route_text_color":"#000000"}],"agency_name":"Metro St. Louis"},"geometry":{"type":"Point","coordinates":[-90.20057,38.62983]}},{"type":"Feature","properties":{"stop_id":"14734","stop_code":"14734","stop_name":"THEKLA @ DAVISON SB","stop_desc":"NEAR SIDE THEKLA @ DAVISON SB","wheelchair_boarding":2,"routes":[{"route_id":"19612","agency_id":"70006","route_short_name":"41","route_long_name":"Lee","route_type":3,"route_color":"#FFFFFF","route_text_color":"#000000"}],"agency_name":"Metro St. Louis"},"geometry":{"type":"Point","coordinates":[-90.24687,38.69638]}},{"type":"Feature","properties":{"stop_id":"14735","stop_code":"14735","stop_name":"LEE AVE @ N GRAND BLVD EB","stop_desc":"FAR SIDE LEE AVE @ N GRAND BLVD EB","wheelchair_boarding":1,"routes":[{"route_id":"19612","agency_id":"70006","route_short_name":"41","route_long_name":"Lee","route_type":3,"route_color":"#FFFFFF","route_text_color":"#000000"}],"agency_name":"Metro St. Louis"},"geometry":{"type":"Point","coordinates":[-90.21295,38.66518]}},{"type":"Feature","properties":{"stop_id":"14738","stop_code":"14738","stop_name":"20TH STREET @ BENTON SB","stop_desc":"NEAR SIDE 20TH STREET @ BENTON SB","wheelchair_boarding":2,"routes":[{"route_id":"19612","agency_id":"70006","route_short_name":"41","route_long_name":"Lee","route_type":3,"route_color":"#FFFFFF","route_text_color":"#000000"}],"agency_name":"Metro St. Louis"},"geometry":{"type":"Point","coordinates":[-90.20379,38.64863]}},{"type":"Feature","properties":{"stop_id":"14825","stop_code":"14825","stop_name":"14TH STREET @ DR ML KING SB","stop_desc":"FAR SIDE 14TH STREET @ DR ML KING SB","wheelchair_boarding":1,"routes":[{"route_id":"19612","agency_id":"70006","route_short_name":"41","route_long_name":"Lee","route_type":3,"route_color":"#FFFFFF","route_text_color":"#000000"},{"route_id":"19624","agency_id":"70006","route_short_name":"74","route_long_name":"Florissant","route_type":3,"route_color":"#FFFFFF","route_text_color":"#000000"},{"route_id":"19633","agency_id":"70006","route_short_name":"97","route_long_name":"Delmar","route_type":3,"route_color":"#FFFFFF","route_text_color":"#000000"}],"agency_name":"Metro St. Louis"},"geometry":{"type":"Point","coordinates":[-90.19819,38.6345]}},{"type":"Feature","properties":{"stop_id":"14866","stop_code":"14866","stop_name":"RIVERVIEW @ EMMA SB","stop_desc":"NEAR SIDE RIVERVIEW @ EMMA SB","wheelchair_boarding":1,"routes":[{"route_id":"19612","agency_id":"70006","route_short_name":"41","route_long_name":"Lee","route_type":3,"route_color":"#FFFFFF","route_text_color":"#000000"}],"agency_name":"Metro St. Louis"},"geometry":{"type":"Point","coordinates":[-90.25165,38.70464]}},{"type":"Feature","properties":{"stop_id":"15230","stop_code":"15230","stop_name":"MCLARAN @ RIVERVIEW WB","stop_desc":"NEAR SIDE MCLARAN @ RIVERVIEW WB","wheelchair_boarding":1,"routes":[{"route_id":"19612","agency_id":"70006","route_short_name":"41","route_long_name":"Lee","route_type":3,"route_color":"#FFFFFF","route_text_color":"#000000"}],"agency_name":"Metro St. Louis"},"geometry":{"type":"Point","coordinates":[-90.24095,38.71609]}},{"type":"Feature","properties":{"stop_id":"15489","stop_code":"15489","stop_name":"8937 RIVERVIEW WB","stop_desc":"MID-BLOCK 8937 RIVERVIEW WB","wheelchair_boarding":2,"routes":[{"route_id":"19601","agency_id":"70006","route_short_name":"16","route_long_name":"City Limits","route_type":3,"route_color":"#FFFFFF","route_text_color":"#000000"},{"route_id":"19611","agency_id":"70006","route_short_name":"40","route_long_name":"Broadway-Halls Ferry","route_type":3,"route_color":"#FFFFFF","route_text_color":"#000000"},{"route_id":"19612","agency_id":"70006","route_short_name":"41","route_long_name":"Lee","route_type":3,"route_color":"#FFFFFF","route_text_color":"#000000"},{"route_id":"19619","agency_id":"70006","route_short_name":"60","route_long_name":"Shepley-Lilac","route_type":3,"route_color":"#FFFFFF","route_text_color":"#000000"},{"route_id":"19620","agency_id":"70006","route_short_name":"61","route_long_name":"Chambers Rd","route_type":3,"route_color":"#FFFFFF","route_text_color":"#000000"},{"route_id":"19621","agency_id":"70006","route_short_name":"64","route_long_name":"Lucas-Hunt","route_type":3,"route_color":"#FFFFFF","route_text_color":"#000000"},{"route_id":"19627","agency_id":"70006","route_short_name":"78","route_long_name":"Bellefontaine","route_type":3,"route_color":"#FFFFFF","route_text_color":"#000000"},{"route_id":"19629","agency_id":"70006","route_short_name":"90","route_long_name":"Hampton","route_type":3,"route_color":"#FFFFFF","route_text_color":"#000000"}],"agency_name":"Metro St. Louis"},"geometry":{"type":"Point","coordinates":[-90.22641,38.72709]}},{"type":"Feature","properties":{"stop_id":"1579","stop_code":"1579","stop_name":"14TH STREET @ LOCUST SB","stop_desc":"NEAR SIDE 14TH STREET @ LOCUST SB","wheelchair_boarding":1,"routes":[{"route_id":"19611","agency_id":"70006","route_short_name":"40","route_long_name":"Broadway-Halls Ferry","route_type":3,"route_color":"#FFFFFF","route_text_color":"#000000"},{"route_id":"19612","agency_id":"70006","route_short_name":"41","route_long_name":"Lee","route_type":3,"route_color":"#FFFFFF","route_text_color":"#000000"},{"route_id":"19624","agency_id":"70006","route_short_name":"74","route_long_name":"Florissant","route_type":3,"route_color":"#FFFFFF","route_text_color":"#000000"},{"route_id":"19633","agency_id":"70006","route_short_name":"97","route_long_name":"Delmar","route_type":3,"route_color":"#FFFFFF","route_text_color":"#000000"}],"agency_name":"Metro St. Louis"},"geometry":{"type":"Point","coordinates":[-90.20017,38.63106]}},{"type":"Feature","properties":{"stop_id":"15948","stop_code":"15948","stop_name":"CARR @ SELBY PLACE EB","stop_desc":"NEAR SIDE CARR @ SELBY PLACE EB","wheelchair_boarding":2,"routes":[{"route_id":"19612","agency_id":"70006","route_short_name":"41","route_long_name":"Lee","route_type":3,"route_color":"#FFFFFF","route_text_color":"#000000"}],"agency_name":"Metro St. Louis"},"geometry":{"type":"Point","coordinates":[-90.19981,38.63731]}},{"type":"Feature","properties":{"stop_id":"2277","stop_code":"2277","stop_name":"KINGSHIGHWAY @ BIRCHER SB","stop_desc":"FAR SIDE KINGSHIGHWAY @ BIRCHER SB","wheelchair_boarding":2,"routes":[{"route_id":"19612","agency_id":"70006","route_short_name":"41","route_long_name":"Lee","route_type":3,"route_color":"#FFFFFF","route_text_color":"#000000"},{"route_id":"19632","agency_id":"70006","route_short_name":"95","route_long_name":"Kingshighway","route_type":3,"route_color":"#FFFFFF","route_text_color":"#000000"}],"agency_name":"Metro St. Louis"},"geometry":{"type":"Point","coordinates":[-90.24719,38.68526]}},{"type":"Feature","properties":{"stop_id":"2280","stop_code":"2280","stop_name":"KINGSHIGHWAY @ PENROSE SB","stop_desc":"NEAR SIDE KINGSHIGHWAY @ PENROSE SB","wheelchair_boarding":1,"routes":[{"route_id":"19612","agency_id":"70006","route_short_name":"41","route_long_name":"Lee","route_type":3,"route_color":"#FFFFFF","route_text_color":"#000000"},{"route_id":"19632","agency_id":"70006","route_short_name":"95","route_long_name":"Kingshighway","route_type":3,"route_color":"#FFFFFF","route_text_color":"#000000"}],"agency_name":"Metro St. Louis"},"geometry":{"type":"Point","coordinates":[-90.24778,38.68323]}},{"type":"Feature","properties":{"stop_id":"3222","stop_code":"3222","stop_name":"MCLARAN @ ANNETTA WB","stop_desc":"NEAR SIDE MCLARAN @ ANNETTA WB","wheelchair_boarding":2,"routes":[{"route_id":"19612","agency_id":"70006","route_short_name":"41","route_long_name":"Lee","route_type":3,"route_color":"#FFFFFF","route_text_color":"#000000"}],"agency_name":"Metro St. Louis"},"geometry":{"type":"Point","coordinates":[-90.23783,38.71579]}},{"type":"Feature","properties":{"stop_id":"6236","stop_code":"6236","stop_name":"25TH STREET @ DODIER SB","stop_desc":"NEAR SIDE 25TH STREET @ DODIER SB","wheelchair_boarding":2,"routes":[{"route_id":"19612","agency_id":"70006","route_short_name":"41","route_long_name":"Lee","route_type":3,"route_color":"#FFFFFF","route_text_color":"#000000"}],"agency_name":"Metro St. Louis"},"geometry":{"type":"Point","coordinates":[-90.2084,38.65446]}},{"type":"Feature","properties":{"stop_id":"6238","stop_code":"6238","stop_name":"25TH STREET @ NATURAL BRIDGE SB","stop_desc":"FAR SIDE 25TH STREET @ NATURAL BRIDGE SB","wheelchair_boarding":2,"routes":[{"route_id":"19612","agency_id":"70006","route_short_name":"41","route_long_name":"Lee","route_type":3,"route_color":"#FFFFFF","route_text_color":"#000000"}],"agency_name":"Metro St. Louis"},"geometry":{"type":"Point","coordinates":[-90.20795,38.65672]}},{"type":"Feature","properties":{"stop_id":"6244","stop_code":"6244","stop_name":"LEE AVE @ PLEASANT EB","stop_desc":"FAR SIDE LEE AVE @ PLEASANT EB","wheelchair_boarding":2,"routes":[{"route_id":"19612","agency_id":"70006","route_short_name":"41","route_long_name":"Lee","route_type":3,"route_color":"#FFFFFF","route_text_color":"#000000"}],"agency_name":"Metro St. Louis"},"geometry":{"type":"Point","coordinates":[-90.21148,38.66453]}},{"type":"Feature","properties":{"stop_id":"6272","stop_code":"6272","stop_name":"LILLIAN @ EMERSON SB","stop_desc":"FAR SIDE LILLIAN @ EMERSON SB","wheelchair_boarding":1,"routes":[{"route_id":"19612","agency_id":"70006","route_short_name":"41","route_long_name":"Lee","route_type":3,"route_color":"#FFFFFF","route_text_color":"#000000"}],"agency_name":"Metro St. Louis"},"geometry":{"type":"Point","coordinates":[-90.24949,38.69197]}},{"type":"Feature","properties":{"stop_id":"6307","stop_code":"6307","stop_name":"RIVERVIEW @ SWITZER SB","stop_desc":"NEAR SIDE RIVERVIEW @ SWITZER SB","wheelchair_boarding":1,"routes":[{"route_id":"19612","agency_id":"70006","route_short_name":"41","route_long_name":"Lee","route_type":3,"route_color":"#FFFFFF","route_text_color":"#000000"}],"agency_name":"Metro St. Louis"},"geometry":{"type":"Point","coordinates":[-90.2418,38.71467]}},{"type":"Feature","properties":{"stop_id":"6308","stop_code":"6308","stop_name":"RIVERVIEW @ ETON SB","stop_desc":"NEAR SIDE RIVERVIEW @ ETON SB","wheelchair_boarding":2,"routes":[{"route_id":"19612","agency_id":"70006","route_short_name":"41","route_long_name":"Lee","route_type":3,"route_color":"#FFFFFF","route_text_color":"#000000"}],"agency_name":"Metro St. Louis"},"geometry":{"type":"Point","coordinates":[-90.24333,38.71312]}},{"type":"Feature","properties":{"stop_id":"6310","stop_code":"6310","stop_name":"RIVERVIEW @ VIVIAN SB","stop_desc":"FAR SIDE RIVERVIEW @ VIVIAN SB","wheelchair_boarding":2,"routes":[{"route_id":"19612","agency_id":"70006","route_short_name":"41","route_long_name":"Lee","route_type":3,"route_color":"#FFFFFF","route_text_color":"#000000"}],"agency_name":"Metro St. Louis"},"geometry":{"type":"Point","coordinates":[-90.2454,38.71098]}},{"type":"Feature","properties":{"stop_id":"6312","stop_code":"6312","stop_name":"THEKLA @ RIVERVIEW SB","stop_desc":"FAR SIDE THEKLA @ RIVERVIEW SB","wheelchair_boarding":1,"routes":[{"route_id":"19612","agency_id":"70006","route_short_name":"41","route_long_name":"Lee","route_type":3,"route_color":"#FFFFFF","route_text_color":"#000000"}],"agency_name":"Metro St. Louis"},"geometry":{"type":"Point","coordinates":[-90.25257,38.70289]}},{"type":"Feature","properties":{"stop_id":"6313","stop_code":"6313","stop_name":"THEKLA @ GILMORE SB","stop_desc":"NEAR SIDE THEKLA @ GILMORE SB","wheelchair_boarding":2,"routes":[{"route_id":"19612","agency_id":"70006","route_short_name":"41","route_long_name":"Lee","route_type":3,"route_color":"#FFFFFF","route_text_color":"#000000"}],"agency_name":"Metro St. Louis"},"geometry":{"type":"Point","coordinates":[-90.25157,38.70178]}},{"type":"Feature","properties":{"stop_id":"6316","stop_code":"6316","stop_name":"THELKA @ PLOVER SB","stop_desc":"NEAR SIDE THELKA @ PLOVER SB","wheelchair_boarding":2,"routes":[{"route_id":"19612","agency_id":"70006","route_short_name":"41","route_long_name":"Lee","route_type":3,"route_color":"#FFFFFF","route_text_color":"#000000"}],"agency_name":"Metro St. Louis"},"geometry":{"type":"Point","coordinates":[-90.24945,38.69934]}},{"type":"Feature","properties":{"stop_id":"6317","stop_code":"6317","stop_name":"THEKLA @ THRUSH SB","stop_desc":"FAR SIDE THEKLA @ THRUSH SB","wheelchair_boarding":2,"routes":[{"route_id":"19612","agency_id":"70006","route_short_name":"41","route_long_name":"Lee","route_type":3,"route_color":"#FFFFFF","route_text_color":"#000000"}],"agency_name":"Metro St. Louis"},"geometry":{"type":"Point","coordinates":[-90.24827,38.698]}},{"type":"Feature","properties":{"stop_id":"6325","stop_code":"6325","stop_name":"LILLIAN @ UNION SB","stop_desc":"NEAR SIDE LILLIAN @ UNION SB","wheelchair_boarding":1,"routes":[{"route_id":"19612","agency_id":"70006","route_short_name":"41","route_long_name":"Lee","route_type":3,"route_color":"#FFFFFF","route_text_color":"#000000"}],"agency_name":"Metro St. Louis"},"geometry":{"type":"Point","coordinates":[-90.24806,38.69039]}},{"type":"Feature","properties":{"stop_id":"6327","stop_code":"6327","stop_name":"LILLIAN @ RUSKIN SB","stop_desc":"FAR SIDE LILLIAN @ RUSKIN SB","wheelchair_boarding":1,"routes":[{"route_id":"19612","agency_id":"70006","route_short_name":"41","route_long_name":"Lee","route_type":3,"route_color":"#FFFFFF","route_text_color":"#000000"}],"agency_name":"Metro St. Louis"},"geometry":{"type":"Point","coordinates":[-90.24665,38.6888]}},{"type":"Feature","properties":{"stop_id":"6328","stop_code":"6328","stop_name":"LILLIAN @ KINGSHIGHWAY SB","stop_desc":"NEAR SIDE LILLIAN @ KINGSHIGHWAY SB","wheelchair_boarding":1,"routes":[{"route_id":"19612","agency_id":"70006","route_short_name":"41","route_long_name":"Lee","route_type":3,"route_color":"#FFFFFF","route_text_color":"#000000"}],"agency_name":"Metro St. Louis"},"geometry":{"type":"Point","coordinates":[-90.24497,38.68695]}},{"type":"Feature","properties":{"stop_id":"6329","stop_code":"6329","stop_name":"LEE @ KINGSHIGHWAY EB","stop_desc":"FAR SIDE LEE @ KINGSHIGHWAY EB","wheelchair_boarding":2,"routes":[{"route_id":"19612","agency_id":"70006","route_short_name":"41","route_long_name":"Lee","route_type":3,"route_color":"#FFFFFF","route_text_color":"#000000"}],"agency_name":"Metro St. Louis"},"geometry":{"type":"Point","coordinates":[-90.24832,38.68051]}},{"type":"Feature","properties":{"stop_id":"6330","stop_code":"6330","stop_name":"LEE @ EUCLID EB","stop_desc":"NEAR SIDE LEE @ EUCLID EB","wheelchair_boarding":2,"routes":[{"route_id":"19612","agency_id":"70006","route_short_name":"41","route_long_name":"Lee","route_type":3,"route_color":"#FFFFFF","route_text_color":"#000000"}],"agency_name":"Metro St. Louis"},"geometry":{"type":"Point","coordinates":[-90.24601,38.67975]}},{"type":"Feature","properties":{"stop_id":"6331","stop_code":"6331","stop_name":"LEE @ SHREVE EB","stop_desc":"NEAR SIDE LEE @ SHREVE EB","wheelchair_boarding":1,"routes":[{"route_id":"19612","agency_id":"70006","route_short_name":"41","route_long_name":"Lee","route_type":3,"route_color":"#FFFFFF","route_text_color":"#000000"}],"agency_name":"Metro St. Louis"},"geometry":{"type":"Point","coordinates":[-90.24281,38.67851]}},{"type":"Feature","properties":{"stop_id":"6333","stop_code":"6333","stop_name":"LEE @ CORA EB","stop_desc":"FAR SIDE LEE @ CORA EB","wheelchair_boarding":2,"routes":[{"route_id":"19612","agency_id":"70006","route_short_name":"41","route_long_name":"Lee","route_type":3,"route_color":"#FFFFFF","route_text_color":"#000000"}],"agency_name":"Metro St. Louis"},"geometry":{"type":"Point","coordinates":[-90.23883,38.67672]}},{"type":"Feature","properties":{"stop_id":"6334","stop_code":"6334","stop_name":"LEE @ TAYLOR EB","stop_desc":"NEAR SIDE LEE @ TAYLOR EB","wheelchair_boarding":1,"routes":[{"route_id":"19612","agency_id":"70006","route_short_name":"41","route_long_name":"Lee","route_type":3,"route_color":"#FFFFFF","route_text_color":"#000000"}],"agency_name":"Metro St. Louis"},"geometry":{"type":"Point","coordinates":[-90.23698,38.67622]}},{"type":"Feature","properties":{"stop_id":"6335","stop_code":"6335","stop_name":"LEE @ CAMELLIA EB","stop_desc":"NEAR SIDE LEE @ CAMELLIA EB","wheelchair_boarding":2,"routes":[{"route_id":"19612","agency_id":"70006","route_short_name":"41","route_long_name":"Lee","route_type":3,"route_color":"#FFFFFF","route_text_color":"#000000"}],"agency_name":"Metro St. Louis"},"geometry":{"type":"Point","coordinates":[-90.23604,38.67581]}},{"type":"Feature","properties":{"stop_id":"6336","stop_code":"6336","stop_name":"LEE @ NEWSTEAD EB","stop_desc":"NEAR SIDE LEE @ NEWSTEAD EB","wheelchair_boarding":1,"routes":[{"route_id":"19612","agency_id":"70006","route_short_name":"41","route_long_name":"Lee","route_type":3,"route_color":"#FFFFFF","route_text_color":"#000000"}],"agency_name":"Metro St. Louis"},"geometry":{"type":"Point","coordinates":[-90.23337,38.67465]}},{"type":"Feature","properties":{"stop_id":"6338","stop_code":"6338","stop_name":"LEE @ TURNER EB","stop_desc":"NEAR SIDE LEE @ TURNER EB","wheelchair_boarding":2,"routes":[{"route_id":"19612","agency_id":"70006","route_short_name":"41","route_long_name":"Lee","route_type":3,"route_color":"#FFFFFF","route_text_color":"#000000"}],"agency_name":"Metro St. Louis"},"geometry":{"type":"Point","coordinates":[-90.23027,38.67331]}},{"type":"Feature","properties":{"stop_id":"6339","stop_code":"6339","stop_name":"LEE @ RED BUD EB","stop_desc":"NEAR SIDE LEE @ RED BUD EB","wheelchair_boarding":2,"routes":[{"route_id":"19612","agency_id":"70006","route_short_name":"41","route_long_name":"Lee","route_type":3,"route_color":"#FFFFFF","route_text_color":"#000000"}],"agency_name":"Metro St. Louis"},"geometry":{"type":"Point","coordinates":[-90.22864,38.67257]}},{"type":"Feature","properties":{"stop_id":"6341","stop_code":"6341","stop_name":"LEE @ FAIR EB","stop_desc":"FAR SIDE LEE @ FAIR EB","wheelchair_boarding":1,"routes":[{"route_id":"19612","agency_id":"70006","route_short_name":"41","route_long_name":"Lee","route_type":3,"route_color":"#FFFFFF","route_text_color":"#000000"}],"agency_name":"Metro St. Louis"},"geometry":{"type":"Point","coordinates":[-90.22528,38.6711]}},{"type":"Feature","properties":{"stop_id":"6342","stop_code":"6342","stop_name":"LEE @ CLAY EB","stop_desc":"NEAR SIDE LEE @ CLAY EB","wheelchair_boarding":2,"routes":[{"route_id":"19612","agency_id":"70006","route_short_name":"41","route_long_name":"Lee","route_type":3,"route_color":"#FFFFFF","route_text_color":"#000000"}],"agency_name":"Metro St. Louis"},"geometry":{"type":"Point","coordinates":[-90.22344,38.67021]}},{"type":"Feature","properties":{"stop_id":"6343","stop_code":"6343","stop_name":"LEE @ WARNE EB","stop_desc":"FAR SIDE LEE @ WARNE EB","wheelchair_boarding":2,"routes":[{"route_id":"19612","agency_id":"70006","route_short_name":"41","route_long_name":"Lee","route_type":3,"route_color":"#FFFFFF","route_text_color":"#000000"}],"agency_name":"Metro St. Louis"},"geometry":{"type":"Point","coordinates":[-90.22101,38.66924]}},{"type":"Feature","properties":{"stop_id":"6344","stop_code":"6344","stop_name":"LEE @ PRAIRIE EB","stop_desc":"NEAR SIDE LEE @ PRAIRIE EB","wheelchair_boarding":2,"routes":[{"route_id":"19612","agency_id":"70006","route_short_name":"41","route_long_name":"Lee","route_type":3,"route_color":"#FFFFFF","route_text_color":"#000000"}],"agency_name":"Metro St. Louis"},"geometry":{"type":"Point","coordinates":[-90.2177,38.66779]}},{"type":"Feature","properties":{"stop_id":"6346","stop_code":"6346","stop_name":"LEE @ OBEAR EB","stop_desc":"NEAR SIDE LEE @ OBEAR EB","wheelchair_boarding":2,"routes":[{"route_id":"19612","agency_id":"70006","route_short_name":"41","route_long_name":"Lee","route_type":3,"route_color":"#FFFFFF","route_text_color":"#000000"}],"agency_name":"Metro St. Louis"},"geometry":{"type":"Point","coordinates":[-90.21543,38.66682]}},{"type":"Feature","properties":{"stop_id":"6347","stop_code":"6347","stop_name":"LEE AVE @ N GRAND BLVD EB","stop_desc":"NEAR SIDE LEE AVE @ N GRAND BLVD EB","wheelchair_boarding":1,"routes":[{"route_id":"19612","agency_id":"70006","route_short_name":"41","route_long_name":"Lee","route_type":3,"route_color":"#FFFFFF","route_text_color":"#000000"}],"agency_name":"Metro St. Louis"},"geometry":{"type":"Point","coordinates":[-90.21375,38.66607]}},{"type":"Feature","properties":{"stop_id":"6351","stop_code":"6351","stop_name":"GROVE @ LEE SB","stop_desc":"FAR SIDE GROVE @ LEE SB","wheelchair_boarding":2,"routes":[{"route_id":"19612","agency_id":"70006","route_short_name":"41","route_long_name":"Lee","route_type":3,"route_color":"#FFFFFF","route_text_color":"#000000"}],"agency_name":"Metro St. Louis"},"geometry":{"type":"Point","coordinates":[-90.21093,38.66407]}},{"type":"Feature","properties":{"stop_id":"6352","stop_code":"6352","stop_name":"KOSSUTH @ GROVE EB","stop_desc":"FAR SIDE KOSSUTH @ GROVE EB","wheelchair_boarding":2,"routes":[{"route_id":"19612","agency_id":"70006","route_short_name":"41","route_long_name":"Lee","route_type":3,"route_color":"#FFFFFF","route_text_color":"#000000"}],"agency_name":"Metro St. Louis"},"geometry":{"type":"Point","coordinates":[-90.21103,38.66331]}},{"type":"Feature","properties":{"stop_id":"6353","stop_code":"6353","stop_name":"25TH STREET @ NEWHOUSE SB","stop_desc":"NEAR SIDE 25TH STREET @ NEWHOUSE SB","wheelchair_boarding":2,"routes":[{"route_id":"19612","agency_id":"70006","route_short_name":"41","route_long_name":"Lee","route_type":3,"route_color":"#FFFFFF","route_text_color":"#000000"}],"agency_name":"Metro St. Louis"},"geometry":{"type":"Point","coordinates":[-90.21018,38.662]}},{"type":"Feature","properties":{"stop_id":"6355","stop_code":"6355","stop_name":"25TH STREET @ FARRAR SB","stop_desc":"NEAR SIDE 25TH STREET @ FARRAR SB","wheelchair_boarding":2,"routes":[{"route_id":"19612","agency_id":"70006","route_short_name":"41","route_long_name":"Lee","route_type":3,"route_color":"#FFFFFF","route_text_color":"#000000"}],"agency_name":"Metro St. Louis"},"geometry":{"type":"Point","coordinates":[-90.20902,38.6596]}},{"type":"Feature","properties":{"stop_id":"6356","stop_code":"6356","stop_name":"25TH STREET @ SALISBURY SB","stop_desc":"NEAR SIDE 25TH STREET @ SALISBURY SB","wheelchair_boarding":2,"routes":[{"route_id":"19612","agency_id":"70006","route_short_name":"41","route_long_name":"Lee","route_type":3,"route_color":"#FFFFFF","route_text_color":"#000000"}],"agency_name":"Metro St. Louis"},"geometry":{"type":"Point","coordinates":[-90.20844,38.65845]}},{"type":"Feature","properties":{"stop_id":"6362","stop_code":"6362","stop_name":"ST. LOUIS @ 23RD STREET EB","stop_desc":"NEAR SIDE ST. LOUIS @ 23RD STREET EB","wheelchair_boarding":2,"routes":[{"route_id":"19603","agency_id":"70006","route_short_name":"19","route_long_name":"St Louis Ave","route_type":3,"route_color":"#FFFFFF","route_text_color":"#000000"},{"route_id":"19612","agency_id":"70006","route_short_name":"41","route_long_name":"Lee","route_type":3,"route_color":"#FFFFFF","route_text_color":"#000000"}],"agency_name":"Metro St. Louis"},"geometry":{"type":"Point","coordinates":[-90.20747,38.65212]}},{"type":"Feature","properties":{"stop_id":"6369","stop_code":"6369","stop_name":"20TH STREET @ MADISON SB","stop_desc":"NEAR SIDE 20TH STREET @ MADISON SB","wheelchair_boarding":1,"routes":[{"route_id":"19612","agency_id":"70006","route_short_name":"41","route_long_name":"Lee","route_type":3,"route_color":"#FFFFFF","route_text_color":"#000000"}],"agency_name":"Metro St. Louis"},"geometry":{"type":"Point","coordinates":[-90.20449,38.64645]}},{"type":"Feature","properties":{"stop_id":"6371","stop_code":"6371","stop_name":"20TH STREET @ CASS SB","stop_desc":"FAR SIDE 20TH STREET @ CASS SB","wheelchair_boarding":1,"routes":[{"route_id":"19612","agency_id":"70006","route_short_name":"41","route_long_name":"Lee","route_type":3,"route_color":"#FFFFFF","route_text_color":"#000000"}],"agency_name":"Metro St. Louis"},"geometry":{"type":"Point","coordinates":[-90.20529,38.64328]}},{"type":"Feature","properties":{"stop_id":"6373","stop_code":"6373","stop_name":"20TH STREET @ OFALLON SB","stop_desc":"FAR SIDE 20TH STREET @ OFALLON SB","wheelchair_boarding":2,"routes":[{"route_id":"19612","agency_id":"70006","route_short_name":"41","route_long_name":"Lee","route_type":3,"route_color":"#FFFFFF","route_text_color":"#000000"}],"agency_name":"Metro St. Louis"},"geometry":{"type":"Point","coordinates":[-90.20606,38.64104]}},{"type":"Feature","properties":{"stop_id":"6649","stop_code":"6649","stop_name":"RIVERVIEW TRANSIT CENTER","wheelchair_boarding":1,"routes":[{"route_id":"19601","agency_id":"70006","route_short_name":"16","route_long_name":"City Limits","route_type":3,"route_color":"#FFFFFF","route_text_color":"#000000"},{"route_id":"19611","agency_id":"70006","route_short_name":"40","route_long_name":"Broadway-Halls Ferry","route_type":3,"route_color":"#FFFFFF","route_text_color":"#000000"},{"route_id":"19612","agency_id":"70006","route_short_name":"41","route_long_name":"Lee","route_type":3,"route_color":"#FFFFFF","route_text_color":"#000000"},{"route_id":"19619","agency_id":"70006","route_short_name":"60","route_long_name":"Shepley-Lilac","route_type":3,"route_color":"#FFFFFF","route_text_color":"#000000"}],"agency_name":"Metro St. Louis"},"geometry":{"type":"Point","coordinates":[-90.22406,38.7273]}},{"type":"Feature","properties":{"stop_id":"6651","stop_code":"6651","stop_name":"RIVERVIEW @ BROADWAY WB","stop_desc":"FAR SIDE RIVERVIEW @ BROADWAY WB","wheelchair_boarding":1,"routes":[{"route_id":"19611","agency_id":"70006","route_short_name":"40","route_long_name":"Broadway-Halls Ferry","route_type":3,"route_color":"#FFFFFF","route_text_color":"#000000"},{"route_id":"19612","agency_id":"70006","route_short_name":"41","route_long_name":"Lee","route_type":3,"route_color":"#FFFFFF","route_text_color":"#000000"},{"route_id":"19621","agency_id":"70006","route_short_name":"64","route_long_name":"Lucas-Hunt","route_type":3,"route_color":"#FFFFFF","route_text_color":"#000000"},{"route_id":"19629","agency_id":"70006","route_short_name":"90","route_long_name":"Hampton","route_type":3,"route_color":"#FFFFFF","route_text_color":"#000000"}],"agency_name":"Metro St. Louis"},"geometry":{"type":"Point","coordinates":[-90.22827,38.7267]}},{"type":"Feature","properties":{"stop_id":"6652","stop_code":"6652","stop_name":"RIVERVIEW @ CHURCH WB","stop_desc":"FAR SIDE RIVERVIEW @ CHURCH WB","wheelchair_boarding":2,"routes":[{"route_id":"19611","agency_id":"70006","route_short_name":"40","route_long_name":"Broadway-Halls Ferry","route_type":3,"route_color":"#FFFFFF","route_text_color":"#000000"},{"route_id":"19612","agency_id":"70006","route_short_name":"41","route_long_name":"Lee","route_type":3,"route_color":"#FFFFFF","route_text_color":"#000000"},{"route_id":"19621","agency_id":"70006","route_short_name":"64","route_long_name":"Lucas-Hunt","route_type":3,"route_color":"#FFFFFF","route_text_color":"#000000"},{"route_id":"19629","agency_id":"70006","route_short_name":"90","route_long_name":"Hampton","route_type":3,"route_color":"#FFFFFF","route_text_color":"#000000"}],"agency_name":"Metro St. Louis"},"geometry":{"type":"Point","coordinates":[-90.23187,38.72493]}},{"type":"Feature","properties":{"stop_id":"6653","stop_code":"6653","stop_name":"RIVERVIEW @ NEWBY WB","stop_desc":"NEAR SIDE RIVERVIEW @ NEWBY WB","wheelchair_boarding":2,"routes":[{"route_id":"19611","agency_id":"70006","route_short_name":"40","route_long_name":"Broadway-Halls Ferry","route_type":3,"route_color":"#FFFFFF","route_text_color":"#000000"},{"route_id":"19612","agency_id":"70006","route_short_name":"41","route_long_name":"Lee","route_type":3,"route_color":"#FFFFFF","route_text_color":"#000000"},{"route_id":"19621","agency_id":"70006","route_short_name":"64","route_long_name":"Lucas-Hunt","route_type":3,"route_color":"#FFFFFF","route_text_color":"#000000"},{"route_id":"19629","agency_id":"70006","route_short_name":"90","route_long_name":"Hampton","route_type":3,"route_color":"#FFFFFF","route_text_color":"#000000"}],"agency_name":"Metro St. Louis"},"geometry":{"type":"Point","coordinates":[-90.2345,38.72357]}},{"type":"Feature","properties":{"stop_id":"6655","stop_code":"6655","stop_name":"RIVERVIEW @ HALLS FERRY CIRCLE WB","stop_desc":"NEAR SIDE RIVERVIEW @ HALLS FERRY CIRCLE WB","wheelchair_boarding":2,"routes":[{"route_id":"19611","agency_id":"70006","route_short_name":"40","route_long_name":"Broadway-Halls Ferry","route_type":3,"route_color":"#FFFFFF","route_text_color":"#000000"},{"route_id":"19612","agency_id":"70006","route_short_name":"41","route_long_name":"Lee","route_type":3,"route_color":"#FFFFFF","route_text_color":"#000000"},{"route_id":"19621","agency_id":"70006","route_short_name":"64","route_long_name":"Lucas-Hunt","route_type":3,"route_color":"#FFFFFF","route_text_color":"#000000"},{"route_id":"19629","agency_id":"70006","route_short_name":"90","route_long_name":"Hampton","route_type":3,"route_color":"#FFFFFF","route_text_color":"#000000"}],"agency_name":"Metro St. Louis"},"geometry":{"type":"Point","coordinates":[-90.23936,38.72268]}},{"type":"Feature","properties":{"stop_id":"6778","stop_code":"6778","stop_name":"HALLS FERRY @ HOWELL SB","stop_desc":"NEAR SIDE HALLS FERRY @ HOWELL SB","wheelchair_boarding":1,"routes":[{"route_id":"19612","agency_id":"70006","route_short_name":"41","route_long_name":"Lee","route_type":3,"route_color":"#FFFFFF","route_text_color":"#000000"}],"agency_name":"Metro St. Louis"},"geometry":{"type":"Point","coordinates":[-90.23964,38.72161]}},{"type":"Feature","properties":{"stop_id":"6780","stop_code":"6780","stop_name":"HALLS FERRY @ HORNSBY SB","stop_desc":"NEAR SIDE HALLS FERRY @ HORNSBY SB","wheelchair_boarding":2,"routes":[{"route_id":"19612","agency_id":"70006","route_short_name":"41","route_long_name":"Lee","route_type":3,"route_color":"#FFFFFF","route_text_color":"#000000"}],"agency_name":"Metro St. Louis"},"geometry":{"type":"Point","coordinates":[-90.2383,38.71938]}},{"type":"Feature","properties":{"stop_id":"6781","stop_code":"6781","stop_name":"HALLS FERRY @ VERONICA SB","stop_desc":"MID-BLOCK HALLS FERRY @ VERONICA SB","wheelchair_boarding":1,"routes":[{"route_id":"19612","agency_id":"70006","route_short_name":"41","route_long_name":"Lee","route_type":3,"route_color":"#FFFFFF","route_text_color":"#000000"}],"agency_name":"Metro St. Louis"},"geometry":{"type":"Point","coordinates":[-90.23709,38.7177]}},{"type":"Feature","properties":{"stop_id":"6782","stop_code":"6782","stop_name":"HALLS FERRY @ NEWBY SB","stop_desc":"FAR SIDE HALLS FERRY @ NEWBY SB","wheelchair_boarding":1,"routes":[{"route_id":"19612","agency_id":"70006","route_short_name":"41","route_long_name":"Lee","route_type":3,"route_color":"#FFFFFF","route_text_color":"#000000"}],"agency_name":"Metro St. Louis"},"geometry":{"type":"Point","coordinates":[-90.23549,38.71652]}},{"type":"Feature","properties":{"stop_id":"759","stop_code":"759","stop_name":"14TH STREET @ WASHINGTON SB","stop_desc":"FAR SIDE 14TH STREET @ WASHINGTON SB","wheelchair_boarding":2,"routes":[{"route_id":"19612","agency_id":"70006","route_short_name":"41","route_long_name":"Lee","route_type":3,"route_color":"#FFFFFF","route_text_color":"#000000"},{"route_id":"19624","agency_id":"70006","route_short_name":"74","route_long_name":"Florissant","route_type":3,"route_color":"#FFFFFF","route_text_color":"#000000"},{"route_id":"19633","agency_id":"70006","route_short_name":"97","route_long_name":"Delmar","route_type":3,"route_color":"#FFFFFF","route_text_color":"#000000"}],"agency_name":"Metro St. Louis"},"geometry":{"type":"Point","coordinates":[-90.1998,38.63214]}},{"type":"Feature","properties":{"stop_id":"7852","stop_code":"7852","stop_name":"CIVIC CENTER TRANSIT CENTER","wheelchair_boarding":1,"routes":[{"route_id":"19611","agency_id":"70006","route_short_name":"40","route_long_name":"Broadway-Halls Ferry","route_type":3,"route_color":"#FFFFFF","route_text_color":"#000000"},{"route_id":"19612","agency_id":"70006","route_short_name":"41","route_long_name":"Lee","route_type":3,"route_color":"#FFFFFF","route_text_color":"#000000"},{"route_id":"19624","agency_id":"70006","route_short_name":"74","route_long_name":"Florissant","route_type":3,"route_color":"#FFFFFF","route_text_color":"#000000"}],"agency_name":"Metro St. Louis"},"geometry":{"type":"Point","coordinates":[-90.20277,38.62528]}},{"type":"Feature","properties":{"stop_id":"7855","stop_code":"7855","stop_name":"14TH STREET @ MARKET SB","stop_desc":"MID-BLOCK 14TH STREET @ MARKET SB","wheelchair_boarding":1,"routes":[{"route_id":"19594","agency_id":"70006","route_short_name":"4","route_long_name":"Natural Bridge","route_type":3,"route_color":"#FFFFFF","route_text_color":"#000000"},{"route_id":"19598","agency_id":"70006","route_short_name":"10","route_long_name":"Gravois-Lindell","route_type":3,"route_color":"#FFFFFF","route_text_color":"#000000"},{"route_id":"19607","agency_id":"70006","route_short_name":"32","route_long_name":"Dr ML King","route_type":3,"route_color":"#FFFFFF","route_text_color":"#000000"},{"route_id":"19611","agency_id":"70006","route_short_name":"40","route_long_name":"Broadway-Halls Ferry","route_type":3,"route_color":"#FFFFFF","route_text_color":"#000000"},{"route_id":"19612","agency_id":"70006","route_short_name":"41","route_long_name":"Lee","route_type":3,"route_color":"#FFFFFF","route_text_color":"#000000"},{"route_id":"19624","agency_id":"70006","route_short_name":"74","route_long_name":"Florissant","route_type":3,"route_color":"#FFFFFF","route_text_color":"#000000"},{"route_id":"19631","agency_id":"70006","route_short_name":"94","route_long_name":"Page","route_type":3,"route_color":"#FFFFFF","route_text_color":"#000000"},{"route_id":"19633","agency_id":"70006","route_short_name":"97","route_long_name":"Delmar","route_type":3,"route_color":"#FFFFFF","route_text_color":"#000000"}],"agency_name":"Metro St. Louis"},"geometry":{"type":"Point","coordinates":[-90.20127,38.62775]}},{"type":"Feature","properties":{"stop_id":"7903","stop_code":"7903","stop_name":"25TH STREET @ ST. LOUIS SB","stop_desc":"NEAR SIDE 25TH STREET @ ST. LOUIS SB","wheelchair_boarding":2,"routes":[{"route_id":"19612","agency_id":"70006","route_short_name":"41","route_long_name":"Lee","route_type":3,"route_color":"#FFFFFF","route_text_color":"#000000"}],"agency_name":"Metro St. Louis"},"geometry":{"type":"Point","coordinates":[-90.20901,38.65272]}},{"type":"Feature","properties":{"stop_id":"7967","stop_code":"7967","stop_name":"ST. LOUIS @ 21ST STREET EB","stop_desc":"FAR SIDE ST. LOUIS @ 21ST STREET EB","wheelchair_boarding":1,"routes":[{"route_id":"19603","agency_id":"70006","route_short_name":"19","route_long_name":"St Louis Ave","route_type":3,"route_color":"#FFFFFF","route_text_color":"#000000"},{"route_id":"19612","agency_id":"70006","route_short_name":"41","route_long_name":"Lee","route_type":3,"route_color":"#FFFFFF","route_text_color":"#000000"}],"agency_name":"Metro St. Louis"},"geometry":{"type":"Point","coordinates":[-90.2034,38.65129]}},{"type":"Feature","properties":{"stop_id":"8520","stop_code":"8520","stop_name":"CARR @ 20TH STREET EB","stop_desc":"FAR SIDE CARR @ 20TH STREET EB","wheelchair_boarding":1,"routes":[{"route_id":"19612","agency_id":"70006","route_short_name":"41","route_long_name":"Lee","route_type":3,"route_color":"#FFFFFF","route_text_color":"#000000"}],"agency_name":"Metro St. Louis"},"geometry":{"type":"Point","coordinates":[-90.20577,38.63852]}},{"type":"Feature","properties":{"stop_id":"8522","stop_code":"8522","stop_name":"CARR @ 18TH STREET EB","stop_desc":"FAR SIDE CARR @ 18TH STREET EB","wheelchair_boarding":1,"routes":[{"route_id":"19612","agency_id":"70006","route_short_name":"41","route_long_name":"Lee","route_type":3,"route_color":"#FFFFFF","route_text_color":"#000000"}],"agency_name":"Metro St. Louis"},"geometry":{"type":"Point","coordinates":[-90.20299,38.63793]}},{"type":"Feature","properties":{"stop_id":"8528","stop_code":"8528","stop_name":"14TH STREET @ COLE SB","stop_desc":"NEAR SIDE 14TH STREET @ COLE SB","wheelchair_boarding":1,"routes":[{"route_id":"19612","agency_id":"70006","route_short_name":"41","route_long_name":"Lee","route_type":3,"route_color":"#FFFFFF","route_text_color":"#000000"},{"route_id":"19624","agency_id":"70006","route_short_name":"74","route_long_name":"Florissant","route_type":3,"route_color":"#FFFFFF","route_text_color":"#000000"}],"agency_name":"Metro St. Louis"},"geometry":{"type":"Point","coordinates":[-90.19769,38.63599]}}]}