{"type":"FeatureCollection","features":[{"type":"Feature","properties":{"agency_name":"Metro St. Louis","route_id":"19636","agency_id":"70006","route_short_name":"1","route_long_name":"Main Street - State Street","route_type":3,"route_color":"#FFFFFF","route_text_color":"#000000"},"geometry":{"type":"MultiLineString","coordinates":[[[-90.04771,38.5939],[-90.04791,38.59407],[-90.04771,38.5939],[-90.04753,38.59382],[-90.04584,38.59381],[-90.04584,38.59465],[-90.04578,38.59576],[-90.04632,38.59578],[-90.04712,38.59588],[-90.04791,38.59608],[-90.04841,38.59624],[-90.04886,38.59642],[-90.04945,38.5967],[-90.05005,38.59704],[-90.05105,38.59773],[-90.05114,38.59785],[-90.05201,38.59839],[-90.0521,38.59842],[-90.05316,38.59897],[-90.05425,38.59999],[-90.05399,38.6003],[-90.05362,38.6007],[-90.05352,38.60077],[-90.05338,38.60083],[-90.05321,38.60085],[-90.05303,38.60081],[-90.05291,38.60076],[-90.05282,38.60069],[-90.0527,38.60053],[-90.05268,38.60038],[-90.05296,38.5994],[-90.05417,38.59679],[-90.05424,38.59661],[-90.05441,38.59627],[-90.05591,38.59355],[-90.05628,38.59295],[-90.0566,38.59251],[-90.05703,38.592],[-90.05752,38.59148],[-90.05919,38.5898],[-90.05956,38.58948],[-90.05982,38.58929],[-90.06022,38.58903],[-90.06052,38.58898],[-90.06093,38.58901],[-90.06243,38.58991],[-90.06311,38.59035],[-90.06327,38.59043],[-90.06427,38.59103],[-90.06695,38.59267],[-90.06739,38.59298],[-90.06783,38.59324],[-90.07078,38.59511],[-90.0745,38.59752],[-90.07591,38.59829],[-90.0768,38.59881],[-90.07939,38.60024],[-90.07994,38.60049],[-90.08051,38.60069],[-90.08062,38.6008],[-90.08378,38.602],[-90.08529,38.60262],[-90.08564,38.60272],[-90.0866,38.60304],[-90.08765,38.60326],[-90.08861,38.60344],[-90.08986,38.60371],[-90.09022,38.60374],[-90.09257,38.60421],[-90.09592,38.60492],[-90.09638,38.60512],[-90.09681,38.60539],[-90.09718,38.6056],[-90.09788,38.60586],[-90.0984,38.60602],[-90.10101,38.60667],[-90.10127,38.60675],[-90.10264,38.60703],[-90.1047,38.6075],[-90.10575,38.6077],[-90.10674,38.60796],[-90.10919,38.6085],[-90.11047,38.60876],[-90.11102,38.60886],[-90.11203,38.60901],[-90.1127,38.60908],[-90.11475,38.60934],[-90.11488,38.6094],[-90.11683,38.61051],[-90.11771,38.61103],[-90.11968,38.61213],[-90.12452,38.61471],[-90.12547,38.6152],[-90.12614,38.61551],[-90.1272,38.61607],[-90.12747,38.61625],[-90.12786,38.61641],[-90.12832,38.61657],[-90.12879,38.61676],[-90.13012,38.61725],[-90.13059,38.6174],[-90.13329,38.61837],[-90.13505,38.61898],[-90.13607,38.61936],[-90.13711,38.61972],[-90.1395,38.62061],[-90.14329,38.62194],[-90.14898,38.62398],[-90.15049,38.62443],[-90.15071,38.62465],[-90.15159,38.62536],[-90.15243,38.62609],[-90.15373,38.62718],[-90.15583,38.6263],[-90.15804,38.62469],[-90.15827,38.62486],[-90.15851,38.62496]],[[-89.97503,38.52198],[-89.97451,38.52159],[-89.97503,38.52198],[-89.97508,38.522],[-89.97518,38.52203],[-89.97529,38.52203],[-89.97538,38.52201],[-89.97544,38.52197],[-89.97552,38.52191],[-89.97556,38.52185],[-89.97601,38.52046],[-89.97856,38.51862],[-89.97874,38.51847],[-89.97894,38.5181],[-89.97898,38.51801],[-89.97903,38.51771],[-89.97902,38.51555],[-89.979,38.51461],[-89.98016,38.51458],[-89.98289,38.51456],[-89.98381,38.51458],[-89.98817,38.51459],[-89.99014,38.51457],[-89.99034,38.51453],[-89.99056,38.51441],[-89.99072,38.5143],[-89.99104,38.51397],[-89.9912,38.51385],[-89.99149,38.51371],[-89.99169,38.51365],[-89.99274,38.5136],[-89.99309,38.51363],[-89.99353,38.5137],[-89.99419,38.51391],[-89.99566,38.51462],[-89.99743,38.51545],[-90.00003,38.51666],[-90.00249,38.51778],[-90.00323,38.51814],[-90.00389,38.5185],[-90.00521,38.51926],[-90.00588,38.51969],[-90.00622,38.51994],[-90.00693,38.52057],[-90.00762,38.52122],[-90.0079,38.52151],[-90.00904,38.52254],[-90.01032,38.52376],[-90.01062,38.52407],[-90.01138,38.52507],[-90.01156,38.52559],[-90.01177,38.52649],[-90.01205,38.52783],[-90.01216,38.52819],[-90.01222,38.52833],[-90.01301,38.52989],[-90.01328,38.53035],[-90.01358,38.53083],[-90.01403,38.53146],[-90.01414,38.53158],[-90.01528,38.53274],[-90.01587,38.53337],[-90.01598,38.53346],[-90.01616,38.53366],[-90.01684,38.53433],[-90.01962,38.53719],[-90.02126,38.53882],[-90.02229,38.53977],[-90.02302,38.54028],[-90.03249,38.54659],[-90.03295,38.54703],[-90.03359,38.54779],[-90.03406,38.54829],[-90.03488,38.54923],[-90.03522,38.54959],[-90.03593,38.55026],[-90.03917,38.55322],[-90.04069,38.55464],[-90.04321,38.55691],[-90.04353,38.55725],[-90.04479,38.55839],[-90.04535,38.55892],[-90.04565,38.55931],[-90.04657,38.56097],[-90.04735,38.5623],[-90.04794,38.56339],[-90.0489,38.56501],[-90.04969,38.56605],[-90.05116,38.56749],[-90.05154,38.56788],[-90.05215,38.56859],[-90.0525,38.56916],[-90.05346,38.5712],[-90.05374,38.57187],[-90.05556,38.57571],[-90.05571,38.57607],[-90.05608,38.57684],[-90.0562,38.57714],[-90.05637,38.57837],[-90.0564,38.57919],[-90.05638,38.57949],[-90.05637,38.58018],[-90.05638,38.58057],[-90.05647,38.58149],[-90.05652,38.58219],[-90.05657,38.58242],[-90.05671,38.58331],[-90.05672,38.58349],[-90.05693,38.58518],[-90.05699,38.58549],[-90.05715,38.58587],[-90.05753,38.58641],[-90.05807,38.58711],[-90.05784,38.58719],[-90.05673,38.5871],[-90.05639,38.58709],[-90.05597,38.58712],[-90.05344,38.58751],[-90.04901,38.58831],[-90.04862,38.58834],[-90.04763,38.5883],[-90.04728,38.58823],[-90.04694,38.58814],[-90.04629,38.58787],[-90.04594,38.58767],[-90.04559,38.58737],[-90.04538,38.58717],[-90.04513,38.58685],[-90.04505,38.58671],[-90.04464,38.58584],[-90.0445,38.58562],[-90.04437,38.58545],[-90.0442,38.58527],[-90.044,38.5851],[-90.04379,38.58496],[-90.04332,38.58471],[-90.04278,38.58456],[-90.04133,38.58445],[-90.04069,38.58443],[-90.04111,38.58512],[-90.04163,38.58589],[-90.04238,38.58694],[-90.04392,38.58891],[-90.04479,38.59015],[-90.04501,38.59037],[-90.04509,38.59048],[-90.04529,38.59082],[-90.04547,38.5912],[-90.04564,38.59167],[-90.04573,38.59202],[-90.04581,38.59251],[-90.04582,38.59287]],[[-90.04878,38.59574],[-90.04791,38.59608],[-90.04878,38.59574],[-90.04886,38.5956],[-90.04887,38.59547],[-90.04879,38.59534]]]}},{"type":"Feature","properties":{"stop_id":"11097","stop_code":"11097","stop_name":"CHARLES @ B STREET SB","stop_desc":"FAR SIDE CHARLES @ B STREET SB","wheelchair_boarding":2,"routes":[{"route_id":"19636","agency_id":"70006","route_short_name":"1","route_long_name":"Main Street - State Street","route_type":3,"route_color":"#FFFFFF","route_text_color":"#000000"},{"route_id":"19648","agency_id":"70006","route_short_name":"16","route_long_name":"St. Clair Square","route_type":3,"route_color":"#FFFFFF","route_text_color":"#000000"}],"agency_name":"Metro St. Louis"},"geometry":{"type":"Point","coordinates":[-89.9791,38.51542]}},{"type":"Feature","properties":{"stop_id":"11099","stop_code":"11099","stop_name":"CHARLES @ C STREET SB","stop_desc":"NEAR SIDE CHARLES @ C STREET SB","wheelchair_boarding":1,"routes":[{"route_id":"19636","agency_id":"70006","route_short_name":"1","route_long_name":"Main Street - State Street","route_type":3,"route_color":"#FFFFFF","route_text_color":"#000000"},{"route_id":"19648","agency_id":"70006","route_short_name":"16","route_long_name":"St. Clair Square","route_type":3,"route_color":"#FFFFFF","route_text_color":"#000000"}],"agency_name":"Metro St. Louis"},"geometry":{"type":"Point","coordinates":[-89.97913,38.51675]}},{"type":"Feature","properties":{"stop_id":"11100","stop_code":"11100","stop_name":"SCHEEL @ CHARLES WB","stop_desc":"NEAR SIDE SCHEEL @ CHARLES WB","wheelchair_boarding":1,"routes":[{"route_id":"19636","agency_id":"70006","route_short_name":"1","route_long_name":"Main Street - State Street","route_type":3,"route_color":"#FFFFFF","route_text_color":"#000000"},{"route_id":"19648","agency_id":"70006","route_short_name":"16","route_long_name":"St. Clair Square","route_type":3,"route_color":"#FFFFFF","route_text_color":"#000000"}],"agency_name":"Metro St. Louis"},"geometry":{"type":"Point","coordinates":[-89.97867,38.51864]}},{"type":"Feature","properties":{"stop_id":"11101","stop_code":"11101","stop_name":"SCHEEL @ BENTON WB","stop_desc":"NEAR SIDE SCHEEL @ BENTON WB","wheelchair_boarding":2,"routes":[{"route_id":"19636","agency_id":"70006","route_short_name":"1","route_long_name":"Main Street - State Street","route_type":3,"route_color":"#FFFFFF","route_text_color":"#000000"},{"route_id":"19647","agency_id":"70006","route_short_name":"15","route_long_name":"Belleville-O'Fallon","route_type":3,"route_color":"#FFFFFF","route_text_color":"#000000"},{"route_id":"19648","agency_id":"70006","route_short_name":"16","route_long_name":"St. Clair Square","route_type":3,"route_color":"#FFFFFF","route_text_color":"#000000"},{"route_id":"19649","agency_id":"70006","route_short_name":"23","route_long_name":"Belleville-College","route_type":3,"route_color":"#FFFFFF","route_text_color":"#000000"}],"agency_name":"Metro St. Louis"},"geometry":{"type":"Point","coordinates":[-89.97596,38.52055]}},{"type":"Feature","properties":{"stop_id":"11102","stop_code":"11102","stop_name":"BELLEVILLE TRANSIT CENTER","wheelchair_boarding":1,"routes":[{"route_id":"19636","agency_id":"70006","route_short_name":"1","route_long_name":"Main Street - State Street","route_type":3,"route_color":"#FFFFFF","route_text_color":"#000000"},{"route_id":"19647","agency_id":"70006","route_short_name":"15","route_long_name":"Belleville-O'Fallon","route_type":3,"route_color":"#FFFFFF","route_text_color":"#000000"},{"route_id":"19648","agency_id":"70006","route_short_name":"16","route_long_name":"St. Clair Square","route_type":3,"route_color":"#FFFFFF","route_text_color":"#000000"},{"route_id":"19649","agency_id":"70006","route_short_name":"23","route_long_name":"Belleville-College","route_type":3,"route_color":"#FFFFFF","route_text_color":"#000000"}],"agency_name":"Metro St. Louis"},"geometry":{"type":"Point","coordinates":[-89.97461,38.5217]}},{"type":"Feature","properties":{"stop_id":"11407","stop_code":"11407","stop_name":"MAIN @ 17TH STREET WB","stop_desc":"NEAR SIDE MAIN @ 17TH STREET WB","wheelchair_boarding":1,"routes":[{"route_id":"19636","agency_id":"70006","route_short_name":"1","route_long_name":"Main Street - State Street","route_type":3,"route_color":"#FFFFFF","route_text_color":"#000000"}],"agency_name":"Metro St. Louis"},"geometry":{"type":"Point","coordinates":[-90.00253,38.51787]}},{"type":"Feature","properties":{"stop_id":"12170","stop_code":"12170","stop_name":"SCHEEL @ DOUGLAS WB","stop_desc":"NEAR SIDE SCHEEL @ DOUGLAS WB","wheelchair_boarding":2,"routes":[{"route_id":"19636","agency_id":"70006","route_short_name":"1","route_long_name":"Main Street - State Street","route_type":3,"route_color":"#FFFFFF","route_text_color":"#000000"},{"route_id":"19647","agency_id":"70006","route_short_name":"15","route_long_name":"Belleville-O'Fallon","route_type":3,"route_color":"#FFFFFF","route_text_color":"#000000"},{"route_id":"19648","agency_id":"70006","route_short_name":"16","route_long_name":"St. Clair Square","route_type":3,"route_color":"#FFFFFF","route_text_color":"#000000"},{"route_id":"19649","agency_id":"70006","route_short_name":"23","route_long_name":"Belleville-College","route_type":3,"route_color":"#FFFFFF","route_text_color":"#000000"}],"agency_name":"Metro St. Louis"},"geometry":{"type":"Point","coordinates":[-89.97736,38.51957]}},{"type":"Feature","properties":{"stop_id":"12191","stop_code":"12191","stop_name":"MAIN @ 6TH STREET WB","stop_desc":"NEAR SIDE MAIN @ 6TH STREET WB","wheelchair_boarding":2,"routes":[{"route_id":"19636","agency_id":"70006","route_short_name":"1","route_long_name":"Main Street - State Street","route_type":3,"route_color":"#FFFFFF","route_text_color":"#000000"}],"agency_name":"Metro St. Louis"},"geometry":{"type":"Point","coordinates":[-89.9933,38.51373]}},{"type":"Feature","properties":{"stop_id":"12192","stop_code":"12192","stop_name":"MAIN @ 8TH STREET WB","stop_desc":"FAR SIDE MAIN @ 8TH STREET WB","wheelchair_boarding":2,"routes":[{"route_id":"19636","agency_id":"70006","route_short_name":"1","route_long_name":"Main Street - State Street","route_type":3,"route_color":"#FFFFFF","route_text_color":"#000000"}],"agency_name":"Metro St. Louis"},"geometry":{"type":"Point","coordinates":[-89.99515,38.51443]}},{"type":"Feature","properties":{"stop_id":"12194","stop_code":"12194","stop_name":"MAIN @ 11TH STREET WB","stop_desc":"FAR SIDE MAIN @ 11TH STREET WB","wheelchair_boarding":2,"routes":[{"route_id":"19636","agency_id":"70006","route_short_name":"1","route_long_name":"Main Street - State Street","route_type":3,"route_color":"#FFFFFF","route_text_color":"#000000"}],"agency_name":"Metro St. Louis"},"geometry":{"type":"Point","coordinates":[-89.99758,38.51555]}},{"type":"Feature","properties":{"stop_id":"12195","stop_code":"12195","stop_name":"MAIN @ 13TH STREET WB","stop_desc":"NEAR SIDE MAIN @ 13TH STREET WB","wheelchair_boarding":2,"routes":[{"route_id":"19636","agency_id":"70006","route_short_name":"1","route_long_name":"Main Street - State Street","route_type":3,"route_color":"#FFFFFF","route_text_color":"#000000"}],"agency_name":"Metro St. Louis"},"geometry":{"type":"Point","coordinates":[-89.99904,38.51624]}},{"type":"Feature","properties":{"stop_id":"12196","stop_code":"12196","stop_name":"MAIN @ 14TH STREET WB","stop_desc":"NEAR SIDE MAIN @ 14TH STREET WB","wheelchair_boarding":2,"routes":[{"route_id":"19636","agency_id":"70006","route_short_name":"1","route_long_name":"Main Street - State Street","route_type":3,"route_color":"#FFFFFF","route_text_color":"#000000"}],"agency_name":"Metro St. Louis"},"geometry":{"type":"Point","coordinates":[-89.99992,38.51664]}},{"type":"Feature","properties":{"stop_id":"12197","stop_code":"12197","stop_name":"MAIN @ 15TH STREET WB","stop_desc":"NEAR SIDE MAIN @ 15TH STREET WB","wheelchair_boarding":2,"routes":[{"route_id":"19636","agency_id":"70006","route_short_name":"1","route_long_name":"Main Street - State Street","route_type":3,"route_color":"#FFFFFF","route_text_color":"#000000"}],"agency_name":"Metro St. Louis"},"geometry":{"type":"Point","coordinates":[-90.00085,38.51708]}},{"type":"Feature","properties":{"stop_id":"12200","stop_code":"12200","stop_name":"MAIN @ 19TH STREET WB","stop_desc":"NEAR SIDE MAIN @ 19TH STREET WB","wheelchair_boarding":2,"routes":[{"route_id":"19636","agency_id":"70006","route_short_name":"1","route_long_name":"Main Street - State Street","route_type":3,"route_color":"#FFFFFF","route_text_color":"#000000"}],"agency_name":"Metro St. Louis"},"geometry":{"type":"Point","coordinates":[-90.00512,38.51925]}},{"type":"Feature","properties":{"stop_id":"12201","stop_code":"12201","stop_name":"MAIN @ 22ND STREET WB","stop_desc":"NEAR SIDE MAIN @ 22ND STREET WB","wheelchair_boarding":2,"routes":[{"route_id":"19636","agency_id":"70006","route_short_name":"1","route_long_name":"Main Street - State Street","route_type":3,"route_color":"#FFFFFF","route_text_color":"#000000"}],"agency_name":"Metro St. Louis"},"geometry":{"type":"Point","coordinates":[-90.00787,38.52149]}},{"type":"Feature","properties":{"stop_id":"12202","stop_code":"12202","stop_name":"MAIN @ 23RD STREET WB","stop_desc":"NEAR SIDE MAIN @ 23RD STREET WB","wheelchair_boarding":2,"routes":[{"route_id":"19636","agency_id":"70006","route_short_name":"1","route_long_name":"Main Street - State Street","route_type":3,"route_color":"#FFFFFF","route_text_color":"#000000"}],"agency_name":"Metro St. Louis"},"geometry":{"type":"Point","coordinates":[-90.00865,38.52223]}},{"type":"Feature","properties":{"stop_id":"12203","stop_code":"12203","stop_name":"MAIN @ 24TH STREET WB","stop_desc":"NEAR SIDE MAIN @ 24TH STREET WB","wheelchair_boarding":2,"routes":[{"route_id":"19636","agency_id":"70006","route_short_name":"1","route_long_name":"Main Street - State Street","route_type":3,"route_color":"#FFFFFF","route_text_color":"#000000"}],"agency_name":"Metro St. Louis"},"geometry":{"type":"Point","coordinates":[-90.00986,38.52338]}},{"type":"Feature","properties":{"stop_id":"12204","stop_code":"12204","stop_name":"MAIN @ 27TH STREET AT RR WB","stop_desc":"NEAR SIDE MAIN @ 27TH STREET AT RR WB","wheelchair_boarding":1,"routes":[{"route_id":"19636","agency_id":"70006","route_short_name":"1","route_long_name":"Main Street - State Street","route_type":3,"route_color":"#FFFFFF","route_text_color":"#000000"}],"agency_name":"Metro St. Louis"},"geometry":{"type":"Point","coordinates":[-90.01143,38.52527]}},{"type":"Feature","properties":{"stop_id":"12205","stop_code":"12205","stop_name":"MAIN @ 27TH STREET WB","stop_desc":"NEAR SIDE MAIN @ 27TH STREET WB","wheelchair_boarding":2,"routes":[{"route_id":"19636","agency_id":"70006","route_short_name":"1","route_long_name":"Main Street - State Street","route_type":3,"route_color":"#FFFFFF","route_text_color":"#000000"}],"agency_name":"Metro St. Louis"},"geometry":{"type":"Point","coordinates":[-90.01158,38.52587]}},{"type":"Feature","properties":{"stop_id":"12206","stop_code":"12206","stop_name":"MAIN @ 29TH STREET WB","stop_desc":"FAR SIDE MAIN @ 29TH STREET WB","wheelchair_boarding":2,"routes":[{"route_id":"19636","agency_id":"70006","route_short_name":"1","route_long_name":"Main Street - State Street","route_type":3,"route_color":"#FFFFFF","route_text_color":"#000000"}],"agency_name":"Metro St. Louis"},"geometry":{"type":"Point","coordinates":[-90.01183,38.52711]}},{"type":"Feature","properties":{"stop_id":"12207","stop_code":"12207","stop_name":"MAIN @ 30TH STREET WB","stop_desc":"NEAR SIDE MAIN @ 30TH STREET WB","wheelchair_boarding":2,"routes":[{"route_id":"19636","agency_id":"70006","route_short_name":"1","route_long_name":"Main Street - State Street","route_type":3,"route_color":"#FFFFFF","route_text_color":"#000000"}],"agency_name":"Metro St. Louis"},"geometry":{"type":"Point","coordinates":[-90.01211,38.52817]}},{"type":"Feature","properties":{"stop_id":"12208","stop_code":"12208","stop_name":"MAIN @ 31ST STREET WB","stop_desc":"NEAR SIDE MAIN @ 31ST STREET WB","wheelchair_boarding":2,"routes":[{"route_id":"19636","agency_id":"70006","route_short_name":"1","route_long_name":"Main Street - State Street","route_type":3,"route_color":"#FFFFFF","route_text_color":"#000000"}],"agency_name":"Metro St. Louis"},"geometry":{"type":"Point","coordinates":[-90.01267,38.52932]}},{"type":"Feature","properties":{"stop_id":"12209","stop_code":"12209","stop_name":"MAIN @ 33RD STREET WB","stop_desc":"NEAR SIDE MAIN @ 33RD STREET WB","wheelchair_boarding":2,"routes":[{"route_id":"19636","agency_id":"70006","route_short_name":"1","route_long_name":"Main Street - State Street","route_type":3,"route_color":"#FFFFFF","route_text_color":"#000000"}],"agency_name":"Metro St. Louis"},"geometry":{"type":"Point","coordinates":[-90.01343,38.53068]}},{"type":"Feature","properties":{"stop_id":"12210","stop_code":"12210","stop_name":"MAIN @ 34TH STREET WB","stop_desc":"NEAR SIDE MAIN @ 34TH STREET WB","wheelchair_boarding":2,"routes":[{"route_id":"19636","agency_id":"70006","route_short_name":"1","route_long_name":"Main Street - State Street","route_type":3,"route_color":"#FFFFFF","route_text_color":"#000000"}],"agency_name":"Metro St. Louis"},"geometry":{"type":"Point","coordinates":[-90.01404,38.53154]}},{"type":"Feature","properties":{"stop_id":"12211","stop_code":"12211","stop_name":"MAIN @ 35TH STREET WB","stop_desc":"FAR SIDE MAIN @ 35TH STREET WB","wheelchair_boarding":2,"routes":[{"route_id":"19636","agency_id":"70006","route_short_name":"1","route_long_name":"Main Street - State Street","route_type":3,"route_color":"#FFFFFF","route_text_color":"#000000"}],"agency_name":"Metro St. Louis"},"geometry":{"type":"Point","coordinates":[-90.01524,38.53278]}},{"type":"Feature","properties":{"stop_id":"12212","stop_code":"12212","stop_name":"MAIN @ 36TH STREET WB","stop_desc":"NEAR SIDE MAIN @ 36TH STREET WB","wheelchair_boarding":2,"routes":[{"route_id":"19636","agency_id":"70006","route_short_name":"1","route_long_name":"Main Street - State Street","route_type":3,"route_color":"#FFFFFF","route_text_color":"#000000"}],"agency_name":"Metro St. Louis"},"geometry":{"type":"Point","coordinates":[-90.01594,38.53351]}},{"type":"Feature","properties":{"stop_id":"12213","stop_code":"12213","stop_name":"MAIN @ 38TH STREET WB","stop_desc":"NEAR SIDE MAIN @ 38TH STREET WB","wheelchair_boarding":2,"routes":[{"route_id":"19636","agency_id":"70006","route_short_name":"1","route_long_name":"Main Street - State Street","route_type":3,"route_color":"#FFFFFF","route_text_color":"#000000"}],"agency_name":"Metro St. Louis"},"geometry":{"type":"Point","coordinates":[-90.01741,38.53501]}},{"type":"Feature","properties":{"stop_id":"12214","stop_code":"12214","stop_name":"MAIN @ 39TH STREET WB","stop_desc":"NEAR SIDE MAIN @ 39TH STREET WB","wheelchair_boarding":2,"routes":[{"route_id":"19636","agency_id":"70006","route_short_name":"1","route_long_name":"Main Street - State Street","route_type":3,"route_color":"#FFFFFF","route_text_color":"#000000"}],"agency_name":"Metro St. Louis"},"geometry":{"type":"Point","coordinates":[-90.01808,38.53569]}},{"type":"Feature","properties":{"stop_id":"12215","stop_code":"12215","stop_name":"MAIN @ 41ST STREET WB","stop_desc":"NEAR SIDE MAIN @ 41ST STREET WB","wheelchair_boarding":2,"routes":[{"route_id":"19636","agency_id":"70006","route_short_name":"1","route_long_name":"Main Street - State Street","route_type":3,"route_color":"#FFFFFF","route_text_color":"#000000"}],"agency_name":"Metro St. Louis"},"geometry":{"type":"Point","coordinates":[-90.01945,38.53711]}},{"type":"Feature","properties":{"stop_id":"12216","stop_code":"12216","stop_name":"MAIN @ 42ND STREET WB","stop_desc":"NEAR SIDE MAIN @ 42ND STREET WB","wheelchair_boarding":2,"routes":[{"route_id":"19636","agency_id":"70006","route_short_name":"1","route_long_name":"Main Street - State Street","route_type":3,"route_color":"#FFFFFF","route_text_color":"#000000"}],"agency_name":"Metro St. Louis"},"geometry":{"type":"Point","coordinates":[-90.02016,38.5378]}},{"type":"Feature","properties":{"stop_id":"12217","stop_code":"12217","stop_name":"MAIN @ 44TH STREET WB","stop_desc":"NEAR SIDE MAIN @ 44TH STREET WB","wheelchair_boarding":2,"routes":[{"route_id":"19636","agency_id":"70006","route_short_name":"1","route_long_name":"Main Street - State Street","route_type":3,"route_color":"#FFFFFF","route_text_color":"#000000"}],"agency_name":"Metro St. Louis"},"geometry":{"type":"Point","coordinates":[-90.02178,38.53937]}},{"type":"Feature","properties":{"stop_id":"12218","stop_code":"12218","stop_name":"MAIN @ 45TH STREET WB","stop_desc":"FAR SIDE MAIN @ 45TH STREET WB","wheelchair_boarding":1,"routes":[{"route_id":"19636","agency_id":"70006","route_short_name":"1","route_long_name":"Main Street - State Street","route_type":3,"route_color":"#FFFFFF","route_text_color":"#000000"}],"agency_name":"Metro St. Louis"},"geometry":{"type":"Point","coordinates":[-90.02335,38.54056]}},{"type":"Feature","properties":{"stop_id":"12219","stop_code":"12219","stop_name":"4711 MAIN WB","stop_desc":"NEAR SIDE 4711 MAIN WB","wheelchair_boarding":2,"routes":[{"route_id":"19636","agency_id":"70006","route_short_name":"1","route_long_name":"Main Street - State Street","route_type":3,"route_color":"#FFFFFF","route_text_color":"#000000"}],"agency_name":"Metro St. Louis"},"geometry":{"type":"Point","coordinates":[-90.02592,38.54228]}},{"type":"Feature","properties":{"stop_id":"12220","stop_code":"12220","stop_name":"MAIN @ 49TH STREET WB","stop_desc":"FAR SIDE MAIN @ 49TH STREET WB","wheelchair_boarding":2,"routes":[{"route_id":"19636","agency_id":"70006","route_short_name":"1","route_long_name":"Main Street - State Street","route_type":3,"route_color":"#FFFFFF","route_text_color":"#000000"}],"agency_name":"Metro St. Louis"},"geometry":{"type":"Point","coordinates":[-90.02837,38.54389]}},{"type":"Feature","properties":{"stop_id":"12222","stop_code":"12222","stop_name":"MAIN @ 51ST STREET WB","stop_desc":"FAR SIDE MAIN @ 51ST STREET WB","wheelchair_boarding":2,"routes":[{"route_id":"19636","agency_id":"70006","route_short_name":"1","route_long_name":"Main Street - State Street","route_type":3,"route_color":"#FFFFFF","route_text_color":"#000000"}],"agency_name":"Metro St. Louis"},"geometry":{"type":"Point","coordinates":[-90.02974,38.54483]}},{"type":"Feature","properties":{"stop_id":"12224","stop_code":"12224","stop_name":"5315 MAIN WB","stop_desc":"MID-BLOCK 5315 MAIN WB","wheelchair_boarding":2,"routes":[{"route_id":"19636","agency_id":"70006","route_short_name":"1","route_long_name":"Main Street - State Street","route_type":3,"route_color":"#FFFFFF","route_text_color":"#000000"}],"agency_name":"Metro St. Louis"},"geometry":{"type":"Point","coordinates":[-90.032,38.54632]}},{"type":"Feature","properties":{"stop_id":"12226","stop_code":"12226","stop_name":"MAIN @ FRANK SCOTT PARKWAY WB","stop_desc":"NEAR SIDE MAIN @ FRANK SCOTT PARKWAY WB","wheelchair_boarding":2,"routes":[{"route_id":"19636","agency_id":"70006","route_short_name":"1","route_long_name":"Main Street - State Street","route_type":3,"route_color":"#FFFFFF","route_text_color":"#000000"}],"agency_name":"Metro St. Louis"},"geometry":{"type":"Point","coordinates":[-90.03376,38.54808]}},{"type":"Feature","properties":{"stop_id":"12228","stop_code":"12228","stop_name":"MAIN @ 60TH STREET WB","stop_desc":"NEAR SIDE MAIN @ 60TH STREET WB","wheelchair_boarding":2,"routes":[{"route_id":"19636","agency_id":"70006","route_short_name":"1","route_long_name":"Main Street - State Street","route_type":3,"route_color":"#FFFFFF","route_text_color":"#000000"}],"agency_name":"Metro St. Louis"},"geometry":{"type":"Point","coordinates":[-90.03644,38.55082]}},{"type":"Feature","properties":{"stop_id":"12230","stop_code":"12230","stop_name":"6205 MAIN WB","stop_desc":"MID-BLOCK 6205 MAIN WB","wheelchair_boarding":2,"routes":[{"route_id":"19636","agency_id":"70006","route_short_name":"1","route_long_name":"Main Street - State Street","route_type":3,"route_color":"#FFFFFF","route_text_color":"#000000"}],"agency_name":"Metro St. Louis"},"geometry":{"type":"Point","coordinates":[-90.03841,38.55263]}},{"type":"Feature","properties":{"stop_id":"12231","stop_code":"12231","stop_name":"MAIN @ 64TH STREET WB","stop_desc":"FAR SIDE MAIN @ 64TH STREET WB","wheelchair_boarding":2,"routes":[{"route_id":"19636","agency_id":"70006","route_short_name":"1","route_long_name":"Main Street - State Street","route_type":3,"route_color":"#FFFFFF","route_text_color":"#000000"}],"agency_name":"Metro St. Louis"},"geometry":{"type":"Point","coordinates":[-90.03952,38.55365]}},{"type":"Feature","properties":{"stop_id":"12232","stop_code":"12232","stop_name":"MAIN @ 66TH STREET WB","stop_desc":"FAR SIDE MAIN @ 66TH STREET WB","wheelchair_boarding":2,"routes":[{"route_id":"19636","agency_id":"70006","route_short_name":"1","route_long_name":"Main Street - State Street","route_type":3,"route_color":"#FFFFFF","route_text_color":"#000000"}],"agency_name":"Metro St. Louis"},"geometry":{"type":"Point","coordinates":[-90.04076,38.5548]}},{"type":"Feature","properties":{"stop_id":"12233","stop_code":"12233","stop_name":"6901 MAIN WB","stop_desc":"MID-BLOCK 6901 MAIN WB","wheelchair_boarding":2,"routes":[{"route_id":"19636","agency_id":"70006","route_short_name":"1","route_long_name":"Main Street - State Street","route_type":3,"route_color":"#FFFFFF","route_text_color":"#000000"}],"agency_name":"Metro St. Louis"},"geometry":{"type":"Point","coordinates":[-90.04197,38.55589]}},{"type":"Feature","properties":{"stop_id":"12234","stop_code":"12234","stop_name":"MAIN @ 70TH STREET WB","stop_desc":"NEAR SIDE MAIN @ 70TH STREET WB","wheelchair_boarding":2,"routes":[{"route_id":"19636","agency_id":"70006","route_short_name":"1","route_long_name":"Main Street - State Street","route_type":3,"route_color":"#FFFFFF","route_text_color":"#000000"}],"agency_name":"Metro St. Louis"},"geometry":{"type":"Point","coordinates":[-90.04304,38.55687]}},{"type":"Feature","properties":{"stop_id":"12236","stop_code":"12236","stop_name":"MAIN @ 72ND STREET WB","stop_desc":"NEAR SIDE MAIN @ 72ND STREET WB","wheelchair_boarding":2,"routes":[{"route_id":"19636","agency_id":"70006","route_short_name":"1","route_long_name":"Main Street - State Street","route_type":3,"route_color":"#FFFFFF","route_text_color":"#000000"}],"agency_name":"Metro St. Louis"},"geometry":{"type":"Point","coordinates":[-90.04466,38.55835]}},{"type":"Feature","properties":{"stop_id":"12239","stop_code":"12239","stop_name":"7419 MAIN WB","stop_desc":"MID-BLOCK 7419 MAIN WB","wheelchair_boarding":1,"routes":[{"route_id":"19636","agency_id":"70006","route_short_name":"1","route_long_name":"Main Street - State Street","route_type":3,"route_color":"#FFFFFF","route_text_color":"#000000"}],"agency_name":"Metro St. Louis"},"geometry":{"type":"Point","coordinates":[-90.04612,38.56025]}},{"type":"Feature","properties":{"stop_id":"12240","stop_code":"12240","stop_name":"MAIN @ 77TH STREET WB","stop_desc":"FAR SIDE MAIN @ 77TH STREET WB","wheelchair_boarding":2,"routes":[{"route_id":"19636","agency_id":"70006","route_short_name":"1","route_long_name":"Main Street - State Street","route_type":3,"route_color":"#FFFFFF","route_text_color":"#000000"}],"agency_name":"Metro St. Louis"},"geometry":{"type":"Point","coordinates":[-90.04731,38.56241]}},{"type":"Feature","properties":{"stop_id":"12241","stop_code":"12241","stop_name":"MAIN @ 78TH STREET WB","stop_desc":"FAR SIDE MAIN @ 78TH STREET WB","wheelchair_boarding":2,"routes":[{"route_id":"19636","agency_id":"70006","route_short_name":"1","route_long_name":"Main Street - State Street","route_type":3,"route_color":"#FFFFFF","route_text_color":"#000000"}],"agency_name":"Metro St. Louis"},"geometry":{"type":"Point","coordinates":[-90.04796,38.56356]}},{"type":"Feature","properties":{"stop_id":"12243","stop_code":"12243","stop_name":"MAIN @ 80TH STREET WB","stop_desc":"NEAR SIDE MAIN @ 80TH STREET WB","wheelchair_boarding":2,"routes":[{"route_id":"19636","agency_id":"70006","route_short_name":"1","route_long_name":"Main Street - State Street","route_type":3,"route_color":"#FFFFFF","route_text_color":"#000000"}],"agency_name":"Metro St. Louis"},"geometry":{"type":"Point","coordinates":[-90.04892,38.56514]}},{"type":"Feature","properties":{"stop_id":"12244","stop_code":"12244","stop_name":"MAIN @ 82ND STREET WB","stop_desc":"NEAR SIDE MAIN @ 82ND STREET WB","wheelchair_boarding":2,"routes":[{"route_id":"19636","agency_id":"70006","route_short_name":"1","route_long_name":"Main Street - State Street","route_type":3,"route_color":"#FFFFFF","route_text_color":"#000000"}],"agency_name":"Metro St. Louis"},"geometry":{"type":"Point","coordinates":[-90.0503,38.56672]}},{"type":"Feature","properties":{"stop_id":"12245","stop_code":"12245","stop_name":"MAIN @ OAK KNOLL PLACE WB","stop_desc":"NEAR SIDE MAIN @ OAK KNOLL PLACE WB","wheelchair_boarding":2,"routes":[{"route_id":"19636","agency_id":"70006","route_short_name":"1","route_long_name":"Main Street - State Street","route_type":3,"route_color":"#FFFFFF","route_text_color":"#000000"}],"agency_name":"Metro St. Louis"},"geometry":{"type":"Point","coordinates":[-90.05192,38.56838]}},{"type":"Feature","properties":{"stop_id":"12247","stop_code":"12247","stop_name":"MAIN @ 86TH STREET WB","stop_desc":"NEAR SIDE MAIN @ 86TH STREET WB","wheelchair_boarding":2,"routes":[{"route_id":"19636","agency_id":"70006","route_short_name":"1","route_long_name":"Main Street - State Street","route_type":3,"route_color":"#FFFFFF","route_text_color":"#000000"}],"agency_name":"Metro St. Louis"},"geometry":{"type":"Point","coordinates":[-90.05283,38.56999]}},{"type":"Feature","properties":{"stop_id":"12249","stop_code":"12249","stop_name":"MAIN @ 88TH STREET WB","stop_desc":"NEAR SIDE MAIN @ 88TH STREET WB","wheelchair_boarding":2,"routes":[{"route_id":"19636","agency_id":"70006","route_short_name":"1","route_long_name":"Main Street - State Street","route_type":3,"route_color":"#FFFFFF","route_text_color":"#000000"}],"agency_name":"Metro St. Louis"},"geometry":{"type":"Point","coordinates":[-90.05363,38.57171]}},{"type":"Feature","properties":{"stop_id":"12252","stop_code":"12252","stop_name":"9407 MAIN WB","stop_desc":"MID-BLOCK 9407 MAIN WB","wheelchair_boarding":2,"routes":[{"route_id":"19636","agency_id":"70006","route_short_name":"1","route_long_name":"Main Street - State Street","route_type":3,"route_color":"#FFFFFF","route_text_color":"#000000"}],"agency_name":"Metro St. Louis"},"geometry":{"type":"Point","coordinates":[-90.05511,38.57494]}},{"type":"Feature","properties":{"stop_id":"12254","stop_code":"12254","stop_name":"MAIN @ 96TH STREET WB","stop_desc":"NEAR SIDE MAIN @ 96TH STREET WB","wheelchair_boarding":1,"routes":[{"route_id":"19636","agency_id":"70006","route_short_name":"1","route_long_name":"Main Street - State Street","route_type":3,"route_color":"#FFFFFF","route_text_color":"#000000"}],"agency_name":"Metro St. Louis"},"geometry":{"type":"Point","coordinates":[-90.05627,38.57827]}},{"type":"Feature","properties":{"stop_id":"12255","stop_code":"12255","stop_name":"MAIN @ 98TH STREET WB","stop_desc":"FAR SIDE MAIN @ 98TH STREET WB","wheelchair_boarding":2,"routes":[{"route_id":"19636","agency_id":"70006","route_short_name":"1","route_long_name":"Main Street - State Street","route_type":3,"route_color":"#FFFFFF","route_text_color":"#000000"}],"agency_name":"Metro St. Louis"},"geometry":{"type":"Point","coordinates":[-90.05631,38.58028]}},{"type":"Feature","properties":{"stop_id":"12256","stop_code":"12256","stop_name":"MAIN @ MOUNT CARMEL CEMETERY NB","stop_desc":"MID-BLOCK MAIN @ MOUNT CARMEL CEMETERY NB","wheelchair_boarding":2,"routes":[{"route_id":"19636","agency_id":"70006","route_short_name":"1","route_long_name":"Main Street - State Street","route_type":3,"route_color":"#FFFFFF","route_text_color":"#000000"}],"agency_name":"Metro St. Louis"},"geometry":{"type":"Point","coordinates":[-90.05652,38.58237]}},{"type":"Feature","properties":{"stop_id":"12257","stop_code":"12257","stop_name":"MAIN @ GRANVUE WB","stop_desc":"NEAR SIDE MAIN @ GRANVUE WB","wheelchair_boarding":2,"routes":[{"route_id":"19636","agency_id":"70006","route_short_name":"1","route_long_name":"Main Street - State Street","route_type":3,"route_color":"#FFFFFF","route_text_color":"#000000"}],"agency_name":"Metro St. Louis"},"geometry":{"type":"Point","coordinates":[-90.05669,38.58366]}},{"type":"Feature","properties":{"stop_id":"12258","stop_code":"12258","stop_name":"MAIN @ ARTHUR WB","stop_desc":"NEAR SIDE MAIN @ ARTHUR WB","wheelchair_boarding":2,"routes":[{"route_id":"19636","agency_id":"70006","route_short_name":"1","route_long_name":"Main Street - State Street","route_type":3,"route_color":"#FFFFFF","route_text_color":"#000000"}],"agency_name":"Metro St. Louis"},"geometry":{"type":"Point","coordinates":[-90.05678,38.58473]}},{"type":"Feature","properties":{"stop_id":"12261","stop_code":"12261","stop_name":"ILLINOIS ROUTE 157 @ WASHINGTON SB","stop_desc":"NEAR SIDE ILLINOIS ROUTE 157 @ WASHINGTON SB","wheelchair_boarding":2,"routes":[{"route_id":"19636","agency_id":"70006","route_short_name":"1","route_long_name":"Main Street - State Street","route_type":3,"route_color":"#FFFFFF","route_text_color":"#000000"}],"agency_name":"Metro St. Louis"},"geometry":{"type":"Point","coordinates":[-90.05901,38.59006]}},{"type":"Feature","properties":{"stop_id":"12262","stop_code":"12262","stop_name":"ILLINOIS ROUTE 157 @ VIEUX CARRE SB","stop_desc":"FAR SIDE ILLINOIS ROUTE 157 @ VIEUX CARRE SB","wheelchair_boarding":2,"routes":[{"route_id":"19636","agency_id":"70006","route_short_name":"1","route_long_name":"Main Street - State Street","route_type":3,"route_color":"#FFFFFF","route_text_color":"#000000"}],"agency_name":"Metro St. Louis"},"geometry":{"type":"Point","coordinates":[-90.05523,38.59485]}},{"type":"Feature","properties":{"stop_id":"12263","stop_code":"12263","stop_name":"ILLINOIS ROUTE 157 @ CHURCH SB","stop_desc":"FAR SIDE ILLINOIS ROUTE 157 @ CHURCH SB","wheelchair_boarding":2,"routes":[{"route_id":"19636","agency_id":"70006","route_short_name":"1","route_long_name":"Main Street - State Street","route_type":3,"route_color":"#FFFFFF","route_text_color":"#000000"},{"route_id":"19641","agency_id":"70006","route_short_name":"6","route_long_name":"Rosemont","route_type":3,"route_color":"#FFFFFF","route_text_color":"#000000"}],"agency_name":"Metro St. Louis"},"geometry":{"type":"Point","coordinates":[-90.05432,38.59654]}},{"type":"Feature","properties":{"stop_id":"12884","stop_code":"12884","stop_name":"6TH STREET @ MARTIN LUTHER KING SB","stop_desc":"FAR SIDE 6TH STREET @ MARTIN LUTHER KING SB","wheelchair_boarding":2,"routes":[{"route_id":"19636","agency_id":"70006","route_short_name":"1","route_long_name":"Main Street - State Street","route_type":3,"route_color":"#FFFFFF","route_text_color":"#000000"}],"agency_name":"Metro St. Louis"},"geometry":{"type":"Point","coordinates":[-90.15443,38.6274]}},{"type":"Feature","properties":{"stop_id":"12959","stop_code":"12959","stop_name":"6TH STREET @ ST. LOUIS SB","stop_desc":"FAR SIDE 6TH STREET @ ST. LOUIS SB","wheelchair_boarding":2,"routes":[{"route_id":"19636","agency_id":"70006","route_short_name":"1","route_long_name":"Main Street - State Street","route_type":3,"route_color":"#FFFFFF","route_text_color":"#000000"}],"agency_name":"Metro St. Louis"},"geometry":{"type":"Point","coordinates":[-90.15607,38.62619]}},{"type":"Feature","properties":{"stop_id":"12960","stop_code":"12960","stop_name":"6TH STREET @ MISSOURI SB","stop_desc":"NEAR SIDE 6TH STREET @ MISSOURI SB","wheelchair_boarding":2,"routes":[{"route_id":"19636","agency_id":"70006","route_short_name":"1","route_long_name":"Main Street - State Street","route_type":3,"route_color":"#FFFFFF","route_text_color":"#000000"}],"agency_name":"Metro St. Louis"},"geometry":{"type":"Point","coordinates":[-90.1574,38.62522]}},{"type":"Feature","properties":{"stop_id":"13116","stop_code":"13116","stop_name":"STATE @ 50TH STREET WB","stop_desc":"FAR SIDE STATE @ 50TH STREET WB","wheelchair_boarding":2,"routes":[{"route_id":"19636","agency_id":"70006","route_short_name":"1","route_long_name":"Main Street - State Street","route_type":3,"route_color":"#FFFFFF","route_text_color":"#000000"}],"agency_name":"Metro St. Louis"},"geometry":{"type":"Point","coordinates":[-90.10299,38.60716]}},{"type":"Feature","properties":{"stop_id":"13145","stop_code":"13145","stop_name":"STATE @ 86TH STREET WB","stop_desc":"FAR SIDE STATE @ 86TH STREET WB","wheelchair_boarding":2,"routes":[{"route_id":"19636","agency_id":"70006","route_short_name":"1","route_long_name":"Main Street - State Street","route_type":3,"route_color":"#FFFFFF","route_text_color":"#000000"}],"agency_name":"Metro St. Louis"},"geometry":{"type":"Point","coordinates":[-90.06331,38.5905]}},{"type":"Feature","properties":{"stop_id":"13159","stop_code":"13159","stop_name":"ILLINOIS ROUTE 161 @ CARTER WATERS COMPANY NB","stop_desc":"NEAR SIDE ILLINOIS ROUTE 161 @ CARTER WATERS COMPANY NB","wheelchair_boarding":2,"routes":[{"route_id":"19636","agency_id":"70006","route_short_name":"1","route_long_name":"Main Street - State Street","route_type":3,"route_color":"#FFFFFF","route_text_color":"#000000"}],"agency_name":"Metro St. Louis"},"geometry":{"type":"Point","coordinates":[-90.04417,38.58937]}},{"type":"Feature","properties":{"stop_id":"13160","stop_code":"13160","stop_name":"ILLINOIS ROUTE 161 @ LEBANON NB","stop_desc":"FAR SIDE ILLINOIS ROUTE 161 @ LEBANON NB","wheelchair_boarding":2,"routes":[{"route_id":"19636","agency_id":"70006","route_short_name":"1","route_long_name":"Main Street - State Street","route_type":3,"route_color":"#FFFFFF","route_text_color":"#000000"}],"agency_name":"Metro St. Louis"},"geometry":{"type":"Point","coordinates":[-90.04098,38.58499]}},{"type":"Feature","properties":{"stop_id":"13161","stop_code":"13161","stop_name":"LEBANON @ CARPENTER UNION SB","stop_desc":"MID-BLOCK LEBANON @ CARPENTER UNION SB","wheelchair_boarding":2,"routes":[{"route_id":"19636","agency_id":"70006","route_short_name":"1","route_long_name":"Main Street - State Street","route_type":3,"route_color":"#FFFFFF","route_text_color":"#000000"}],"agency_name":"Metro St. Louis"},"geometry":{"type":"Point","coordinates":[-90.04496,38.58641]}},{"type":"Feature","properties":{"stop_id":"13162","stop_code":"13162","stop_name":"LEBANON @ WOEST BOUL EB","wheelchair_boarding":2,"routes":[{"route_id":"19636","agency_id":"70006","route_short_name":"1","route_long_name":"Main Street - State Street","route_type":3,"route_color":"#FFFFFF","route_text_color":"#000000"}],"agency_name":"Metro St. Louis"},"geometry":{"type":"Point","coordinates":[-90.04607,38.5877]}},{"type":"Feature","properties":{"stop_id":"13163","stop_code":"13163","stop_name":"LEBANON @ WOODCREST EB","stop_desc":"NEAR SIDE LEBANON @ WOODCREST EB","wheelchair_boarding":2,"routes":[{"route_id":"19636","agency_id":"70006","route_short_name":"1","route_long_name":"Main Street - State Street","route_type":3,"route_color":"#FFFFFF","route_text_color":"#000000"}],"agency_name":"Metro St. Louis"},"geometry":{"type":"Point","coordinates":[-90.04911,38.58825]}},{"type":"Feature","properties":{"stop_id":"13164","stop_code":"13164","stop_name":"LEBANON @ WOODCREST EB","stop_desc":"FAR SIDE LEBANON @ WOODCREST EB","wheelchair_boarding":2,"routes":[{"route_id":"19636","agency_id":"70006","route_short_name":"1","route_long_name":"Main Street - State Street","route_type":3,"route_color":"#FFFFFF","route_text_color":"#000000"}],"agency_name":"Metro St. Louis"},"geometry":{"type":"Point","coordinates":[-90.05179,38.58778]}},{"type":"Feature","properties":{"stop_id":"13165","stop_code":"13165","stop_name":"LEBANON @ HILLTOP PLACE EB","stop_desc":"FAR SIDE LEBANON @ HILLTOP PLACE EB","wheelchair_boarding":2,"routes":[{"route_id":"19636","agency_id":"70006","route_short_name":"1","route_long_name":"Main Street - State Street","route_type":3,"route_color":"#FFFFFF","route_text_color":"#000000"}],"agency_name":"Metro St. Louis"},"geometry":{"type":"Point","coordinates":[-90.05329,38.58751]}},{"type":"Feature","properties":{"stop_id":"13166","stop_code":"13166","stop_name":"LEBANON @ DREW EB","stop_desc":"NEAR SIDE LEBANON @ DREW EB","wheelchair_boarding":2,"routes":[{"route_id":"19636","agency_id":"70006","route_short_name":"1","route_long_name":"Main Street - State Street","route_type":3,"route_color":"#FFFFFF","route_text_color":"#000000"}],"agency_name":"Metro St. Louis"},"geometry":{"type":"Point","coordinates":[-90.05691,38.58712]}},{"type":"Feature","properties":{"stop_id":"13168","stop_code":"13168","stop_name":"STATE @ 87TH STREET WB","stop_desc":"FAR SIDE STATE @ 87TH STREET WB","wheelchair_boarding":2,"routes":[{"route_id":"19636","agency_id":"70006","route_short_name":"1","route_long_name":"Main Street - State Street","route_type":3,"route_color":"#FFFFFF","route_text_color":"#000000"}],"agency_name":"Metro St. Louis"},"geometry":{"type":"Point","coordinates":[-90.06215,38.58981]}},{"type":"Feature","properties":{"stop_id":"13170","stop_code":"13170","stop_name":"STATE @ 85TH STREET WB","stop_desc":"FAR SIDE STATE @ 85TH STREET WB","wheelchair_boarding":2,"routes":[{"route_id":"19636","agency_id":"70006","route_short_name":"1","route_long_name":"Main Street - State Street","route_type":3,"route_color":"#FFFFFF","route_text_color":"#000000"}],"agency_name":"Metro St. Louis"},"geometry":{"type":"Point","coordinates":[-90.06443,38.59118]}},{"type":"Feature","properties":{"stop_id":"13172","stop_code":"13172","stop_name":"STATE @ 83RD STREET WB","stop_desc":"FAR SIDE STATE @ 83RD STREET WB","wheelchair_boarding":2,"routes":[{"route_id":"19636","agency_id":"70006","route_short_name":"1","route_long_name":"Main Street - State Street","route_type":3,"route_color":"#FFFFFF","route_text_color":"#000000"}],"agency_name":"Metro St. Louis"},"geometry":{"type":"Point","coordinates":[-90.06647,38.59245]}},{"type":"Feature","properties":{"stop_id":"13173","stop_code":"13173","stop_name":"STATE @ 82ND STREET WB","stop_desc":"FAR SIDE STATE @ 82ND STREET WB","wheelchair_boarding":2,"routes":[{"route_id":"19636","agency_id":"70006","route_short_name":"1","route_long_name":"Main Street - State Street","route_type":3,"route_color":"#FFFFFF","route_text_color":"#000000"}],"agency_name":"Metro St. Louis"},"geometry":{"type":"Point","coordinates":[-90.06741,38.59304]}},{"type":"Feature","properties":{"stop_id":"13174","stop_code":"13174","stop_name":"STATE @ 81ST STREET WB","stop_desc":"FAR SIDE STATE @ 81ST STREET WB","wheelchair_boarding":2,"routes":[{"route_id":"19636","agency_id":"70006","route_short_name":"1","route_long_name":"Main Street - State Street","route_type":3,"route_color":"#FFFFFF","route_text_color":"#000000"}],"agency_name":"Metro St. Louis"},"geometry":{"type":"Point","coordinates":[-90.06835,38.59365]}},{"type":"Feature","properties":{"stop_id":"13175","stop_code":"13175","stop_name":"STATE @ 80TH STREET WB","stop_desc":"FAR SIDE STATE @ 80TH STREET WB","wheelchair_boarding":2,"routes":[{"route_id":"19636","agency_id":"70006","route_short_name":"1","route_long_name":"Main Street - State Street","route_type":3,"route_color":"#FFFFFF","route_text_color":"#000000"}],"agency_name":"Metro St. Louis"},"geometry":{"type":"Point","coordinates":[-90.06918,38.59413]}},{"type":"Feature","properties":{"stop_id":"13177","stop_code":"13177","stop_name":"STATE @ 78TH STREET WB","stop_desc":"FAR SIDE STATE @ 78TH STREET WB","wheelchair_boarding":2,"routes":[{"route_id":"19636","agency_id":"70006","route_short_name":"1","route_long_name":"Main Street - State Street","route_type":3,"route_color":"#FFFFFF","route_text_color":"#000000"}],"agency_name":"Metro St. Louis"},"geometry":{"type":"Point","coordinates":[-90.07094,38.59528]}},{"type":"Feature","properties":{"stop_id":"13179","stop_code":"13179","stop_name":"STATE @ 76TH STREET WB","stop_desc":"FAR SIDE STATE @ 76TH STREET WB","wheelchair_boarding":1,"routes":[{"route_id":"19636","agency_id":"70006","route_short_name":"1","route_long_name":"Main Street - State Street","route_type":3,"route_color":"#FFFFFF","route_text_color":"#000000"}],"agency_name":"Metro St. Louis"},"geometry":{"type":"Point","coordinates":[-90.07338,38.59685]}},{"type":"Feature","properties":{"stop_id":"13181","stop_code":"13181","stop_name":"STATE @ 73RD STREET WB","stop_desc":"FAR SIDE STATE @ 73RD STREET WB","wheelchair_boarding":2,"routes":[{"route_id":"19636","agency_id":"70006","route_short_name":"1","route_long_name":"Main Street - State Street","route_type":3,"route_color":"#FFFFFF","route_text_color":"#000000"}],"agency_name":"Metro St. Louis"},"geometry":{"type":"Point","coordinates":[-90.07604,38.59843]}},{"type":"Feature","properties":{"stop_id":"13182","stop_code":"13182","stop_name":"STATE @ 72ND STREET WB","stop_desc":"FAR SIDE STATE @ 72ND STREET WB","wheelchair_boarding":2,"routes":[{"route_id":"19636","agency_id":"70006","route_short_name":"1","route_long_name":"Main Street - State Street","route_type":3,"route_color":"#FFFFFF","route_text_color":"#000000"}],"agency_name":"Metro St. Louis"},"geometry":{"type":"Point","coordinates":[-90.07695,38.59894]}},{"type":"Feature","properties":{"stop_id":"13184","stop_code":"13184","stop_name":"STATE @ 70TH STREET WB","stop_desc":"FAR SIDE STATE @ 70TH STREET WB","wheelchair_boarding":2,"routes":[{"route_id":"19636","agency_id":"70006","route_short_name":"1","route_long_name":"Main Street - State Street","route_type":3,"route_color":"#FFFFFF","route_text_color":"#000000"}],"agency_name":"Metro St. Louis"},"geometry":{"type":"Point","coordinates":[-90.07858,38.59984]}},{"type":"Feature","properties":{"stop_id":"13185","stop_code":"13185","stop_name":"STATE @ TERRACE WB","stop_desc":"NEAR SIDE STATE @ TERRACE WB","wheelchair_boarding":1,"routes":[{"route_id":"19636","agency_id":"70006","route_short_name":"1","route_long_name":"Main Street - State Street","route_type":3,"route_color":"#FFFFFF","route_text_color":"#000000"}],"agency_name":"Metro St. Louis"},"geometry":{"type":"Point","coordinates":[-90.08028,38.60068]}},{"type":"Feature","properties":{"stop_id":"13186","stop_code":"13186","stop_name":"STATE @ 68TH STREET WB","stop_desc":"NEAR SIDE STATE @ 68TH STREET WB","wheelchair_boarding":2,"routes":[{"route_id":"19636","agency_id":"70006","route_short_name":"1","route_long_name":"Main Street - State Street","route_type":3,"route_color":"#FFFFFF","route_text_color":"#000000"}],"agency_name":"Metro St. Louis"},"geometry":{"type":"Point","coordinates":[-90.08245,38.60151]}},{"type":"Feature","properties":{"stop_id":"13187","stop_code":"13187","stop_name":"STATE @ 62ND STREET WB","stop_desc":"NEAR SIDE STATE @ 62ND STREET WB","wheelchair_boarding":2,"routes":[{"route_id":"19636","agency_id":"70006","route_short_name":"1","route_long_name":"Main Street - State Street","route_type":3,"route_color":"#FFFFFF","route_text_color":"#000000"}],"agency_name":"Metro St. Louis"},"geometry":{"type":"Point","coordinates":[-90.08848,38.60343]}},{"type":"Feature","properties":{"stop_id":"13188","stop_code":"13188","stop_name":"STATE @ 61ST STREET WB","stop_desc":"FAR SIDE STATE @ 61ST STREET WB","wheelchair_boarding":2,"routes":[{"route_id":"19636","agency_id":"70006","route_short_name":"1","route_long_name":"Main Street - State Street","route_type":3,"route_color":"#FFFFFF","route_text_color":"#000000"}],"agency_name":"Metro St. Louis"},"geometry":{"type":"Point","coordinates":[-90.09056,38.60386]}},{"type":"Feature","properties":{"stop_id":"13190","stop_code":"13190","stop_name":"STATE @ 59TH STREET WB","stop_desc":"FAR SIDE STATE @ 59TH STREET WB","wheelchair_boarding":2,"routes":[{"route_id":"19636","agency_id":"70006","route_short_name":"1","route_long_name":"Main Street - State Street","route_type":3,"route_color":"#FFFFFF","route_text_color":"#000000"}],"agency_name":"Metro St. Louis"},"geometry":{"type":"Point","coordinates":[-90.09309,38.60439]}},{"type":"Feature","properties":{"stop_id":"13192","stop_code":"13192","stop_name":"STATE @ 57TH STREET WB","stop_desc":"NEAR SIDE STATE @ 57TH STREET WB","wheelchair_boarding":2,"routes":[{"route_id":"19636","agency_id":"70006","route_short_name":"1","route_long_name":"Main Street - State Street","route_type":3,"route_color":"#FFFFFF","route_text_color":"#000000"}],"agency_name":"Metro St. Louis"},"geometry":{"type":"Point","coordinates":[-90.09473,38.60473]}},{"type":"Feature","properties":{"stop_id":"13193","stop_code":"13193","stop_name":"STATE @ 56TH STREET WB","stop_desc":"NEAR SIDE STATE @ 56TH STREET WB","wheelchair_boarding":2,"routes":[{"route_id":"19636","agency_id":"70006","route_short_name":"1","route_long_name":"Main Street - State Street","route_type":3,"route_color":"#FFFFFF","route_text_color":"#000000"}],"agency_name":"Metro St. Louis"},"geometry":{"type":"Point","coordinates":[-90.09583,38.60497]}},{"type":"Feature","properties":{"stop_id":"13194","stop_code":"13194","stop_name":"STATE @ 55TH STREET WB","stop_desc":"NEAR SIDE STATE @ 55TH STREET WB","wheelchair_boarding":2,"routes":[{"route_id":"19636","agency_id":"70006","route_short_name":"1","route_long_name":"Main Street - State Street","route_type":3,"route_color":"#FFFFFF","route_text_color":"#000000"}],"agency_name":"Metro St. Louis"},"geometry":{"type":"Point","coordinates":[-90.09705,38.60559]}},{"type":"Feature","properties":{"stop_id":"13195","stop_code":"13195","stop_name":"STATE @ 53RD STREET WB","stop_desc":"NEAR SIDE STATE @ 53RD STREET WB","wheelchair_boarding":2,"routes":[{"route_id":"19636","agency_id":"70006","route_short_name":"1","route_long_name":"Main Street - State Street","route_type":3,"route_color":"#FFFFFF","route_text_color":"#000000"}],"agency_name":"Metro St. Louis"},"geometry":{"type":"Point","coordinates":[-90.099,38.60622]}},{"type":"Feature","properties":{"stop_id":"13196","stop_code":"13196","stop_name":"STATE @ 52ND STREET WB","stop_desc":"FAR SIDE STATE @ 52ND STREET WB","wheelchair_boarding":2,"routes":[{"route_id":"19636","agency_id":"70006","route_short_name":"1","route_long_name":"Main Street - State Street","route_type":3,"route_color":"#FFFFFF","route_text_color":"#000000"}],"agency_name":"Metro St. Louis"},"geometry":{"type":"Point","coordinates":[-90.10041,38.60658]}},{"type":"Feature","properties":{"stop_id":"13197","stop_code":"13197","stop_name":"STATE @ 51ST STREET WB","stop_desc":"FAR SIDE STATE @ 51ST STREET WB","wheelchair_boarding":2,"routes":[{"route_id":"19636","agency_id":"70006","route_short_name":"1","route_long_name":"Main Street - State Street","route_type":3,"route_color":"#FFFFFF","route_text_color":"#000000"}],"agency_name":"Metro St. Louis"},"geometry":{"type":"Point","coordinates":[-90.10158,38.60687]}},{"type":"Feature","properties":{"stop_id":"13200","stop_code":"13200","stop_name":"STATE @ 47TH STREET WB","stop_desc":"FAR SIDE STATE @ 47TH STREET WB","wheelchair_boarding":2,"routes":[{"route_id":"19636","agency_id":"70006","route_short_name":"1","route_long_name":"Main Street - State Street","route_type":3,"route_color":"#FFFFFF","route_text_color":"#000000"}],"agency_name":"Metro St. Louis"},"geometry":{"type":"Point","coordinates":[-90.10594,38.60781]}},{"type":"Feature","properties":{"stop_id":"13201","stop_code":"13201","stop_name":"STATE @ 45TH STREET WB","stop_desc":"FAR SIDE STATE @ 45TH STREET WB","wheelchair_boarding":2,"routes":[{"route_id":"19636","agency_id":"70006","route_short_name":"1","route_long_name":"Main Street - State Street","route_type":3,"route_color":"#FFFFFF","route_text_color":"#000000"}],"agency_name":"Metro St. Louis"},"geometry":{"type":"Point","coordinates":[-90.10784,38.60824]}},{"type":"Feature","properties":{"stop_id":"13202","stop_code":"13202","stop_name":"STATE @ 40TH STREET WB","stop_desc":"FAR SIDE STATE @ 40TH STREET WB","wheelchair_boarding":2,"routes":[{"route_id":"19636","agency_id":"70006","route_short_name":"1","route_long_name":"Main Street - State Street","route_type":3,"route_color":"#FFFFFF","route_text_color":"#000000"}],"agency_name":"Metro St. Louis"},"geometry":{"type":"Point","coordinates":[-90.11288,38.60916]}},{"type":"Feature","properties":{"stop_id":"13203","stop_code":"13203","stop_name":"STATE @ 39TH STREET WB","stop_desc":"FAR SIDE STATE @ 39TH STREET WB","wheelchair_boarding":2,"routes":[{"route_id":"19636","agency_id":"70006","route_short_name":"1","route_long_name":"Main Street - State Street","route_type":3,"route_color":"#FFFFFF","route_text_color":"#000000"}],"agency_name":"Metro St. Louis"},"geometry":{"type":"Point","coordinates":[-90.11411,38.60931]}},{"type":"Feature","properties":{"stop_id":"13204","stop_code":"13204","stop_name":"STATE @ 38TH STREET WB","stop_desc":"FAR SIDE STATE @ 38TH STREET WB","wheelchair_boarding":1,"routes":[{"route_id":"19636","agency_id":"70006","route_short_name":"1","route_long_name":"Main Street - State Street","route_type":3,"route_color":"#FFFFFF","route_text_color":"#000000"}],"agency_name":"Metro St. Louis"},"geometry":{"type":"Point","coordinates":[-90.11537,38.60973]}},{"type":"Feature","properties":{"stop_id":"13205","stop_code":"13205","stop_name":"STATE @ POST PLACE WB","stop_desc":"NEAR SIDE STATE @ POST PLACE WB","wheelchair_boarding":2,"routes":[{"route_id":"19636","agency_id":"70006","route_short_name":"1","route_long_name":"Main Street - State Street","route_type":3,"route_color":"#FFFFFF","route_text_color":"#000000"}],"agency_name":"Metro St. Louis"},"geometry":{"type":"Point","coordinates":[-90.11661,38.61045]}},{"type":"Feature","properties":{"stop_id":"13206","stop_code":"13206","stop_name":"STATE @ VOGEL PLACE WB","stop_desc":"NEAR SIDE STATE @ VOGEL PLACE WB","wheelchair_boarding":2,"routes":[{"route_id":"19636","agency_id":"70006","route_short_name":"1","route_long_name":"Main Street - State Street","route_type":3,"route_color":"#FFFFFF","route_text_color":"#000000"}],"agency_name":"Metro St. Louis"},"geometry":{"type":"Point","coordinates":[-90.11849,38.61152]}},{"type":"Feature","properties":{"stop_id":"13207","stop_code":"13207","stop_name":"STATE @ 33RD STREET WB","stop_desc":"FAR SIDE STATE @ 33RD STREET WB","wheelchair_boarding":2,"routes":[{"route_id":"19636","agency_id":"70006","route_short_name":"1","route_long_name":"Main Street - State Street","route_type":3,"route_color":"#FFFFFF","route_text_color":"#000000"}],"agency_name":"Metro St. Louis"},"geometry":{"type":"Point","coordinates":[-90.11987,38.61229]}},{"type":"Feature","properties":{"stop_id":"13208","stop_code":"13208","stop_name":"STATE @ 32ND STREET WB","stop_desc":"NEAR SIDE STATE @ 32ND STREET WB","wheelchair_boarding":1,"routes":[{"route_id":"19636","agency_id":"70006","route_short_name":"1","route_long_name":"Main Street - State Street","route_type":3,"route_color":"#FFFFFF","route_text_color":"#000000"}],"agency_name":"Metro St. Louis"},"geometry":{"type":"Point","coordinates":[-90.12074,38.61274]}},{"type":"Feature","properties":{"stop_id":"13209","stop_code":"13209","stop_name":"STATE @ 31ST STREET WB","stop_desc":"NEAR SIDE STATE @ 31ST STREET WB","wheelchair_boarding":1,"routes":[{"route_id":"19636","agency_id":"70006","route_short_name":"1","route_long_name":"Main Street - State Street","route_type":3,"route_color":"#FFFFFF","route_text_color":"#000000"}],"agency_name":"Metro St. Louis"},"geometry":{"type":"Point","coordinates":[-90.12171,38.61326]}},{"type":"Feature","properties":{"stop_id":"13210","stop_code":"13210","stop_name":"STATE @ 30TH STREET WB","stop_desc":"NEAR SIDE STATE @ 30TH STREET WB","wheelchair_boarding":2,"routes":[{"route_id":"19636","agency_id":"70006","route_short_name":"1","route_long_name":"Main Street - State Street","route_type":3,"route_color":"#FFFFFF","route_text_color":"#000000"}],"agency_name":"Metro St. Louis"},"geometry":{"type":"Point","coordinates":[-90.12298,38.61393]}},{"type":"Feature","properties":{"stop_id":"13211","stop_code":"13211","stop_name":"STATE @ 29TH STREET WB","stop_desc":"FAR SIDE STATE @ 29TH STREET WB","wheelchair_boarding":2,"routes":[{"route_id":"19636","agency_id":"70006","route_short_name":"1","route_long_name":"Main Street - State Street","route_type":3,"route_color":"#FFFFFF","route_text_color":"#000000"}],"agency_name":"Metro St. Louis"},"geometry":{"type":"Point","coordinates":[-90.12425,38.61461]}},{"type":"Feature","properties":{"stop_id":"13212","stop_code":"13212","stop_name":"STATE @ 27TH STREET WB","stop_desc":"FAR SIDE STATE @ 27TH STREET WB","wheelchair_boarding":2,"routes":[{"route_id":"19636","agency_id":"70006","route_short_name":"1","route_long_name":"Main Street - State Street","route_type":3,"route_color":"#FFFFFF","route_text_color":"#000000"}],"agency_name":"Metro St. Louis"},"geometry":{"type":"Point","coordinates":[-90.12579,38.61541]}},{"type":"Feature","properties":{"stop_id":"13213","stop_code":"13213","stop_name":"STATE @ 25TH STREET WB","stop_desc":"NEAR SIDE STATE @ 25TH STREET WB","wheelchair_boarding":1,"routes":[{"route_id":"19636","agency_id":"70006","route_short_name":"1","route_long_name":"Main Street - State Street","route_type":3,"route_color":"#FFFFFF","route_text_color":"#000000"}],"agency_name":"Metro St. Louis"},"geometry":{"type":"Point","coordinates":[-90.12681,38.61595]}},{"type":"Feature","properties":{"stop_id":"13214","stop_code":"13214","stop_name":"STATE @ 24TH STREET WB","stop_desc":"FAR SIDE STATE @ 24TH STREET WB","wheelchair_boarding":1,"routes":[{"route_id":"19636","agency_id":"70006","route_short_name":"1","route_long_name":"Main Street - State Street","route_type":3,"route_color":"#FFFFFF","route_text_color":"#000000"}],"agency_name":"Metro St. Louis"},"geometry":{"type":"Point","coordinates":[-90.12871,38.61677]}},{"type":"Feature","properties":{"stop_id":"13216","stop_code":"13216","stop_name":"STATE @ 22ND STREET WB","stop_desc":"FAR SIDE STATE @ 22ND STREET WB","wheelchair_boarding":2,"routes":[{"route_id":"19636","agency_id":"70006","route_short_name":"1","route_long_name":"Main Street - State Street","route_type":3,"route_color":"#FFFFFF","route_text_color":"#000000"}],"agency_name":"Metro St. Louis"},"geometry":{"type":"Point","coordinates":[-90.13079,38.61751]}},{"type":"Feature","properties":{"stop_id":"13217","stop_code":"13217","stop_name":"STATE @ 20TH STREET WB","stop_desc":"FAR SIDE STATE @ 20TH STREET WB","wheelchair_boarding":2,"routes":[{"route_id":"19636","agency_id":"70006","route_short_name":"1","route_long_name":"Main Street - State Street","route_type":3,"route_color":"#FFFFFF","route_text_color":"#000000"}],"agency_name":"Metro St. Louis"},"geometry":{"type":"Point","coordinates":[-90.13358,38.61851]}},{"type":"Feature","properties":{"stop_id":"13218","stop_code":"13218","stop_name":"STATE @ 19TH STREET WB","stop_desc":"FAR SIDE STATE @ 19TH STREET WB","wheelchair_boarding":2,"routes":[{"route_id":"19636","agency_id":"70006","route_short_name":"1","route_long_name":"Main Street - State Street","route_type":3,"route_color":"#FFFFFF","route_text_color":"#000000"}],"agency_name":"Metro St. Louis"},"geometry":{"type":"Point","coordinates":[-90.13611,38.61942]}},{"type":"Feature","properties":{"stop_id":"13219","stop_code":"13219","stop_name":"STATE @ 18TH STREET WB","stop_desc":"FAR SIDE STATE @ 18TH STREET WB","wheelchair_boarding":2,"routes":[{"route_id":"19636","agency_id":"70006","route_short_name":"1","route_long_name":"Main Street - State Street","route_type":3,"route_color":"#FFFFFF","route_text_color":"#000000"}],"agency_name":"Metro St. Louis"},"geometry":{"type":"Point","coordinates":[-90.13753,38.61992]}},{"type":"Feature","properties":{"stop_id":"13220","stop_code":"13220","stop_name":"STATE @ ALEXANDER PLACE WB","stop_desc":"FAR SIDE STATE @ ALEXANDER PLACE WB","wheelchair_boarding":2,"routes":[{"route_id":"19636","agency_id":"70006","route_short_name":"1","route_long_name":"Main Street - State Street","route_type":3,"route_color":"#FFFFFF","route_text_color":"#000000"}],"agency_name":"Metro St. Louis"},"geometry":{"type":"Point","coordinates":[-90.13854,38.6203]}},{"type":"Feature","properties":{"stop_id":"13222","stop_code":"13222","stop_name":"STATE @ 16TH STREET WB","stop_desc":"FAR SIDE STATE @ 16TH STREET WB","wheelchair_boarding":2,"routes":[{"route_id":"19636","agency_id":"70006","route_short_name":"1","route_long_name":"Main Street - State Street","route_type":3,"route_color":"#FFFFFF","route_text_color":"#000000"}],"agency_name":"Metro St. Louis"},"geometry":{"type":"Point","coordinates":[-90.14116,38.62122]}},{"type":"Feature","properties":{"stop_id":"13223","stop_code":"13223","stop_name":"STATE @ WASHINGTON PLACE WB","stop_desc":"NEAR SIDE STATE @ WASHINGTON PLACE WB","wheelchair_boarding":2,"routes":[{"route_id":"19636","agency_id":"70006","route_short_name":"1","route_long_name":"Main Street - State Street","route_type":3,"route_color":"#FFFFFF","route_text_color":"#000000"}],"agency_name":"Metro St. Louis"},"geometry":{"type":"Point","coordinates":[-90.14314,38.62194]}},{"type":"Feature","properties":{"stop_id":"13225","stop_code":"13225","stop_name":"STATE @ 13TH STREET WB","stop_desc":"FAR SIDE STATE @ 13TH STREET WB","wheelchair_boarding":2,"routes":[{"route_id":"19636","agency_id":"70006","route_short_name":"1","route_long_name":"Main Street - State Street","route_type":3,"route_color":"#FFFFFF","route_text_color":"#000000"}],"agency_name":"Metro St. Louis"},"geometry":{"type":"Point","coordinates":[-90.14557,38.6228]}},{"type":"Feature","properties":{"stop_id":"13226","stop_code":"13226","stop_name":"STATE @ 12TH STREET WB","stop_desc":"FAR SIDE STATE @ 12TH STREET WB","wheelchair_boarding":2,"routes":[{"route_id":"19636","agency_id":"70006","route_short_name":"1","route_long_name":"Main Street - State Street","route_type":3,"route_color":"#FFFFFF","route_text_color":"#000000"}],"agency_name":"Metro St. Louis"},"geometry":{"type":"Point","coordinates":[-90.14763,38.62354]}},{"type":"Feature","properties":{"stop_id":"13227","stop_code":"13227","stop_name":"STATE @ 11TH STREET WB","stop_desc":"FAR SIDE STATE @ 11TH STREET WB","wheelchair_boarding":2,"routes":[{"route_id":"19636","agency_id":"70006","route_short_name":"1","route_long_name":"Main Street - State Street","route_type":3,"route_color":"#FFFFFF","route_text_color":"#000000"}],"agency_name":"Metro St. Louis"},"geometry":{"type":"Point","coordinates":[-90.14887,38.62398]}},{"type":"Feature","properties":{"stop_id":"13228","stop_code":"13228","stop_name":"MARTIN LUTHER KING @ 10TH STREET WB","stop_desc":"FAR SIDE MARTIN LUTHER KING @ 10TH STREET WB","wheelchair_boarding":2,"routes":[{"route_id":"19636","agency_id":"70006","route_short_name":"1","route_long_name":"Main Street - State Street","route_type":3,"route_color":"#FFFFFF","route_text_color":"#000000"}],"agency_name":"Metro St. Louis"},"geometry":{"type":"Point","coordinates":[-90.1508,38.6248]}},{"type":"Feature","properties":{"stop_id":"13229","stop_code":"13229","stop_name":"MARTIN LUTHER KING @ 9TH STREET WB","stop_desc":"FAR SIDE MARTIN LUTHER KING @ 9TH STREET WB","wheelchair_boarding":2,"routes":[{"route_id":"19636","agency_id":"70006","route_short_name":"1","route_long_name":"Main Street - State Street","route_type":3,"route_color":"#FFFFFF","route_text_color":"#000000"}],"agency_name":"Metro St. Louis"},"geometry":{"type":"Point","coordinates":[-90.1517,38.62557]}},{"type":"Feature","properties":{"stop_id":"13230","stop_code":"13230","stop_name":"MARTIN LUTHER KING @ 8TH STREET WB","stop_desc":"FAR SIDE MARTIN LUTHER KING @ 8TH STREET WB","wheelchair_boarding":2,"routes":[{"route_id":"19636","agency_id":"70006","route_short_name":"1","route_long_name":"Main Street - State Street","route_type":3,"route_color":"#FFFFFF","route_text_color":"#000000"}],"agency_name":"Metro St. Louis"},"geometry":{"type":"Point","coordinates":[-90.15254,38.62627]}},{"type":"Feature","properties":{"stop_id":"13231","stop_code":"13231","stop_name":"MARTIN LUTHER KING @ 7TH STREET WB","stop_desc":"FAR SIDE MARTIN LUTHER KING @ 7TH STREET WB","wheelchair_boarding":2,"routes":[{"route_id":"19636","agency_id":"70006","route_short_name":"1","route_long_name":"Main Street - State Street","route_type":3,"route_color":"#FFFFFF","route_text_color":"#000000"}],"agency_name":"Metro St. Louis"},"geometry":{"type":"Point","coordinates":[-90.15341,38.627]}},{"type":"Feature","properties":{"stop_id":"13372","stop_code":"13372","stop_name":"ILLINOIS ROUTE 157 @ STATE SB","stop_desc":"NEAR SIDE ILLINOIS ROUTE 157 @ STATE SB","wheelchair_boarding":2,"routes":[{"route_id":"19636","agency_id":"70006","route_short_name":"1","route_long_name":"Main Street - State Street","route_type":3,"route_color":"#FFFFFF","route_text_color":"#000000"}],"agency_name":"Metro St. Louis"},"geometry":{"type":"Point","coordinates":[-90.05995,38.58924]}},{"type":"Feature","properties":{"stop_id":"14124","stop_code":"14124","stop_name":"FAIRVIEW HEIGHTS TRANSIT CENTER","wheelchair_boarding":1,"routes":[{"route_id":"19636","agency_id":"70006","route_short_name":"1","route_long_name":"Main Street - State Street","route_type":3,"route_color":"#FFFFFF","route_text_color":"#000000"},{"route_id":"19641","agency_id":"70006","route_short_name":"6","route_long_name":"Rosemont","route_type":3,"route_color":"#FFFFFF","route_text_color":"#000000"},{"route_id":"19644","agency_id":"70006","route_short_name":"12","route_long_name":"OFallon-Fairview Heights","route_type":3,"route_color":"#FFFFFF","route_text_color":"#000000"},{"route_id":"19645","agency_id":"70006","route_short_name":"13","route_long_name":"Caseyville","route_type":3,"route_color":"#FFFFFF","route_text_color":"#000000"}],"agency_name":"Metro St. Louis"},"geometry":{"type":"Point","coordinates":[-90.04828,38.5947]}},{"type":"Feature","properties":{"stop_id":"14141","stop_code":"14141","stop_name":"STATE @ 49TH STREET WB","stop_desc":"NEAR SIDE STATE @ 49TH STREET WB","wheelchair_boarding":2,"routes":[{"route_id":"19636","agency_id":"70006","route_short_name":"1","route_long_name":"Main Street - State Street","route_type":3,"route_color":"#FFFFFF","route_text_color":"#000000"}],"agency_name":"Metro St. Louis"},"geometry":{"type":"Point","coordinates":[-90.10393,38.60737]}},{"type":"Feature","properties":{"stop_id":"14149","stop_code":"14149","stop_name":"ILLINOIS ROUTE 161 @ FRENCH VILLAGE INDUSTRIAL PARK NB","stop_desc":"NEAR SIDE ILLINOIS ROUTE 161 @ FRENCH VILLAGE INDUSTRIAL PARK NB","wheelchair_boarding":2,"routes":[{"route_id":"19636","agency_id":"70006","route_short_name":"1","route_long_name":"Main Street - State Street","route_type":3,"route_color":"#FFFFFF","route_text_color":"#000000"}],"agency_name":"Metro St. Louis"},"geometry":{"type":"Point","coordinates":[-90.04517,38.59086]}},{"type":"Feature","properties":{"stop_id":"14207","stop_code":"14207","stop_name":"MAIN @ 20TH STREET WB","stop_desc":"FAR SIDE MAIN @ 20TH STREET WB","wheelchair_boarding":2,"routes":[{"route_id":"19636","agency_id":"70006","route_short_name":"1","route_long_name":"Main Street - State Street","route_type":3,"route_color":"#FFFFFF","route_text_color":"#000000"}],"agency_name":"Metro St. Louis"},"geometry":{"type":"Point","coordinates":[-90.0063,38.52005]}},{"type":"Feature","properties":{"stop_id":"14209","stop_code":"14209","stop_name":"ST. CLAIR @ MAGDALENA WB","stop_desc":"NEAR SIDE ST. CLAIR @ MAGDALENA WB","wheelchair_boarding":2,"routes":[{"route_id":"19636","agency_id":"70006","route_short_name":"1","route_long_name":"Main Street - State Street","route_type":3,"route_color":"#FFFFFF","route_text_color":"#000000"},{"route_id":"19641","agency_id":"70006","route_short_name":"6","route_long_name":"Rosemont","route_type":3,"route_color":"#FFFFFF","route_text_color":"#000000"},{"route_id":"19645","agency_id":"70006","route_short_name":"13","route_long_name":"Caseyville","route_type":3,"route_color":"#FFFFFF","route_text_color":"#000000"}],"agency_name":"Metro St. Louis"},"geometry":{"type":"Point","coordinates":[-90.05067,38.59756]}},{"type":"Feature","properties":{"stop_id":"14320","stop_code":"14320","stop_name":"MAIN @ 95TH STREET WB","stop_desc":"NEAR SIDE MAIN @ 95TH STREET WB","wheelchair_boarding":2,"routes":[{"route_id":"19636","agency_id":"70006","route_short_name":"1","route_long_name":"Main Street - State Street","route_type":3,"route_color":"#FFFFFF","route_text_color":"#000000"}],"agency_name":"Metro St. Louis"},"geometry":{"type":"Point","coordinates":[-90.05591,38.57663]}},{"type":"Feature","properties":{"stop_id":"14321","stop_code":"14321","stop_name":"STATE @ 88TH STREET WB","stop_desc":"FAR SIDE STATE @ 88TH STREET WB","wheelchair_boarding":2,"routes":[{"route_id":"19636","agency_id":"70006","route_short_name":"1","route_long_name":"Main Street - State Street","route_type":3,"route_color":"#FFFFFF","route_text_color":"#000000"}],"agency_name":"Metro St. Louis"},"geometry":{"type":"Point","coordinates":[-90.06105,38.58919]}},{"type":"Feature","properties":{"stop_id":"14330","stop_code":"14330","stop_name":"5TH & MISSOURI TRANSIT CENTER","wheelchair_boarding":1,"routes":[{"route_id":"19636","agency_id":"70006","route_short_name":"1","route_long_name":"Main Street - State Street","route_type":3,"route_color":"#FFFFFF","route_text_color":"#000000"},{"route_id":"19637","agency_id":"70006","route_short_name":"2","route_long_name":"Cahokia Heights","route_type":3,"route_color":"#FFFFFF","route_text_color":"#000000"},{"route_id":"19638","agency_id":"70006","route_short_name":"3","route_long_name":"Sauget - Water Street","route_type":3,"route_color":"#FFFFFF","route_text_color":"#000000"},{"route_id":"19639","agency_id":"70006","route_short_name":"4","route_long_name":"19th & Central","route_type":3,"route_color":"#FFFFFF","route_text_color":"#000000"},{"route_id":"19640","agency_id":"70006","route_short_name":"5","route_long_name":"Missouri Ave - ML King","route_type":3,"route_color":"#FFFFFF","route_text_color":"#000000"}],"agency_name":"Metro St. Louis"},"geometry":{"type":"Point","coordinates":[-90.15906,38.62501]}},{"type":"Feature","properties":{"stop_id":"14874","stop_code":"14874","stop_name":"MAIN @ 40TH STREET WB","stop_desc":"NEAR SIDE MAIN @ 40TH STREET WB","wheelchair_boarding":2,"routes":[{"route_id":"19636","agency_id":"70006","route_short_name":"1","route_long_name":"Main Street - State Street","route_type":3,"route_color":"#FFFFFF","route_text_color":"#000000"}],"agency_name":"Metro St. Louis"},"geometry":{"type":"Point","coordinates":[-90.01873,38.53637]}},{"type":"Feature","properties":{"stop_id":"14875","stop_code":"14875","stop_name":"STATE @ 15TH STREET WB","stop_desc":"FAR SIDE STATE @ 15TH STREET WB","wheelchair_boarding":2,"routes":[{"route_id":"19636","agency_id":"70006","route_short_name":"1","route_long_name":"Main Street - State Street","route_type":3,"route_color":"#FFFFFF","route_text_color":"#000000"}],"agency_name":"Metro St. Louis"},"geometry":{"type":"Point","coordinates":[-90.14207,38.62156]}},{"type":"Feature","properties":{"stop_id":"14900","stop_code":"14900","stop_name":"STATE @ 46TH STREET WB","stop_desc":"FAR SIDE STATE @ 46TH STREET WB","wheelchair_boarding":1,"routes":[{"route_id":"19636","agency_id":"70006","route_short_name":"1","route_long_name":"Main Street - State Street","route_type":3,"route_color":"#FFFFFF","route_text_color":"#000000"}],"agency_name":"Metro St. Louis"},"geometry":{"type":"Point","coordinates":[-90.10683,38.60801]}},{"type":"Feature","properties":{"stop_id":"15712","stop_code":"15712","stop_name":"A STREET @ CHURCH WB","stop_desc":"FAR SIDE A STREET @ CHURCH WB","wheelchair_boarding":2,"routes":[{"route_id":"19636","agency_id":"70006","route_short_name":"1","route_long_name":"Main Street - State Street","route_type":3,"route_color":"#FFFFFF","route_text_color":"#000000"},{"route_id":"19648","agency_id":"70006","route_short_name":"16","route_long_name":"St. Clair Square","route_type":3,"route_color":"#FFFFFF","route_text_color":"#000000"}],"agency_name":"Metro St. Louis"},"geometry":{"type":"Point","coordinates":[-89.98052,38.51463]}},{"type":"Feature","properties":{"stop_id":"15713","stop_code":"15713","stop_name":"A STREET @ JACKSON WB","stop_desc":"FAR SIDE A STREET @ JACKSON WB","wheelchair_boarding":2,"routes":[{"route_id":"19636","agency_id":"70006","route_short_name":"1","route_long_name":"Main Street - State Street","route_type":3,"route_color":"#FFFFFF","route_text_color":"#000000"},{"route_id":"19648","agency_id":"70006","route_short_name":"16","route_long_name":"St. Clair Square","route_type":3,"route_color":"#FFFFFF","route_text_color":"#000000"}],"agency_name":"Metro St. Louis"},"geometry":{"type":"Point","coordinates":[-89.9817,38.51463]}},{"type":"Feature","properties":{"stop_id":"15714","stop_code":"15714","stop_name":"A STREET @ HIGH WB","stop_desc":"FAR SIDE A STREET @ HIGH WB","wheelchair_boarding":2,"routes":[{"route_id":"19636","agency_id":"70006","route_short_name":"1","route_long_name":"Main Street - State Street","route_type":3,"route_color":"#FFFFFF","route_text_color":"#000000"},{"route_id":"19648","agency_id":"70006","route_short_name":"16","route_long_name":"St. Clair Square","route_type":3,"route_color":"#FFFFFF","route_text_color":"#000000"}],"agency_name":"Metro St. Louis"},"geometry":{"type":"Point","coordinates":[-89.98308,38.51462]}},{"type":"Feature","properties":{"stop_id":"15715","stop_code":"15715","stop_name":"A STREET @ ILLINOIS WB","stop_desc":"FAR SIDE A STREET @ ILLINOIS WB","wheelchair_boarding":2,"routes":[{"route_id":"19636","agency_id":"70006","route_short_name":"1","route_long_name":"Main Street - State Street","route_type":3,"route_color":"#FFFFFF","route_text_color":"#000000"}],"agency_name":"Metro St. Louis"},"geometry":{"type":"Point","coordinates":[-89.98442,38.51463]}},{"type":"Feature","properties":{"stop_id":"15717","stop_code":"15717","stop_name":"A STREET @ 2ND STREET WB","stop_desc":"FAR SIDE A STREET @ 2ND STREET WB","wheelchair_boarding":2,"routes":[{"route_id":"19636","agency_id":"70006","route_short_name":"1","route_long_name":"Main Street - State Street","route_type":3,"route_color":"#FFFFFF","route_text_color":"#000000"}],"agency_name":"Metro St. Louis"},"geometry":{"type":"Point","coordinates":[-89.98731,38.51463]}}]}