{"type":"FeatureCollection","features":[{"type":"Feature","properties":{"agency_name":"Metro St. Louis","route_id":"19610","agency_id":"70006","route_short_name":"35","route_long_name":"Rock Road","route_type":3,"route_color":"#FFFFFF","route_text_color":"#000000"},"geometry":{"type":"MultiLineString","coordinates":[[[-90.43077,38.76286],[-90.42846,38.76221],[-90.43077,38.76286],[-90.43082,38.7628],[-90.43084,38.76268],[-90.43082,38.76261],[-90.42952,38.76127],[-90.42938,38.76118],[-90.42964,38.76104],[-90.42995,38.76093],[-90.43017,38.7609],[-90.4308,38.76088],[-90.43122,38.76079],[-90.43188,38.76055],[-90.43491,38.75936],[-90.43471,38.75906],[-90.43403,38.75831],[-90.43369,38.758],[-90.43296,38.75738],[-90.43258,38.75702],[-90.43225,38.75668],[-90.43199,38.75645],[-90.4331,38.75609],[-90.4333,38.75605],[-90.43378,38.756],[-90.43405,38.7559],[-90.43417,38.75579],[-90.43425,38.75564],[-90.43427,38.75547],[-90.43426,38.75539],[-90.4342,38.75522],[-90.4341,38.75506],[-90.43392,38.75483],[-90.43354,38.75445],[-90.43335,38.7542],[-90.433,38.75361],[-90.43293,38.75347],[-90.43291,38.75331],[-90.43299,38.75316],[-90.43279,38.7531],[-90.43256,38.75297],[-90.43188,38.75228],[-90.43175,38.75217],[-90.43161,38.7521],[-90.43122,38.75199],[-90.43102,38.75187],[-90.43067,38.75139],[-90.43057,38.75111],[-90.43054,38.7509],[-90.43057,38.75057],[-90.43063,38.75036],[-90.43073,38.75015],[-90.43091,38.74991],[-90.43016,38.74951],[-90.42972,38.74913],[-90.42795,38.75019],[-90.4271,38.75068],[-90.42563,38.75056],[-90.42311,38.74824],[-90.42262,38.74785],[-90.42231,38.74764],[-90.42174,38.74729],[-90.42128,38.74705],[-90.42102,38.74693],[-90.4204,38.74669],[-90.41411,38.74444],[-90.41228,38.74382],[-90.40938,38.74275],[-90.40655,38.74176],[-90.40626,38.74165],[-90.40593,38.7415],[-90.40465,38.74087],[-90.40047,38.73852],[-90.40012,38.73832],[-90.39964,38.73801],[-90.39744,38.73677],[-90.39393,38.73475],[-90.38589,38.73023],[-90.38441,38.72938],[-90.3808,38.72735],[-90.37984,38.72679],[-90.37463,38.72382],[-90.37133,38.72197],[-90.36937,38.72096],[-90.36894,38.72071],[-90.36784,38.72014],[-90.36634,38.7194],[-90.36571,38.71906],[-90.36435,38.71828],[-90.36222,38.71718],[-90.35765,38.71467],[-90.35521,38.71336],[-90.3496,38.71031],[-90.348,38.70946],[-90.34102,38.70567],[-90.34063,38.70548],[-90.33992,38.7051],[-90.33782,38.70394],[-90.33245,38.70112],[-90.33151,38.70065],[-90.3295,38.69956],[-90.32521,38.69732],[-90.32245,38.69589],[-90.32184,38.69559],[-90.31974,38.69449],[-90.31835,38.69379],[-90.31753,38.6933],[-90.31436,38.69097],[-90.31146,38.68909],[-90.31099,38.6888],[-90.30283,38.68454],[-90.30212,38.68467],[-90.30195,38.68459],[-90.30182,38.68464]],[[-90.44625,38.77756],[-90.4464,38.77715],[-90.44625,38.77756],[-90.44626,38.77766],[-90.44633,38.77772],[-90.44967,38.77889],[-90.44974,38.77893],[-90.45236,38.77754],[-90.45249,38.77742],[-90.45265,38.77715],[-90.45029,38.77641],[-90.44667,38.77536],[-90.44617,38.77518],[-90.44524,38.77473],[-90.44443,38.77418],[-90.444,38.77382],[-90.43702,38.76661],[-90.4367,38.76625],[-90.43639,38.76582],[-90.43628,38.76564],[-90.43604,38.76515],[-90.43593,38.76487],[-90.4358,38.76445],[-90.43571,38.76389],[-90.43568,38.76333],[-90.43568,38.76241],[-90.43565,38.76144],[-90.4356,38.76101],[-90.4355,38.76061],[-90.43536,38.76023],[-90.43518,38.75982],[-90.43504,38.75956]]]}},{"type":"Feature","properties":{"stop_id":"13497","stop_code":"13497","stop_name":"ST. CHARLES ROCK ROAD @ WOODSON EB","stop_desc":"FAR SIDE ST. CHARLES ROCK ROAD @ WOODSON EB","wheelchair_boarding":1,"routes":[{"route_id":"19610","agency_id":"70006","route_short_name":"35","route_long_name":"Rock Road","route_type":3,"route_color":"#FFFFFF","route_text_color":"#000000"}],"agency_name":"Metro St. Louis"},"geometry":{"type":"Point","coordinates":[-90.35851,38.71505]}},{"type":"Feature","properties":{"stop_id":"15681","stop_code":"15681","stop_name":"3499 DEPAUL LANE SB","stop_desc":"MID-BLOCK 3499 DEPAUL LANE SB","wheelchair_boarding":2,"routes":[{"route_id":"19610","agency_id":"70006","route_short_name":"35","route_long_name":"Rock Road","route_type":3,"route_color":"#FFFFFF","route_text_color":"#000000"}],"agency_name":"Metro St. Louis"},"geometry":{"type":"Point","coordinates":[-90.43361,38.75446]}},{"type":"Feature","properties":{"stop_id":"15797","stop_code":"15797","stop_name":"ST. CHARLES ROCK ROAD @ NORTH AND SOUTH EB","stop_desc":"NEAR SIDE ST. CHARLES ROCK ROAD @ NORTH AND SOUTH EB","wheelchair_boarding":1,"routes":[{"route_id":"19610","agency_id":"70006","route_short_name":"35","route_long_name":"Rock Road","route_type":3,"route_color":"#FFFFFF","route_text_color":"#000000"}],"agency_name":"Metro St. Louis"},"geometry":{"type":"Point","coordinates":[-90.33194,38.70073]}},{"type":"Feature","properties":{"stop_id":"15798","stop_code":"15798","stop_name":"ST. CHARLES ROCK ROAD @ LEROY EB","stop_desc":"NEAR SIDE ST. CHARLES ROCK ROAD @ LEROY EB","wheelchair_boarding":2,"routes":[{"route_id":"19610","agency_id":"70006","route_short_name":"35","route_long_name":"Rock Road","route_type":3,"route_color":"#FFFFFF","route_text_color":"#000000"}],"agency_name":"Metro St. Louis"},"geometry":{"type":"Point","coordinates":[-90.30652,38.68642]}},{"type":"Feature","properties":{"stop_id":"16507","stop_code":"16507","stop_name":"PENNRIDGE @ CARROLLTON INDUSTRIAL WB","stop_desc":"FAR SIDE PENNRIDGE @ CARROLLTON INDUSTRIAL WB","wheelchair_boarding":2,"routes":[{"route_id":"19610","agency_id":"70006","route_short_name":"35","route_long_name":"Rock Road","route_type":3,"route_color":"#FFFFFF","route_text_color":"#000000"}],"agency_name":"Metro St. Louis"},"geometry":{"type":"Point","coordinates":[-90.4285,38.76238]}},{"type":"Feature","properties":{"stop_id":"16508","stop_code":"16508","stop_name":"PENNRIDGE @ ST. CHARLES ROCK ROAD WB","stop_desc":"NEAR SIDE PENNRIDGE @ ST. CHARLES ROCK ROAD WB","wheelchair_boarding":2,"routes":[{"route_id":"19610","agency_id":"70006","route_short_name":"35","route_long_name":"Rock Road","route_type":3,"route_color":"#FFFFFF","route_text_color":"#000000"}],"agency_name":"Metro St. Louis"},"geometry":{"type":"Point","coordinates":[-90.43409,38.75977]}},{"type":"Feature","properties":{"stop_id":"314","stop_code":"314","stop_name":"175 BOULDER INDUSTRIAL","stop_desc":"MID-BLOCK 175 BOULDER INDUSTRIAL","wheelchair_boarding":2,"routes":[{"route_id":"19610","agency_id":"70006","route_short_name":"35","route_long_name":"Rock Road","route_type":3,"route_color":"#FFFFFF","route_text_color":"#000000"}],"agency_name":"Metro St. Louis"},"geometry":{"type":"Point","coordinates":[-90.44713,38.77805]}},{"type":"Feature","properties":{"stop_id":"315","stop_code":"315","stop_name":"DEPAUL @ DEPAUL HOSPITAL SB","stop_desc":"NEAR SIDE DEPAUL @ DEPAUL HOSPITAL SB","wheelchair_boarding":1,"routes":[{"route_id":"19610","agency_id":"70006","route_short_name":"35","route_long_name":"Rock Road","route_type":3,"route_color":"#FFFFFF","route_text_color":"#000000"}],"agency_name":"Metro St. Louis"},"geometry":{"type":"Point","coordinates":[-90.43082,38.75012]}},{"type":"Feature","properties":{"stop_id":"6911","stop_code":"6911","stop_name":"ST CHARLES ROCK ROAD @ CROSSROADS INDUSTRIAL EB","stop_desc":"FAR SIDE ST CHARLES ROCK ROAD @ CROSSROADS INDUSTRIAL EB","wheelchair_boarding":2,"routes":[{"route_id":"19610","agency_id":"70006","route_short_name":"35","route_long_name":"Rock Road","route_type":3,"route_color":"#FFFFFF","route_text_color":"#000000"}],"agency_name":"Metro St. Louis"},"geometry":{"type":"Point","coordinates":[-90.45179,38.77682]}},{"type":"Feature","properties":{"stop_id":"6912","stop_code":"6912","stop_name":"ST CHARLES ROCK ROAD @ NORTHWEST INDUSTRIAL EB","stop_desc":"FAR SIDE ST CHARLES ROCK ROAD @ NORTHWEST INDUSTRIAL EB","wheelchair_boarding":2,"routes":[{"route_id":"19610","agency_id":"70006","route_short_name":"35","route_long_name":"Rock Road","route_type":3,"route_color":"#FFFFFF","route_text_color":"#000000"}],"agency_name":"Metro St. Louis"},"geometry":{"type":"Point","coordinates":[-90.44619,38.77512]}},{"type":"Feature","properties":{"stop_id":"6914","stop_code":"6914","stop_name":"ST. CHARLES ROCK ROAD @ TAUSSIG EB","stop_desc":"FAR SIDE ST. CHARLES ROCK ROAD @ TAUSSIG EB","wheelchair_boarding":1,"routes":[{"route_id":"19610","agency_id":"70006","route_short_name":"35","route_long_name":"Rock Road","route_type":3,"route_color":"#FFFFFF","route_text_color":"#000000"}],"agency_name":"Metro St. Louis"},"geometry":{"type":"Point","coordinates":[-90.43955,38.76911]}},{"type":"Feature","properties":{"stop_id":"6915","stop_code":"6915","stop_name":"ST. CHARLES ROCK ROAD @ PENNRIDGE EB","stop_desc":"NEAR SIDE ST. CHARLES ROCK ROAD @ PENNRIDGE EB","wheelchair_boarding":1,"routes":[{"route_id":"19610","agency_id":"70006","route_short_name":"35","route_long_name":"Rock Road","route_type":3,"route_color":"#FFFFFF","route_text_color":"#000000"}],"agency_name":"Metro St. Louis"},"geometry":{"type":"Point","coordinates":[-90.43537,38.75997]}},{"type":"Feature","properties":{"stop_id":"7100","stop_code":"7100","stop_name":"MCKELVEY @ BRIDGETON SQUARE EB","stop_desc":"NEAR SIDE MCKELVEY @ BRIDGETON SQUARE EB","wheelchair_boarding":2,"routes":[{"route_id":"19610","agency_id":"70006","route_short_name":"35","route_long_name":"Rock Road","route_type":3,"route_color":"#FFFFFF","route_text_color":"#000000"}],"agency_name":"Metro St. Louis"},"geometry":{"type":"Point","coordinates":[-90.42873,38.74962]}},{"type":"Feature","properties":{"stop_id":"7101","stop_code":"7101","stop_name":"MARESCHALL @ ST. CHARLES ROCK ROAD WB","stop_desc":"FAR SIDE MARESCHALL @ ST. CHARLES ROCK ROAD WB","wheelchair_boarding":2,"routes":[{"route_id":"19610","agency_id":"70006","route_short_name":"35","route_long_name":"Rock Road","route_type":3,"route_color":"#FFFFFF","route_text_color":"#000000"}],"agency_name":"Metro St. Louis"},"geometry":{"type":"Point","coordinates":[-90.43283,38.75624]}},{"type":"Feature","properties":{"stop_id":"7151","stop_code":"7151","stop_name":"ST. CHARLES ROCK ROAD @ MCKELVEY EB","stop_desc":"FAR SIDE ST. CHARLES ROCK ROAD @ MCKELVEY EB","wheelchair_boarding":1,"routes":[{"route_id":"19610","agency_id":"70006","route_short_name":"35","route_long_name":"Rock Road","route_type":3,"route_color":"#FFFFFF","route_text_color":"#000000"}],"agency_name":"Metro St. Louis"},"geometry":{"type":"Point","coordinates":[-90.42522,38.75004]}},{"type":"Feature","properties":{"stop_id":"7152","stop_code":"7152","stop_name":"11979 ST. CHARLES ROCK ROAD EB","stop_desc":"FAR SIDE 11979 ST. CHARLES ROCK ROAD EB","wheelchair_boarding":1,"routes":[{"route_id":"19610","agency_id":"70006","route_short_name":"35","route_long_name":"Rock Road","route_type":3,"route_color":"#FFFFFF","route_text_color":"#000000"}],"agency_name":"Metro St. Louis"},"geometry":{"type":"Point","coordinates":[-90.42232,38.74751]}},{"type":"Feature","properties":{"stop_id":"7154","stop_code":"7154","stop_name":"ST. CHARLES ROCK ROAD @ PAUL MAYER EB","stop_desc":"MID-BLOCK ST. CHARLES ROCK ROAD @ PAUL MAYER EB","wheelchair_boarding":1,"routes":[{"route_id":"19610","agency_id":"70006","route_short_name":"35","route_long_name":"Rock Road","route_type":3,"route_color":"#FFFFFF","route_text_color":"#000000"}],"agency_name":"Metro St. Louis"},"geometry":{"type":"Point","coordinates":[-90.41853,38.74593]}},{"type":"Feature","properties":{"stop_id":"7156","stop_code":"7156","stop_name":"ST. CHARLES ROCK ROAD @ MARK TWAIN EB","stop_desc":"NEAR SIDE ST. CHARLES ROCK ROAD @ MARK TWAIN EB","wheelchair_boarding":2,"routes":[{"route_id":"19610","agency_id":"70006","route_short_name":"35","route_long_name":"Rock Road","route_type":3,"route_color":"#FFFFFF","route_text_color":"#000000"}],"agency_name":"Metro St. Louis"},"geometry":{"type":"Point","coordinates":[-90.40963,38.74276]}},{"type":"Feature","properties":{"stop_id":"7157","stop_code":"7157","stop_name":"11444 ST. CHARLES ROCK ROAD EB","stop_desc":"MID-BLOCK 11444 ST. CHARLES ROCK ROAD EB","wheelchair_boarding":1,"routes":[{"route_id":"19610","agency_id":"70006","route_short_name":"35","route_long_name":"Rock Road","route_type":3,"route_color":"#FFFFFF","route_text_color":"#000000"}],"agency_name":"Metro St. Louis"},"geometry":{"type":"Point","coordinates":[-90.40585,38.74136]}},{"type":"Feature","properties":{"stop_id":"7159","stop_code":"7159","stop_name":"ST. CHARLES ROCK ROAD @ FEE FEE EB","stop_desc":"MID-BLOCK ST. CHARLES ROCK ROAD @ FEE FEE EB","wheelchair_boarding":1,"routes":[{"route_id":"19610","agency_id":"70006","route_short_name":"35","route_long_name":"Rock Road","route_type":3,"route_color":"#FFFFFF","route_text_color":"#000000"}],"agency_name":"Metro St. Louis"},"geometry":{"type":"Point","coordinates":[-90.40238,38.73948]}},{"type":"Feature","properties":{"stop_id":"7160","stop_code":"7160","stop_name":"ST. CHARLES ROCK ROAD @ CYPRESS EB","stop_desc":"FAR SIDE ST. CHARLES ROCK ROAD @ CYPRESS EB","wheelchair_boarding":1,"routes":[{"route_id":"19610","agency_id":"70006","route_short_name":"35","route_long_name":"Rock Road","route_type":3,"route_color":"#FFFFFF","route_text_color":"#000000"}],"agency_name":"Metro St. Louis"},"geometry":{"type":"Point","coordinates":[-90.39034,38.73261]}},{"type":"Feature","properties":{"stop_id":"7161","stop_code":"7161","stop_name":"ST. CHARLES ROCK ROAD @ ST. TIMOTHY EB","stop_desc":"NEAR SIDE ST. CHARLES ROCK ROAD @ ST. TIMOTHY EB","wheelchair_boarding":2,"routes":[{"route_id":"19610","agency_id":"70006","route_short_name":"35","route_long_name":"Rock Road","route_type":3,"route_color":"#FFFFFF","route_text_color":"#000000"}],"agency_name":"Metro St. Louis"},"geometry":{"type":"Point","coordinates":[-90.38881,38.73177]}},{"type":"Feature","properties":{"stop_id":"7162","stop_code":"7162","stop_name":"ST. CHARLES ROCK ROAD @ ASHBY EB","stop_desc":"FAR SIDE ST. CHARLES ROCK ROAD @ ASHBY EB","wheelchair_boarding":2,"routes":[{"route_id":"19610","agency_id":"70006","route_short_name":"35","route_long_name":"Rock Road","route_type":3,"route_color":"#FFFFFF","route_text_color":"#000000"}],"agency_name":"Metro St. Louis"},"geometry":{"type":"Point","coordinates":[-90.38572,38.73001]}},{"type":"Feature","properties":{"stop_id":"7165","stop_code":"7165","stop_name":"ST. CHARLES ROCK ROAD @ SAN JOSE EB","stop_desc":"FAR SIDE ST. CHARLES ROCK ROAD @ SAN JOSE EB","wheelchair_boarding":1,"routes":[{"route_id":"19610","agency_id":"70006","route_short_name":"35","route_long_name":"Rock Road","route_type":3,"route_color":"#FFFFFF","route_text_color":"#000000"}],"agency_name":"Metro St. Louis"},"geometry":{"type":"Point","coordinates":[-90.38218,38.72803]}},{"type":"Feature","properties":{"stop_id":"7166","stop_code":"7166","stop_name":"ST. CHARLES ROCK ROAD @ ST JOACHIM EB","stop_desc":"FAR SIDE ST. CHARLES ROCK ROAD @ ST JOACHIM EB","wheelchair_boarding":1,"routes":[{"route_id":"19610","agency_id":"70006","route_short_name":"35","route_long_name":"Rock Road","route_type":3,"route_color":"#FFFFFF","route_text_color":"#000000"}],"agency_name":"Metro St. Louis"},"geometry":{"type":"Point","coordinates":[-90.3803,38.72696]}},{"type":"Feature","properties":{"stop_id":"7167","stop_code":"7167","stop_name":"ST. CHARLES ROCK ROAD @ ST. GREGORY EB","stop_desc":"FAR SIDE ST. CHARLES ROCK ROAD @ ST. GREGORY EB","wheelchair_boarding":2,"routes":[{"route_id":"19610","agency_id":"70006","route_short_name":"35","route_long_name":"Rock Road","route_type":3,"route_color":"#FFFFFF","route_text_color":"#000000"}],"agency_name":"Metro St. Louis"},"geometry":{"type":"Point","coordinates":[-90.37804,38.72568]}},{"type":"Feature","properties":{"stop_id":"7169","stop_code":"7169","stop_name":"ST. CHARLES ROCK ROAD @ WESTRIDGE EB","stop_desc":"FAR SIDE ST. CHARLES ROCK ROAD @ WESTRIDGE EB","wheelchair_boarding":2,"routes":[{"route_id":"19610","agency_id":"70006","route_short_name":"35","route_long_name":"Rock Road","route_type":3,"route_color":"#FFFFFF","route_text_color":"#000000"}],"agency_name":"Metro St. Louis"},"geometry":{"type":"Point","coordinates":[-90.37559,38.72428]}},{"type":"Feature","properties":{"stop_id":"7170","stop_code":"7170","stop_name":"ST. CHARLES ROCK ROAD @ DEHART PLACE EB","stop_desc":"FAR SIDE ST. CHARLES ROCK ROAD @ DEHART PLACE EB","wheelchair_boarding":1,"routes":[{"route_id":"19610","agency_id":"70006","route_short_name":"35","route_long_name":"Rock Road","route_type":3,"route_color":"#FFFFFF","route_text_color":"#000000"}],"agency_name":"Metro St. Louis"},"geometry":{"type":"Point","coordinates":[-90.37228,38.72243]}},{"type":"Feature","properties":{"stop_id":"7171","stop_code":"7171","stop_name":"ST. CHARLES ROCK ROAD @ LYNNTOWN EB","stop_desc":"FAR SIDE ST. CHARLES ROCK ROAD @ LYNNTOWN EB","wheelchair_boarding":1,"routes":[{"route_id":"19610","agency_id":"70006","route_short_name":"35","route_long_name":"Rock Road","route_type":3,"route_color":"#FFFFFF","route_text_color":"#000000"}],"agency_name":"Metro St. Louis"},"geometry":{"type":"Point","coordinates":[-90.36844,38.72036]}},{"type":"Feature","properties":{"stop_id":"7172","stop_code":"7172","stop_name":"ST. CHARLES ROCK ROAD @ COLES EB","stop_desc":"NEAR SIDE ST. CHARLES ROCK ROAD @ COLES EB","wheelchair_boarding":1,"routes":[{"route_id":"19610","agency_id":"70006","route_short_name":"35","route_long_name":"Rock Road","route_type":3,"route_color":"#FFFFFF","route_text_color":"#000000"}],"agency_name":"Metro St. Louis"},"geometry":{"type":"Point","coordinates":[-90.36624,38.71927]}},{"type":"Feature","properties":{"stop_id":"7174","stop_code":"7174","stop_name":"ST. CHARLES ROCK ROAD @ DIX EB","stop_desc":"FAR SIDE ST. CHARLES ROCK ROAD @ DIX EB","wheelchair_boarding":1,"routes":[{"route_id":"19610","agency_id":"70006","route_short_name":"35","route_long_name":"Rock Road","route_type":3,"route_color":"#FFFFFF","route_text_color":"#000000"}],"agency_name":"Metro St. Louis"},"geometry":{"type":"Point","coordinates":[-90.36265,38.71729]}},{"type":"Feature","properties":{"stop_id":"7175","stop_code":"7175","stop_name":"ST. CHARLES ROCK ROAD @ MARVIN EB","stop_desc":"NEAR SIDE ST. CHARLES ROCK ROAD @ MARVIN EB","wheelchair_boarding":1,"routes":[{"route_id":"19610","agency_id":"70006","route_short_name":"35","route_long_name":"Rock Road","route_type":3,"route_color":"#FFFFFF","route_text_color":"#000000"}],"agency_name":"Metro St. Louis"},"geometry":{"type":"Point","coordinates":[-90.36113,38.71645]}},{"type":"Feature","properties":{"stop_id":"7178","stop_code":"7178","stop_name":"ST. CHARLES ROCK ROAD @ ORLANDO EB","stop_desc":"MID-BLOCK ST. CHARLES ROCK ROAD @ ORLANDO EB","wheelchair_boarding":1,"routes":[{"route_id":"19610","agency_id":"70006","route_short_name":"35","route_long_name":"Rock Road","route_type":3,"route_color":"#FFFFFF","route_text_color":"#000000"}],"agency_name":"Metro St. Louis"},"geometry":{"type":"Point","coordinates":[-90.3544,38.71284]}},{"type":"Feature","properties":{"stop_id":"7180","stop_code":"7180","stop_name":"ST. CHARLES ROCK ROAD @ EMINENCE EB","stop_desc":"FAR SIDE ST. CHARLES ROCK ROAD @ EMINENCE EB","wheelchair_boarding":2,"routes":[{"route_id":"19610","agency_id":"70006","route_short_name":"35","route_long_name":"Rock Road","route_type":3,"route_color":"#FFFFFF","route_text_color":"#000000"}],"agency_name":"Metro St. Louis"},"geometry":{"type":"Point","coordinates":[-90.35193,38.7115]}},{"type":"Feature","properties":{"stop_id":"7181","stop_code":"7181","stop_name":"ST. CHARLES ROCK ROAD @ BROWN EB","stop_desc":"FAR SIDE ST. CHARLES ROCK ROAD @ BROWN EB","wheelchair_boarding":1,"routes":[{"route_id":"19610","agency_id":"70006","route_short_name":"35","route_long_name":"Rock Road","route_type":3,"route_color":"#FFFFFF","route_text_color":"#000000"}],"agency_name":"Metro St. Louis"},"geometry":{"type":"Point","coordinates":[-90.34981,38.71033]}},{"type":"Feature","properties":{"stop_id":"7182","stop_code":"7182","stop_name":"8756 ST. CHARLES ROCK ROAD EB","stop_desc":"MID-BLOCK 8756 ST. CHARLES ROCK ROAD EB","wheelchair_boarding":1,"routes":[{"route_id":"19610","agency_id":"70006","route_short_name":"35","route_long_name":"Rock Road","route_type":3,"route_color":"#FFFFFF","route_text_color":"#000000"}],"agency_name":"Metro St. Louis"},"geometry":{"type":"Point","coordinates":[-90.34735,38.70897]}},{"type":"Feature","properties":{"stop_id":"7183","stop_code":"7183","stop_name":"ST. CHARLES ROCK ROAD @ MCKIBBON EB","stop_desc":"FAR SIDE ST. CHARLES ROCK ROAD @ MCKIBBON EB","wheelchair_boarding":1,"routes":[{"route_id":"19610","agency_id":"70006","route_short_name":"35","route_long_name":"Rock Road","route_type":3,"route_color":"#FFFFFF","route_text_color":"#000000"}],"agency_name":"Metro St. Louis"},"geometry":{"type":"Point","coordinates":[-90.34513,38.7078]}},{"type":"Feature","properties":{"stop_id":"7184","stop_code":"7184","stop_name":"ST. CHARLES ROCK ROAD @ BURTON EB","stop_desc":"NEAR SIDE ST. CHARLES ROCK ROAD @ BURTON EB","wheelchair_boarding":1,"routes":[{"route_id":"19610","agency_id":"70006","route_short_name":"35","route_long_name":"Rock Road","route_type":3,"route_color":"#FFFFFF","route_text_color":"#000000"}],"agency_name":"Metro St. Louis"},"geometry":{"type":"Point","coordinates":[-90.34338,38.70682]}},{"type":"Feature","properties":{"stop_id":"7186","stop_code":"7186","stop_name":"ST. CHARLES ROCK ROAD @ LACKLAND EB","stop_desc":"FAR SIDE ST. CHARLES ROCK ROAD @ LACKLAND EB","wheelchair_boarding":1,"routes":[{"route_id":"19610","agency_id":"70006","route_short_name":"35","route_long_name":"Rock Road","route_type":3,"route_color":"#FFFFFF","route_text_color":"#000000"}],"agency_name":"Metro St. Louis"},"geometry":{"type":"Point","coordinates":[-90.33488,38.70226]}},{"type":"Feature","properties":{"stop_id":"7188","stop_code":"7188","stop_name":"ST. CHARLES ROCK ROAD @ WHEATON EB","stop_desc":"NEAR SIDE ST. CHARLES ROCK ROAD @ WHEATON EB","wheelchair_boarding":1,"routes":[{"route_id":"19610","agency_id":"70006","route_short_name":"35","route_long_name":"Rock Road","route_type":3,"route_color":"#FFFFFF","route_text_color":"#000000"}],"agency_name":"Metro St. Louis"},"geometry":{"type":"Point","coordinates":[-90.32978,38.6996]}},{"type":"Feature","properties":{"stop_id":"7189","stop_code":"7189","stop_name":"ST. CHARLES ROCK ROAD @ HANLEY EB","stop_desc":"FAR SIDE ST. CHARLES ROCK ROAD @ HANLEY EB","wheelchair_boarding":1,"routes":[{"route_id":"19610","agency_id":"70006","route_short_name":"35","route_long_name":"Rock Road","route_type":3,"route_color":"#FFFFFF","route_text_color":"#000000"}],"agency_name":"Metro St. Louis"},"geometry":{"type":"Point","coordinates":[-90.32779,38.69857]}},{"type":"Feature","properties":{"stop_id":"7190","stop_code":"7190","stop_name":"ST. CHARLES ROCK ROAD @ CARSON EB","stop_desc":"FAR SIDE ST. CHARLES ROCK ROAD @ CARSON EB","wheelchair_boarding":2,"routes":[{"route_id":"19610","agency_id":"70006","route_short_name":"35","route_long_name":"Rock Road","route_type":3,"route_color":"#FFFFFF","route_text_color":"#000000"}],"agency_name":"Metro St. Louis"},"geometry":{"type":"Point","coordinates":[-90.32538,38.69733]}},{"type":"Feature","properties":{"stop_id":"7192","stop_code":"7192","stop_name":"ST. CHARLES ROCK ROAD @ NORMANDY EB","stop_desc":"FAR SIDE ST. CHARLES ROCK ROAD @ NORMANDY EB","wheelchair_boarding":1,"routes":[{"route_id":"19610","agency_id":"70006","route_short_name":"35","route_long_name":"Rock Road","route_type":3,"route_color":"#FFFFFF","route_text_color":"#000000"}],"agency_name":"Metro St. Louis"},"geometry":{"type":"Point","coordinates":[-90.31695,38.69275]}},{"type":"Feature","properties":{"stop_id":"7193","stop_code":"7193","stop_name":"ST. CHARLES ROCK ROAD @ AUSTIN EB","stop_desc":"FAR SIDE ST. CHARLES ROCK ROAD @ AUSTIN EB","wheelchair_boarding":1,"routes":[{"route_id":"19610","agency_id":"70006","route_short_name":"35","route_long_name":"Rock Road","route_type":3,"route_color":"#FFFFFF","route_text_color":"#000000"}],"agency_name":"Metro St. Louis"},"geometry":{"type":"Point","coordinates":[-90.3137,38.69047]}},{"type":"Feature","properties":{"stop_id":"7195","stop_code":"7195","stop_name":"ST. CHARLES ROCK ROAD @ 74TH STREET EB","stop_desc":"FAR SIDE ST. CHARLES ROCK ROAD @ 74TH STREET EB","wheelchair_boarding":2,"routes":[{"route_id":"19610","agency_id":"70006","route_short_name":"35","route_long_name":"Rock Road","route_type":3,"route_color":"#FFFFFF","route_text_color":"#000000"}],"agency_name":"Metro St. Louis"},"geometry":{"type":"Point","coordinates":[-90.30951,38.68796]}},{"type":"Feature","properties":{"stop_id":"7423","stop_code":"7423","stop_name":"ST. CHARLES ROCK ROAD @ FERGUSON EB","stop_desc":"FAR SIDE ST. CHARLES ROCK ROAD @ FERGUSON EB","wheelchair_boarding":2,"routes":[{"route_id":"19593","agency_id":"70006","route_short_name":"2","route_long_name":"Red","route_type":3,"route_color":"#FFFFFF","route_text_color":"#000000"},{"route_id":"19610","agency_id":"70006","route_short_name":"35","route_long_name":"Rock Road","route_type":3,"route_color":"#FFFFFF","route_text_color":"#000000"}],"agency_name":"Metro St. Louis"},"geometry":{"type":"Point","coordinates":[-90.30465,38.68545]}},{"type":"Feature","properties":{"stop_id":"7424","stop_code":"7424","stop_name":"ROCK ROAD TRANSIT CENTER","wheelchair_boarding":1,"routes":[{"route_id":"19593","agency_id":"70006","route_short_name":"2","route_long_name":"Red","route_type":3,"route_color":"#FFFFFF","route_text_color":"#000000"},{"route_id":"19603","agency_id":"70006","route_short_name":"19","route_long_name":"St Louis Ave","route_type":3,"route_color":"#FFFFFF","route_text_color":"#000000"},{"route_id":"19607","agency_id":"70006","route_short_name":"32","route_long_name":"Dr ML King","route_type":3,"route_color":"#FFFFFF","route_text_color":"#000000"},{"route_id":"19610","agency_id":"70006","route_short_name":"35","route_long_name":"Rock Road","route_type":3,"route_color":"#FFFFFF","route_text_color":"#000000"},{"route_id":"19621","agency_id":"70006","route_short_name":"64","route_long_name":"Lucas-Hunt","route_type":3,"route_color":"#FFFFFF","route_text_color":"#000000"}],"agency_name":"Metro St. Louis"},"geometry":{"type":"Point","coordinates":[-90.30164,38.68516]}},{"type":"Feature","properties":{"stop_id":"9195","stop_code":"9195","stop_name":"ST. CHARLES ROCK ROAD @ BANKS EB","stop_desc":"FAR SIDE ST. CHARLES ROCK ROAD @ BANKS EB","wheelchair_boarding":1,"routes":[{"route_id":"19610","agency_id":"70006","route_short_name":"35","route_long_name":"Rock Road","route_type":3,"route_color":"#FFFFFF","route_text_color":"#000000"},{"route_id":"19614","agency_id":"70006","route_short_name":"49","route_long_name":"Lindbergh","route_type":3,"route_color":"#FFFFFF","route_text_color":"#000000"}],"agency_name":"Metro St. Louis"},"geometry":{"type":"Point","coordinates":[-90.39784,38.73696]}},{"type":"Feature","properties":{"stop_id":"9196","stop_code":"9196","stop_name":"ST. CHARLES ROCK ROAD @ ADIE EB","stop_desc":"FAR SIDE ST. CHARLES ROCK ROAD @ ADIE EB","wheelchair_boarding":1,"routes":[{"route_id":"19610","agency_id":"70006","route_short_name":"35","route_long_name":"Rock Road","route_type":3,"route_color":"#FFFFFF","route_text_color":"#000000"},{"route_id":"19614","agency_id":"70006","route_short_name":"49","route_long_name":"Lindbergh","route_type":3,"route_color":"#FFFFFF","route_text_color":"#000000"}],"agency_name":"Metro St. Louis"},"geometry":{"type":"Point","coordinates":[-90.39338,38.73433]}}]}