{"type":"FeatureCollection","features":[{"type":"Feature","properties":{"agency_name":"Metro St. Louis","route_id":"19649","agency_id":"70006","route_short_name":"23","route_long_name":"Belleville-College","route_type":3,"route_color":"#FFFFFF","route_text_color":"#000000"},"geometry":{"type":"MultiLineString","coordinates":[[[-89.91986,38.51652],[-89.91985,38.5165],[-89.91991,38.51658],[-89.91998,38.5166],[-89.92052,38.5166],[-89.92051,38.51719],[-89.92048,38.51741],[-89.92038,38.51779],[-89.92023,38.51812],[-89.92019,38.51834],[-89.92012,38.51931],[-89.92063,38.5195],[-89.92409,38.51951],[-89.92408,38.51978],[-89.92409,38.52033],[-89.9246,38.52054],[-89.92663,38.52055],[-89.92667,38.5195],[-89.92823,38.51949],[-89.92862,38.51945],[-89.93351,38.51952],[-89.93873,38.51951],[-89.93938,38.5195],[-89.94009,38.51946],[-89.94124,38.51935],[-89.94253,38.51914],[-89.94501,38.51868],[-89.94552,38.5186],[-89.94745,38.51823],[-89.94916,38.51793],[-89.95071,38.51764],[-89.95237,38.5173],[-89.95224,38.51624],[-89.95217,38.51539],[-89.95216,38.51491],[-89.95219,38.5143],[-89.9522,38.51326],[-89.95218,38.51314],[-89.95203,38.51285],[-89.95201,38.51265],[-89.95182,38.51263],[-89.95166,38.51254],[-89.95157,38.51251],[-89.95055,38.51252],[-89.95054,38.51202],[-89.94749,38.51205],[-89.94753,38.5139],[-89.94752,38.51467],[-89.94753,38.51501],[-89.94748,38.51539],[-89.94741,38.51556],[-89.94732,38.51573],[-89.94722,38.51587],[-89.94692,38.51619],[-89.94657,38.51646],[-89.94616,38.51668],[-89.94518,38.51712],[-89.94496,38.51729],[-89.94482,38.51743],[-89.94473,38.51758],[-89.94467,38.51774],[-89.94465,38.5179],[-89.94467,38.51807],[-89.94481,38.51839],[-89.94501,38.51868],[-89.9454,38.51903],[-89.94724,38.5208],[-89.94961,38.52301],[-89.95269,38.52575],[-89.95411,38.52699],[-89.95467,38.52745],[-89.95509,38.52785],[-89.95604,38.52867],[-89.95634,38.52895],[-89.95659,38.52914],[-89.95709,38.52957],[-89.95871,38.53102],[-89.95928,38.53155],[-89.9599,38.53208],[-89.96016,38.53233],[-89.96097,38.53302],[-89.96122,38.5332],[-89.96148,38.53335],[-89.96184,38.53349],[-89.96228,38.53358],[-89.96265,38.5336],[-89.96381,38.5336],[-89.96443,38.5335],[-89.96463,38.53338],[-89.96516,38.53301],[-89.96531,38.53293],[-89.9684,38.53085],[-89.96884,38.53057],[-89.96739,38.52921],[-89.96669,38.52852],[-89.96597,38.52786],[-89.96162,38.52403],[-89.96524,38.52147],[-89.96611,38.5209],[-89.9669,38.52032],[-89.96774,38.51976],[-89.96965,38.51838],[-89.97063,38.51771],[-89.97249,38.51639],[-89.97347,38.51574],[-89.97625,38.51819],[-89.97754,38.51936],[-89.97551,38.52083],[-89.97539,38.52084],[-89.97531,38.52081],[-89.97508,38.52061],[-89.97504,38.52059],[-89.97495,38.52057],[-89.97481,38.52059],[-89.97473,38.52063],[-89.97409,38.52114],[-89.97407,38.52118],[-89.97407,38.52123],[-89.97412,38.52129]]]}},{"type":"Feature","properties":{"stop_id":"10606","stop_code":"10606","stop_name":"COLLEGE TRANSIT CENTER","stop_desc":"NEAR SIDE COLLEGE TRANSIT CENTER","wheelchair_boarding":1,"routes":[{"route_id":"19649","agency_id":"70006","route_short_name":"23","route_long_name":"Belleville-College","route_type":3,"route_color":"#FFFFFF","route_text_color":"#000000"}],"agency_name":"Metro St. Louis"},"geometry":{"type":"Point","coordinates":[-89.91984,38.51644]}},{"type":"Feature","properties":{"stop_id":"11069","stop_code":"11069","stop_name":"CARLYLE @ SHADY WB","stop_desc":"FAR SIDE CARLYLE @ SHADY WB","wheelchair_boarding":2,"routes":[{"route_id":"19649","agency_id":"70006","route_short_name":"23","route_long_name":"Belleville-College","route_type":3,"route_color":"#FFFFFF","route_text_color":"#000000"}],"agency_name":"Metro St. Louis"},"geometry":{"type":"Point","coordinates":[-89.94121,38.51943]}},{"type":"Feature","properties":{"stop_id":"11102","stop_code":"11102","stop_name":"BELLEVILLE TRANSIT CENTER","wheelchair_boarding":1,"routes":[{"route_id":"19636","agency_id":"70006","route_short_name":"1","route_long_name":"Main Street - State Street","route_type":3,"route_color":"#FFFFFF","route_text_color":"#000000"},{"route_id":"19647","agency_id":"70006","route_short_name":"15","route_long_name":"Belleville-O'Fallon","route_type":3,"route_color":"#FFFFFF","route_text_color":"#000000"},{"route_id":"19648","agency_id":"70006","route_short_name":"16","route_long_name":"St. Clair Square","route_type":3,"route_color":"#FFFFFF","route_text_color":"#000000"},{"route_id":"19649","agency_id":"70006","route_short_name":"23","route_long_name":"Belleville-College","route_type":3,"route_color":"#FFFFFF","route_text_color":"#000000"}],"agency_name":"Metro St. Louis"},"geometry":{"type":"Point","coordinates":[-89.97461,38.5217]}},{"type":"Feature","properties":{"stop_id":"11104","stop_code":"11104","stop_name":"CARLYLE @ YMCA WB","stop_desc":"FAR SIDE CARLYLE @ YMCA WB","wheelchair_boarding":2,"routes":[{"route_id":"19649","agency_id":"70006","route_short_name":"23","route_long_name":"Belleville-College","route_type":3,"route_color":"#FFFFFF","route_text_color":"#000000"}],"agency_name":"Metro St. Louis"},"geometry":{"type":"Point","coordinates":[-89.92094,38.51959]}},{"type":"Feature","properties":{"stop_id":"11105","stop_code":"11105","stop_name":"CARLYLE @ GREEN MOUNT WB","stop_desc":"FAR SIDE CARLYLE @ GREEN MOUNT WB","wheelchair_boarding":2,"routes":[{"route_id":"19649","agency_id":"70006","route_short_name":"23","route_long_name":"Belleville-College","route_type":3,"route_color":"#FFFFFF","route_text_color":"#000000"}],"agency_name":"Metro St. Louis"},"geometry":{"type":"Point","coordinates":[-89.92938,38.51959]}},{"type":"Feature","properties":{"stop_id":"11106","stop_code":"11106","stop_name":"CARLYLE @ BRADFORD PLACE WB","stop_desc":"NEAR SIDE CARLYLE @ BRADFORD PLACE WB","wheelchair_boarding":2,"routes":[{"route_id":"19649","agency_id":"70006","route_short_name":"23","route_long_name":"Belleville-College","route_type":3,"route_color":"#FFFFFF","route_text_color":"#000000"}],"agency_name":"Metro St. Louis"},"geometry":{"type":"Point","coordinates":[-89.93204,38.51959]}},{"type":"Feature","properties":{"stop_id":"11107","stop_code":"11107","stop_name":"CARLYLE @ CARLYLE EAST WB","stop_desc":"NEAR SIDE CARLYLE @ CARLYLE EAST WB","wheelchair_boarding":2,"routes":[{"route_id":"19649","agency_id":"70006","route_short_name":"23","route_long_name":"Belleville-College","route_type":3,"route_color":"#FFFFFF","route_text_color":"#000000"}],"agency_name":"Metro St. Louis"},"geometry":{"type":"Point","coordinates":[-89.93713,38.51961]}},{"type":"Feature","properties":{"stop_id":"11108","stop_code":"11108","stop_name":"CARLYLE @  CORAL WB","stop_desc":"NEAR SIDE CARLYLE @  CORAL WB","wheelchair_boarding":2,"routes":[{"route_id":"19649","agency_id":"70006","route_short_name":"23","route_long_name":"Belleville-College","route_type":3,"route_color":"#FFFFFF","route_text_color":"#000000"}],"agency_name":"Metro St. Louis"},"geometry":{"type":"Point","coordinates":[-89.93826,38.51959]}},{"type":"Feature","properties":{"stop_id":"11110","stop_code":"11110","stop_name":"CARLYLE @ LINCOLNSHIRE WB","stop_desc":"NEAR SIDE CARLYLE @ LINCOLNSHIRE WB","wheelchair_boarding":2,"routes":[{"route_id":"19649","agency_id":"70006","route_short_name":"23","route_long_name":"Belleville-College","route_type":3,"route_color":"#FFFFFF","route_text_color":"#000000"}],"agency_name":"Metro St. Louis"},"geometry":{"type":"Point","coordinates":[-89.9425,38.51922]}},{"type":"Feature","properties":{"stop_id":"11111","stop_code":"11111","stop_name":"CARLYLE @ WEST WB","stop_desc":"FAR SIDE CARLYLE @ WEST WB","wheelchair_boarding":2,"routes":[{"route_id":"19649","agency_id":"70006","route_short_name":"23","route_long_name":"Belleville-College","route_type":3,"route_color":"#FFFFFF","route_text_color":"#000000"}],"agency_name":"Metro St. Louis"},"geometry":{"type":"Point","coordinates":[-89.94586,38.51864]}},{"type":"Feature","properties":{"stop_id":"11113","stop_code":"11113","stop_name":"CARLYLE @ EAST HIGH SCHOOL REAR ENTRANCE WB","stop_desc":"NEAR SIDE CARLYLE @ EAST HIGH SCHOOL REAR ENTRANCE WB","wheelchair_boarding":2,"routes":[{"route_id":"19649","agency_id":"70006","route_short_name":"23","route_long_name":"Belleville-College","route_type":3,"route_color":"#FFFFFF","route_text_color":"#000000"}],"agency_name":"Metro St. Louis"},"geometry":{"type":"Point","coordinates":[-89.95058,38.51776]}},{"type":"Feature","properties":{"stop_id":"11114","stop_code":"11114","stop_name":"DENVERSHIRE @ SHERWIN WILLIAMS ENTRANCE SB","stop_desc":"MID-BLOCK DENVERSHIRE @ SHERWIN WILLIAMS ENTRANCE SB","wheelchair_boarding":2,"routes":[{"route_id":"19649","agency_id":"70006","route_short_name":"23","route_long_name":"Belleville-College","route_type":3,"route_color":"#FFFFFF","route_text_color":"#000000"}],"agency_name":"Metro St. Louis"},"geometry":{"type":"Point","coordinates":[-89.95233,38.51626]}},{"type":"Feature","properties":{"stop_id":"11156","stop_code":"11156","stop_name":"WEST @ LINDBERGH CIRCLE NB","stop_desc":"NEAR SIDE WEST @ LINDBERGH CIRCLE NB","wheelchair_boarding":2,"routes":[{"route_id":"19649","agency_id":"70006","route_short_name":"23","route_long_name":"Belleville-College","route_type":3,"route_color":"#FFFFFF","route_text_color":"#000000"}],"agency_name":"Metro St. Louis"},"geometry":{"type":"Point","coordinates":[-89.94529,38.51706]}},{"type":"Feature","properties":{"stop_id":"11157","stop_code":"11157","stop_name":"WEST @ BROOKSHIRE COURT NB","stop_desc":"NEAR SIDE WEST @ BROOKSHIRE COURT NB","wheelchair_boarding":2,"routes":[{"route_id":"19649","agency_id":"70006","route_short_name":"23","route_long_name":"Belleville-College","route_type":3,"route_color":"#FFFFFF","route_text_color":"#000000"}],"agency_name":"Metro St. Louis"},"geometry":{"type":"Point","coordinates":[-89.94729,38.51569]}},{"type":"Feature","properties":{"stop_id":"11158","stop_code":"11158","stop_name":"WEST @ FIVE FORKS NB","stop_desc":"NEAR SIDE WEST @ FIVE FORKS NB","wheelchair_boarding":2,"routes":[{"route_id":"19649","agency_id":"70006","route_short_name":"23","route_long_name":"Belleville-College","route_type":3,"route_color":"#FFFFFF","route_text_color":"#000000"}],"agency_name":"Metro St. Louis"},"geometry":{"type":"Point","coordinates":[-89.94751,38.51452]}},{"type":"Feature","properties":{"stop_id":"11159","stop_code":"11159","stop_name":"WEST @ VICKSBURG NB","stop_desc":"NEAR SIDE WEST @ VICKSBURG NB","wheelchair_boarding":2,"routes":[{"route_id":"19649","agency_id":"70006","route_short_name":"23","route_long_name":"Belleville-College","route_type":3,"route_color":"#FFFFFF","route_text_color":"#000000"}],"agency_name":"Metro St. Louis"},"geometry":{"type":"Point","coordinates":[-89.94746,38.51243]}},{"type":"Feature","properties":{"stop_id":"11188","stop_code":"11188","stop_name":"DENVERSHIRE @ CARLYLE PLAZA ENTRANCE SB","stop_desc":"FAR SIDE DENVERSHIRE @ CARLYLE PLAZA ENTRANCE SB","wheelchair_boarding":2,"routes":[{"route_id":"19649","agency_id":"70006","route_short_name":"23","route_long_name":"Belleville-College","route_type":3,"route_color":"#FFFFFF","route_text_color":"#000000"}],"agency_name":"Metro St. Louis"},"geometry":{"type":"Point","coordinates":[-89.95224,38.514]}},{"type":"Feature","properties":{"stop_id":"11191","stop_code":"11191","stop_name":"VICKSBURG @ MILL SPRINGS EB","stop_desc":"NEAR SIDE VICKSBURG @ MILL SPRINGS EB","wheelchair_boarding":2,"routes":[{"route_id":"19649","agency_id":"70006","route_short_name":"23","route_long_name":"Belleville-College","route_type":3,"route_color":"#FFFFFF","route_text_color":"#000000"}],"agency_name":"Metro St. Louis"},"geometry":{"type":"Point","coordinates":[-89.94876,38.51202]}},{"type":"Feature","properties":{"stop_id":"11193","stop_code":"11193","stop_name":"WEST @ RUTLEDGE NB","stop_desc":"NEAR SIDE WEST @ RUTLEDGE NB","wheelchair_boarding":2,"routes":[{"route_id":"19649","agency_id":"70006","route_short_name":"23","route_long_name":"Belleville-College","route_type":3,"route_color":"#FFFFFF","route_text_color":"#000000"}],"agency_name":"Metro St. Louis"},"geometry":{"type":"Point","coordinates":[-89.94749,38.51377]}},{"type":"Feature","properties":{"stop_id":"11194","stop_code":"11194","stop_name":"WEST @ FAIR OAKS NB","stop_desc":"NEAR SIDE WEST @ FAIR OAKS NB","wheelchair_boarding":2,"routes":[{"route_id":"19649","agency_id":"70006","route_short_name":"23","route_long_name":"Belleville-College","route_type":3,"route_color":"#FFFFFF","route_text_color":"#000000"}],"agency_name":"Metro St. Louis"},"geometry":{"type":"Point","coordinates":[-89.94749,38.51511]}},{"type":"Feature","properties":{"stop_id":"11197","stop_code":"11197","stop_name":"WEST @ CARLYLE NB","stop_desc":"FAR SIDE WEST @ CARLYLE NB","wheelchair_boarding":2,"routes":[{"route_id":"19649","agency_id":"70006","route_short_name":"23","route_long_name":"Belleville-College","route_type":3,"route_color":"#FFFFFF","route_text_color":"#000000"}],"agency_name":"Metro St. Louis"},"geometry":{"type":"Point","coordinates":[-89.94545,38.51917]}},{"type":"Feature","properties":{"stop_id":"11198","stop_code":"11198","stop_name":"WEST @ SHADY NB","stop_desc":"NEAR SIDE WEST @ SHADY NB","wheelchair_boarding":2,"routes":[{"route_id":"19649","agency_id":"70006","route_short_name":"23","route_long_name":"Belleville-College","route_type":3,"route_color":"#FFFFFF","route_text_color":"#000000"}],"agency_name":"Metro St. Louis"},"geometry":{"type":"Point","coordinates":[-89.9471,38.52071]}},{"type":"Feature","properties":{"stop_id":"11199","stop_code":"11199","stop_name":"WEST @ CARDINAL NB","stop_desc":"FAR SIDE WEST @ CARDINAL NB","wheelchair_boarding":2,"routes":[{"route_id":"19649","agency_id":"70006","route_short_name":"23","route_long_name":"Belleville-College","route_type":3,"route_color":"#FFFFFF","route_text_color":"#000000"}],"agency_name":"Metro St. Louis"},"geometry":{"type":"Point","coordinates":[-89.94827,38.52181]}},{"type":"Feature","properties":{"stop_id":"11200","stop_code":"11200","stop_name":"WEST @ CRESTHAVEN NB","stop_desc":"NEAR SIDE WEST @ CRESTHAVEN NB","wheelchair_boarding":2,"routes":[{"route_id":"19649","agency_id":"70006","route_short_name":"23","route_long_name":"Belleville-College","route_type":3,"route_color":"#FFFFFF","route_text_color":"#000000"}],"agency_name":"Metro St. Louis"},"geometry":{"type":"Point","coordinates":[-89.95016,38.52356]}},{"type":"Feature","properties":{"stop_id":"11201","stop_code":"11201","stop_name":"WEST @ MAIN NB","stop_desc":"FAR SIDE WEST @ MAIN NB","wheelchair_boarding":2,"routes":[{"route_id":"19649","agency_id":"70006","route_short_name":"23","route_long_name":"Belleville-College","route_type":3,"route_color":"#FFFFFF","route_text_color":"#000000"}],"agency_name":"Metro St. Louis"},"geometry":{"type":"Point","coordinates":[-89.95286,38.52591]}},{"type":"Feature","properties":{"stop_id":"11202","stop_code":"11202","stop_name":"WEST @ A STREET NB","stop_desc":"NEAR SIDE WEST @ A STREET NB","wheelchair_boarding":2,"routes":[{"route_id":"19649","agency_id":"70006","route_short_name":"23","route_long_name":"Belleville-College","route_type":3,"route_color":"#FFFFFF","route_text_color":"#000000"}],"agency_name":"Metro St. Louis"},"geometry":{"type":"Point","coordinates":[-89.95403,38.52693]}},{"type":"Feature","properties":{"stop_id":"11204","stop_code":"11204","stop_name":"WEST @ DELMAR NB","stop_desc":"FAR SIDE WEST @ DELMAR NB","wheelchair_boarding":2,"routes":[{"route_id":"19649","agency_id":"70006","route_short_name":"23","route_long_name":"Belleville-College","route_type":3,"route_color":"#FFFFFF","route_text_color":"#000000"}],"agency_name":"Metro St. Louis"},"geometry":{"type":"Point","coordinates":[-89.95689,38.52944]}},{"type":"Feature","properties":{"stop_id":"11205","stop_code":"11205","stop_name":"WEST @ EASTVIEW NB","stop_desc":"FAR SIDE WEST @ EASTVIEW NB","wheelchair_boarding":2,"routes":[{"route_id":"19649","agency_id":"70006","route_short_name":"23","route_long_name":"Belleville-College","route_type":3,"route_color":"#FFFFFF","route_text_color":"#000000"}],"agency_name":"Metro St. Louis"},"geometry":{"type":"Point","coordinates":[-89.95857,38.53094]}},{"type":"Feature","properties":{"stop_id":"11206","stop_code":"11206","stop_name":"WEST @ OLD COLLINSVILLE NB","stop_desc":"FAR SIDE WEST @ OLD COLLINSVILLE NB","wheelchair_boarding":2,"routes":[{"route_id":"19649","agency_id":"70006","route_short_name":"23","route_long_name":"Belleville-College","route_type":3,"route_color":"#FFFFFF","route_text_color":"#000000"}],"agency_name":"Metro St. Louis"},"geometry":{"type":"Point","coordinates":[-89.96041,38.53261]}},{"type":"Feature","properties":{"stop_id":"11207","stop_code":"11207","stop_name":"WEST @ LEBANON WB","stop_desc":"NEAR SIDE WEST @ LEBANON WB","wheelchair_boarding":2,"routes":[{"route_id":"19649","agency_id":"70006","route_short_name":"23","route_long_name":"Belleville-College","route_type":3,"route_color":"#FFFFFF","route_text_color":"#000000"}],"agency_name":"Metro St. Louis"},"geometry":{"type":"Point","coordinates":[-89.96376,38.53366]}},{"type":"Feature","properties":{"stop_id":"11213","stop_code":"11213","stop_name":"1819 B STREET WB","stop_desc":"MID-BLOCK 1819 B STREET WB","wheelchair_boarding":2,"routes":[{"route_id":"19649","agency_id":"70006","route_short_name":"23","route_long_name":"Belleville-College","route_type":3,"route_color":"#FFFFFF","route_text_color":"#000000"}],"agency_name":"Metro St. Louis"},"geometry":{"type":"Point","coordinates":[-89.96221,38.52372]}},{"type":"Feature","properties":{"stop_id":"11214","stop_code":"11214","stop_name":"B STREET @ DELAWARE WB","stop_desc":"NEAR SIDE B STREET @ DELAWARE WB","wheelchair_boarding":2,"routes":[{"route_id":"19649","agency_id":"70006","route_short_name":"23","route_long_name":"Belleville-College","route_type":3,"route_color":"#FFFFFF","route_text_color":"#000000"}],"agency_name":"Metro St. Louis"},"geometry":{"type":"Point","coordinates":[-89.9637,38.52267]}},{"type":"Feature","properties":{"stop_id":"11215","stop_code":"11215","stop_name":"B STREET @ KANSAS WB","stop_desc":"NEAR SIDE B STREET @ KANSAS WB","wheelchair_boarding":2,"routes":[{"route_id":"19649","agency_id":"70006","route_short_name":"23","route_long_name":"Belleville-College","route_type":3,"route_color":"#FFFFFF","route_text_color":"#000000"}],"agency_name":"Metro St. Louis"},"geometry":{"type":"Point","coordinates":[-89.96501,38.52176]}},{"type":"Feature","properties":{"stop_id":"11216","stop_code":"11216","stop_name":"B STREET @ LUCINDA WB","stop_desc":"NEAR SIDE B STREET @ LUCINDA WB","wheelchair_boarding":2,"routes":[{"route_id":"19649","agency_id":"70006","route_short_name":"23","route_long_name":"Belleville-College","route_type":3,"route_color":"#FFFFFF","route_text_color":"#000000"}],"agency_name":"Metro St. Louis"},"geometry":{"type":"Point","coordinates":[-89.96613,38.52097]}},{"type":"Feature","properties":{"stop_id":"11217","stop_code":"11217","stop_name":"B STREET @ MICHIGAN WB","stop_desc":"NEAR SIDE B STREET @ MICHIGAN WB","wheelchair_boarding":2,"routes":[{"route_id":"19649","agency_id":"70006","route_short_name":"23","route_long_name":"Belleville-College","route_type":3,"route_color":"#FFFFFF","route_text_color":"#000000"}],"agency_name":"Metro St. Louis"},"geometry":{"type":"Point","coordinates":[-89.96682,38.52049]}},{"type":"Feature","properties":{"stop_id":"11218","stop_code":"11218","stop_name":"B STREET @ FLORIDA WB","stop_desc":"NEAR SIDE B STREET @ FLORIDA WB","wheelchair_boarding":2,"routes":[{"route_id":"19649","agency_id":"70006","route_short_name":"23","route_long_name":"Belleville-College","route_type":3,"route_color":"#FFFFFF","route_text_color":"#000000"}],"agency_name":"Metro St. Louis"},"geometry":{"type":"Point","coordinates":[-89.96809,38.51957]}},{"type":"Feature","properties":{"stop_id":"11219","stop_code":"11219","stop_name":"B STREET @ IOWA WB","stop_desc":"FAR SIDE B STREET @ IOWA WB","wheelchair_boarding":2,"routes":[{"route_id":"19649","agency_id":"70006","route_short_name":"23","route_long_name":"Belleville-College","route_type":3,"route_color":"#FFFFFF","route_text_color":"#000000"}],"agency_name":"Metro St. Louis"},"geometry":{"type":"Point","coordinates":[-89.96993,38.5183]}},{"type":"Feature","properties":{"stop_id":"11220","stop_code":"11220","stop_name":"B STREET @ VIRGINIA WB","stop_desc":"NEAR SIDE B STREET @ VIRGINIA WB","wheelchair_boarding":2,"routes":[{"route_id":"19649","agency_id":"70006","route_short_name":"23","route_long_name":"Belleville-College","route_type":3,"route_color":"#FFFFFF","route_text_color":"#000000"}],"agency_name":"Metro St. Louis"},"geometry":{"type":"Point","coordinates":[-89.97155,38.51717]}},{"type":"Feature","properties":{"stop_id":"11221","stop_code":"11221","stop_name":"B STREET @ PENNSYLVANIA WB","stop_desc":"FAR SIDE B STREET @ PENNSYLVANIA WB","wheelchair_boarding":2,"routes":[{"route_id":"19649","agency_id":"70006","route_short_name":"23","route_long_name":"Belleville-College","route_type":3,"route_color":"#FFFFFF","route_text_color":"#000000"}],"agency_name":"Metro St. Louis"},"geometry":{"type":"Point","coordinates":[-89.97273,38.51636]}},{"type":"Feature","properties":{"stop_id":"11939","stop_code":"11939","stop_name":"LEBANON @ CART WB","stop_desc":"FAR SIDE LEBANON @ CART WB","wheelchair_boarding":2,"routes":[{"route_id":"19647","agency_id":"70006","route_short_name":"15","route_long_name":"Belleville-O'Fallon","route_type":3,"route_color":"#FFFFFF","route_text_color":"#000000"},{"route_id":"19649","agency_id":"70006","route_short_name":"23","route_long_name":"Belleville-College","route_type":3,"route_color":"#FFFFFF","route_text_color":"#000000"}],"agency_name":"Metro St. Louis"},"geometry":{"type":"Point","coordinates":[-89.96568,38.53273]}},{"type":"Feature","properties":{"stop_id":"11940","stop_code":"11940","stop_name":"LEBANON @ DEWEY WB","stop_desc":"FAR SIDE LEBANON @ DEWEY WB","wheelchair_boarding":2,"routes":[{"route_id":"19647","agency_id":"70006","route_short_name":"15","route_long_name":"Belleville-O'Fallon","route_type":3,"route_color":"#FFFFFF","route_text_color":"#000000"},{"route_id":"19649","agency_id":"70006","route_short_name":"23","route_long_name":"Belleville-College","route_type":3,"route_color":"#FFFFFF","route_text_color":"#000000"}],"agency_name":"Metro St. Louis"},"geometry":{"type":"Point","coordinates":[-89.96759,38.53148]}},{"type":"Feature","properties":{"stop_id":"12165","stop_code":"12165","stop_name":"DOUGLAS @ B STREET NB","stop_desc":"FAR SIDE DOUGLAS @ B STREET NB","wheelchair_boarding":2,"routes":[{"route_id":"19649","agency_id":"70006","route_short_name":"23","route_long_name":"Belleville-College","route_type":3,"route_color":"#FFFFFF","route_text_color":"#000000"}],"agency_name":"Metro St. Louis"},"geometry":{"type":"Point","coordinates":[-89.97377,38.51602]}},{"type":"Feature","properties":{"stop_id":"12166","stop_code":"12166","stop_name":"DOUGLAS @ SYCAMORE NB","stop_desc":"FAR SIDE DOUGLAS @ SYCAMORE NB","wheelchair_boarding":2,"routes":[{"route_id":"19649","agency_id":"70006","route_short_name":"23","route_long_name":"Belleville-College","route_type":3,"route_color":"#FFFFFF","route_text_color":"#000000"}],"agency_name":"Metro St. Louis"},"geometry":{"type":"Point","coordinates":[-89.97662,38.51856]}},{"type":"Feature","properties":{"stop_id":"12167","stop_code":"12167","stop_name":"DOUGLAS @ C STREET NB","stop_desc":"FAR SIDE DOUGLAS @ C STREET NB","wheelchair_boarding":2,"routes":[{"route_id":"19649","agency_id":"70006","route_short_name":"23","route_long_name":"Belleville-College","route_type":3,"route_color":"#FFFFFF","route_text_color":"#000000"}],"agency_name":"Metro St. Louis"},"geometry":{"type":"Point","coordinates":[-89.97454,38.51672]}},{"type":"Feature","properties":{"stop_id":"12173","stop_code":"12173","stop_name":"DOUGLAS @ D STREET NB","stop_desc":"NEAR SIDE DOUGLAS @ D STREET NB","wheelchair_boarding":2,"routes":[{"route_id":"19649","agency_id":"70006","route_short_name":"23","route_long_name":"Belleville-College","route_type":3,"route_color":"#FFFFFF","route_text_color":"#000000"}],"agency_name":"Metro St. Louis"},"geometry":{"type":"Point","coordinates":[-89.97535,38.51744]}},{"type":"Feature","properties":{"stop_id":"14222","stop_code":"14222","stop_name":"SCHEEL @ DOUGLAS EB","stop_desc":"FAR SIDE SCHEEL @ DOUGLAS EB","wheelchair_boarding":2,"routes":[{"route_id":"19636","agency_id":"70006","route_short_name":"1","route_long_name":"Main Street - State Street","route_type":3,"route_color":"#FFFFFF","route_text_color":"#000000"},{"route_id":"19647","agency_id":"70006","route_short_name":"15","route_long_name":"Belleville-O'Fallon","route_type":3,"route_color":"#FFFFFF","route_text_color":"#000000"},{"route_id":"19648","agency_id":"70006","route_short_name":"16","route_long_name":"St. Clair Square","route_type":3,"route_color":"#FFFFFF","route_text_color":"#000000"},{"route_id":"19649","agency_id":"70006","route_short_name":"23","route_long_name":"Belleville-College","route_type":3,"route_color":"#FFFFFF","route_text_color":"#000000"}],"agency_name":"Metro St. Louis"},"geometry":{"type":"Point","coordinates":[-89.97712,38.51965]}},{"type":"Feature","properties":{"stop_id":"14223","stop_code":"14223","stop_name":"SCHEEL @ BENTON EB","stop_desc":"NEAR SIDE SCHEEL @ BENTON EB","wheelchair_boarding":2,"routes":[{"route_id":"19636","agency_id":"70006","route_short_name":"1","route_long_name":"Main Street - State Street","route_type":3,"route_color":"#FFFFFF","route_text_color":"#000000"},{"route_id":"19647","agency_id":"70006","route_short_name":"15","route_long_name":"Belleville-O'Fallon","route_type":3,"route_color":"#FFFFFF","route_text_color":"#000000"},{"route_id":"19648","agency_id":"70006","route_short_name":"16","route_long_name":"St. Clair Square","route_type":3,"route_color":"#FFFFFF","route_text_color":"#000000"},{"route_id":"19649","agency_id":"70006","route_short_name":"23","route_long_name":"Belleville-College","route_type":3,"route_color":"#FFFFFF","route_text_color":"#000000"}],"agency_name":"Metro St. Louis"},"geometry":{"type":"Point","coordinates":[-89.9761,38.52037]}},{"type":"Feature","properties":{"stop_id":"15374","stop_code":"15374","stop_name":"BACK @ SWIC RING ROAD NB","stop_desc":"FAR SIDE BACK @ SWIC RING ROAD NB","wheelchair_boarding":2,"routes":[{"route_id":"19649","agency_id":"70006","route_short_name":"23","route_long_name":"Belleville-College","route_type":3,"route_color":"#FFFFFF","route_text_color":"#000000"}],"agency_name":"Metro St. Louis"},"geometry":{"type":"Point","coordinates":[-89.92046,38.51751]}},{"type":"Feature","properties":{"stop_id":"15586","stop_code":"15586","stop_name":"VICKSBURG @ CEDAR MOUNTAIN EB","stop_desc":"FAR SIDE VICKSBURG @ CEDAR MOUNTAIN EB","wheelchair_boarding":2,"routes":[{"route_id":"19649","agency_id":"70006","route_short_name":"23","route_long_name":"Belleville-College","route_type":3,"route_color":"#FFFFFF","route_text_color":"#000000"}],"agency_name":"Metro St. Louis"},"geometry":{"type":"Point","coordinates":[-89.95026,38.512]}},{"type":"Feature","properties":{"stop_id":"15913","stop_code":"15913","stop_name":"CARLYLE @ COLLEGE PLAZA WB","stop_desc":"FAR SIDE CARLYLE @ COLLEGE PLAZA WB","wheelchair_boarding":2,"routes":[{"route_id":"19649","agency_id":"70006","route_short_name":"23","route_long_name":"Belleville-College","route_type":3,"route_color":"#FFFFFF","route_text_color":"#000000"}],"agency_name":"Metro St. Louis"},"geometry":{"type":"Point","coordinates":[-89.93516,38.51961]}},{"type":"Feature","properties":{"stop_id":"16168","stop_code":"16168","stop_name":"GREEN MOUNT COMMONS @ GAME STOP WB","stop_desc":"MID-BLOCK GREEN MOUNT COMMONS @ GAME STOP WB","wheelchair_boarding":1,"routes":[{"route_id":"19649","agency_id":"70006","route_short_name":"23","route_long_name":"Belleville-College","route_type":3,"route_color":"#FFFFFF","route_text_color":"#000000"}],"agency_name":"Metro St. Louis"},"geometry":{"type":"Point","coordinates":[-89.92481,38.52058]}},{"type":"Feature","properties":{"stop_id":"16169","stop_code":"16169","stop_name":"GREEN MOUNT COMMONS @ LOWES WB","stop_desc":"MID-BLOCK GREEN MOUNT COMMONS @ LOWES WB","wheelchair_boarding":2,"routes":[{"route_id":"19649","agency_id":"70006","route_short_name":"23","route_long_name":"Belleville-College","route_type":3,"route_color":"#FFFFFF","route_text_color":"#000000"}],"agency_name":"Metro St. Louis"},"geometry":{"type":"Point","coordinates":[-89.92567,38.52059]}},{"type":"Feature","properties":{"stop_id":"16511","stop_code":"16511","stop_name":"SHERMAN @ LA SALLE SB","stop_desc":"FAR SIDE SHERMAN @ LA SALLE SB","wheelchair_boarding":2,"routes":[{"route_id":"19649","agency_id":"70006","route_short_name":"23","route_long_name":"Belleville-College","route_type":3,"route_color":"#FFFFFF","route_text_color":"#000000"}],"agency_name":"Metro St. Louis"},"geometry":{"type":"Point","coordinates":[-89.96644,38.52815]}},{"type":"Feature","properties":{"stop_id":"16517","stop_code":"16517","stop_name":"WEST @ B STREET NB","stop_desc":"NEAR SIDE WEST @ B STREET NB","wheelchair_boarding":2,"routes":[{"route_id":"19649","agency_id":"70006","route_short_name":"23","route_long_name":"Belleville-College","route_type":3,"route_color":"#FFFFFF","route_text_color":"#000000"}],"agency_name":"Metro St. Louis"},"geometry":{"type":"Point","coordinates":[-89.95539,38.52821]}}]}