{"type":"FeatureCollection","features":[{"type":"Feature","properties":{"agency_name":"Metro St. Louis","route_id":"19628","agency_id":"70006","route_short_name":"79","route_long_name":"Ferguson-Clayton","route_type":3,"route_color":"#FFFFFF","route_text_color":"#000000"},"geometry":{"type":"MultiLineString","coordinates":[[[-90.27625,38.77074],[-90.27523,38.77072],[-90.27625,38.77074],[-90.27667,38.77072],[-90.27718,38.77066],[-90.27761,38.77053],[-90.27793,38.77039],[-90.27867,38.76996],[-90.27898,38.76986],[-90.27929,38.76982],[-90.2795,38.76981],[-90.27971,38.76982],[-90.28011,38.7699],[-90.28005,38.77025],[-90.28001,38.77063],[-90.27999,38.77128],[-90.27996,38.77172],[-90.28016,38.77174],[-90.2811,38.77174],[-90.28242,38.77165],[-90.28264,38.77167],[-90.28313,38.77168],[-90.28797,38.77175],[-90.29193,38.77186],[-90.29277,38.7719],[-90.29634,38.77212],[-90.30135,38.77246],[-90.30248,38.77255],[-90.30444,38.77275],[-90.30552,38.77288],[-90.30628,38.77299],[-90.30676,38.77301],[-90.30794,38.77316],[-90.30836,38.77317],[-90.31148,38.77348],[-90.31528,38.77391],[-90.3156,38.77391],[-90.31707,38.77404],[-90.31723,38.77377],[-90.31715,38.77364],[-90.31695,38.7734],[-90.31644,38.77268],[-90.31613,38.7721],[-90.31592,38.77165],[-90.31582,38.7714],[-90.31562,38.77082],[-90.31551,38.77041],[-90.31522,38.7692],[-90.31425,38.76544],[-90.3141,38.76481],[-90.31388,38.764],[-90.31379,38.76373],[-90.31367,38.76347],[-90.31357,38.76327],[-90.31325,38.76281],[-90.31097,38.75998],[-90.3102,38.75905],[-90.30986,38.75852],[-90.3097,38.75816],[-90.30962,38.75791],[-90.30951,38.75731],[-90.30942,38.75659],[-90.30913,38.75374],[-90.309,38.75271],[-90.30889,38.75158],[-90.30881,38.75125],[-90.30856,38.75075],[-90.30718,38.74855],[-90.30838,38.74834],[-90.30861,38.74827],[-90.30903,38.74809],[-90.30971,38.74764],[-90.30993,38.74759],[-90.31087,38.74731],[-90.31104,38.74727],[-90.31133,38.74723],[-90.31158,38.74717],[-90.31261,38.74666],[-90.31287,38.74655],[-90.31316,38.74646],[-90.31392,38.74638],[-90.31468,38.7464],[-90.31491,38.74642],[-90.31537,38.74411],[-90.31558,38.74274],[-90.31565,38.73388],[-90.31563,38.73378],[-90.31049,38.73546],[-90.30885,38.73598],[-90.3053,38.73716],[-90.30322,38.73783],[-90.30222,38.7373],[-90.30183,38.73626],[-90.30171,38.73586],[-90.30166,38.7356],[-90.30163,38.73519],[-90.30166,38.73364],[-90.30169,38.73278],[-90.30181,38.73094],[-90.3018,38.7303],[-90.30182,38.72959],[-90.30187,38.72917],[-90.30199,38.72872],[-90.30218,38.7282],[-90.30237,38.72779],[-90.30359,38.7257],[-90.30401,38.72494],[-90.3044,38.72429],[-90.30478,38.72359],[-90.3053,38.72275],[-90.3054,38.72254],[-90.30559,38.722],[-90.30564,38.72176],[-90.3057,38.72086],[-90.30573,38.72068],[-90.30589,38.72002],[-90.30596,38.71932],[-90.30598,38.71881],[-90.30604,38.71838],[-90.30734,38.7183],[-90.30952,38.7181],[-90.31158,38.71751],[-90.312,38.71737],[-90.31232,38.71732],[-90.31278,38.71729],[-90.31337,38.71738],[-90.31392,38.71763],[-90.31372,38.71823],[-90.31376,38.7184],[-90.31429,38.71978],[-90.3144,38.71981],[-90.31561,38.71975],[-90.31577,38.71967],[-90.31586,38.7195],[-90.31606,38.71875],[-90.3161,38.71825],[-90.31606,38.71782],[-90.31624,38.71782],[-90.31809,38.71757],[-90.31825,38.71727],[-90.31845,38.71701],[-90.31892,38.71648],[-90.31911,38.71621],[-90.31921,38.71601],[-90.31929,38.71579],[-90.31933,38.71558],[-90.31935,38.71535],[-90.31936,38.71432],[-90.31935,38.7138],[-90.31938,38.71298],[-90.31939,38.71115],[-90.3195,38.71071],[-90.31977,38.71033],[-90.31998,38.71009],[-90.32022,38.70987],[-90.32076,38.70955],[-90.32115,38.70937],[-90.32156,38.70922],[-90.32198,38.70911],[-90.32256,38.70901],[-90.32325,38.70892],[-90.32372,38.7088],[-90.32399,38.7087],[-90.32422,38.70857],[-90.32445,38.70841],[-90.32475,38.70809],[-90.32488,38.70791],[-90.32498,38.70772],[-90.32506,38.70752],[-90.32517,38.70715],[-90.32546,38.70601],[-90.32552,38.70571],[-90.32554,38.70536],[-90.32553,38.70234],[-90.32555,38.70197],[-90.3256,38.70176],[-90.32572,38.70146],[-90.32584,38.70128],[-90.32612,38.70095],[-90.32779,38.69924],[-90.32818,38.69887],[-90.32842,38.6986],[-90.32848,38.69851],[-90.32857,38.69832],[-90.32866,38.69802],[-90.32867,38.69778],[-90.32866,38.69705],[-90.32871,38.69476],[-90.3287,38.69347],[-90.32876,38.69214],[-90.32878,38.69068],[-90.32881,38.68542],[-90.32879,38.68418],[-90.3288,38.68223],[-90.32878,38.68121],[-90.32872,38.67981],[-90.32873,38.67963],[-90.32864,38.67744],[-90.32864,38.67674],[-90.32869,38.67653],[-90.32877,38.67633],[-90.32889,38.67613],[-90.32903,38.67595],[-90.32927,38.67572],[-90.3299,38.67529],[-90.33075,38.67467],[-90.3309,38.67453],[-90.33103,38.67437],[-90.33114,38.6742],[-90.33127,38.67387],[-90.33161,38.67164],[-90.33212,38.66876],[-90.33235,38.66725],[-90.33234,38.66665],[-90.33231,38.66612],[-90.33218,38.66454],[-90.33211,38.66353],[-90.33211,38.66332],[-90.33225,38.66229],[-90.33251,38.66063],[-90.33275,38.65886],[-90.33311,38.65664],[-90.33349,38.65403],[-90.33361,38.65332],[-90.33404,38.65014],[-90.3342,38.65002],[-90.33438,38.64993],[-90.33684,38.65014],[-90.33844,38.64895],[-90.33876,38.64651],[-90.33884,38.64643],[-90.33893,38.64592],[-90.33897,38.64585],[-90.34026,38.64578],[-90.34024,38.64605]],[[-90.30686,38.74807],[-90.30718,38.74855],[-90.30661,38.74771],[-90.30583,38.7465],[-90.30564,38.74619],[-90.30527,38.74545],[-90.30506,38.7449],[-90.30485,38.74406],[-90.30433,38.74289],[-90.30402,38.74213],[-90.30364,38.74108],[-90.30282,38.73895],[-90.30248,38.73799]],[[-90.33921,38.6461],[-90.33917,38.64609]]]}},{"type":"Feature","properties":{"stop_id":"13330","stop_code":"13330","stop_name":"NORTH HANLEY TRANSIT CENTER","wheelchair_boarding":1,"routes":[{"route_id":"19594","agency_id":"70006","route_short_name":"4","route_long_name":"Natural Bridge","route_type":3,"route_color":"#FFFFFF","route_text_color":"#000000"},{"route_id":"19609","agency_id":"70006","route_short_name":"34","route_long_name":"Earth City","route_type":3,"route_color":"#FFFFFF","route_text_color":"#000000"},{"route_id":"19614","agency_id":"70006","route_short_name":"49","route_long_name":"Lindbergh","route_type":3,"route_color":"#FFFFFF","route_text_color":"#000000"},{"route_id":"19620","agency_id":"70006","route_short_name":"61","route_long_name":"Chambers Rd","route_type":3,"route_color":"#FFFFFF","route_text_color":"#000000"},{"route_id":"19625","agency_id":"70006","route_short_name":"76","route_long_name":"N Hanley Shuttle","route_type":3,"route_color":"#FFFFFF","route_text_color":"#000000"},{"route_id":"19626","agency_id":"70006","route_short_name":"77","route_long_name":"Village Square","route_type":3,"route_color":"#FFFFFF","route_text_color":"#000000"},{"route_id":"19628","agency_id":"70006","route_short_name":"79","route_long_name":"Ferguson-Clayton","route_type":3,"route_color":"#FFFFFF","route_text_color":"#000000"}],"agency_name":"Metro St. Louis"},"geometry":{"type":"Point","coordinates":[-90.31495,38.71976]}},{"type":"Feature","properties":{"stop_id":"14403","stop_code":"14403","stop_name":"CLAYTON TRANSIT CENTER","wheelchair_boarding":1,"routes":[{"route_id":"19628","agency_id":"70006","route_short_name":"79","route_long_name":"Ferguson-Clayton","route_type":3,"route_color":"#FFFFFF","route_text_color":"#000000"},{"route_id":"19633","agency_id":"70006","route_short_name":"97","route_long_name":"Delmar","route_type":3,"route_color":"#FFFFFF","route_text_color":"#000000"}],"agency_name":"Metro St. Louis"},"geometry":{"type":"Point","coordinates":[-90.33974,38.64607]}},{"type":"Feature","properties":{"stop_id":"14674","stop_code":"14674","stop_name":"CENTRAL @ CARONDELET SB","stop_desc":"FAR SIDE CENTRAL @ CARONDELET SB","wheelchair_boarding":1,"routes":[{"route_id":"19608","agency_id":"70006","route_short_name":"33","route_long_name":"Midland","route_type":3,"route_color":"#FFFFFF","route_text_color":"#000000"},{"route_id":"19628","agency_id":"70006","route_short_name":"79","route_long_name":"Ferguson-Clayton","route_type":3,"route_color":"#FFFFFF","route_text_color":"#000000"},{"route_id":"19633","agency_id":"70006","route_short_name":"97","route_long_name":"Delmar","route_type":3,"route_color":"#FFFFFF","route_text_color":"#000000"}],"agency_name":"Metro St. Louis"},"geometry":{"type":"Point","coordinates":[-90.33865,38.64834]}},{"type":"Feature","properties":{"stop_id":"15530","stop_code":"15530","stop_name":"NORTH HANLEY @ SHAFTESBURY SB","stop_desc":"FAR SIDE NORTH HANLEY @ SHAFTESBURY SB","wheelchair_boarding":1,"routes":[{"route_id":"19628","agency_id":"70006","route_short_name":"79","route_long_name":"Ferguson-Clayton","route_type":3,"route_color":"#FFFFFF","route_text_color":"#000000"}],"agency_name":"Metro St. Louis"},"geometry":{"type":"Point","coordinates":[-90.3324,38.66681]}},{"type":"Feature","properties":{"stop_id":"15531","stop_code":"15531","stop_name":"NORTH HANLEY @ BALSON SB","stop_desc":"NEAR SIDE NORTH HANLEY @ BALSON SB","wheelchair_boarding":2,"routes":[{"route_id":"19628","agency_id":"70006","route_short_name":"79","route_long_name":"Ferguson-Clayton","route_type":3,"route_color":"#FFFFFF","route_text_color":"#000000"}],"agency_name":"Metro St. Louis"},"geometry":{"type":"Point","coordinates":[-90.33229,38.66479]}},{"type":"Feature","properties":{"stop_id":"15532","stop_code":"15532","stop_name":"NORTH HANLEY @ AMHERST SB","stop_desc":"FAR SIDE NORTH HANLEY @ AMHERST SB","wheelchair_boarding":1,"routes":[{"route_id":"19628","agency_id":"70006","route_short_name":"79","route_long_name":"Ferguson-Clayton","route_type":3,"route_color":"#FFFFFF","route_text_color":"#000000"}],"agency_name":"Metro St. Louis"},"geometry":{"type":"Point","coordinates":[-90.33234,38.66191]}},{"type":"Feature","properties":{"stop_id":"15533","stop_code":"15533","stop_name":"NORTH HANLEY @ CORNELL SB","stop_desc":"FAR SIDE NORTH HANLEY @ CORNELL SB","wheelchair_boarding":2,"routes":[{"route_id":"19628","agency_id":"70006","route_short_name":"79","route_long_name":"Ferguson-Clayton","route_type":3,"route_color":"#FFFFFF","route_text_color":"#000000"}],"agency_name":"Metro St. Louis"},"geometry":{"type":"Point","coordinates":[-90.33254,38.66056]}},{"type":"Feature","properties":{"stop_id":"15900","stop_code":"15900","stop_name":"UNIVERSITY PLACE @ EXPRESS SCRIPTS WB","stop_desc":"NEAR SIDE UNIVERSITY PLACE @ EXPRESS SCRIPTS WB","wheelchair_boarding":1,"routes":[{"route_id":"19628","agency_id":"70006","route_short_name":"79","route_long_name":"Ferguson-Clayton","route_type":3,"route_color":"#FFFFFF","route_text_color":"#000000"}],"agency_name":"Metro St. Louis"},"geometry":{"type":"Point","coordinates":[-90.30994,38.71802]}},{"type":"Feature","properties":{"stop_id":"15962","stop_code":"15962","stop_name":"DUNN @ GRANDVIEW PLAZA WB","stop_desc":"MID-BLOCK DUNN @ GRANDVIEW PLAZA WB","wheelchair_boarding":2,"routes":[{"route_id":"19627","agency_id":"70006","route_short_name":"78","route_long_name":"Bellefontaine","route_type":3,"route_color":"#FFFFFF","route_text_color":"#000000"},{"route_id":"19628","agency_id":"70006","route_short_name":"79","route_long_name":"Ferguson-Clayton","route_type":3,"route_color":"#FFFFFF","route_text_color":"#000000"}],"agency_name":"Metro St. Louis"},"geometry":{"type":"Point","coordinates":[-90.30389,38.77272]}},{"type":"Feature","properties":{"stop_id":"16042","stop_code":"16042","stop_name":"DUNN @ WASHINGTON WB","stop_desc":"FAR SIDE DUNN @ WASHINGTON WB","wheelchair_boarding":2,"routes":[{"route_id":"19628","agency_id":"70006","route_short_name":"79","route_long_name":"Ferguson-Clayton","route_type":3,"route_color":"#FFFFFF","route_text_color":"#000000"}],"agency_name":"Metro St. Louis"},"geometry":{"type":"Point","coordinates":[-90.30912,38.77327]}},{"type":"Feature","properties":{"stop_id":"16044","stop_code":"16044","stop_name":"DUNN @ WEST FLORISSANT WB","wheelchair_boarding":2,"routes":[{"route_id":"19627","agency_id":"70006","route_short_name":"78","route_long_name":"Bellefontaine","route_type":3,"route_color":"#FFFFFF","route_text_color":"#000000"},{"route_id":"19628","agency_id":"70006","route_short_name":"79","route_long_name":"Ferguson-Clayton","route_type":3,"route_color":"#FFFFFF","route_text_color":"#000000"}],"agency_name":"Metro St. Louis"},"geometry":{"type":"Point","coordinates":[-90.28155,38.7717]}},{"type":"Feature","properties":{"stop_id":"16192","stop_code":"16192","stop_name":"NORTH HANLEY @ OLIVE SB","stop_desc":"NEAR SIDE NORTH HANLEY @ OLIVE SB","wheelchair_boarding":2,"routes":[{"route_id":"19628","agency_id":"70006","route_short_name":"79","route_long_name":"Ferguson-Clayton","route_type":3,"route_color":"#FFFFFF","route_text_color":"#000000"}],"agency_name":"Metro St. Louis"},"geometry":{"type":"Point","coordinates":[-90.33159,38.67204]}},{"type":"Feature","properties":{"stop_id":"16251","stop_code":"16251","stop_name":"NORTH COUNTY TRANSIT CENTER","wheelchair_boarding":1,"routes":[{"route_id":"19611","agency_id":"70006","route_short_name":"40","route_long_name":"Broadway-Halls Ferry","route_type":3,"route_color":"#FFFFFF","route_text_color":"#000000"},{"route_id":"19626","agency_id":"70006","route_short_name":"77","route_long_name":"Village Square","route_type":3,"route_color":"#FFFFFF","route_text_color":"#000000"},{"route_id":"19627","agency_id":"70006","route_short_name":"78","route_long_name":"Bellefontaine","route_type":3,"route_color":"#FFFFFF","route_text_color":"#000000"},{"route_id":"19628","agency_id":"70006","route_short_name":"79","route_long_name":"Ferguson-Clayton","route_type":3,"route_color":"#FFFFFF","route_text_color":"#000000"}],"agency_name":"Metro St. Louis"},"geometry":{"type":"Point","coordinates":[-90.27521,38.7698]}},{"type":"Feature","properties":{"stop_id":"16357","stop_code":"16357","stop_name":"DUNN @ WATERFORD WB","stop_desc":"FAR SIDE DUNN @ WATERFORD WB","wheelchair_boarding":2,"routes":[{"route_id":"19627","agency_id":"70006","route_short_name":"78","route_long_name":"Bellefontaine","route_type":3,"route_color":"#FFFFFF","route_text_color":"#000000"},{"route_id":"19628","agency_id":"70006","route_short_name":"79","route_long_name":"Ferguson-Clayton","route_type":3,"route_color":"#FFFFFF","route_text_color":"#000000"}],"agency_name":"Metro St. Louis"},"geometry":{"type":"Point","coordinates":[-90.2991,38.77235]}},{"type":"Feature","properties":{"stop_id":"3592","stop_code":"3592","stop_name":"DUNN @ SINGING PINES WB","stop_desc":"NEAR SIDE DUNN @ SINGING PINES WB","wheelchair_boarding":2,"routes":[{"route_id":"19627","agency_id":"70006","route_short_name":"78","route_long_name":"Bellefontaine","route_type":3,"route_color":"#FFFFFF","route_text_color":"#000000"},{"route_id":"19628","agency_id":"70006","route_short_name":"79","route_long_name":"Ferguson-Clayton","route_type":3,"route_color":"#FFFFFF","route_text_color":"#000000"}],"agency_name":"Metro St. Louis"},"geometry":{"type":"Point","coordinates":[-90.28784,38.77179]}},{"type":"Feature","properties":{"stop_id":"3593","stop_code":"3593","stop_name":"DUNN @ SUMMER RUN WB","stop_desc":"NEAR SIDE DUNN @ SUMMER RUN WB","wheelchair_boarding":2,"routes":[{"route_id":"19627","agency_id":"70006","route_short_name":"78","route_long_name":"Bellefontaine","route_type":3,"route_color":"#FFFFFF","route_text_color":"#000000"},{"route_id":"19628","agency_id":"70006","route_short_name":"79","route_long_name":"Ferguson-Clayton","route_type":3,"route_color":"#FFFFFF","route_text_color":"#000000"}],"agency_name":"Metro St. Louis"},"geometry":{"type":"Point","coordinates":[-90.29378,38.77199]}},{"type":"Feature","properties":{"stop_id":"3594","stop_code":"3594","stop_name":"DUNN @ GRANDVIEW WB","stop_desc":"FAR SIDE DUNN @ GRANDVIEW WB","wheelchair_boarding":2,"routes":[{"route_id":"19627","agency_id":"70006","route_short_name":"78","route_long_name":"Bellefontaine","route_type":3,"route_color":"#FFFFFF","route_text_color":"#000000"},{"route_id":"19628","agency_id":"70006","route_short_name":"79","route_long_name":"Ferguson-Clayton","route_type":3,"route_color":"#FFFFFF","route_text_color":"#000000"}],"agency_name":"Metro St. Louis"},"geometry":{"type":"Point","coordinates":[-90.29619,38.77215]}},{"type":"Feature","properties":{"stop_id":"3595","stop_code":"3595","stop_name":"DUNN @ STONEBURY WB","stop_desc":"NEAR SIDE DUNN @ STONEBURY WB","wheelchair_boarding":2,"routes":[{"route_id":"19627","agency_id":"70006","route_short_name":"78","route_long_name":"Bellefontaine","route_type":3,"route_color":"#FFFFFF","route_text_color":"#000000"},{"route_id":"19628","agency_id":"70006","route_short_name":"79","route_long_name":"Ferguson-Clayton","route_type":3,"route_color":"#FFFFFF","route_text_color":"#000000"}],"agency_name":"Metro St. Louis"},"geometry":{"type":"Point","coordinates":[-90.30121,38.77247]}},{"type":"Feature","properties":{"stop_id":"3634","stop_code":"3634","stop_name":"NORTH FLORISSANT @ AIRPORT SB","stop_desc":"FAR SIDE NORTH FLORISSANT @ AIRPORT SB","wheelchair_boarding":1,"routes":[{"route_id":"19628","agency_id":"70006","route_short_name":"79","route_long_name":"Ferguson-Clayton","route_type":3,"route_color":"#FFFFFF","route_text_color":"#000000"}],"agency_name":"Metro St. Louis"},"geometry":{"type":"Point","coordinates":[-90.307,38.74818]}},{"type":"Feature","properties":{"stop_id":"3635","stop_code":"3635","stop_name":"NORTH FLORISSANT @ DARST SB","stop_desc":"FAR SIDE NORTH FLORISSANT @ DARST SB","wheelchair_boarding":2,"routes":[{"route_id":"19628","agency_id":"70006","route_short_name":"79","route_long_name":"Ferguson-Clayton","route_type":3,"route_color":"#FFFFFF","route_text_color":"#000000"}],"agency_name":"Metro St. Louis"},"geometry":{"type":"Point","coordinates":[-90.30604,38.74667]}},{"type":"Feature","properties":{"stop_id":"3636","stop_code":"3636","stop_name":"NORTH FLORISSANT @ CHURCH SB","stop_desc":"FAR SIDE NORTH FLORISSANT @ CHURCH SB","wheelchair_boarding":1,"routes":[{"route_id":"19628","agency_id":"70006","route_short_name":"79","route_long_name":"Ferguson-Clayton","route_type":3,"route_color":"#FFFFFF","route_text_color":"#000000"}],"agency_name":"Metro St. Louis"},"geometry":{"type":"Point","coordinates":[-90.30506,38.74469]}},{"type":"Feature","properties":{"stop_id":"3641","stop_code":"3641","stop_name":"SOUTH FLORISSANT @ TIFFIN SB","stop_desc":"FAR SIDE SOUTH FLORISSANT @ TIFFIN SB","wheelchair_boarding":1,"routes":[{"route_id":"19628","agency_id":"70006","route_short_name":"79","route_long_name":"Ferguson-Clayton","route_type":3,"route_color":"#FFFFFF","route_text_color":"#000000"}],"agency_name":"Metro St. Louis"},"geometry":{"type":"Point","coordinates":[-90.30358,38.74083]}},{"type":"Feature","properties":{"stop_id":"3717","stop_code":"3717","stop_name":"DADE @ CARSON SB","stop_desc":"FAR SIDE DADE @ CARSON SB","wheelchair_boarding":2,"routes":[{"route_id":"19628","agency_id":"70006","route_short_name":"79","route_long_name":"Ferguson-Clayton","route_type":3,"route_color":"#FFFFFF","route_text_color":"#000000"}],"agency_name":"Metro St. Louis"},"geometry":{"type":"Point","coordinates":[-90.31561,38.74361]}},{"type":"Feature","properties":{"stop_id":"3719","stop_code":"3719","stop_name":"DADE @ TIFFIN SB","stop_desc":"NEAR SIDE DADE @ TIFFIN SB","wheelchair_boarding":2,"routes":[{"route_id":"19628","agency_id":"70006","route_short_name":"79","route_long_name":"Ferguson-Clayton","route_type":3,"route_color":"#FFFFFF","route_text_color":"#000000"}],"agency_name":"Metro St. Louis"},"geometry":{"type":"Point","coordinates":[-90.31562,38.74175]}},{"type":"Feature","properties":{"stop_id":"3720","stop_code":"3720","stop_name":"DADE @ NORTH SB","stop_desc":"FAR SIDE DADE @ NORTH SB","wheelchair_boarding":2,"routes":[{"route_id":"19628","agency_id":"70006","route_short_name":"79","route_long_name":"Ferguson-Clayton","route_type":3,"route_color":"#FFFFFF","route_text_color":"#000000"}],"agency_name":"Metro St. Louis"},"geometry":{"type":"Point","coordinates":[-90.31565,38.73813]}},{"type":"Feature","properties":{"stop_id":"3721","stop_code":"3721","stop_name":"DADE @ GRAF SB","stop_desc":"FAR SIDE DADE @ GRAF SB","wheelchair_boarding":2,"routes":[{"route_id":"19628","agency_id":"70006","route_short_name":"79","route_long_name":"Ferguson-Clayton","route_type":3,"route_color":"#FFFFFF","route_text_color":"#000000"}],"agency_name":"Metro St. Louis"},"geometry":{"type":"Point","coordinates":[-90.31567,38.7364]}},{"type":"Feature","properties":{"stop_id":"3722","stop_code":"3722","stop_name":"DADE @ SUBURBAN SB","stop_desc":"NEAR SIDE DADE @ SUBURBAN SB","wheelchair_boarding":2,"routes":[{"route_id":"19628","agency_id":"70006","route_short_name":"79","route_long_name":"Ferguson-Clayton","route_type":3,"route_color":"#FFFFFF","route_text_color":"#000000"}],"agency_name":"Metro St. Louis"},"geometry":{"type":"Point","coordinates":[-90.31569,38.73401]}},{"type":"Feature","properties":{"stop_id":"3723","stop_code":"3723","stop_name":"SUBURBAN @ HARVEY EB","stop_desc":"NEAR SIDE SUBURBAN @ HARVEY EB","wheelchair_boarding":2,"routes":[{"route_id":"19628","agency_id":"70006","route_short_name":"79","route_long_name":"Ferguson-Clayton","route_type":3,"route_color":"#FFFFFF","route_text_color":"#000000"}],"agency_name":"Metro St. Louis"},"geometry":{"type":"Point","coordinates":[-90.31297,38.73463]}},{"type":"Feature","properties":{"stop_id":"3724","stop_code":"3724","stop_name":"SUBURBAN @ GEORGIA EB","stop_desc":"FAR SIDE SUBURBAN @ GEORGIA EB","wheelchair_boarding":2,"routes":[{"route_id":"19628","agency_id":"70006","route_short_name":"79","route_long_name":"Ferguson-Clayton","route_type":3,"route_color":"#FFFFFF","route_text_color":"#000000"}],"agency_name":"Metro St. Louis"},"geometry":{"type":"Point","coordinates":[-90.31044,38.73546]}},{"type":"Feature","properties":{"stop_id":"3725","stop_code":"3725","stop_name":"SUBURBAN @ SHIRLEY EB","stop_desc":"NEAR SIDE SUBURBAN @ SHIRLEY EB","wheelchair_boarding":2,"routes":[{"route_id":"19628","agency_id":"70006","route_short_name":"79","route_long_name":"Ferguson-Clayton","route_type":3,"route_color":"#FFFFFF","route_text_color":"#000000"}],"agency_name":"Metro St. Louis"},"geometry":{"type":"Point","coordinates":[-90.30911,38.73589]}},{"type":"Feature","properties":{"stop_id":"3726","stop_code":"3726","stop_name":"SUBURBAN @ HERN EB","stop_desc":"FAR SIDE SUBURBAN @ HERN EB","wheelchair_boarding":2,"routes":[{"route_id":"19628","agency_id":"70006","route_short_name":"79","route_long_name":"Ferguson-Clayton","route_type":3,"route_color":"#FFFFFF","route_text_color":"#000000"}],"agency_name":"Metro St. Louis"},"geometry":{"type":"Point","coordinates":[-90.30774,38.73625]}},{"type":"Feature","properties":{"stop_id":"3727","stop_code":"3727","stop_name":"SUBURBAN @ CLARK EB","stop_desc":"FAR SIDE SUBURBAN @ CLARK EB","wheelchair_boarding":2,"routes":[{"route_id":"19628","agency_id":"70006","route_short_name":"79","route_long_name":"Ferguson-Clayton","route_type":3,"route_color":"#FFFFFF","route_text_color":"#000000"}],"agency_name":"Metro St. Louis"},"geometry":{"type":"Point","coordinates":[-90.30523,38.73714]}},{"type":"Feature","properties":{"stop_id":"5218","stop_code":"5218","stop_name":"NORTH HANLEY @ MARYLAND SB","stop_desc":"FAR SIDE NORTH HANLEY @ MARYLAND SB","wheelchair_boarding":2,"routes":[{"route_id":"19608","agency_id":"70006","route_short_name":"33","route_long_name":"Midland","route_type":3,"route_color":"#FFFFFF","route_text_color":"#000000"},{"route_id":"19628","agency_id":"70006","route_short_name":"79","route_long_name":"Ferguson-Clayton","route_type":3,"route_color":"#FFFFFF","route_text_color":"#000000"},{"route_id":"19633","agency_id":"70006","route_short_name":"97","route_long_name":"Delmar","route_type":3,"route_color":"#FFFFFF","route_text_color":"#000000"}],"agency_name":"Metro St. Louis"},"geometry":{"type":"Point","coordinates":[-90.33405,38.6508]}},{"type":"Feature","properties":{"stop_id":"5831","stop_code":"5831","stop_name":"NEW FLORISSANT @ BARTO SB","stop_desc":"NEAR SIDE NEW FLORISSANT @ BARTO SB","wheelchair_boarding":2,"routes":[{"route_id":"19628","agency_id":"70006","route_short_name":"79","route_long_name":"Ferguson-Clayton","route_type":3,"route_color":"#FFFFFF","route_text_color":"#000000"}],"agency_name":"Metro St. Louis"},"geometry":{"type":"Point","coordinates":[-90.31579,38.77114]}},{"type":"Feature","properties":{"stop_id":"5834","stop_code":"5834","stop_name":"NORTH FLORISSANT @ ELBRING SB","stop_desc":"FAR SIDE NORTH FLORISSANT @ ELBRING SB","wheelchair_boarding":2,"routes":[{"route_id":"19628","agency_id":"70006","route_short_name":"79","route_long_name":"Ferguson-Clayton","route_type":3,"route_color":"#FFFFFF","route_text_color":"#000000"}],"agency_name":"Metro St. Louis"},"geometry":{"type":"Point","coordinates":[-90.31482,38.76741]}},{"type":"Feature","properties":{"stop_id":"5835","stop_code":"5835","stop_name":"NORTH FLORISSANT @ GRETHER SB","stop_desc":"FAR SIDE NORTH FLORISSANT @ GRETHER SB","wheelchair_boarding":2,"routes":[{"route_id":"19628","agency_id":"70006","route_short_name":"79","route_long_name":"Ferguson-Clayton","route_type":3,"route_color":"#FFFFFF","route_text_color":"#000000"}],"agency_name":"Metro St. Louis"},"geometry":{"type":"Point","coordinates":[-90.31417,38.76484]}},{"type":"Feature","properties":{"stop_id":"5836","stop_code":"5836","stop_name":"NORTH FLORISSANT @ WHITE SB","stop_desc":"FAR SIDE NORTH FLORISSANT @ WHITE SB","wheelchair_boarding":2,"routes":[{"route_id":"19628","agency_id":"70006","route_short_name":"79","route_long_name":"Ferguson-Clayton","route_type":3,"route_color":"#FFFFFF","route_text_color":"#000000"}],"agency_name":"Metro St. Louis"},"geometry":{"type":"Point","coordinates":[-90.3132,38.76263]}},{"type":"Feature","properties":{"stop_id":"5838","stop_code":"5838","stop_name":"NORTH FLORISSANT @ FROST SB","stop_desc":"FAR SIDE NORTH FLORISSANT @ FROST SB","wheelchair_boarding":2,"routes":[{"route_id":"19628","agency_id":"70006","route_short_name":"79","route_long_name":"Ferguson-Clayton","route_type":3,"route_color":"#FFFFFF","route_text_color":"#000000"}],"agency_name":"Metro St. Louis"},"geometry":{"type":"Point","coordinates":[-90.31031,38.75908]}},{"type":"Feature","properties":{"stop_id":"5839","stop_code":"5839","stop_name":"NORTH FLORISSANT @ ALBERT SB","stop_desc":"FAR SIDE NORTH FLORISSANT @ ALBERT SB","wheelchair_boarding":1,"routes":[{"route_id":"19628","agency_id":"70006","route_short_name":"79","route_long_name":"Ferguson-Clayton","route_type":3,"route_color":"#FFFFFF","route_text_color":"#000000"}],"agency_name":"Metro St. Louis"},"geometry":{"type":"Point","coordinates":[-90.30936,38.75562]}},{"type":"Feature","properties":{"stop_id":"5840","stop_code":"5840","stop_name":"NORTH FLORISSANT @ LAKEVIEW COURT SB","stop_desc":"FAR SIDE NORTH FLORISSANT @ LAKEVIEW COURT SB","wheelchair_boarding":2,"routes":[{"route_id":"19628","agency_id":"70006","route_short_name":"79","route_long_name":"Ferguson-Clayton","route_type":3,"route_color":"#FFFFFF","route_text_color":"#000000"}],"agency_name":"Metro St. Louis"},"geometry":{"type":"Point","coordinates":[-90.30922,38.75411]}},{"type":"Feature","properties":{"stop_id":"5841","stop_code":"5841","stop_name":"NORTH FLORISSANT @ JANUARY SB","stop_desc":"FAR SIDE NORTH FLORISSANT @ JANUARY SB","wheelchair_boarding":2,"routes":[{"route_id":"19628","agency_id":"70006","route_short_name":"79","route_long_name":"Ferguson-Clayton","route_type":3,"route_color":"#FFFFFF","route_text_color":"#000000"}],"agency_name":"Metro St. Louis"},"geometry":{"type":"Point","coordinates":[-90.30894,38.75149]}},{"type":"Feature","properties":{"stop_id":"5843","stop_code":"5843","stop_name":"SOUTH FLORISSANT @ SUBURBAN SB","stop_desc":"FAR SIDE SOUTH FLORISSANT @ SUBURBAN SB","wheelchair_boarding":2,"routes":[{"route_id":"19628","agency_id":"70006","route_short_name":"79","route_long_name":"Ferguson-Clayton","route_type":3,"route_color":"#FFFFFF","route_text_color":"#000000"}],"agency_name":"Metro St. Louis"},"geometry":{"type":"Point","coordinates":[-90.30234,38.73753]}},{"type":"Feature","properties":{"stop_id":"5845","stop_code":"5845","stop_name":"SOUTH FLORISSANT @ RUGGLES SB","stop_desc":"FAR SIDE SOUTH FLORISSANT @ RUGGLES SB","wheelchair_boarding":2,"routes":[{"route_id":"19628","agency_id":"70006","route_short_name":"79","route_long_name":"Ferguson-Clayton","route_type":3,"route_color":"#FFFFFF","route_text_color":"#000000"}],"agency_name":"Metro St. Louis"},"geometry":{"type":"Point","coordinates":[-90.3017,38.73445]}},{"type":"Feature","properties":{"stop_id":"5846","stop_code":"5846","stop_name":"SOUTH FLORISSANT @ FAIRVIEW SB","stop_desc":"FAR SIDE SOUTH FLORISSANT @ FAIRVIEW SB","wheelchair_boarding":2,"routes":[{"route_id":"19628","agency_id":"70006","route_short_name":"79","route_long_name":"Ferguson-Clayton","route_type":3,"route_color":"#FFFFFF","route_text_color":"#000000"}],"agency_name":"Metro St. Louis"},"geometry":{"type":"Point","coordinates":[-90.30178,38.73263]}},{"type":"Feature","properties":{"stop_id":"5847","stop_code":"5847","stop_name":"SOUTH FLORISSANT @ BROTHERTON SB","stop_desc":"FAR SIDE SOUTH FLORISSANT @ BROTHERTON SB","wheelchair_boarding":2,"routes":[{"route_id":"19628","agency_id":"70006","route_short_name":"79","route_long_name":"Ferguson-Clayton","route_type":3,"route_color":"#FFFFFF","route_text_color":"#000000"}],"agency_name":"Metro St. Louis"},"geometry":{"type":"Point","coordinates":[-90.3019,38.73055]}},{"type":"Feature","properties":{"stop_id":"5848","stop_code":"5848","stop_name":"1351 SOUTH FLORISSANT SB","stop_desc":"MID-BLOCK 1351 SOUTH FLORISSANT SB","wheelchair_boarding":1,"routes":[{"route_id":"19628","agency_id":"70006","route_short_name":"79","route_long_name":"Ferguson-Clayton","route_type":3,"route_color":"#FFFFFF","route_text_color":"#000000"}],"agency_name":"Metro St. Louis"},"geometry":{"type":"Point","coordinates":[-90.3024,38.72795]}},{"type":"Feature","properties":{"stop_id":"5849","stop_code":"5849","stop_name":"SOUTH FLORISSANT @ EVANS SB","stop_desc":"NEAR SIDE SOUTH FLORISSANT @ EVANS SB","wheelchair_boarding":1,"routes":[{"route_id":"19628","agency_id":"70006","route_short_name":"79","route_long_name":"Ferguson-Clayton","route_type":3,"route_color":"#FFFFFF","route_text_color":"#000000"}],"agency_name":"Metro St. Louis"},"geometry":{"type":"Point","coordinates":[-90.30398,38.72525]}},{"type":"Feature","properties":{"stop_id":"5850","stop_code":"5850","stop_name":"SOUTH FLORISSANT @ EMERLING SB","stop_desc":"FAR SIDE SOUTH FLORISSANT @ EMERLING SB","wheelchair_boarding":2,"routes":[{"route_id":"19628","agency_id":"70006","route_short_name":"79","route_long_name":"Ferguson-Clayton","route_type":3,"route_color":"#FFFFFF","route_text_color":"#000000"}],"agency_name":"Metro St. Louis"},"geometry":{"type":"Point","coordinates":[-90.30501,38.72336]}},{"type":"Feature","properties":{"stop_id":"5851","stop_code":"5851","stop_name":"UNIVERSITY PLACE @ MARK TWAIN WB","stop_desc":"FAR SIDE UNIVERSITY PLACE @ MARK TWAIN WB","wheelchair_boarding":1,"routes":[{"route_id":"19628","agency_id":"70006","route_short_name":"79","route_long_name":"Ferguson-Clayton","route_type":3,"route_color":"#FFFFFF","route_text_color":"#000000"}],"agency_name":"Metro St. Louis"},"geometry":{"type":"Point","coordinates":[-90.30814,38.71829]}},{"type":"Feature","properties":{"stop_id":"5902","stop_code":"5902","stop_name":"4215 NORTH HANLEY SB","stop_desc":"MID-BLOCK 4215 NORTH HANLEY SB","wheelchair_boarding":2,"routes":[{"route_id":"19594","agency_id":"70006","route_short_name":"4","route_long_name":"Natural Bridge","route_type":3,"route_color":"#FFFFFF","route_text_color":"#000000"},{"route_id":"19614","agency_id":"70006","route_short_name":"49","route_long_name":"Lindbergh","route_type":3,"route_color":"#FFFFFF","route_text_color":"#000000"},{"route_id":"19628","agency_id":"70006","route_short_name":"79","route_long_name":"Ferguson-Clayton","route_type":3,"route_color":"#FFFFFF","route_text_color":"#000000"}],"agency_name":"Metro St. Louis"},"geometry":{"type":"Point","coordinates":[-90.319,38.71649]}},{"type":"Feature","properties":{"stop_id":"5904","stop_code":"5904","stop_name":"NORTH HANLEY @ NATURAL BRIDGE SB","stop_desc":"NEAR SIDE NORTH HANLEY @ NATURAL BRIDGE SB","wheelchair_boarding":2,"routes":[{"route_id":"19594","agency_id":"70006","route_short_name":"4","route_long_name":"Natural Bridge","route_type":3,"route_color":"#FFFFFF","route_text_color":"#000000"},{"route_id":"19614","agency_id":"70006","route_short_name":"49","route_long_name":"Lindbergh","route_type":3,"route_color":"#FFFFFF","route_text_color":"#000000"},{"route_id":"19628","agency_id":"70006","route_short_name":"79","route_long_name":"Ferguson-Clayton","route_type":3,"route_color":"#FFFFFF","route_text_color":"#000000"}],"agency_name":"Metro St. Louis"},"geometry":{"type":"Point","coordinates":[-90.31942,38.71222]}},{"type":"Feature","properties":{"stop_id":"5905","stop_code":"5905","stop_name":"NORTH HANLEY @ NATURAL BRIDGE SB","stop_desc":"FAR SIDE NORTH HANLEY @ NATURAL BRIDGE SB","wheelchair_boarding":2,"routes":[{"route_id":"19628","agency_id":"70006","route_short_name":"79","route_long_name":"Ferguson-Clayton","route_type":3,"route_color":"#FFFFFF","route_text_color":"#000000"}],"agency_name":"Metro St. Louis"},"geometry":{"type":"Point","coordinates":[-90.31987,38.71031]}},{"type":"Feature","properties":{"stop_id":"5907","stop_code":"5907","stop_name":"NORTH HANLEY @ WELSBERG SB","stop_desc":"FAR SIDE NORTH HANLEY @ WELSBERG SB","wheelchair_boarding":2,"routes":[{"route_id":"19628","agency_id":"70006","route_short_name":"79","route_long_name":"Ferguson-Clayton","route_type":3,"route_color":"#FFFFFF","route_text_color":"#000000"}],"agency_name":"Metro St. Louis"},"geometry":{"type":"Point","coordinates":[-90.32444,38.70849]}},{"type":"Feature","properties":{"stop_id":"5908","stop_code":"5908","stop_name":"NORTH HANLEY @ KENDALE SB","stop_desc":"FAR SIDE NORTH HANLEY @ KENDALE SB","wheelchair_boarding":2,"routes":[{"route_id":"19628","agency_id":"70006","route_short_name":"79","route_long_name":"Ferguson-Clayton","route_type":3,"route_color":"#FFFFFF","route_text_color":"#000000"}],"agency_name":"Metro St. Louis"},"geometry":{"type":"Point","coordinates":[-90.32529,38.70694]}},{"type":"Feature","properties":{"stop_id":"5909","stop_code":"5909","stop_name":"NORTH HANLEY @ CLER SB","stop_desc":"FAR SIDE NORTH HANLEY @ CLER SB","wheelchair_boarding":2,"routes":[{"route_id":"19628","agency_id":"70006","route_short_name":"79","route_long_name":"Ferguson-Clayton","route_type":3,"route_color":"#FFFFFF","route_text_color":"#000000"}],"agency_name":"Metro St. Louis"},"geometry":{"type":"Point","coordinates":[-90.32562,38.70488]}},{"type":"Feature","properties":{"stop_id":"5910","stop_code":"5910","stop_name":"NORTH HANLEY @ MERIDIAN SB","stop_desc":"FAR SIDE NORTH HANLEY @ MERIDIAN SB","wheelchair_boarding":2,"routes":[{"route_id":"19628","agency_id":"70006","route_short_name":"79","route_long_name":"Ferguson-Clayton","route_type":3,"route_color":"#FFFFFF","route_text_color":"#000000"}],"agency_name":"Metro St. Louis"},"geometry":{"type":"Point","coordinates":[-90.32567,38.70189]}},{"type":"Feature","properties":{"stop_id":"5911","stop_code":"5911","stop_name":"NORTH HANLEY @ LYNDHURST SB","stop_desc":"NEAR SIDE NORTH HANLEY @ LYNDHURST SB","wheelchair_boarding":1,"routes":[{"route_id":"19628","agency_id":"70006","route_short_name":"79","route_long_name":"Ferguson-Clayton","route_type":3,"route_color":"#FFFFFF","route_text_color":"#000000"}],"agency_name":"Metro St. Louis"},"geometry":{"type":"Point","coordinates":[-90.32668,38.7005]}},{"type":"Feature","properties":{"stop_id":"5912","stop_code":"5912","stop_name":"NORTH HANLEY @ ROCK ROAD SB","stop_desc":"FAR SIDE NORTH HANLEY @ ROCK ROAD SB","wheelchair_boarding":1,"routes":[{"route_id":"19628","agency_id":"70006","route_short_name":"79","route_long_name":"Ferguson-Clayton","route_type":3,"route_color":"#FFFFFF","route_text_color":"#000000"}],"agency_name":"Metro St. Louis"},"geometry":{"type":"Point","coordinates":[-90.32854,38.69854]}},{"type":"Feature","properties":{"stop_id":"5913","stop_code":"5913","stop_name":"NORTH HANLEY @ ALBIN SB","stop_desc":"NEAR SIDE NORTH HANLEY @ ALBIN SB","wheelchair_boarding":1,"routes":[{"route_id":"19628","agency_id":"70006","route_short_name":"79","route_long_name":"Ferguson-Clayton","route_type":3,"route_color":"#FFFFFF","route_text_color":"#000000"}],"agency_name":"Metro St. Louis"},"geometry":{"type":"Point","coordinates":[-90.32868,38.69628]}},{"type":"Feature","properties":{"stop_id":"5914","stop_code":"5914","stop_name":"NORTH HANLEY @ ELLERTON SB","stop_desc":"FAR SIDE NORTH HANLEY @ ELLERTON SB","wheelchair_boarding":1,"routes":[{"route_id":"19628","agency_id":"70006","route_short_name":"79","route_long_name":"Ferguson-Clayton","route_type":3,"route_color":"#FFFFFF","route_text_color":"#000000"}],"agency_name":"Metro St. Louis"},"geometry":{"type":"Point","coordinates":[-90.32877,38.6919]}},{"type":"Feature","properties":{"stop_id":"5915","stop_code":"5915","stop_name":"NORTH HANLEY @ TITUS SB","stop_desc":"NEAR SIDE NORTH HANLEY @ TITUS SB","wheelchair_boarding":1,"routes":[{"route_id":"19628","agency_id":"70006","route_short_name":"79","route_long_name":"Ferguson-Clayton","route_type":3,"route_color":"#FFFFFF","route_text_color":"#000000"}],"agency_name":"Metro St. Louis"},"geometry":{"type":"Point","coordinates":[-90.32879,38.69086]}},{"type":"Feature","properties":{"stop_id":"5916","stop_code":"5916","stop_name":"NORTH HANLEY @ ALERT SB","stop_desc":"NEAR SIDE NORTH HANLEY @ ALERT SB","wheelchair_boarding":1,"routes":[{"route_id":"19628","agency_id":"70006","route_short_name":"79","route_long_name":"Ferguson-Clayton","route_type":3,"route_color":"#FFFFFF","route_text_color":"#000000"}],"agency_name":"Metro St. Louis"},"geometry":{"type":"Point","coordinates":[-90.32879,38.68934]}},{"type":"Feature","properties":{"stop_id":"5917","stop_code":"5917","stop_name":"NORTH HANLEY @ MONROE SB","stop_desc":"NEAR SIDE NORTH HANLEY @ MONROE SB","wheelchair_boarding":1,"routes":[{"route_id":"19628","agency_id":"70006","route_short_name":"79","route_long_name":"Ferguson-Clayton","route_type":3,"route_color":"#FFFFFF","route_text_color":"#000000"}],"agency_name":"Metro St. Louis"},"geometry":{"type":"Point","coordinates":[-90.32881,38.68711]}},{"type":"Feature","properties":{"stop_id":"5918","stop_code":"5918","stop_name":"NORTH HANLEY @ WASHINGTON SB","stop_desc":"FAR SIDE NORTH HANLEY @ WASHINGTON SB","wheelchair_boarding":1,"routes":[{"route_id":"19628","agency_id":"70006","route_short_name":"79","route_long_name":"Ferguson-Clayton","route_type":3,"route_color":"#FFFFFF","route_text_color":"#000000"}],"agency_name":"Metro St. Louis"},"geometry":{"type":"Point","coordinates":[-90.3288,38.68455]}},{"type":"Feature","properties":{"stop_id":"5919","stop_code":"5919","stop_name":"NORTH HANLEY @ PAGE SB","stop_desc":"FAR SIDE NORTH HANLEY @ PAGE SB","wheelchair_boarding":1,"routes":[{"route_id":"19628","agency_id":"70006","route_short_name":"79","route_long_name":"Ferguson-Clayton","route_type":3,"route_color":"#FFFFFF","route_text_color":"#000000"}],"agency_name":"Metro St. Louis"},"geometry":{"type":"Point","coordinates":[-90.32885,38.6828]}},{"type":"Feature","properties":{"stop_id":"5922","stop_code":"5922","stop_name":"NORTH HANLEY @ MILAN SB","stop_desc":"NEAR SIDE NORTH HANLEY @ MILAN SB","wheelchair_boarding":2,"routes":[{"route_id":"19628","agency_id":"70006","route_short_name":"79","route_long_name":"Ferguson-Clayton","route_type":3,"route_color":"#FFFFFF","route_text_color":"#000000"}],"agency_name":"Metro St. Louis"},"geometry":{"type":"Point","coordinates":[-90.32883,38.68001]}},{"type":"Feature","properties":{"stop_id":"5923","stop_code":"5923","stop_name":"NORTH HANLEY @ LYNN SB","stop_desc":"NEAR SIDE NORTH HANLEY @ LYNN SB","wheelchair_boarding":2,"routes":[{"route_id":"19628","agency_id":"70006","route_short_name":"79","route_long_name":"Ferguson-Clayton","route_type":3,"route_color":"#FFFFFF","route_text_color":"#000000"}],"agency_name":"Metro St. Louis"},"geometry":{"type":"Point","coordinates":[-90.32871,38.67797]}},{"type":"Feature","properties":{"stop_id":"5925","stop_code":"5925","stop_name":"NORTH HANLEY @ CARLETON SB","stop_desc":"NEAR SIDE NORTH HANLEY @ CARLETON SB","wheelchair_boarding":2,"routes":[{"route_id":"19628","agency_id":"70006","route_short_name":"79","route_long_name":"Ferguson-Clayton","route_type":3,"route_color":"#FFFFFF","route_text_color":"#000000"}],"agency_name":"Metro St. Louis"},"geometry":{"type":"Point","coordinates":[-90.331,38.67451]}},{"type":"Feature","properties":{"stop_id":"5928","stop_code":"5928","stop_name":"NORTH HANLEY @ AHERN SB","stop_desc":"NEAR SIDE NORTH HANLEY @ AHERN SB","wheelchair_boarding":2,"routes":[{"route_id":"19628","agency_id":"70006","route_short_name":"79","route_long_name":"Ferguson-Clayton","route_type":3,"route_color":"#FFFFFF","route_text_color":"#000000"}],"agency_name":"Metro St. Louis"},"geometry":{"type":"Point","coordinates":[-90.33215,38.66897]}},{"type":"Feature","properties":{"stop_id":"5929","stop_code":"5929","stop_name":"NORTH HANLEY @ DELMAR SB","stop_desc":"FAR SIDE NORTH HANLEY @ DELMAR SB","wheelchair_boarding":2,"routes":[{"route_id":"19608","agency_id":"70006","route_short_name":"33","route_long_name":"Midland","route_type":3,"route_color":"#FFFFFF","route_text_color":"#000000"},{"route_id":"19628","agency_id":"70006","route_short_name":"79","route_long_name":"Ferguson-Clayton","route_type":3,"route_color":"#FFFFFF","route_text_color":"#000000"},{"route_id":"19633","agency_id":"70006","route_short_name":"97","route_long_name":"Delmar","route_type":3,"route_color":"#FFFFFF","route_text_color":"#000000"}],"agency_name":"Metro St. Louis"},"geometry":{"type":"Point","coordinates":[-90.33289,38.65847]}},{"type":"Feature","properties":{"stop_id":"5930","stop_code":"5930","stop_name":"NORTH HANLEY @ STRATFORD SB","stop_desc":"FAR SIDE NORTH HANLEY @ STRATFORD SB","wheelchair_boarding":1,"routes":[{"route_id":"19608","agency_id":"70006","route_short_name":"33","route_long_name":"Midland","route_type":3,"route_color":"#FFFFFF","route_text_color":"#000000"},{"route_id":"19628","agency_id":"70006","route_short_name":"79","route_long_name":"Ferguson-Clayton","route_type":3,"route_color":"#FFFFFF","route_text_color":"#000000"},{"route_id":"19633","agency_id":"70006","route_short_name":"97","route_long_name":"Delmar","route_type":3,"route_color":"#FFFFFF","route_text_color":"#000000"}],"agency_name":"Metro St. Louis"},"geometry":{"type":"Point","coordinates":[-90.33327,38.65598]}},{"type":"Feature","properties":{"stop_id":"5931","stop_code":"5931","stop_name":"NORTH HANLEY @ PERSHING SB","stop_desc":"NEAR SIDE NORTH HANLEY @ PERSHING SB","wheelchair_boarding":1,"routes":[{"route_id":"19608","agency_id":"70006","route_short_name":"33","route_long_name":"Midland","route_type":3,"route_color":"#FFFFFF","route_text_color":"#000000"},{"route_id":"19628","agency_id":"70006","route_short_name":"79","route_long_name":"Ferguson-Clayton","route_type":3,"route_color":"#FFFFFF","route_text_color":"#000000"},{"route_id":"19633","agency_id":"70006","route_short_name":"97","route_long_name":"Delmar","route_type":3,"route_color":"#FFFFFF","route_text_color":"#000000"}],"agency_name":"Metro St. Louis"},"geometry":{"type":"Point","coordinates":[-90.33352,38.65443]}},{"type":"Feature","properties":{"stop_id":"6036","stop_code":"6036","stop_name":"DUNN @ PLAZA DUCHESNE WB","stop_desc":"NEAR SIDE DUNN @ PLAZA DUCHESNE WB","wheelchair_boarding":2,"routes":[{"route_id":"19628","agency_id":"70006","route_short_name":"79","route_long_name":"Ferguson-Clayton","route_type":3,"route_color":"#FFFFFF","route_text_color":"#000000"}],"agency_name":"Metro St. Louis"},"geometry":{"type":"Point","coordinates":[-90.31479,38.77389]}},{"type":"Feature","properties":{"stop_id":"7478","stop_code":"7478","stop_name":"AIRPORT @ NORTH FLORISSANT WB","stop_desc":"FAR SIDE AIRPORT @ NORTH FLORISSANT WB","wheelchair_boarding":1,"routes":[{"route_id":"19620","agency_id":"70006","route_short_name":"61","route_long_name":"Chambers Rd","route_type":3,"route_color":"#FFFFFF","route_text_color":"#000000"},{"route_id":"19628","agency_id":"70006","route_short_name":"79","route_long_name":"Ferguson-Clayton","route_type":3,"route_color":"#FFFFFF","route_text_color":"#000000"}],"agency_name":"Metro St. Louis"},"geometry":{"type":"Point","coordinates":[-90.3077,38.74854]}},{"type":"Feature","properties":{"stop_id":"7481","stop_code":"7481","stop_name":"AIRPORT @ WABASH WB","stop_desc":"FAR SIDE AIRPORT @ WABASH WB","wheelchair_boarding":1,"routes":[{"route_id":"19620","agency_id":"70006","route_short_name":"61","route_long_name":"Chambers Rd","route_type":3,"route_color":"#FFFFFF","route_text_color":"#000000"},{"route_id":"19628","agency_id":"70006","route_short_name":"79","route_long_name":"Ferguson-Clayton","route_type":3,"route_color":"#FFFFFF","route_text_color":"#000000"}],"agency_name":"Metro St. Louis"},"geometry":{"type":"Point","coordinates":[-90.31215,38.74692]}},{"type":"Feature","properties":{"stop_id":"7482","stop_code":"7482","stop_name":"DADE @ AIRPORT SB","stop_desc":"FAR SIDE DADE @ AIRPORT SB","wheelchair_boarding":2,"routes":[{"route_id":"19628","agency_id":"70006","route_short_name":"79","route_long_name":"Ferguson-Clayton","route_type":3,"route_color":"#FFFFFF","route_text_color":"#000000"}],"agency_name":"Metro St. Louis"},"geometry":{"type":"Point","coordinates":[-90.31534,38.74603]}},{"type":"Feature","properties":{"stop_id":"8058","stop_code":"8058","stop_name":"FORSYTH @ NORTH HANLEY WB","stop_desc":"FAR SIDE FORSYTH @ NORTH HANLEY WB","wheelchair_boarding":1,"routes":[{"route_id":"19608","agency_id":"70006","route_short_name":"33","route_long_name":"Midland","route_type":3,"route_color":"#FFFFFF","route_text_color":"#000000"},{"route_id":"19628","agency_id":"70006","route_short_name":"79","route_long_name":"Ferguson-Clayton","route_type":3,"route_color":"#FFFFFF","route_text_color":"#000000"},{"route_id":"19633","agency_id":"70006","route_short_name":"97","route_long_name":"Delmar","route_type":3,"route_color":"#FFFFFF","route_text_color":"#000000"}],"agency_name":"Metro St. Louis"},"geometry":{"type":"Point","coordinates":[-90.33524,38.65006]}}]}