{"type":"FeatureCollection","features":[{"type":"Feature","properties":{"agency_name":"Metro St. Louis","route_id":"19627","agency_id":"70006","route_short_name":"78","route_long_name":"Bellefontaine","route_type":3,"route_color":"#FFFFFF","route_text_color":"#000000"},"geometry":{"type":"MultiLineString","coordinates":[[[-90.27523,38.77072],[-90.26896,38.77062],[-90.26854,38.77053],[-90.26823,38.77043],[-90.26741,38.7703],[-90.26671,38.77037],[-90.26662,38.77043],[-90.26659,38.7706],[-90.26701,38.77093],[-90.26716,38.77107],[-90.26802,38.77136],[-90.26839,38.77138],[-90.27028,38.77141],[-90.27166,38.77146],[-90.27573,38.77147],[-90.27615,38.7715],[-90.27719,38.77167],[-90.278,38.77174],[-90.27828,38.77173],[-90.27865,38.77168],[-90.27996,38.77172],[-90.28016,38.77174],[-90.2811,38.77174],[-90.28242,38.77165],[-90.28264,38.77167],[-90.28313,38.77168],[-90.28797,38.77175],[-90.29193,38.77186],[-90.29403,38.77197],[-90.29873,38.77228],[-90.29869,38.77249],[-90.29872,38.7727],[-90.29877,38.7728],[-90.30077,38.77556],[-90.30132,38.77628],[-90.30163,38.77674],[-90.30169,38.77691],[-90.30164,38.7808],[-90.30161,38.78156],[-90.30154,38.78486],[-90.30149,38.7892],[-90.30149,38.79041],[-90.30147,38.79061],[-90.3014,38.79079],[-90.30094,38.79131],[-90.30089,38.79141],[-90.30085,38.79163],[-90.30083,38.79462],[-90.30085,38.79468],[-90.30089,38.79473],[-90.30146,38.79518],[-90.30151,38.79528],[-90.30151,38.7954],[-90.29778,38.79538],[-90.29562,38.79539],[-90.29324,38.79537],[-90.29202,38.79505],[-90.29062,38.79444],[-90.29021,38.7942],[-90.28998,38.79401],[-90.28935,38.79342],[-90.28909,38.7932],[-90.2889,38.7931],[-90.28869,38.79302],[-90.28845,38.79297],[-90.28798,38.79297],[-90.28765,38.79304],[-90.28757,38.79307],[-90.28751,38.79316],[-90.28728,38.79328],[-90.28685,38.79357],[-90.28666,38.79367],[-90.28638,38.79376],[-90.28613,38.79381],[-90.28584,38.79383],[-90.28351,38.79379],[-90.28147,38.79379],[-90.27893,38.79373],[-90.27873,38.79372],[-90.27844,38.79367],[-90.27724,38.7934],[-90.27701,38.79339],[-90.27661,38.79341],[-90.27602,38.79348],[-90.27503,38.79352],[-90.27126,38.79346],[-90.26936,38.79337],[-90.26903,38.79324],[-90.26885,38.79313],[-90.26851,38.79278],[-90.26828,38.79288],[-90.26779,38.79316],[-90.26755,38.79327],[-90.26735,38.79332],[-90.26685,38.79341],[-90.26522,38.79343],[-90.26354,38.79343],[-90.26266,38.79345],[-90.26094,38.79341],[-90.25949,38.79341],[-90.25616,38.79336],[-90.2558,38.79337],[-90.2555,38.79339],[-90.25487,38.79353],[-90.25447,38.79367],[-90.25426,38.79376],[-90.25399,38.79391],[-90.25364,38.79416],[-90.25309,38.79464],[-90.25231,38.79523],[-90.25198,38.79545],[-90.25043,38.79638],[-90.24957,38.79666],[-90.24869,38.79688],[-90.24581,38.79765],[-90.2438,38.7982],[-90.24327,38.79836],[-90.24244,38.79857],[-90.24205,38.79861],[-90.24148,38.79858],[-90.24128,38.79855],[-90.24015,38.7983],[-90.24002,38.79826],[-90.23929,38.79802],[-90.23673,38.79712],[-90.23629,38.79693],[-90.23557,38.79652],[-90.23544,38.79646],[-90.23493,38.79632],[-90.23324,38.79611],[-90.23246,38.79599],[-90.23242,38.79597],[-90.23205,38.79594],[-90.22783,38.79544],[-90.22671,38.79505],[-90.22644,38.79497],[-90.22603,38.7949],[-90.22016,38.7946],[-90.21663,38.79462],[-90.21484,38.79466],[-90.21397,38.79455],[-90.21384,38.79444],[-90.21379,38.79438],[-90.21376,38.79431],[-90.21439,38.79269],[-90.2151,38.79061],[-90.21646,38.78673],[-90.21704,38.78499],[-90.21784,38.78229],[-90.21802,38.78163],[-90.21858,38.7798],[-90.21902,38.77827],[-90.21965,38.77531],[-90.21976,38.77492],[-90.21996,38.77406],[-90.22004,38.7735],[-90.22043,38.77169],[-90.22064,38.77057],[-90.22074,38.77023],[-90.22099,38.7688],[-90.22118,38.76741],[-90.22128,38.76697],[-90.22158,38.76536],[-90.22189,38.76347],[-90.222,38.76232],[-90.22205,38.76151],[-90.22245,38.75741],[-90.22291,38.75506],[-90.22294,38.75485],[-90.22374,38.75107],[-90.22402,38.74948],[-90.22486,38.74553],[-90.22512,38.74419],[-90.22552,38.74237],[-90.22609,38.73994],[-90.22615,38.7396],[-90.22621,38.73903],[-90.22618,38.73765],[-90.2262,38.73728],[-90.22624,38.73708],[-90.22639,38.73665],[-90.22667,38.73549],[-90.22714,38.73371],[-90.22744,38.73261],[-90.22786,38.73119],[-90.2281,38.73013],[-90.22816,38.72958],[-90.22815,38.72912],[-90.22805,38.72824],[-90.22792,38.72679],[-90.22792,38.72652],[-90.22794,38.72633],[-90.22353,38.72757],[-90.22325,38.72761],[-90.22319,38.72759],[-90.22316,38.72754],[-90.22318,38.72741],[-90.22332,38.72731],[-90.22369,38.72708],[-90.22376,38.72716],[-90.2238,38.72717]]]}},{"type":"Feature","properties":{"stop_id":"10164","stop_code":"10164","stop_name":"DUNN @ NEW HALLS FERRY WB","stop_desc":"FAR SIDE DUNN @ NEW HALLS FERRY WB","wheelchair_boarding":2,"routes":[{"route_id":"19611","agency_id":"70006","route_short_name":"40","route_long_name":"Broadway-Halls Ferry","route_type":3,"route_color":"#FFFFFF","route_text_color":"#000000"},{"route_id":"19619","agency_id":"70006","route_short_name":"60","route_long_name":"Shepley-Lilac","route_type":3,"route_color":"#FFFFFF","route_text_color":"#000000"},{"route_id":"19627","agency_id":"70006","route_short_name":"78","route_long_name":"Bellefontaine","route_type":3,"route_color":"#FFFFFF","route_text_color":"#000000"}],"agency_name":"Metro St. Louis"},"geometry":{"type":"Point","coordinates":[-90.26924,38.77142]}},{"type":"Feature","properties":{"stop_id":"13341","stop_code":"13341","stop_name":"BELLEFONTAINE @ CHAMBERS SB","stop_desc":"NEAR SIDE BELLEFONTAINE @ CHAMBERS SB","wheelchair_boarding":2,"routes":[{"route_id":"19627","agency_id":"70006","route_short_name":"78","route_long_name":"Bellefontaine","route_type":3,"route_color":"#FFFFFF","route_text_color":"#000000"}],"agency_name":"Metro St. Louis"},"geometry":{"type":"Point","coordinates":[-90.22396,38.75027]}},{"type":"Feature","properties":{"stop_id":"14701","stop_code":"14701","stop_name":"PARKER @ WEATHERSTONE EB","stop_desc":"NEAR SIDE PARKER @ WEATHERSTONE EB","wheelchair_boarding":2,"routes":[{"route_id":"19627","agency_id":"70006","route_short_name":"78","route_long_name":"Bellefontaine","route_type":3,"route_color":"#FFFFFF","route_text_color":"#000000"}],"agency_name":"Metro St. Louis"},"geometry":{"type":"Point","coordinates":[-90.28295,38.79373]}},{"type":"Feature","properties":{"stop_id":"14702","stop_code":"14702","stop_name":"PARKER @ ROYAL OAK EB","stop_desc":"FAR SIDE PARKER @ ROYAL OAK EB","wheelchair_boarding":2,"routes":[{"route_id":"19627","agency_id":"70006","route_short_name":"78","route_long_name":"Bellefontaine","route_type":3,"route_color":"#FFFFFF","route_text_color":"#000000"}],"agency_name":"Metro St. Louis"},"geometry":{"type":"Point","coordinates":[-90.27928,38.79369]}},{"type":"Feature","properties":{"stop_id":"14703","stop_code":"14703","stop_name":"PARKER @ WHISPER LAKE EB","stop_desc":"FAR SIDE PARKER @ WHISPER LAKE EB","wheelchair_boarding":2,"routes":[{"route_id":"19627","agency_id":"70006","route_short_name":"78","route_long_name":"Bellefontaine","route_type":3,"route_color":"#FFFFFF","route_text_color":"#000000"}],"agency_name":"Metro St. Louis"},"geometry":{"type":"Point","coordinates":[-90.27012,38.79336]}},{"type":"Feature","properties":{"stop_id":"14711","stop_code":"14711","stop_name":"PARKER @ POGGEMOELLER EB","stop_desc":"FAR SIDE PARKER @ POGGEMOELLER EB","wheelchair_boarding":2,"routes":[{"route_id":"19627","agency_id":"70006","route_short_name":"78","route_long_name":"Bellefontaine","route_type":3,"route_color":"#FFFFFF","route_text_color":"#000000"}],"agency_name":"Metro St. Louis"},"geometry":{"type":"Point","coordinates":[-90.22776,38.79537]}},{"type":"Feature","properties":{"stop_id":"15073","stop_code":"15073","stop_name":"RIVERVIEW @ BROADWAY EB","stop_desc":"FAR SIDE RIVERVIEW @ BROADWAY EB","wheelchair_boarding":2,"routes":[{"route_id":"19601","agency_id":"70006","route_short_name":"16","route_long_name":"City Limits","route_type":3,"route_color":"#FFFFFF","route_text_color":"#000000"},{"route_id":"19611","agency_id":"70006","route_short_name":"40","route_long_name":"Broadway-Halls Ferry","route_type":3,"route_color":"#FFFFFF","route_text_color":"#000000"},{"route_id":"19612","agency_id":"70006","route_short_name":"41","route_long_name":"Lee","route_type":3,"route_color":"#FFFFFF","route_text_color":"#000000"},{"route_id":"19619","agency_id":"70006","route_short_name":"60","route_long_name":"Shepley-Lilac","route_type":3,"route_color":"#FFFFFF","route_text_color":"#000000"},{"route_id":"19620","agency_id":"70006","route_short_name":"61","route_long_name":"Chambers Rd","route_type":3,"route_color":"#FFFFFF","route_text_color":"#000000"},{"route_id":"19621","agency_id":"70006","route_short_name":"64","route_long_name":"Lucas-Hunt","route_type":3,"route_color":"#FFFFFF","route_text_color":"#000000"},{"route_id":"19627","agency_id":"70006","route_short_name":"78","route_long_name":"Bellefontaine","route_type":3,"route_color":"#FFFFFF","route_text_color":"#000000"},{"route_id":"19629","agency_id":"70006","route_short_name":"90","route_long_name":"Hampton","route_type":3,"route_color":"#FFFFFF","route_text_color":"#000000"}],"agency_name":"Metro St. Louis"},"geometry":{"type":"Point","coordinates":[-90.22708,38.72658]}},{"type":"Feature","properties":{"stop_id":"16044","stop_code":"16044","stop_name":"DUNN @ WEST FLORISSANT WB","wheelchair_boarding":2,"routes":[{"route_id":"19627","agency_id":"70006","route_short_name":"78","route_long_name":"Bellefontaine","route_type":3,"route_color":"#FFFFFF","route_text_color":"#000000"},{"route_id":"19628","agency_id":"70006","route_short_name":"79","route_long_name":"Ferguson-Clayton","route_type":3,"route_color":"#FFFFFF","route_text_color":"#000000"}],"agency_name":"Metro St. Louis"},"geometry":{"type":"Point","coordinates":[-90.28155,38.7717]}},{"type":"Feature","properties":{"stop_id":"16090","stop_code":"16090","stop_name":"RIVERVIEW TRANSIT CENTER","wheelchair_boarding":1,"routes":[{"route_id":"19620","agency_id":"70006","route_short_name":"61","route_long_name":"Chambers Rd","route_type":3,"route_color":"#FFFFFF","route_text_color":"#000000"},{"route_id":"19621","agency_id":"70006","route_short_name":"64","route_long_name":"Lucas-Hunt","route_type":3,"route_color":"#FFFFFF","route_text_color":"#000000"},{"route_id":"19627","agency_id":"70006","route_short_name":"78","route_long_name":"Bellefontaine","route_type":3,"route_color":"#FFFFFF","route_text_color":"#000000"},{"route_id":"19629","agency_id":"70006","route_short_name":"90","route_long_name":"Hampton","route_type":3,"route_color":"#FFFFFF","route_text_color":"#000000"}],"agency_name":"Metro St. Louis"},"geometry":{"type":"Point","coordinates":[-90.22399,38.72717]}},{"type":"Feature","properties":{"stop_id":"16146","stop_code":"16146","stop_name":"NORTH COUNTY TRANSIT CENTER","wheelchair_boarding":1,"routes":[{"route_id":"19611","agency_id":"70006","route_short_name":"40","route_long_name":"Broadway-Halls Ferry","route_type":3,"route_color":"#FFFFFF","route_text_color":"#000000"},{"route_id":"19619","agency_id":"70006","route_short_name":"60","route_long_name":"Shepley-Lilac","route_type":3,"route_color":"#FFFFFF","route_text_color":"#000000"},{"route_id":"19624","agency_id":"70006","route_short_name":"74","route_long_name":"Florissant","route_type":3,"route_color":"#FFFFFF","route_text_color":"#000000"},{"route_id":"19627","agency_id":"70006","route_short_name":"78","route_long_name":"Bellefontaine","route_type":3,"route_color":"#FFFFFF","route_text_color":"#000000"}],"agency_name":"Metro St. Louis"},"geometry":{"type":"Point","coordinates":[-90.27452,38.76987]}},{"type":"Feature","properties":{"stop_id":"16297","stop_code":"16297","stop_name":"DUNN @ WEST FLORISSANT WB","stop_desc":"NEAR SIDE DUNN @ WEST FLORISSANT WB","wheelchair_boarding":2,"routes":[{"route_id":"19611","agency_id":"70006","route_short_name":"40","route_long_name":"Broadway-Halls Ferry","route_type":3,"route_color":"#FFFFFF","route_text_color":"#000000"},{"route_id":"19619","agency_id":"70006","route_short_name":"60","route_long_name":"Shepley-Lilac","route_type":3,"route_color":"#FFFFFF","route_text_color":"#000000"},{"route_id":"19627","agency_id":"70006","route_short_name":"78","route_long_name":"Bellefontaine","route_type":3,"route_color":"#FFFFFF","route_text_color":"#000000"}],"agency_name":"Metro St. Louis"},"geometry":{"type":"Point","coordinates":[-90.27903,38.77177]}},{"type":"Feature","properties":{"stop_id":"16298","stop_code":"16298","stop_name":"DUNN @ CLOCK TOWER WB","stop_desc":"FAR SIDE DUNN @ CLOCK TOWER WB","wheelchair_boarding":2,"routes":[{"route_id":"19611","agency_id":"70006","route_short_name":"40","route_long_name":"Broadway-Halls Ferry","route_type":3,"route_color":"#FFFFFF","route_text_color":"#000000"},{"route_id":"19619","agency_id":"70006","route_short_name":"60","route_long_name":"Shepley-Lilac","route_type":3,"route_color":"#FFFFFF","route_text_color":"#000000"},{"route_id":"19627","agency_id":"70006","route_short_name":"78","route_long_name":"Bellefontaine","route_type":3,"route_color":"#FFFFFF","route_text_color":"#000000"}],"agency_name":"Metro St. Louis"},"geometry":{"type":"Point","coordinates":[-90.2778,38.77181]}},{"type":"Feature","properties":{"stop_id":"16301","stop_code":"16301","stop_name":"PERSHALL @ TRASK EB","stop_desc":"FAR SIDE PERSHALL @ TRASK EB","wheelchair_boarding":2,"routes":[{"route_id":"19611","agency_id":"70006","route_short_name":"40","route_long_name":"Broadway-Halls Ferry","route_type":3,"route_color":"#FFFFFF","route_text_color":"#000000"},{"route_id":"19619","agency_id":"70006","route_short_name":"60","route_long_name":"Shepley-Lilac","route_type":3,"route_color":"#FFFFFF","route_text_color":"#000000"},{"route_id":"19627","agency_id":"70006","route_short_name":"78","route_long_name":"Bellefontaine","route_type":3,"route_color":"#FFFFFF","route_text_color":"#000000"}],"agency_name":"Metro St. Louis"},"geometry":{"type":"Point","coordinates":[-90.26996,38.77066]}},{"type":"Feature","properties":{"stop_id":"16465","stop_code":"16465","stop_name":"DUNN @ SUGARPINES WB","stop_desc":"NEAR SIDE DUNN @ SUGARPINES WB","wheelchair_boarding":2,"routes":[{"route_id":"19611","agency_id":"70006","route_short_name":"40","route_long_name":"Broadway-Halls Ferry","route_type":3,"route_color":"#FFFFFF","route_text_color":"#000000"},{"route_id":"19619","agency_id":"70006","route_short_name":"60","route_long_name":"Shepley-Lilac","route_type":3,"route_color":"#FFFFFF","route_text_color":"#000000"},{"route_id":"19627","agency_id":"70006","route_short_name":"78","route_long_name":"Bellefontaine","route_type":3,"route_color":"#FFFFFF","route_text_color":"#000000"}],"agency_name":"Metro St. Louis"},"geometry":{"type":"Point","coordinates":[-90.27105,38.77144]}},{"type":"Feature","properties":{"stop_id":"16523","stop_code":"16523","stop_name":"PARKER @ RENEE EB","stop_desc":"FAR SIDE PARKER @ RENEE EB","wheelchair_boarding":2,"routes":[{"route_id":"19627","agency_id":"70006","route_short_name":"78","route_long_name":"Bellefontaine","route_type":3,"route_color":"#FFFFFF","route_text_color":"#000000"}],"agency_name":"Metro St. Louis"},"geometry":{"type":"Point","coordinates":[-90.28647,38.79363]}},{"type":"Feature","properties":{"stop_id":"16539","stop_code":"16539","stop_name":"PARKER @ NEW HALLS FERRY EB","stop_desc":"NEAR SIDE PARKER @ NEW HALLS FERRY EB","wheelchair_boarding":2,"routes":[{"route_id":"19627","agency_id":"70006","route_short_name":"78","route_long_name":"Bellefontaine","route_type":3,"route_color":"#FFFFFF","route_text_color":"#000000"}],"agency_name":"Metro St. Louis"},"geometry":{"type":"Point","coordinates":[-90.28739,38.79311]}},{"type":"Feature","properties":{"stop_id":"3592","stop_code":"3592","stop_name":"DUNN @ SINGING PINES WB","stop_desc":"NEAR SIDE DUNN @ SINGING PINES WB","wheelchair_boarding":2,"routes":[{"route_id":"19627","agency_id":"70006","route_short_name":"78","route_long_name":"Bellefontaine","route_type":3,"route_color":"#FFFFFF","route_text_color":"#000000"},{"route_id":"19628","agency_id":"70006","route_short_name":"79","route_long_name":"Ferguson-Clayton","route_type":3,"route_color":"#FFFFFF","route_text_color":"#000000"}],"agency_name":"Metro St. Louis"},"geometry":{"type":"Point","coordinates":[-90.28784,38.77179]}},{"type":"Feature","properties":{"stop_id":"3593","stop_code":"3593","stop_name":"DUNN @ SUMMER RUN WB","stop_desc":"NEAR SIDE DUNN @ SUMMER RUN WB","wheelchair_boarding":2,"routes":[{"route_id":"19627","agency_id":"70006","route_short_name":"78","route_long_name":"Bellefontaine","route_type":3,"route_color":"#FFFFFF","route_text_color":"#000000"},{"route_id":"19628","agency_id":"70006","route_short_name":"79","route_long_name":"Ferguson-Clayton","route_type":3,"route_color":"#FFFFFF","route_text_color":"#000000"}],"agency_name":"Metro St. Louis"},"geometry":{"type":"Point","coordinates":[-90.29378,38.77199]}},{"type":"Feature","properties":{"stop_id":"3594","stop_code":"3594","stop_name":"DUNN @ GRANDVIEW WB","stop_desc":"FAR SIDE DUNN @ GRANDVIEW WB","wheelchair_boarding":2,"routes":[{"route_id":"19627","agency_id":"70006","route_short_name":"78","route_long_name":"Bellefontaine","route_type":3,"route_color":"#FFFFFF","route_text_color":"#000000"},{"route_id":"19628","agency_id":"70006","route_short_name":"79","route_long_name":"Ferguson-Clayton","route_type":3,"route_color":"#FFFFFF","route_text_color":"#000000"}],"agency_name":"Metro St. Louis"},"geometry":{"type":"Point","coordinates":[-90.29619,38.77215]}},{"type":"Feature","properties":{"stop_id":"3596","stop_code":"3596","stop_name":"WATERFORD @ GRANDVIEW GARDENS NB","stop_desc":"FAR SIDE WATERFORD @ GRANDVIEW GARDENS NB","wheelchair_boarding":2,"routes":[{"route_id":"19627","agency_id":"70006","route_short_name":"78","route_long_name":"Bellefontaine","route_type":3,"route_color":"#FFFFFF","route_text_color":"#000000"}],"agency_name":"Metro St. Louis"},"geometry":{"type":"Point","coordinates":[-90.299,38.77321]}},{"type":"Feature","properties":{"stop_id":"3597","stop_code":"3597","stop_name":"WATERFORD @ HADWIN NB","stop_desc":"FAR SIDE WATERFORD @ HADWIN NB","wheelchair_boarding":2,"routes":[{"route_id":"19627","agency_id":"70006","route_short_name":"78","route_long_name":"Bellefontaine","route_type":3,"route_color":"#FFFFFF","route_text_color":"#000000"}],"agency_name":"Metro St. Louis"},"geometry":{"type":"Point","coordinates":[-90.30033,38.77503]}},{"type":"Feature","properties":{"stop_id":"3598","stop_code":"3598","stop_name":"WATERFORD @ HALLWOOD NB","stop_desc":"FAR SIDE WATERFORD @ HALLWOOD NB","wheelchair_boarding":2,"routes":[{"route_id":"19627","agency_id":"70006","route_short_name":"78","route_long_name":"Bellefontaine","route_type":3,"route_color":"#FFFFFF","route_text_color":"#000000"}],"agency_name":"Metro St. Louis"},"geometry":{"type":"Point","coordinates":[-90.30132,38.7764]}},{"type":"Feature","properties":{"stop_id":"3599","stop_code":"3599","stop_name":"WATERFORD @ PENHURST NB","stop_desc":"FAR SIDE WATERFORD @ PENHURST NB","wheelchair_boarding":2,"routes":[{"route_id":"19627","agency_id":"70006","route_short_name":"78","route_long_name":"Bellefontaine","route_type":3,"route_color":"#FFFFFF","route_text_color":"#000000"}],"agency_name":"Metro St. Louis"},"geometry":{"type":"Point","coordinates":[-90.30164,38.77859]}},{"type":"Feature","properties":{"stop_id":"3600","stop_code":"3600","stop_name":"WATERFORD @ DERHAKE NB","stop_desc":"NEAR SIDE WATERFORD @ DERHAKE NB","wheelchair_boarding":2,"routes":[{"route_id":"19627","agency_id":"70006","route_short_name":"78","route_long_name":"Bellefontaine","route_type":3,"route_color":"#FFFFFF","route_text_color":"#000000"}],"agency_name":"Metro St. Louis"},"geometry":{"type":"Point","coordinates":[-90.3016,38.78056]}},{"type":"Feature","properties":{"stop_id":"3602","stop_code":"3602","stop_name":"WATERFORD @ ST. ANTHONY NB","stop_desc":"NEAR SIDE WATERFORD @ ST. ANTHONY NB","wheelchair_boarding":2,"routes":[{"route_id":"19627","agency_id":"70006","route_short_name":"78","route_long_name":"Bellefontaine","route_type":3,"route_color":"#FFFFFF","route_text_color":"#000000"}],"agency_name":"Metro St. Louis"},"geometry":{"type":"Point","coordinates":[-90.30154,38.7838]}},{"type":"Feature","properties":{"stop_id":"3605","stop_code":"3605","stop_name":"WATERFORD @ ST. CATHERINE NB","stop_desc":"NEAR SIDE WATERFORD @ ST. CATHERINE NB","wheelchair_boarding":2,"routes":[{"route_id":"19627","agency_id":"70006","route_short_name":"78","route_long_name":"Bellefontaine","route_type":3,"route_color":"#FFFFFF","route_text_color":"#000000"}],"agency_name":"Metro St. Louis"},"geometry":{"type":"Point","coordinates":[-90.30147,38.78804]}},{"type":"Feature","properties":{"stop_id":"3607","stop_code":"3607","stop_name":"WATERFORD @ JAMES J EAGAN NB","stop_desc":"NEAR SIDE WATERFORD @ JAMES J EAGAN NB","wheelchair_boarding":2,"routes":[{"route_id":"19627","agency_id":"70006","route_short_name":"78","route_long_name":"Bellefontaine","route_type":3,"route_color":"#FFFFFF","route_text_color":"#000000"}],"agency_name":"Metro St. Louis"},"geometry":{"type":"Point","coordinates":[-90.30082,38.79261]}},{"type":"Feature","properties":{"stop_id":"3676","stop_code":"3676","stop_name":"PARKER @ PARKER SPUR EB","stop_desc":"FAR SIDE PARKER @ PARKER SPUR EB","wheelchair_boarding":2,"routes":[{"route_id":"19627","agency_id":"70006","route_short_name":"78","route_long_name":"Bellefontaine","route_type":3,"route_color":"#FFFFFF","route_text_color":"#000000"}],"agency_name":"Metro St. Louis"},"geometry":{"type":"Point","coordinates":[-90.29167,38.79479]}},{"type":"Feature","properties":{"stop_id":"3677","stop_code":"3677","stop_name":"WATERFORD @ PARKER NB","stop_desc":"NEAR SIDE WATERFORD @ PARKER NB","wheelchair_boarding":2,"routes":[{"route_id":"19627","agency_id":"70006","route_short_name":"78","route_long_name":"Bellefontaine","route_type":3,"route_color":"#FFFFFF","route_text_color":"#000000"}],"agency_name":"Metro St. Louis"},"geometry":{"type":"Point","coordinates":[-90.30141,38.79527]}},{"type":"Feature","properties":{"stop_id":"5482","stop_code":"5482","stop_name":"BELLEFONTAINE @ MURIEL SB","stop_desc":"FAR SIDE BELLEFONTAINE @ MURIEL SB","wheelchair_boarding":2,"routes":[{"route_id":"19627","agency_id":"70006","route_short_name":"78","route_long_name":"Bellefontaine","route_type":3,"route_color":"#FFFFFF","route_text_color":"#000000"}],"agency_name":"Metro St. Louis"},"geometry":{"type":"Point","coordinates":[-90.21989,38.77456]}},{"type":"Feature","properties":{"stop_id":"5484","stop_code":"5484","stop_name":"BELLEFONTAINE @ JUNE SB","stop_desc":"FAR SIDE BELLEFONTAINE @ JUNE SB","wheelchair_boarding":2,"routes":[{"route_id":"19627","agency_id":"70006","route_short_name":"78","route_long_name":"Bellefontaine","route_type":3,"route_color":"#FFFFFF","route_text_color":"#000000"}],"agency_name":"Metro St. Louis"},"geometry":{"type":"Point","coordinates":[-90.21936,38.77696]}},{"type":"Feature","properties":{"stop_id":"5485","stop_code":"5485","stop_name":"BELLEFONTAINE @ CLAUDINE SB","stop_desc":"NEAR SIDE BELLEFONTAINE @ CLAUDINE SB","wheelchair_boarding":2,"routes":[{"route_id":"19627","agency_id":"70006","route_short_name":"78","route_long_name":"Bellefontaine","route_type":3,"route_color":"#FFFFFF","route_text_color":"#000000"}],"agency_name":"Metro St. Louis"},"geometry":{"type":"Point","coordinates":[-90.21897,38.77847]}},{"type":"Feature","properties":{"stop_id":"5487","stop_code":"5487","stop_name":"BELLEFONTAINE @ PRENDERGAST SB","stop_desc":"NEAR SIDE BELLEFONTAINE @ PRENDERGAST SB","wheelchair_boarding":2,"routes":[{"route_id":"19627","agency_id":"70006","route_short_name":"78","route_long_name":"Bellefontaine","route_type":3,"route_color":"#FFFFFF","route_text_color":"#000000"}],"agency_name":"Metro St. Louis"},"geometry":{"type":"Point","coordinates":[-90.21803,38.78177]}},{"type":"Feature","properties":{"stop_id":"5488","stop_code":"5488","stop_name":"BELLEFONTAINE @ REDMAN SB","stop_desc":"FAR SIDE BELLEFONTAINE @ REDMAN SB","wheelchair_boarding":1,"routes":[{"route_id":"19627","agency_id":"70006","route_short_name":"78","route_long_name":"Bellefontaine","route_type":3,"route_color":"#FFFFFF","route_text_color":"#000000"}],"agency_name":"Metro St. Louis"},"geometry":{"type":"Point","coordinates":[-90.21701,38.78537]}},{"type":"Feature","properties":{"stop_id":"5489","stop_code":"5489","stop_name":"BELLEFONTAINE @ TALISMAN SB","stop_desc":"NEAR SIDE BELLEFONTAINE @ TALISMAN SB","wheelchair_boarding":2,"routes":[{"route_id":"19627","agency_id":"70006","route_short_name":"78","route_long_name":"Bellefontaine","route_type":3,"route_color":"#FFFFFF","route_text_color":"#000000"}],"agency_name":"Metro St. Louis"},"geometry":{"type":"Point","coordinates":[-90.21614,38.78777]}},{"type":"Feature","properties":{"stop_id":"5490","stop_code":"5490","stop_name":"BELLEFONTAINE @ PATTERN SB","stop_desc":"FAR SIDE BELLEFONTAINE @ PATTERN SB","wheelchair_boarding":1,"routes":[{"route_id":"19627","agency_id":"70006","route_short_name":"78","route_long_name":"Bellefontaine","route_type":3,"route_color":"#FFFFFF","route_text_color":"#000000"}],"agency_name":"Metro St. Louis"},"geometry":{"type":"Point","coordinates":[-90.21522,38.79033]}},{"type":"Feature","properties":{"stop_id":"5491","stop_code":"5491","stop_name":"BELLEFONTAINE @ PARKER SB","stop_desc":"FAR SIDE BELLEFONTAINE @ PARKER SB","wheelchair_boarding":2,"routes":[{"route_id":"19627","agency_id":"70006","route_short_name":"78","route_long_name":"Bellefontaine","route_type":3,"route_color":"#FFFFFF","route_text_color":"#000000"}],"agency_name":"Metro St. Louis"},"geometry":{"type":"Point","coordinates":[-90.21411,38.79356]}},{"type":"Feature","properties":{"stop_id":"5779","stop_code":"5779","stop_name":"PARKER @ SAN RICARDO EB","stop_desc":"NEAR SIDE PARKER @ SAN RICARDO EB","wheelchair_boarding":2,"routes":[{"route_id":"19627","agency_id":"70006","route_short_name":"78","route_long_name":"Bellefontaine","route_type":3,"route_color":"#FFFFFF","route_text_color":"#000000"}],"agency_name":"Metro St. Louis"},"geometry":{"type":"Point","coordinates":[-90.22256,38.79469]}},{"type":"Feature","properties":{"stop_id":"5780","stop_code":"5780","stop_name":"1758 PARKER EB","stop_desc":"MID-BLOCK 1758 PARKER EB","wheelchair_boarding":2,"routes":[{"route_id":"19627","agency_id":"70006","route_short_name":"78","route_long_name":"Bellefontaine","route_type":3,"route_color":"#FFFFFF","route_text_color":"#000000"}],"agency_name":"Metro St. Louis"},"geometry":{"type":"Point","coordinates":[-90.21931,38.79458]}},{"type":"Feature","properties":{"stop_id":"6717","stop_code":"6717","stop_name":"PARKER @ CENTERBROOK EB","stop_desc":"NEAR SIDE PARKER @ CENTERBROOK EB","wheelchair_boarding":2,"routes":[{"route_id":"19627","agency_id":"70006","route_short_name":"78","route_long_name":"Bellefontaine","route_type":3,"route_color":"#FFFFFF","route_text_color":"#000000"}],"agency_name":"Metro St. Louis"},"geometry":{"type":"Point","coordinates":[-90.2631,38.79337]}},{"type":"Feature","properties":{"stop_id":"6718","stop_code":"6718","stop_name":"PARKER @ WENSLEY EB","stop_desc":"FAR SIDE PARKER @ WENSLEY EB","wheelchair_boarding":2,"routes":[{"route_id":"19627","agency_id":"70006","route_short_name":"78","route_long_name":"Bellefontaine","route_type":3,"route_color":"#FFFFFF","route_text_color":"#000000"}],"agency_name":"Metro St. Louis"},"geometry":{"type":"Point","coordinates":[-90.25813,38.79336]}},{"type":"Feature","properties":{"stop_id":"6719","stop_code":"6719","stop_name":"PARKER @ UTHE EB","stop_desc":"NEAR SIDE PARKER @ UTHE EB","wheelchair_boarding":2,"routes":[{"route_id":"19627","agency_id":"70006","route_short_name":"78","route_long_name":"Bellefontaine","route_type":3,"route_color":"#FFFFFF","route_text_color":"#000000"}],"agency_name":"Metro St. Louis"},"geometry":{"type":"Point","coordinates":[-90.25513,38.79343]}},{"type":"Feature","properties":{"stop_id":"6720","stop_code":"6720","stop_name":"PARKER @ JERRIES EB","stop_desc":"FAR SIDE PARKER @ JERRIES EB","wheelchair_boarding":2,"routes":[{"route_id":"19627","agency_id":"70006","route_short_name":"78","route_long_name":"Bellefontaine","route_type":3,"route_color":"#FFFFFF","route_text_color":"#000000"}],"agency_name":"Metro St. Louis"},"geometry":{"type":"Point","coordinates":[-90.2494,38.79663]}},{"type":"Feature","properties":{"stop_id":"6721","stop_code":"6721","stop_name":"PARKER @ EL CAMARA EB","stop_desc":"NEAR SIDE PARKER @ EL CAMARA EB","wheelchair_boarding":2,"routes":[{"route_id":"19627","agency_id":"70006","route_short_name":"78","route_long_name":"Bellefontaine","route_type":3,"route_color":"#FFFFFF","route_text_color":"#000000"}],"agency_name":"Metro St. Louis"},"geometry":{"type":"Point","coordinates":[-90.24603,38.79754]}},{"type":"Feature","properties":{"stop_id":"6722","stop_code":"6722","stop_name":"PARKER @ LA PADERA EB","stop_desc":"FAR SIDE PARKER @ LA PADERA EB","wheelchair_boarding":2,"routes":[{"route_id":"19627","agency_id":"70006","route_short_name":"78","route_long_name":"Bellefontaine","route_type":3,"route_color":"#FFFFFF","route_text_color":"#000000"}],"agency_name":"Metro St. Louis"},"geometry":{"type":"Point","coordinates":[-90.2441,38.79808]}},{"type":"Feature","properties":{"stop_id":"6723","stop_code":"6723","stop_name":"PARKER @ SHEFFIELD EB","stop_desc":"FAR SIDE PARKER @ SHEFFIELD EB","wheelchair_boarding":2,"routes":[{"route_id":"19627","agency_id":"70006","route_short_name":"78","route_long_name":"Bellefontaine","route_type":3,"route_color":"#FFFFFF","route_text_color":"#000000"}],"agency_name":"Metro St. Louis"},"geometry":{"type":"Point","coordinates":[-90.24018,38.79826]}},{"type":"Feature","properties":{"stop_id":"6724","stop_code":"6724","stop_name":"PARKER @ RANCH EB","stop_desc":"FAR SIDE PARKER @ RANCH EB","wheelchair_boarding":2,"routes":[{"route_id":"19627","agency_id":"70006","route_short_name":"78","route_long_name":"Bellefontaine","route_type":3,"route_color":"#FFFFFF","route_text_color":"#000000"}],"agency_name":"Metro St. Louis"},"geometry":{"type":"Point","coordinates":[-90.23791,38.79751]}},{"type":"Feature","properties":{"stop_id":"6726","stop_code":"6726","stop_name":"PARKER @ PARTRIDGE RUN EB","stop_desc":"FAR SIDE PARKER @ PARTRIDGE RUN EB","wheelchair_boarding":1,"routes":[{"route_id":"19627","agency_id":"70006","route_short_name":"78","route_long_name":"Bellefontaine","route_type":3,"route_color":"#FFFFFF","route_text_color":"#000000"}],"agency_name":"Metro St. Louis"},"geometry":{"type":"Point","coordinates":[-90.23283,38.79598]}},{"type":"Feature","properties":{"stop_id":"6747","stop_code":"6747","stop_name":"BELLEFONTAINE @ LARIMORE SB","stop_desc":"FAR SIDE BELLEFONTAINE @ LARIMORE SB","wheelchair_boarding":1,"routes":[{"route_id":"19619","agency_id":"70006","route_short_name":"60","route_long_name":"Shepley-Lilac","route_type":3,"route_color":"#FFFFFF","route_text_color":"#000000"},{"route_id":"19627","agency_id":"70006","route_short_name":"78","route_long_name":"Bellefontaine","route_type":3,"route_color":"#FFFFFF","route_text_color":"#000000"}],"agency_name":"Metro St. Louis"},"geometry":{"type":"Point","coordinates":[-90.22043,38.77225]}},{"type":"Feature","properties":{"stop_id":"6748","stop_code":"6748","stop_name":"BELLEFONTAINE @ QUIET SB","stop_desc":"FAR SIDE BELLEFONTAINE @ QUIET SB","wheelchair_boarding":2,"routes":[{"route_id":"19627","agency_id":"70006","route_short_name":"78","route_long_name":"Bellefontaine","route_type":3,"route_color":"#FFFFFF","route_text_color":"#000000"}],"agency_name":"Metro St. Louis"},"geometry":{"type":"Point","coordinates":[-90.22146,38.7664]}},{"type":"Feature","properties":{"stop_id":"6751","stop_code":"6751","stop_name":"BELLEFONTAINE @ COBURG LANDS SB","stop_desc":"FAR SIDE BELLEFONTAINE @ COBURG LANDS SB","wheelchair_boarding":2,"routes":[{"route_id":"19627","agency_id":"70006","route_short_name":"78","route_long_name":"Bellefontaine","route_type":3,"route_color":"#FFFFFF","route_text_color":"#000000"}],"agency_name":"Metro St. Louis"},"geometry":{"type":"Point","coordinates":[-90.22214,38.76134]}},{"type":"Feature","properties":{"stop_id":"6756","stop_code":"6756","stop_name":"BELLEFONTAINE @ SHEPLEY SB","stop_desc":"NEAR SIDE BELLEFONTAINE @ SHEPLEY SB","wheelchair_boarding":2,"routes":[{"route_id":"19627","agency_id":"70006","route_short_name":"78","route_long_name":"Bellefontaine","route_type":3,"route_color":"#FFFFFF","route_text_color":"#000000"}],"agency_name":"Metro St. Louis"},"geometry":{"type":"Point","coordinates":[-90.22239,38.75877]}},{"type":"Feature","properties":{"stop_id":"6766","stop_code":"6766","stop_name":"BELLEFONTAINE @ CHAMBERS SB","stop_desc":"FAR SIDE BELLEFONTAINE @ CHAMBERS SB","wheelchair_boarding":1,"routes":[{"route_id":"19619","agency_id":"70006","route_short_name":"60","route_long_name":"Shepley-Lilac","route_type":3,"route_color":"#FFFFFF","route_text_color":"#000000"},{"route_id":"19620","agency_id":"70006","route_short_name":"61","route_long_name":"Chambers Rd","route_type":3,"route_color":"#FFFFFF","route_text_color":"#000000"},{"route_id":"19627","agency_id":"70006","route_short_name":"78","route_long_name":"Bellefontaine","route_type":3,"route_color":"#FFFFFF","route_text_color":"#000000"}],"agency_name":"Metro St. Louis"},"geometry":{"type":"Point","coordinates":[-90.22432,38.74836]}},{"type":"Feature","properties":{"stop_id":"6767","stop_code":"6767","stop_name":"BELLEFONTAINE @ GREEN ACRES SB","stop_desc":"FAR SIDE BELLEFONTAINE @ GREEN ACRES SB","wheelchair_boarding":2,"routes":[{"route_id":"19619","agency_id":"70006","route_short_name":"60","route_long_name":"Shepley-Lilac","route_type":3,"route_color":"#FFFFFF","route_text_color":"#000000"},{"route_id":"19620","agency_id":"70006","route_short_name":"61","route_long_name":"Chambers Rd","route_type":3,"route_color":"#FFFFFF","route_text_color":"#000000"},{"route_id":"19627","agency_id":"70006","route_short_name":"78","route_long_name":"Bellefontaine","route_type":3,"route_color":"#FFFFFF","route_text_color":"#000000"}],"agency_name":"Metro St. Louis"},"geometry":{"type":"Point","coordinates":[-90.22467,38.74661]}},{"type":"Feature","properties":{"stop_id":"6768","stop_code":"6768","stop_name":"BELLEFONTAINE @ FOREST HOME SB","stop_desc":"NEAR SIDE BELLEFONTAINE @ FOREST HOME SB","wheelchair_boarding":2,"routes":[{"route_id":"19619","agency_id":"70006","route_short_name":"60","route_long_name":"Shepley-Lilac","route_type":3,"route_color":"#FFFFFF","route_text_color":"#000000"},{"route_id":"19620","agency_id":"70006","route_short_name":"61","route_long_name":"Chambers Rd","route_type":3,"route_color":"#FFFFFF","route_text_color":"#000000"},{"route_id":"19627","agency_id":"70006","route_short_name":"78","route_long_name":"Bellefontaine","route_type":3,"route_color":"#FFFFFF","route_text_color":"#000000"}],"agency_name":"Metro St. Louis"},"geometry":{"type":"Point","coordinates":[-90.22504,38.74475]}},{"type":"Feature","properties":{"stop_id":"6769","stop_code":"6769","stop_name":"BELLEFONTAINE @ ZELLWEGER SB","stop_desc":"FAR SIDE BELLEFONTAINE @ ZELLWEGER SB","wheelchair_boarding":2,"routes":[{"route_id":"19619","agency_id":"70006","route_short_name":"60","route_long_name":"Shepley-Lilac","route_type":3,"route_color":"#FFFFFF","route_text_color":"#000000"},{"route_id":"19620","agency_id":"70006","route_short_name":"61","route_long_name":"Chambers Rd","route_type":3,"route_color":"#FFFFFF","route_text_color":"#000000"},{"route_id":"19627","agency_id":"70006","route_short_name":"78","route_long_name":"Bellefontaine","route_type":3,"route_color":"#FFFFFF","route_text_color":"#000000"}],"agency_name":"Metro St. Louis"},"geometry":{"type":"Point","coordinates":[-90.22581,38.74126]}},{"type":"Feature","properties":{"stop_id":"6770","stop_code":"6770","stop_name":"BELLEFONTAINE @ ST. CYR SB","stop_desc":"FAR SIDE BELLEFONTAINE @ ST. CYR SB","wheelchair_boarding":2,"routes":[{"route_id":"19619","agency_id":"70006","route_short_name":"60","route_long_name":"Shepley-Lilac","route_type":3,"route_color":"#FFFFFF","route_text_color":"#000000"},{"route_id":"19620","agency_id":"70006","route_short_name":"61","route_long_name":"Chambers Rd","route_type":3,"route_color":"#FFFFFF","route_text_color":"#000000"},{"route_id":"19627","agency_id":"70006","route_short_name":"78","route_long_name":"Bellefontaine","route_type":3,"route_color":"#FFFFFF","route_text_color":"#000000"}],"agency_name":"Metro St. Louis"},"geometry":{"type":"Point","coordinates":[-90.22635,38.7371]}},{"type":"Feature","properties":{"stop_id":"6771","stop_code":"6771","stop_name":"BELLEFONTAINE @ TEURVILLE SB","stop_desc":"FAR SIDE BELLEFONTAINE @ TEURVILLE SB","wheelchair_boarding":2,"routes":[{"route_id":"19619","agency_id":"70006","route_short_name":"60","route_long_name":"Shepley-Lilac","route_type":3,"route_color":"#FFFFFF","route_text_color":"#000000"},{"route_id":"19620","agency_id":"70006","route_short_name":"61","route_long_name":"Chambers Rd","route_type":3,"route_color":"#FFFFFF","route_text_color":"#000000"},{"route_id":"19627","agency_id":"70006","route_short_name":"78","route_long_name":"Bellefontaine","route_type":3,"route_color":"#FFFFFF","route_text_color":"#000000"}],"agency_name":"Metro St. Louis"},"geometry":{"type":"Point","coordinates":[-90.22726,38.73355]}},{"type":"Feature","properties":{"stop_id":"6772","stop_code":"6772","stop_name":"BELLEFONTAINE @ FONTAINE PLACE SB","stop_desc":"NEAR SIDE BELLEFONTAINE @ FONTAINE PLACE SB","wheelchair_boarding":2,"routes":[{"route_id":"19619","agency_id":"70006","route_short_name":"60","route_long_name":"Shepley-Lilac","route_type":3,"route_color":"#FFFFFF","route_text_color":"#000000"},{"route_id":"19620","agency_id":"70006","route_short_name":"61","route_long_name":"Chambers Rd","route_type":3,"route_color":"#FFFFFF","route_text_color":"#000000"},{"route_id":"19627","agency_id":"70006","route_short_name":"78","route_long_name":"Bellefontaine","route_type":3,"route_color":"#FFFFFF","route_text_color":"#000000"}],"agency_name":"Metro St. Louis"},"geometry":{"type":"Point","coordinates":[-90.22791,38.73109]}},{"type":"Feature","properties":{"stop_id":"9917","stop_code":"9917","stop_name":"PARKER @ BLACK JACK COURT EB","stop_desc":"MID-BLOCK PARKER @ BLACK JACK COURT EB","wheelchair_boarding":2,"routes":[{"route_id":"19627","agency_id":"70006","route_short_name":"78","route_long_name":"Bellefontaine","route_type":3,"route_color":"#FFFFFF","route_text_color":"#000000"}],"agency_name":"Metro St. Louis"},"geometry":{"type":"Point","coordinates":[-90.26611,38.79333]}},{"type":"Feature","properties":{"stop_id":"9918","stop_code":"9918","stop_name":"PARKER @ DELMAR GARDENS NORTH EB","stop_desc":"NEAR SIDE PARKER @ DELMAR GARDENS NORTH EB","wheelchair_boarding":2,"routes":[{"route_id":"19627","agency_id":"70006","route_short_name":"78","route_long_name":"Bellefontaine","route_type":3,"route_color":"#FFFFFF","route_text_color":"#000000"}],"agency_name":"Metro St. Louis"},"geometry":{"type":"Point","coordinates":[-90.27453,38.79344]}}]}