{"type":"FeatureCollection","features":[{"type":"Feature","properties":{"agency_name":"Metro St. Louis","route_id":"19614","agency_id":"70006","route_short_name":"49","route_long_name":"Lindbergh","route_type":3,"route_color":"#FFFFFF","route_text_color":"#000000"},"geometry":{"type":"MultiLineString","coordinates":[[[-90.33326,38.50585],[-90.33305,38.50578],[-90.33326,38.50585],[-90.33367,38.50587],[-90.33398,38.50477],[-90.33359,38.50457],[-90.33322,38.50441],[-90.33213,38.50397],[-90.3318,38.50389],[-90.33154,38.50389],[-90.33119,38.50393],[-90.33006,38.50502],[-90.32932,38.50522],[-90.32929,38.5051],[-90.32884,38.50464],[-90.32828,38.5041],[-90.32677,38.5053],[-90.32601,38.50596],[-90.32807,38.50721],[-90.33205,38.50956],[-90.33347,38.51023],[-90.33426,38.51062],[-90.33479,38.51094],[-90.33517,38.51112],[-90.33582,38.51146],[-90.33721,38.51207],[-90.33753,38.51217],[-90.34105,38.51374],[-90.34155,38.51398],[-90.34198,38.51427],[-90.34237,38.51468],[-90.34251,38.51489],[-90.34266,38.51515],[-90.3428,38.51553],[-90.34283,38.51566],[-90.34287,38.51624],[-90.34284,38.51806],[-90.34285,38.51835],[-90.3429,38.51865],[-90.34297,38.51892],[-90.34319,38.51936],[-90.34336,38.5196],[-90.34359,38.51985],[-90.34388,38.52011],[-90.34405,38.52022],[-90.34428,38.52036],[-90.34768,38.52208],[-90.34815,38.52231],[-90.34869,38.52253],[-90.34953,38.52273],[-90.3535,38.52352],[-90.3549,38.52314],[-90.35528,38.52267],[-90.35569,38.52231],[-90.35614,38.522],[-90.35662,38.52175],[-90.35713,38.52155],[-90.35763,38.52141],[-90.36096,38.52052],[-90.3618,38.52031],[-90.36209,38.52022],[-90.36258,38.52002],[-90.36285,38.51988],[-90.36309,38.51975],[-90.3634,38.51954],[-90.36432,38.51876],[-90.3648,38.51838],[-90.36608,38.51731],[-90.36937,38.51464],[-90.37225,38.51226],[-90.37297,38.51171],[-90.3741,38.51075],[-90.37672,38.50864],[-90.37733,38.50811],[-90.37798,38.50746],[-90.37821,38.50719],[-90.3787,38.50653],[-90.37892,38.50616],[-90.37933,38.50537],[-90.3797,38.5045],[-90.37992,38.50406],[-90.38042,38.5041],[-90.38096,38.50408],[-90.3818,38.50392],[-90.38179,38.50416],[-90.38174,38.50428],[-90.38073,38.50509],[-90.38112,38.50538],[-90.38151,38.50585],[-90.38266,38.5067],[-90.3824,38.50692],[-90.38335,38.50803],[-90.3834,38.50816],[-90.38336,38.50828],[-90.38212,38.50926],[-90.38073,38.51042],[-90.37831,38.5103],[-90.37735,38.50925],[-90.37672,38.50864]],[[-90.35449,38.52372],[-90.3549,38.52314],[-90.35449,38.52372],[-90.35618,38.5241],[-90.3615,38.52521],[-90.36391,38.52574],[-90.37017,38.52707],[-90.37362,38.52783],[-90.37548,38.5282],[-90.38012,38.52919],[-90.38055,38.52933],[-90.38098,38.52951],[-90.38136,38.52975],[-90.38166,38.53],[-90.38472,38.533],[-90.38588,38.53416],[-90.38639,38.53463],[-90.38683,38.53501],[-90.38742,38.53546],[-90.3884,38.53608],[-90.3893,38.53657],[-90.39019,38.53696],[-90.39073,38.53717],[-90.3949,38.53867],[-90.39579,38.53903],[-90.39608,38.53918],[-90.39646,38.53941],[-90.39664,38.53953],[-90.39697,38.53979],[-90.39732,38.54012],[-90.40418,38.5472],[-90.40653,38.54966],[-90.40666,38.54981],[-90.40688,38.55013],[-90.407,38.55043],[-90.40704,38.55068],[-90.40706,38.55106],[-90.40699,38.55548],[-90.407,38.55762],[-90.40693,38.55946],[-90.40686,38.56362],[-90.40674,38.56754],[-90.40674,38.56795],[-90.40671,38.56872],[-90.40664,38.56941],[-90.4066,38.57078],[-90.40655,38.57314],[-90.40654,38.57433],[-90.40648,38.57606],[-90.40645,38.57782],[-90.40641,38.57885],[-90.40641,38.57986],[-90.40638,38.58078],[-90.40638,38.58131],[-90.40633,38.58263],[-90.4063,38.58434],[-90.40627,38.58887],[-90.4063,38.58983],[-90.40635,38.59535],[-90.40637,38.59603],[-90.40634,38.59901],[-90.40625,38.59915],[-90.40622,38.60279],[-90.40614,38.60452],[-90.40612,38.6053],[-90.40607,38.60998],[-90.40603,38.61198],[-90.40598,38.61273],[-90.40596,38.61383],[-90.40593,38.61589],[-90.40595,38.61643],[-90.40593,38.61897],[-90.40578,38.62565],[-90.40578,38.62786],[-90.40564,38.63364],[-90.40561,38.63578],[-90.40557,38.63728],[-90.40557,38.639],[-90.40551,38.64042],[-90.40545,38.64317],[-90.40545,38.64497],[-90.40539,38.64763],[-90.40536,38.64993],[-90.40532,38.65046],[-90.40532,38.65342],[-90.40529,38.65505],[-90.40523,38.66121],[-90.4052,38.66236],[-90.40505,38.66671],[-90.40498,38.66832],[-90.40487,38.67017],[-90.4048,38.67034],[-90.40475,38.67066],[-90.4046,38.67098],[-90.40451,38.67112],[-90.40427,38.67142],[-90.40343,38.67234],[-90.4032,38.67257],[-90.40313,38.67275],[-90.40312,38.6732],[-90.41214,38.67332],[-90.41265,38.67334],[-90.41296,38.67334],[-90.41316,38.67332],[-90.41336,38.67328],[-90.41333,38.67366],[-90.41329,38.67386],[-90.41322,38.67404],[-90.41311,38.6742],[-90.41274,38.67462],[-90.41231,38.67508],[-90.41214,38.67522],[-90.41195,38.67535],[-90.41159,38.67553],[-90.41133,38.6756],[-90.41086,38.67565],[-90.40821,38.67547],[-90.40822,38.67645],[-90.4082,38.68034],[-90.40813,38.68443],[-90.40468,38.68441],[-90.40402,38.68442],[-90.40379,38.68445],[-90.40357,38.68451],[-90.40336,38.68461],[-90.40317,38.68475],[-90.40287,38.68507],[-90.4027,38.6852],[-90.40261,38.68525],[-90.40199,38.68548],[-90.40178,38.68552],[-90.40157,38.68553],[-90.3987,38.68548],[-90.39728,38.68529],[-90.39696,38.68527],[-90.39484,38.68523],[-90.39455,38.6852],[-90.3937,38.685],[-90.39338,38.68561],[-90.39305,38.6863],[-90.39291,38.68673],[-90.39283,38.68707],[-90.39259,38.68847],[-90.38929,38.68919],[-90.38909,38.69039],[-90.39223,38.69069],[-90.39174,38.69362],[-90.39129,38.69648],[-90.39128,38.69666],[-90.3913,38.69685],[-90.39138,38.69723],[-90.39137,38.69744],[-90.39132,38.69792],[-90.39095,38.70062],[-90.39074,38.70194],[-90.39037,38.70346],[-90.39014,38.70452],[-90.39038,38.70472],[-90.39106,38.70463],[-90.39215,38.70443],[-90.39251,38.70429],[-90.39287,38.70427],[-90.39342,38.70419],[-90.39403,38.70404],[-90.39757,38.70297],[-90.39822,38.70281],[-90.39865,38.70275],[-90.39897,38.70273],[-90.39966,38.70275],[-90.40005,38.7028],[-90.40055,38.7029],[-90.40125,38.70313],[-90.40433,38.70445],[-90.4049,38.70475],[-90.40546,38.7051],[-90.40579,38.70536],[-90.40698,38.70644],[-90.40775,38.70696],[-90.40828,38.70723],[-90.40824,38.70748],[-90.40827,38.70759],[-90.40848,38.70798],[-90.40854,38.70813],[-90.4086,38.7083],[-90.40863,38.70848],[-90.4087,38.70873],[-90.40838,38.71245],[-90.40814,38.71493],[-90.40763,38.72064],[-90.40756,38.72114],[-90.40747,38.72154],[-90.40708,38.72285],[-90.40399,38.73291],[-90.40378,38.73339],[-90.40343,38.73397],[-90.40321,38.73427],[-90.40298,38.73454],[-90.40277,38.73476],[-90.40237,38.73513],[-90.40127,38.73599],[-90.4008,38.73634],[-90.40052,38.73644],[-90.39978,38.73686],[-90.3992,38.73716],[-90.39878,38.73726],[-90.39853,38.73727],[-90.39811,38.73715],[-90.39393,38.73475],[-90.39058,38.73286],[-90.38966,38.73475],[-90.38906,38.73604],[-90.38813,38.73793],[-90.38779,38.73858],[-90.3862,38.74185],[-90.38572,38.7423],[-90.38318,38.74188],[-90.38301,38.74186],[-90.38274,38.74187],[-90.38252,38.74196],[-90.38243,38.74202],[-90.38236,38.74209],[-90.38225,38.74228],[-90.38221,38.74252],[-90.38218,38.74261],[-90.38212,38.7427],[-90.38203,38.74279],[-90.38193,38.74285],[-90.3818,38.7429],[-90.38159,38.74293],[-90.38058,38.74304],[-90.38023,38.74303],[-90.37943,38.74294],[-90.3791,38.74289],[-90.37865,38.74279],[-90.37833,38.7427],[-90.37773,38.74249],[-90.3769,38.74212],[-90.3751,38.7412],[-90.3743,38.74081],[-90.3737,38.74055],[-90.37321,38.74037],[-90.37212,38.74005],[-90.37139,38.73989],[-90.37065,38.73968],[-90.36965,38.73949],[-90.36905,38.73935],[-90.36878,38.73923],[-90.36857,38.73905],[-90.36848,38.73891],[-90.36837,38.73855],[-90.36813,38.73845],[-90.36791,38.7384],[-90.36643,38.73825],[-90.36621,38.73821],[-90.36586,38.7382],[-90.36507,38.73824],[-90.36475,38.73832],[-90.3646,38.73838],[-90.36384,38.73857],[-90.36362,38.7386],[-90.36333,38.7386],[-90.36304,38.73856],[-90.36245,38.7384],[-90.36213,38.73828],[-90.36122,38.73788],[-90.35882,38.7367],[-90.35843,38.73648],[-90.35719,38.73583],[-90.357,38.73571],[-90.35655,38.73547],[-90.34907,38.73152],[-90.3487,38.73137],[-90.34837,38.73129],[-90.34819,38.73128],[-90.34807,38.73122],[-90.34745,38.73087],[-90.34704,38.73057],[-90.34314,38.72733],[-90.34145,38.72596],[-90.34065,38.72543],[-90.33512,38.72194],[-90.33395,38.72117],[-90.33349,38.72081],[-90.33328,38.72073],[-90.33301,38.72054],[-90.3329,38.72044],[-90.33265,38.72027],[-90.33157,38.71939],[-90.33045,38.71852],[-90.32991,38.71807],[-90.32793,38.71678],[-90.32552,38.71524],[-90.32463,38.71462],[-90.32301,38.71355],[-90.32196,38.71276],[-90.3195,38.71071],[-90.31939,38.71115],[-90.31938,38.71134],[-90.31938,38.71298],[-90.31935,38.7138],[-90.31936,38.71432],[-90.31935,38.71535],[-90.31933,38.71558],[-90.31929,38.71579],[-90.31921,38.71601],[-90.31911,38.71621],[-90.31892,38.71648],[-90.31845,38.71701],[-90.31825,38.71727],[-90.31809,38.71757],[-90.31624,38.71782],[-90.31581,38.71782],[-90.31494,38.71791],[-90.31441,38.71785],[-90.31392,38.71763],[-90.31372,38.71823],[-90.31376,38.7184],[-90.31429,38.71978],[-90.3144,38.71981]],[[-90.39242,38.68952],[-90.39259,38.68847],[-90.39242,38.68952]]]}},{"type":"Feature","properties":{"stop_id":"10361","stop_code":"10361","stop_name":"LINDBERGH @ HUNTLEIGH NB","stop_desc":"NEAR SIDE LINDBERGH @ HUNTLEIGH NB","wheelchair_boarding":2,"routes":[{"route_id":"19614","agency_id":"70006","route_short_name":"49","route_long_name":"Lindbergh","route_type":3,"route_color":"#FFFFFF","route_text_color":"#000000"}],"agency_name":"Metro St. Louis"},"geometry":{"type":"Point","coordinates":[-90.40616,38.60199]}},{"type":"Feature","properties":{"stop_id":"10366","stop_code":"10366","stop_name":"LINDBERGH @ HUNTLEIGH WOODS NB","stop_desc":"FAR SIDE LINDBERGH @ HUNTLEIGH WOODS NB","wheelchair_boarding":2,"routes":[{"route_id":"19614","agency_id":"70006","route_short_name":"49","route_long_name":"Lindbergh","route_type":3,"route_color":"#FFFFFF","route_text_color":"#000000"}],"agency_name":"Metro St. Louis"},"geometry":{"type":"Point","coordinates":[-90.40581,38.62267]}},{"type":"Feature","properties":{"stop_id":"10367","stop_code":"10367","stop_name":"LINDBERGH @ CLAYTON NB","stop_desc":"FAR SIDE LINDBERGH @ CLAYTON NB","wheelchair_boarding":1,"routes":[{"route_id":"19614","agency_id":"70006","route_short_name":"49","route_long_name":"Lindbergh","route_type":3,"route_color":"#FFFFFF","route_text_color":"#000000"}],"agency_name":"Metro St. Louis"},"geometry":{"type":"Point","coordinates":[-90.40558,38.63344]}},{"type":"Feature","properties":{"stop_id":"13330","stop_code":"13330","stop_name":"NORTH HANLEY TRANSIT CENTER","wheelchair_boarding":1,"routes":[{"route_id":"19594","agency_id":"70006","route_short_name":"4","route_long_name":"Natural Bridge","route_type":3,"route_color":"#FFFFFF","route_text_color":"#000000"},{"route_id":"19609","agency_id":"70006","route_short_name":"34","route_long_name":"Earth City","route_type":3,"route_color":"#FFFFFF","route_text_color":"#000000"},{"route_id":"19614","agency_id":"70006","route_short_name":"49","route_long_name":"Lindbergh","route_type":3,"route_color":"#FFFFFF","route_text_color":"#000000"},{"route_id":"19620","agency_id":"70006","route_short_name":"61","route_long_name":"Chambers Rd","route_type":3,"route_color":"#FFFFFF","route_text_color":"#000000"},{"route_id":"19625","agency_id":"70006","route_short_name":"76","route_long_name":"N Hanley Shuttle","route_type":3,"route_color":"#FFFFFF","route_text_color":"#000000"},{"route_id":"19626","agency_id":"70006","route_short_name":"77","route_long_name":"Village Square","route_type":3,"route_color":"#FFFFFF","route_text_color":"#000000"},{"route_id":"19628","agency_id":"70006","route_short_name":"79","route_long_name":"Ferguson-Clayton","route_type":3,"route_color":"#FFFFFF","route_text_color":"#000000"}],"agency_name":"Metro St. Louis"},"geometry":{"type":"Point","coordinates":[-90.31495,38.71976]}},{"type":"Feature","properties":{"stop_id":"13551","stop_code":"13551","stop_name":"LINDBERGH @ OLD ST. CHARLES NB","stop_desc":"FAR SIDE LINDBERGH @ OLD ST. CHARLES NB","wheelchair_boarding":1,"routes":[{"route_id":"19614","agency_id":"70006","route_short_name":"49","route_long_name":"Lindbergh","route_type":3,"route_color":"#FFFFFF","route_text_color":"#000000"}],"agency_name":"Metro St. Louis"},"geometry":{"type":"Point","coordinates":[-90.4043,38.73163]}},{"type":"Feature","properties":{"stop_id":"13557","stop_code":"13557","stop_name":"MIDLAND @ HARRIET WALK WB","stop_desc":"FAR SIDE MIDLAND @ HARRIET WALK WB","wheelchair_boarding":2,"routes":[{"route_id":"19608","agency_id":"70006","route_short_name":"33","route_long_name":"Midland","route_type":3,"route_color":"#FFFFFF","route_text_color":"#000000"},{"route_id":"19614","agency_id":"70006","route_short_name":"49","route_long_name":"Lindbergh","route_type":3,"route_color":"#FFFFFF","route_text_color":"#000000"}],"agency_name":"Metro St. Louis"},"geometry":{"type":"Point","coordinates":[-90.39464,38.7039]}},{"type":"Feature","properties":{"stop_id":"13660","stop_code":"13660","stop_name":"GUELBRETH @ CHIMNEY ROCK NB","stop_desc":"FAR SIDE GUELBRETH @ CHIMNEY ROCK NB","wheelchair_boarding":1,"routes":[{"route_id":"19614","agency_id":"70006","route_short_name":"49","route_long_name":"Lindbergh","route_type":3,"route_color":"#FFFFFF","route_text_color":"#000000"}],"agency_name":"Metro St. Louis"},"geometry":{"type":"Point","coordinates":[-90.40813,38.68313]}},{"type":"Feature","properties":{"stop_id":"13966","stop_code":"13966","stop_name":"LIGHT HOUSE FOR THE BLIND EB","stop_desc":"MID-BLOCK LIGHT HOUSE FOR THE BLIND EB","wheelchair_boarding":2,"routes":[{"route_id":"19614","agency_id":"70006","route_short_name":"49","route_long_name":"Lindbergh","route_type":3,"route_color":"#FFFFFF","route_text_color":"#000000"},{"route_id":"19631","agency_id":"70006","route_short_name":"94","route_long_name":"Page","route_type":3,"route_color":"#FFFFFF","route_text_color":"#000000"}],"agency_name":"Metro St. Louis"},"geometry":{"type":"Point","coordinates":[-90.39165,38.68939]}},{"type":"Feature","properties":{"stop_id":"14457","stop_code":"14457","stop_name":"CYPRESS @ ST. CLEMENT NB","stop_desc":"NEAR SIDE CYPRESS @ ST. CLEMENT NB","wheelchair_boarding":2,"routes":[{"route_id":"19614","agency_id":"70006","route_short_name":"49","route_long_name":"Lindbergh","route_type":3,"route_color":"#FFFFFF","route_text_color":"#000000"}],"agency_name":"Metro St. Louis"},"geometry":{"type":"Point","coordinates":[-90.38738,38.73922]}},{"type":"Feature","properties":{"stop_id":"14748","stop_code":"14748","stop_name":"LINDBERGH @ CORDES WB","stop_desc":"NEAR SIDE LINDBERGH @ CORDES WB","wheelchair_boarding":1,"routes":[{"route_id":"19614","agency_id":"70006","route_short_name":"49","route_long_name":"Lindbergh","route_type":3,"route_color":"#FFFFFF","route_text_color":"#000000"}],"agency_name":"Metro St. Louis"},"geometry":{"type":"Point","coordinates":[-90.32835,38.50748]}},{"type":"Feature","properties":{"stop_id":"14749","stop_code":"14749","stop_name":"LINDBERGH @ UNION WB","stop_desc":"NEAR SIDE LINDBERGH @ UNION WB","wheelchair_boarding":1,"routes":[{"route_id":"19614","agency_id":"70006","route_short_name":"49","route_long_name":"Lindbergh","route_type":3,"route_color":"#FFFFFF","route_text_color":"#000000"}],"agency_name":"Metro St. Louis"},"geometry":{"type":"Point","coordinates":[-90.33075,38.50889]}},{"type":"Feature","properties":{"stop_id":"15515","stop_code":"15515","stop_name":"OLIVE @ OLD OLIVE STREET WB","stop_desc":"NEAR SIDE OLIVE @ OLD OLIVE STREET WB","wheelchair_boarding":2,"routes":[{"route_id":"19614","agency_id":"70006","route_short_name":"49","route_long_name":"Lindbergh","route_type":3,"route_color":"#FFFFFF","route_text_color":"#000000"},{"route_id":"19630","agency_id":"70006","route_short_name":"91","route_long_name":"Olive","route_type":3,"route_color":"#FFFFFF","route_text_color":"#000000"}],"agency_name":"Metro St. Louis"},"geometry":{"type":"Point","coordinates":[-90.41183,38.67336]}},{"type":"Feature","properties":{"stop_id":"15882","stop_code":"15882","stop_name":"LINDBERGH @ LITZSINGER NB","stop_desc":"NEAR SIDE LINDBERGH @ LITZSINGER NB","wheelchair_boarding":2,"routes":[{"route_id":"19614","agency_id":"70006","route_short_name":"49","route_long_name":"Lindbergh","route_type":3,"route_color":"#FFFFFF","route_text_color":"#000000"}],"agency_name":"Metro St. Louis"},"geometry":{"type":"Point","coordinates":[-90.40576,38.62495]}},{"type":"Feature","properties":{"stop_id":"15936","stop_code":"15936","stop_name":"KIRKWOOD @ MANCHESTER NB","stop_desc":"NEAR SIDE KIRKWOOD @ MANCHESTER NB","wheelchair_boarding":2,"routes":[{"route_id":"19614","agency_id":"70006","route_short_name":"49","route_long_name":"Lindbergh","route_type":3,"route_color":"#FFFFFF","route_text_color":"#000000"}],"agency_name":"Metro St. Louis"},"geometry":{"type":"Point","coordinates":[-90.40618,38.59947]}},{"type":"Feature","properties":{"stop_id":"16118","stop_code":"16118","stop_name":"2920 NORTH LINDBERGH NB","stop_desc":"MID-BLOCK 2920 NORTH LINDBERGH NB","wheelchair_boarding":2,"routes":[{"route_id":"19614","agency_id":"70006","route_short_name":"49","route_long_name":"Lindbergh","route_type":3,"route_color":"#FFFFFF","route_text_color":"#000000"}],"agency_name":"Metro St. Louis"},"geometry":{"type":"Point","coordinates":[-90.40808,38.7151]}},{"type":"Feature","properties":{"stop_id":"16131","stop_code":"16131","stop_name":"GUELBRETH @ SCHUETZ NB","stop_desc":"NEAR SIDE GUELBRETH @ SCHUETZ NB","wheelchair_boarding":2,"routes":[{"route_id":"19614","agency_id":"70006","route_short_name":"49","route_long_name":"Lindbergh","route_type":3,"route_color":"#FFFFFF","route_text_color":"#000000"}],"agency_name":"Metro St. Louis"},"geometry":{"type":"Point","coordinates":[-90.40809,38.68414]}},{"type":"Feature","properties":{"stop_id":"16305","stop_code":"16305","stop_name":"MIDLAND @ BRUNO WB","stop_desc":"FAR SIDE MIDLAND @ BRUNO WB","wheelchair_boarding":2,"routes":[{"route_id":"19608","agency_id":"70006","route_short_name":"33","route_long_name":"Midland","route_type":3,"route_color":"#FFFFFF","route_text_color":"#000000"},{"route_id":"19614","agency_id":"70006","route_short_name":"49","route_long_name":"Lindbergh","route_type":3,"route_color":"#FFFFFF","route_text_color":"#000000"}],"agency_name":"Metro St. Louis"},"geometry":{"type":"Point","coordinates":[-90.40137,38.70327]}},{"type":"Feature","properties":{"stop_id":"16477","stop_code":"16477","stop_name":"ASHBY @ PAGE NB","stop_desc":"FAR SIDE ASHBY @ PAGE NB","wheelchair_boarding":2,"routes":[{"route_id":"19614","agency_id":"70006","route_short_name":"49","route_long_name":"Lindbergh","route_type":3,"route_color":"#FFFFFF","route_text_color":"#000000"}],"agency_name":"Metro St. Louis"},"geometry":{"type":"Point","coordinates":[-90.39189,38.69215]}},{"type":"Feature","properties":{"stop_id":"16484","stop_code":"16484","stop_name":"ASHBY @ CANTER WAY NB","stop_desc":"MID-BLOCK ASHBY @ CANTER WAY NB","wheelchair_boarding":2,"routes":[{"route_id":"19614","agency_id":"70006","route_short_name":"49","route_long_name":"Lindbergh","route_type":3,"route_color":"#FFFFFF","route_text_color":"#000000"}],"agency_name":"Metro St. Louis"},"geometry":{"type":"Point","coordinates":[-90.39064,38.70192]}},{"type":"Feature","properties":{"stop_id":"16485","stop_code":"16485","stop_name":"ASHBY @ LACKLAND NB","stop_desc":"FAR SIDE ASHBY @ LACKLAND NB","wheelchair_boarding":2,"routes":[{"route_id":"19614","agency_id":"70006","route_short_name":"49","route_long_name":"Lindbergh","route_type":3,"route_color":"#FFFFFF","route_text_color":"#000000"}],"agency_name":"Metro St. Louis"},"geometry":{"type":"Point","coordinates":[-90.39128,38.69723]}},{"type":"Feature","properties":{"stop_id":"16519","stop_code":"16519","stop_name":"SUNSET @ CANCER CTR NB","stop_desc":"FAR SIDE SUNSET @ CANCER CTR NB","wheelchair_boarding":2,"routes":[{"route_id":"19614","agency_id":"70006","route_short_name":"49","route_long_name":"Lindbergh","route_type":3,"route_color":"#FFFFFF","route_text_color":"#000000"}],"agency_name":"Metro St. Louis"},"geometry":{"type":"Point","coordinates":[-90.38141,38.50974]}},{"type":"Feature","properties":{"stop_id":"236","stop_code":"236","stop_name":"MERCY HOSPITAL SOUTH NB","stop_desc":"FAR SIDE MERCY HOSPITAL SOUTH NB","wheelchair_boarding":2,"routes":[{"route_id":"19614","agency_id":"70006","route_short_name":"49","route_long_name":"Lindbergh","route_type":3,"route_color":"#FFFFFF","route_text_color":"#000000"}],"agency_name":"Metro St. Louis"},"geometry":{"type":"Point","coordinates":[-90.3824,38.50743]}},{"type":"Feature","properties":{"stop_id":"2560","stop_code":"2560","stop_name":"BAUR @ LINDBERGH EB","stop_desc":"FAR SIDE BAUR @ LINDBERGH EB","wheelchair_boarding":2,"routes":[{"route_id":"19614","agency_id":"70006","route_short_name":"49","route_long_name":"Lindbergh","route_type":3,"route_color":"#FFFFFF","route_text_color":"#000000"}],"agency_name":"Metro St. Louis"},"geometry":{"type":"Point","coordinates":[-90.40369,38.68444]}},{"type":"Feature","properties":{"stop_id":"2561","stop_code":"2561","stop_name":"BAUR @ RESEARCH EB","stop_desc":"FAR SIDE BAUR @ RESEARCH EB","wheelchair_boarding":2,"routes":[{"route_id":"19614","agency_id":"70006","route_short_name":"49","route_long_name":"Lindbergh","route_type":3,"route_color":"#FFFFFF","route_text_color":"#000000"}],"agency_name":"Metro St. Louis"},"geometry":{"type":"Point","coordinates":[-90.39871,38.68546]}},{"type":"Feature","properties":{"stop_id":"2562","stop_code":"2562","stop_name":"BAUR @ WARSON EB","stop_desc":"NEAR SIDE BAUR @ WARSON EB","wheelchair_boarding":2,"routes":[{"route_id":"19614","agency_id":"70006","route_short_name":"49","route_long_name":"Lindbergh","route_type":3,"route_color":"#FFFFFF","route_text_color":"#000000"}],"agency_name":"Metro St. Louis"},"geometry":{"type":"Point","coordinates":[-90.39493,38.68522]}},{"type":"Feature","properties":{"stop_id":"2565","stop_code":"2565","stop_name":"ASHBY @ TRENTON NB","stop_desc":"FAR SIDE ASHBY @ TRENTON NB","wheelchair_boarding":1,"routes":[{"route_id":"19614","agency_id":"70006","route_short_name":"49","route_long_name":"Lindbergh","route_type":3,"route_color":"#FFFFFF","route_text_color":"#000000"}],"agency_name":"Metro St. Louis"},"geometry":{"type":"Point","coordinates":[-90.39221,38.69043]}},{"type":"Feature","properties":{"stop_id":"3128","stop_code":"3128","stop_name":"OLD OLIVE STREET @ RAVENWOOD EB","stop_desc":"NEAR SIDE OLD OLIVE STREET @ RAVENWOOD EB","wheelchair_boarding":2,"routes":[{"route_id":"19614","agency_id":"70006","route_short_name":"49","route_long_name":"Lindbergh","route_type":3,"route_color":"#FFFFFF","route_text_color":"#000000"}],"agency_name":"Metro St. Louis"},"geometry":{"type":"Point","coordinates":[-90.4125,38.67485]}},{"type":"Feature","properties":{"stop_id":"3130","stop_code":"3130","stop_name":"OLD OLIVE STREET @ PAVILLION EB","stop_desc":"FAR SIDE OLD OLIVE STREET @ PAVILLION EB","wheelchair_boarding":1,"routes":[{"route_id":"19614","agency_id":"70006","route_short_name":"49","route_long_name":"Lindbergh","route_type":3,"route_color":"#FFFFFF","route_text_color":"#000000"}],"agency_name":"Metro St. Louis"},"geometry":{"type":"Point","coordinates":[-90.40895,38.6755]}},{"type":"Feature","properties":{"stop_id":"3131","stop_code":"3131","stop_name":"GUELBRETH @ BRIARBEND NB","stop_desc":"NEAR SIDE GUELBRETH @ BRIARBEND NB","wheelchair_boarding":2,"routes":[{"route_id":"19614","agency_id":"70006","route_short_name":"49","route_long_name":"Lindbergh","route_type":3,"route_color":"#FFFFFF","route_text_color":"#000000"}],"agency_name":"Metro St. Louis"},"geometry":{"type":"Point","coordinates":[-90.40819,38.676]}},{"type":"Feature","properties":{"stop_id":"3132","stop_code":"3132","stop_name":"GUELBRETH @ CORBEIL NB","stop_desc":"NEAR SIDE GUELBRETH @ CORBEIL NB","wheelchair_boarding":2,"routes":[{"route_id":"19614","agency_id":"70006","route_short_name":"49","route_long_name":"Lindbergh","route_type":3,"route_color":"#FFFFFF","route_text_color":"#000000"}],"agency_name":"Metro St. Louis"},"geometry":{"type":"Point","coordinates":[-90.40819,38.67794]}},{"type":"Feature","properties":{"stop_id":"3133","stop_code":"3133","stop_name":"GUELBRETH @ FOREST BROOK NB","stop_desc":"NEAR SIDE GUELBRETH @ FOREST BROOK NB","wheelchair_boarding":2,"routes":[{"route_id":"19614","agency_id":"70006","route_short_name":"49","route_long_name":"Lindbergh","route_type":3,"route_color":"#FFFFFF","route_text_color":"#000000"}],"agency_name":"Metro St. Louis"},"geometry":{"type":"Point","coordinates":[-90.40816,38.68019]}},{"type":"Feature","properties":{"stop_id":"3913","stop_code":"3913","stop_name":"SOUTH COUNTY CENTER","stop_desc":"MID-BLOCK SOUTH COUNTY CENTER","wheelchair_boarding":1,"routes":[{"route_id":"19614","agency_id":"70006","route_short_name":"49","route_long_name":"Lindbergh","route_type":3,"route_color":"#FFFFFF","route_text_color":"#000000"},{"route_id":"19623","agency_id":"70006","route_short_name":"73","route_long_name":"Carondelet","route_type":3,"route_color":"#FFFFFF","route_text_color":"#000000"}],"agency_name":"Metro St. Louis"},"geometry":{"type":"Point","coordinates":[-90.33308,38.50581]}},{"type":"Feature","properties":{"stop_id":"5297","stop_code":"5297","stop_name":"LINDBERGH @ COUNTY LIBRARY NB","stop_desc":"FAR SIDE LINDBERGH @ COUNTY LIBRARY NB","wheelchair_boarding":1,"routes":[{"route_id":"19614","agency_id":"70006","route_short_name":"49","route_long_name":"Lindbergh","route_type":3,"route_color":"#FFFFFF","route_text_color":"#000000"}],"agency_name":"Metro St. Louis"},"geometry":{"type":"Point","coordinates":[-90.40567,38.63023]}},{"type":"Feature","properties":{"stop_id":"5658","stop_code":"5658","stop_name":"LINDBERGH @ TESSON FERRY NB","stop_desc":"FAR SIDE LINDBERGH @ TESSON FERRY NB","wheelchair_boarding":1,"routes":[{"route_id":"19614","agency_id":"70006","route_short_name":"49","route_long_name":"Lindbergh","route_type":3,"route_color":"#FFFFFF","route_text_color":"#000000"}],"agency_name":"Metro St. Louis"},"geometry":{"type":"Point","coordinates":[-90.35534,38.52405]}},{"type":"Feature","properties":{"stop_id":"5659","stop_code":"5659","stop_name":"LINDBERGH @ SOUTHFIELD CENTER NB","stop_desc":"MID-BLOCK LINDBERGH @ SOUTHFIELD CENTER NB","wheelchair_boarding":1,"routes":[{"route_id":"19614","agency_id":"70006","route_short_name":"49","route_long_name":"Lindbergh","route_type":3,"route_color":"#FFFFFF","route_text_color":"#000000"}],"agency_name":"Metro St. Louis"},"geometry":{"type":"Point","coordinates":[-90.35919,38.52483]}},{"type":"Feature","properties":{"stop_id":"5660","stop_code":"5660","stop_name":"LINDBERGH @ BAPTIST CHURCH NB","stop_desc":"FAR SIDE LINDBERGH @ BAPTIST CHURCH NB","wheelchair_boarding":1,"routes":[{"route_id":"19614","agency_id":"70006","route_short_name":"49","route_long_name":"Lindbergh","route_type":3,"route_color":"#FFFFFF","route_text_color":"#000000"}],"agency_name":"Metro St. Louis"},"geometry":{"type":"Point","coordinates":[-90.36224,38.52548]}},{"type":"Feature","properties":{"stop_id":"5661","stop_code":"5661","stop_name":"LINDBERGH @ HACKBERRY NB","stop_desc":"NEAR SIDE LINDBERGH @ HACKBERRY NB","wheelchair_boarding":1,"routes":[{"route_id":"19614","agency_id":"70006","route_short_name":"49","route_long_name":"Lindbergh","route_type":3,"route_color":"#FFFFFF","route_text_color":"#000000"}],"agency_name":"Metro St. Louis"},"geometry":{"type":"Point","coordinates":[-90.36556,38.52619]}},{"type":"Feature","properties":{"stop_id":"5662","stop_code":"5662","stop_name":"LINDBERGH @ MIMOSA NB","stop_desc":"FAR SIDE LINDBERGH @ MIMOSA NB","wheelchair_boarding":1,"routes":[{"route_id":"19614","agency_id":"70006","route_short_name":"49","route_long_name":"Lindbergh","route_type":3,"route_color":"#FFFFFF","route_text_color":"#000000"}],"agency_name":"Metro St. Louis"},"geometry":{"type":"Point","coordinates":[-90.36969,38.52707]}},{"type":"Feature","properties":{"stop_id":"5663","stop_code":"5663","stop_name":"LINDBERGH @ ROXANNA NB","stop_desc":"FAR SIDE LINDBERGH @ ROXANNA NB","wheelchair_boarding":1,"routes":[{"route_id":"19614","agency_id":"70006","route_short_name":"49","route_long_name":"Lindbergh","route_type":3,"route_color":"#FFFFFF","route_text_color":"#000000"}],"agency_name":"Metro St. Louis"},"geometry":{"type":"Point","coordinates":[-90.37594,38.5284]}},{"type":"Feature","properties":{"stop_id":"5664","stop_code":"5664","stop_name":"LINDBERGH @ SAPPINGTON NB","stop_desc":"FAR SIDE LINDBERGH @ SAPPINGTON NB","wheelchair_boarding":1,"routes":[{"route_id":"19614","agency_id":"70006","route_short_name":"49","route_long_name":"Lindbergh","route_type":3,"route_color":"#FFFFFF","route_text_color":"#000000"}],"agency_name":"Metro St. Louis"},"geometry":{"type":"Point","coordinates":[-90.38087,38.52958]}},{"type":"Feature","properties":{"stop_id":"5665","stop_code":"5665","stop_name":"LINDBERGH @ GRAVOIS NB","stop_desc":"NEAR SIDE LINDBERGH @ GRAVOIS NB","wheelchair_boarding":1,"routes":[{"route_id":"19614","agency_id":"70006","route_short_name":"49","route_long_name":"Lindbergh","route_type":3,"route_color":"#FFFFFF","route_text_color":"#000000"}],"agency_name":"Metro St. Louis"},"geometry":{"type":"Point","coordinates":[-90.38323,38.53169]}},{"type":"Feature","properties":{"stop_id":"5666","stop_code":"5666","stop_name":"LINDBERGH @ GRAVOIS NB","stop_desc":"FAR SIDE LINDBERGH @ GRAVOIS NB","wheelchair_boarding":2,"routes":[{"route_id":"19614","agency_id":"70006","route_short_name":"49","route_long_name":"Lindbergh","route_type":3,"route_color":"#FFFFFF","route_text_color":"#000000"}],"agency_name":"Metro St. Louis"},"geometry":{"type":"Point","coordinates":[-90.38489,38.53333]}},{"type":"Feature","properties":{"stop_id":"5668","stop_code":"5668","stop_name":"LINDBERGH @ DENNY NB","stop_desc":"NEAR SIDE LINDBERGH @ DENNY NB","wheelchair_boarding":1,"routes":[{"route_id":"19614","agency_id":"70006","route_short_name":"49","route_long_name":"Lindbergh","route_type":3,"route_color":"#FFFFFF","route_text_color":"#000000"}],"agency_name":"Metro St. Louis"},"geometry":{"type":"Point","coordinates":[-90.38863,38.53633]}},{"type":"Feature","properties":{"stop_id":"5671","stop_code":"5671","stop_name":"LINDBERGH @ SUNSET TERRACE NB","stop_desc":"FAR SIDE LINDBERGH @ SUNSET TERRACE NB","wheelchair_boarding":1,"routes":[{"route_id":"19614","agency_id":"70006","route_short_name":"49","route_long_name":"Lindbergh","route_type":3,"route_color":"#FFFFFF","route_text_color":"#000000"}],"agency_name":"Metro St. Louis"},"geometry":{"type":"Point","coordinates":[-90.40023,38.54329]}},{"type":"Feature","properties":{"stop_id":"5672","stop_code":"5672","stop_name":"LINDBERGH @ EDDIE AND PARK NB","stop_desc":"FAR SIDE LINDBERGH @ EDDIE AND PARK NB","wheelchair_boarding":1,"routes":[{"route_id":"19614","agency_id":"70006","route_short_name":"49","route_long_name":"Lindbergh","route_type":3,"route_color":"#FFFFFF","route_text_color":"#000000"}],"agency_name":"Metro St. Louis"},"geometry":{"type":"Point","coordinates":[-90.40408,38.54727]}},{"type":"Feature","properties":{"stop_id":"5673","stop_code":"5673","stop_name":"LINDBERGH @ WATSON NB","stop_desc":"FAR SIDE LINDBERGH @ WATSON NB","wheelchair_boarding":1,"routes":[{"route_id":"19614","agency_id":"70006","route_short_name":"49","route_long_name":"Lindbergh","route_type":3,"route_color":"#FFFFFF","route_text_color":"#000000"}],"agency_name":"Metro St. Louis"},"geometry":{"type":"Point","coordinates":[-90.40691,38.55207]}},{"type":"Feature","properties":{"stop_id":"5674","stop_code":"5674","stop_name":"LINDBERGH @ DEANE COURT NB","stop_desc":"FAR SIDE LINDBERGH @ DEANE COURT NB","wheelchair_boarding":1,"routes":[{"route_id":"19604","agency_id":"70006","route_short_name":"21","route_long_name":"Watson Rd","route_type":3,"route_color":"#FFFFFF","route_text_color":"#000000"},{"route_id":"19614","agency_id":"70006","route_short_name":"49","route_long_name":"Lindbergh","route_type":3,"route_color":"#FFFFFF","route_text_color":"#000000"}],"agency_name":"Metro St. Louis"},"geometry":{"type":"Point","coordinates":[-90.40686,38.55711]}},{"type":"Feature","properties":{"stop_id":"5677","stop_code":"5677","stop_name":"1052 SOUTH KIRKWOOD NB","stop_desc":"FAR SIDE 1052 SOUTH KIRKWOOD NB","wheelchair_boarding":1,"routes":[{"route_id":"19604","agency_id":"70006","route_short_name":"21","route_long_name":"Watson Rd","route_type":3,"route_color":"#FFFFFF","route_text_color":"#000000"},{"route_id":"19614","agency_id":"70006","route_short_name":"49","route_long_name":"Lindbergh","route_type":3,"route_color":"#FFFFFF","route_text_color":"#000000"}],"agency_name":"Metro St. Louis"},"geometry":{"type":"Point","coordinates":[-90.40671,38.56543]}},{"type":"Feature","properties":{"stop_id":"5678","stop_code":"5678","stop_name":"KIRKWOOD @ BIG BEND NB","stop_desc":"FAR SIDE KIRKWOOD @ BIG BEND NB","wheelchair_boarding":1,"routes":[{"route_id":"19614","agency_id":"70006","route_short_name":"49","route_long_name":"Lindbergh","route_type":3,"route_color":"#FFFFFF","route_text_color":"#000000"}],"agency_name":"Metro St. Louis"},"geometry":{"type":"Point","coordinates":[-90.40664,38.56747]}},{"type":"Feature","properties":{"stop_id":"5680","stop_code":"5680","stop_name":"700 SOUTH KIRKWOOD NB","stop_desc":"MID-BLOCK 700 SOUTH KIRKWOOD NB","wheelchair_boarding":2,"routes":[{"route_id":"19614","agency_id":"70006","route_short_name":"49","route_long_name":"Lindbergh","route_type":3,"route_color":"#FFFFFF","route_text_color":"#000000"}],"agency_name":"Metro St. Louis"},"geometry":{"type":"Point","coordinates":[-90.40652,38.57196]}},{"type":"Feature","properties":{"stop_id":"5681","stop_code":"5681","stop_name":"KIRKWOOD @ WOODBINE NB","stop_desc":"FAR SIDE KIRKWOOD @ WOODBINE NB","wheelchair_boarding":2,"routes":[{"route_id":"19614","agency_id":"70006","route_short_name":"49","route_long_name":"Lindbergh","route_type":3,"route_color":"#FFFFFF","route_text_color":"#000000"}],"agency_name":"Metro St. Louis"},"geometry":{"type":"Point","coordinates":[-90.40645,38.5746]}},{"type":"Feature","properties":{"stop_id":"5682","stop_code":"5682","stop_name":"KIRKWOOD @ CLINTON NB","stop_desc":"FAR SIDE KIRKWOOD @ CLINTON NB","wheelchair_boarding":2,"routes":[{"route_id":"19614","agency_id":"70006","route_short_name":"49","route_long_name":"Lindbergh","route_type":3,"route_color":"#FFFFFF","route_text_color":"#000000"}],"agency_name":"Metro St. Louis"},"geometry":{"type":"Point","coordinates":[-90.40641,38.57627]}},{"type":"Feature","properties":{"stop_id":"5683","stop_code":"5683","stop_name":"KIRKWOOD @ KIRKWOOD PL NB","stop_desc":"FAR SIDE KIRKWOOD @ KIRKWOOD PL NB","wheelchair_boarding":1,"routes":[{"route_id":"19614","agency_id":"70006","route_short_name":"49","route_long_name":"Lindbergh","route_type":3,"route_color":"#FFFFFF","route_text_color":"#000000"}],"agency_name":"Metro St. Louis"},"geometry":{"type":"Point","coordinates":[-90.40635,38.57805]}},{"type":"Feature","properties":{"stop_id":"5687","stop_code":"5687","stop_name":"KIRKWOOD @ ADAMS NB","stop_desc":"FAR SIDE KIRKWOOD @ ADAMS NB","wheelchair_boarding":1,"routes":[{"route_id":"19614","agency_id":"70006","route_short_name":"49","route_long_name":"Lindbergh","route_type":3,"route_color":"#FFFFFF","route_text_color":"#000000"}],"agency_name":"Metro St. Louis"},"geometry":{"type":"Point","coordinates":[-90.40627,38.58297]}},{"type":"Feature","properties":{"stop_id":"5688","stop_code":"5688","stop_name":"KIRKWOOD @ WASHINGTON NB","stop_desc":"FAR SIDE KIRKWOOD @ WASHINGTON NB","wheelchair_boarding":1,"routes":[{"route_id":"19614","agency_id":"70006","route_short_name":"49","route_long_name":"Lindbergh","route_type":3,"route_color":"#FFFFFF","route_text_color":"#000000"}],"agency_name":"Metro St. Louis"},"geometry":{"type":"Point","coordinates":[-90.4062,38.58457]}},{"type":"Feature","properties":{"stop_id":"5690","stop_code":"5690","stop_name":"KIRKWOOD @ ESSEX NB","stop_desc":"NEAR SIDE KIRKWOOD @ ESSEX NB","wheelchair_boarding":2,"routes":[{"route_id":"19614","agency_id":"70006","route_short_name":"49","route_long_name":"Lindbergh","route_type":3,"route_color":"#FFFFFF","route_text_color":"#000000"}],"agency_name":"Metro St. Louis"},"geometry":{"type":"Point","coordinates":[-90.40622,38.58875]}},{"type":"Feature","properties":{"stop_id":"5695","stop_code":"5695","stop_name":"KIRKWOOD @ MORNINGSIDE NB","stop_desc":"NEAR SIDE KIRKWOOD @ MORNINGSIDE NB","wheelchair_boarding":1,"routes":[{"route_id":"19614","agency_id":"70006","route_short_name":"49","route_long_name":"Lindbergh","route_type":3,"route_color":"#FFFFFF","route_text_color":"#000000"}],"agency_name":"Metro St. Louis"},"geometry":{"type":"Point","coordinates":[-90.40628,38.59487]}},{"type":"Feature","properties":{"stop_id":"5698","stop_code":"5698","stop_name":"LINDBERGH @ CONWAY NB","stop_desc":"FAR SIDE LINDBERGH @ CONWAY NB","wheelchair_boarding":1,"routes":[{"route_id":"19614","agency_id":"70006","route_short_name":"49","route_long_name":"Lindbergh","route_type":3,"route_color":"#FFFFFF","route_text_color":"#000000"}],"agency_name":"Metro St. Louis"},"geometry":{"type":"Point","coordinates":[-90.40541,38.64358]}},{"type":"Feature","properties":{"stop_id":"5699","stop_code":"5699","stop_name":"LINDBERGH @ CHAMINADE NB","stop_desc":"NEAR SIDE LINDBERGH @ CHAMINADE NB","wheelchair_boarding":2,"routes":[{"route_id":"19614","agency_id":"70006","route_short_name":"49","route_long_name":"Lindbergh","route_type":3,"route_color":"#FFFFFF","route_text_color":"#000000"}],"agency_name":"Metro St. Louis"},"geometry":{"type":"Point","coordinates":[-90.40537,38.64825]}},{"type":"Feature","properties":{"stop_id":"5700","stop_code":"5700","stop_name":"LINDBERGH @ LADUE NB","stop_desc":"FAR SIDE LINDBERGH @ LADUE NB","wheelchair_boarding":1,"routes":[{"route_id":"19614","agency_id":"70006","route_short_name":"49","route_long_name":"Lindbergh","route_type":3,"route_color":"#FFFFFF","route_text_color":"#000000"}],"agency_name":"Metro St. Louis"},"geometry":{"type":"Point","coordinates":[-90.40526,38.65552]}},{"type":"Feature","properties":{"stop_id":"5702","stop_code":"5702","stop_name":"LINDBERGH @ TEALBROOK NB","stop_desc":"NEAR SIDE LINDBERGH @ TEALBROOK NB","wheelchair_boarding":1,"routes":[{"route_id":"19614","agency_id":"70006","route_short_name":"49","route_long_name":"Lindbergh","route_type":3,"route_color":"#FFFFFF","route_text_color":"#000000"}],"agency_name":"Metro St. Louis"},"geometry":{"type":"Point","coordinates":[-90.40518,38.66208]}},{"type":"Feature","properties":{"stop_id":"5712","stop_code":"5712","stop_name":"LINDBERGH @ ADIE NB","stop_desc":"FAR SIDE LINDBERGH @ ADIE NB","wheelchair_boarding":1,"routes":[{"route_id":"19614","agency_id":"70006","route_short_name":"49","route_long_name":"Lindbergh","route_type":3,"route_color":"#FFFFFF","route_text_color":"#000000"}],"agency_name":"Metro St. Louis"},"geometry":{"type":"Point","coordinates":[-90.40838,38.71193]}},{"type":"Feature","properties":{"stop_id":"5714","stop_code":"5714","stop_name":"LINDBERGH @ GRABEN NB","stop_desc":"NEAR SIDE LINDBERGH @ GRABEN NB","wheelchair_boarding":2,"routes":[{"route_id":"19614","agency_id":"70006","route_short_name":"49","route_long_name":"Lindbergh","route_type":3,"route_color":"#FFFFFF","route_text_color":"#000000"}],"agency_name":"Metro St. Louis"},"geometry":{"type":"Point","coordinates":[-90.40664,38.72426]}},{"type":"Feature","properties":{"stop_id":"5717","stop_code":"5717","stop_name":"LINDBERGH @ OLD ST. CHARLES NB","stop_desc":"NEAR SIDE LINDBERGH @ OLD ST. CHARLES NB","wheelchair_boarding":1,"routes":[{"route_id":"19614","agency_id":"70006","route_short_name":"49","route_long_name":"Lindbergh","route_type":3,"route_color":"#FFFFFF","route_text_color":"#000000"}],"agency_name":"Metro St. Louis"},"geometry":{"type":"Point","coordinates":[-90.40469,38.73041]}},{"type":"Feature","properties":{"stop_id":"5972","stop_code":"5972","stop_name":"NORTH HANLEY @ KATHERINE NB","stop_desc":"FAR SIDE NORTH HANLEY @ KATHERINE NB","wheelchair_boarding":2,"routes":[{"route_id":"19594","agency_id":"70006","route_short_name":"4","route_long_name":"Natural Bridge","route_type":3,"route_color":"#FFFFFF","route_text_color":"#000000"},{"route_id":"19614","agency_id":"70006","route_short_name":"49","route_long_name":"Lindbergh","route_type":3,"route_color":"#FFFFFF","route_text_color":"#000000"},{"route_id":"19628","agency_id":"70006","route_short_name":"79","route_long_name":"Ferguson-Clayton","route_type":3,"route_color":"#FFFFFF","route_text_color":"#000000"}],"agency_name":"Metro St. Louis"},"geometry":{"type":"Point","coordinates":[-90.31925,38.71322]}},{"type":"Feature","properties":{"stop_id":"6061","stop_code":"6061","stop_name":"NORTH HANLEY @ UNIVERSITY PLACE NB","stop_desc":"NEAR SIDE NORTH HANLEY @ UNIVERSITY PLACE NB","wheelchair_boarding":2,"routes":[{"route_id":"19594","agency_id":"70006","route_short_name":"4","route_long_name":"Natural Bridge","route_type":3,"route_color":"#FFFFFF","route_text_color":"#000000"},{"route_id":"19614","agency_id":"70006","route_short_name":"49","route_long_name":"Lindbergh","route_type":3,"route_color":"#FFFFFF","route_text_color":"#000000"},{"route_id":"19628","agency_id":"70006","route_short_name":"79","route_long_name":"Ferguson-Clayton","route_type":3,"route_color":"#FFFFFF","route_text_color":"#000000"}],"agency_name":"Metro St. Louis"},"geometry":{"type":"Point","coordinates":[-90.31795,38.71761]}},{"type":"Feature","properties":{"stop_id":"6940","stop_code":"6940","stop_name":"MIDLAND @ BROUSTER WB","stop_desc":"NEAR SIDE MIDLAND @ BROUSTER WB","wheelchair_boarding":2,"routes":[{"route_id":"19608","agency_id":"70006","route_short_name":"33","route_long_name":"Midland","route_type":3,"route_color":"#FFFFFF","route_text_color":"#000000"},{"route_id":"19614","agency_id":"70006","route_short_name":"49","route_long_name":"Lindbergh","route_type":3,"route_color":"#FFFFFF","route_text_color":"#000000"}],"agency_name":"Metro St. Louis"},"geometry":{"type":"Point","coordinates":[-90.40732,38.70682]}},{"type":"Feature","properties":{"stop_id":"6984","stop_code":"6984","stop_name":"MIDLAND @ LINK WB","stop_desc":"NEAR SIDE MIDLAND @ LINK WB","wheelchair_boarding":2,"routes":[{"route_id":"19608","agency_id":"70006","route_short_name":"33","route_long_name":"Midland","route_type":3,"route_color":"#FFFFFF","route_text_color":"#000000"},{"route_id":"19614","agency_id":"70006","route_short_name":"49","route_long_name":"Lindbergh","route_type":3,"route_color":"#FFFFFF","route_text_color":"#000000"}],"agency_name":"Metro St. Louis"},"geometry":{"type":"Point","coordinates":[-90.40469,38.70474]}},{"type":"Feature","properties":{"stop_id":"7642","stop_code":"7642","stop_name":"TESSON FERRY @ LINDBERGH SB","stop_desc":"FAR SIDE TESSON FERRY @ LINDBERGH SB","wheelchair_boarding":1,"routes":[{"route_id":"19614","agency_id":"70006","route_short_name":"49","route_long_name":"Lindbergh","route_type":3,"route_color":"#FFFFFF","route_text_color":"#000000"}],"agency_name":"Metro St. Louis"},"geometry":{"type":"Point","coordinates":[-90.35498,38.52325]}},{"type":"Feature","properties":{"stop_id":"7643","stop_code":"7643","stop_name":"TESSON FERRY @ BAPTIST CHURCH SB","stop_desc":"FAR SIDE TESSON FERRY @ BAPTIST CHURCH SB","wheelchair_boarding":1,"routes":[{"route_id":"19614","agency_id":"70006","route_short_name":"49","route_long_name":"Lindbergh","route_type":3,"route_color":"#FFFFFF","route_text_color":"#000000"}],"agency_name":"Metro St. Louis"},"geometry":{"type":"Point","coordinates":[-90.36311,38.51982]}},{"type":"Feature","properties":{"stop_id":"7644","stop_code":"7644","stop_name":"TESSON FERRY @ CONCORD SCHOOL SB","stop_desc":"FAR SIDE TESSON FERRY @ CONCORD SCHOOL SB","wheelchair_boarding":1,"routes":[{"route_id":"19614","agency_id":"70006","route_short_name":"49","route_long_name":"Lindbergh","route_type":3,"route_color":"#FFFFFF","route_text_color":"#000000"}],"agency_name":"Metro St. Louis"},"geometry":{"type":"Point","coordinates":[-90.36635,38.51721]}},{"type":"Feature","properties":{"stop_id":"7646","stop_code":"7646","stop_name":"SCHUESSLER @ TESSON FERRY WB","stop_desc":"FAR SIDE SCHUESSLER @ TESSON FERRY WB","wheelchair_boarding":2,"routes":[{"route_id":"19614","agency_id":"70006","route_short_name":"49","route_long_name":"Lindbergh","route_type":3,"route_color":"#FFFFFF","route_text_color":"#000000"}],"agency_name":"Metro St. Louis"},"geometry":{"type":"Point","coordinates":[-90.38063,38.50416]}},{"type":"Feature","properties":{"stop_id":"7727","stop_code":"7727","stop_name":"TESSON FERRY @ POINTE SOUTH SB","stop_desc":"MID-BLOCK TESSON FERRY @ POINTE SOUTH SB","wheelchair_boarding":1,"routes":[{"route_id":"19614","agency_id":"70006","route_short_name":"49","route_long_name":"Lindbergh","route_type":3,"route_color":"#FFFFFF","route_text_color":"#000000"}],"agency_name":"Metro St. Louis"},"geometry":{"type":"Point","coordinates":[-90.35921,38.52105]}},{"type":"Feature","properties":{"stop_id":"7729","stop_code":"7729","stop_name":"TESSON FERRY @ WEST BEND SB","stop_desc":"FAR SIDE TESSON FERRY @ WEST BEND SB","wheelchair_boarding":1,"routes":[{"route_id":"19614","agency_id":"70006","route_short_name":"49","route_long_name":"Lindbergh","route_type":3,"route_color":"#FFFFFF","route_text_color":"#000000"}],"agency_name":"Metro St. Louis"},"geometry":{"type":"Point","coordinates":[-90.37482,38.51033]}},{"type":"Feature","properties":{"stop_id":"7730","stop_code":"7730","stop_name":"TESSON FERRY @ KENNERLY SB","stop_desc":"FAR SIDE TESSON FERRY @ KENNERLY SB","wheelchair_boarding":1,"routes":[{"route_id":"19614","agency_id":"70006","route_short_name":"49","route_long_name":"Lindbergh","route_type":3,"route_color":"#FFFFFF","route_text_color":"#000000"}],"agency_name":"Metro St. Louis"},"geometry":{"type":"Point","coordinates":[-90.37764,38.50799]}},{"type":"Feature","properties":{"stop_id":"7861","stop_code":"7861","stop_name":"TESSON FERRY @ KENNERLY NB","stop_desc":"FAR SIDE TESSON FERRY @ KENNERLY NB","wheelchair_boarding":1,"routes":[{"route_id":"19614","agency_id":"70006","route_short_name":"49","route_long_name":"Lindbergh","route_type":3,"route_color":"#FFFFFF","route_text_color":"#000000"}],"agency_name":"Metro St. Louis"},"geometry":{"type":"Point","coordinates":[-90.37613,38.50895]}},{"type":"Feature","properties":{"stop_id":"7862","stop_code":"7862","stop_name":"TESSON FERRY @ MATTIS NB","stop_desc":"FAR SIDE TESSON FERRY @ MATTIS NB","wheelchair_boarding":1,"routes":[{"route_id":"19614","agency_id":"70006","route_short_name":"49","route_long_name":"Lindbergh","route_type":3,"route_color":"#FFFFFF","route_text_color":"#000000"}],"agency_name":"Metro St. Louis"},"geometry":{"type":"Point","coordinates":[-90.37372,38.51089]}},{"type":"Feature","properties":{"stop_id":"7864","stop_code":"7864","stop_name":"TESSON FERRY @ CONCORD SCHOOL NB","stop_desc":"FAR SIDE TESSON FERRY @ CONCORD SCHOOL NB","wheelchair_boarding":1,"routes":[{"route_id":"19614","agency_id":"70006","route_short_name":"49","route_long_name":"Lindbergh","route_type":3,"route_color":"#FFFFFF","route_text_color":"#000000"}],"agency_name":"Metro St. Louis"},"geometry":{"type":"Point","coordinates":[-90.36579,38.51747]}},{"type":"Feature","properties":{"stop_id":"7866","stop_code":"7866","stop_name":"TESSON FERRY @ BAPTIST CHURCH NB","stop_desc":"NEAR SIDE TESSON FERRY @ BAPTIST CHURCH NB","wheelchair_boarding":1,"routes":[{"route_id":"19614","agency_id":"70006","route_short_name":"49","route_long_name":"Lindbergh","route_type":3,"route_color":"#FFFFFF","route_text_color":"#000000"}],"agency_name":"Metro St. Louis"},"geometry":{"type":"Point","coordinates":[-90.36259,38.51994]}},{"type":"Feature","properties":{"stop_id":"7867","stop_code":"7867","stop_name":"TESSON FERRY @ POINTE SOUTH NB","stop_desc":"FAR SIDE TESSON FERRY @ POINTE SOUTH NB","wheelchair_boarding":1,"routes":[{"route_id":"19614","agency_id":"70006","route_short_name":"49","route_long_name":"Lindbergh","route_type":3,"route_color":"#FFFFFF","route_text_color":"#000000"}],"agency_name":"Metro St. Louis"},"geometry":{"type":"Point","coordinates":[-90.35878,38.52106]}},{"type":"Feature","properties":{"stop_id":"7868","stop_code":"7868","stop_name":"TESSON FERRY @ LINDBERGH NB","stop_desc":"NEAR SIDE TESSON FERRY @ LINDBERGH NB","wheelchair_boarding":1,"routes":[{"route_id":"19614","agency_id":"70006","route_short_name":"49","route_long_name":"Lindbergh","route_type":3,"route_color":"#FFFFFF","route_text_color":"#000000"}],"agency_name":"Metro St. Louis"},"geometry":{"type":"Point","coordinates":[-90.355,38.5228]}},{"type":"Feature","properties":{"stop_id":"9182","stop_code":"9182","stop_name":"NATURAL BRIDGE @ AIRFLIGHT EB","stop_desc":"FAR SIDE NATURAL BRIDGE @ AIRFLIGHT EB","wheelchair_boarding":1,"routes":[{"route_id":"19614","agency_id":"70006","route_short_name":"49","route_long_name":"Lindbergh","route_type":3,"route_color":"#FFFFFF","route_text_color":"#000000"}],"agency_name":"Metro St. Louis"},"geometry":{"type":"Point","coordinates":[-90.36593,38.7381]}},{"type":"Feature","properties":{"stop_id":"9194","stop_code":"9194","stop_name":"LINDBERGH @ BLAKE NB","stop_desc":"FAR SIDE LINDBERGH @ BLAKE NB","wheelchair_boarding":1,"routes":[{"route_id":"19614","agency_id":"70006","route_short_name":"49","route_long_name":"Lindbergh","route_type":3,"route_color":"#FFFFFF","route_text_color":"#000000"}],"agency_name":"Metro St. Louis"},"geometry":{"type":"Point","coordinates":[-90.40227,38.73511]}},{"type":"Feature","properties":{"stop_id":"9195","stop_code":"9195","stop_name":"ST. CHARLES ROCK ROAD @ BANKS EB","stop_desc":"FAR SIDE ST. CHARLES ROCK ROAD @ BANKS EB","wheelchair_boarding":1,"routes":[{"route_id":"19610","agency_id":"70006","route_short_name":"35","route_long_name":"Rock Road","route_type":3,"route_color":"#FFFFFF","route_text_color":"#000000"},{"route_id":"19614","agency_id":"70006","route_short_name":"49","route_long_name":"Lindbergh","route_type":3,"route_color":"#FFFFFF","route_text_color":"#000000"}],"agency_name":"Metro St. Louis"},"geometry":{"type":"Point","coordinates":[-90.39784,38.73696]}},{"type":"Feature","properties":{"stop_id":"9196","stop_code":"9196","stop_name":"ST. CHARLES ROCK ROAD @ ADIE EB","stop_desc":"FAR SIDE ST. CHARLES ROCK ROAD @ ADIE EB","wheelchair_boarding":1,"routes":[{"route_id":"19610","agency_id":"70006","route_short_name":"35","route_long_name":"Rock Road","route_type":3,"route_color":"#FFFFFF","route_text_color":"#000000"},{"route_id":"19614","agency_id":"70006","route_short_name":"49","route_long_name":"Lindbergh","route_type":3,"route_color":"#FFFFFF","route_text_color":"#000000"}],"agency_name":"Metro St. Louis"},"geometry":{"type":"Point","coordinates":[-90.39338,38.73433]}},{"type":"Feature","properties":{"stop_id":"9200","stop_code":"9200","stop_name":"CYPRESS @ ST. LAWRENCE NB","stop_desc":"FAR SIDE CYPRESS @ ST. LAWRENCE NB","wheelchair_boarding":2,"routes":[{"route_id":"19614","agency_id":"70006","route_short_name":"49","route_long_name":"Lindbergh","route_type":3,"route_color":"#FFFFFF","route_text_color":"#000000"}],"agency_name":"Metro St. Louis"},"geometry":{"type":"Point","coordinates":[-90.38942,38.73513]}},{"type":"Feature","properties":{"stop_id":"9201","stop_code":"9201","stop_name":"CYPRESS @ ST SHAWN NB","stop_desc":"NEAR SIDE CYPRESS @ ST SHAWN NB","wheelchair_boarding":1,"routes":[{"route_id":"19614","agency_id":"70006","route_short_name":"49","route_long_name":"Lindbergh","route_type":3,"route_color":"#FFFFFF","route_text_color":"#000000"}],"agency_name":"Metro St. Louis"},"geometry":{"type":"Point","coordinates":[-90.38835,38.73737]}},{"type":"Feature","properties":{"stop_id":"9202","stop_code":"9202","stop_name":"CYPRESS @ ST DAMIEN NB","stop_desc":"FAR SIDE CYPRESS @ ST DAMIEN NB","wheelchair_boarding":1,"routes":[{"route_id":"19614","agency_id":"70006","route_short_name":"49","route_long_name":"Lindbergh","route_type":3,"route_color":"#FFFFFF","route_text_color":"#000000"}],"agency_name":"Metro St. Louis"},"geometry":{"type":"Point","coordinates":[-90.3863,38.7415]}},{"type":"Feature","properties":{"stop_id":"9206","stop_code":"9206","stop_name":"NATURAL BRIDGE @ HILTON ST. LOUIS AIRPORT EB","stop_desc":"MID-BLOCK NATURAL BRIDGE @ HILTON ST. LOUIS AIRPORT EB","wheelchair_boarding":1,"routes":[{"route_id":"19614","agency_id":"70006","route_short_name":"49","route_long_name":"Lindbergh","route_type":3,"route_color":"#FFFFFF","route_text_color":"#000000"}],"agency_name":"Metro St. Louis"},"geometry":{"type":"Point","coordinates":[-90.35901,38.73676]}},{"type":"Feature","properties":{"stop_id":"9207","stop_code":"9207","stop_name":"NATURAL BRIDGE @ WOODSON EB","stop_desc":"FAR SIDE NATURAL BRIDGE @ WOODSON EB","wheelchair_boarding":1,"routes":[{"route_id":"19614","agency_id":"70006","route_short_name":"49","route_long_name":"Lindbergh","route_type":3,"route_color":"#FFFFFF","route_text_color":"#000000"}],"agency_name":"Metro St. Louis"},"geometry":{"type":"Point","coordinates":[-90.35596,38.73509]}},{"type":"Feature","properties":{"stop_id":"9208","stop_code":"9208","stop_name":"10052 NATURAL BRIDGE EB","stop_desc":"MID-BLOCK 10052 NATURAL BRIDGE EB","wheelchair_boarding":2,"routes":[{"route_id":"19614","agency_id":"70006","route_short_name":"49","route_long_name":"Lindbergh","route_type":3,"route_color":"#FFFFFF","route_text_color":"#000000"}],"agency_name":"Metro St. Louis"},"geometry":{"type":"Point","coordinates":[-90.35297,38.73354]}},{"type":"Feature","properties":{"stop_id":"9209","stop_code":"9209","stop_name":"NATURAL BRIDGE @ BRENTON EB","stop_desc":"NEAR SIDE NATURAL BRIDGE @ BRENTON EB","wheelchair_boarding":2,"routes":[{"route_id":"19614","agency_id":"70006","route_short_name":"49","route_long_name":"Lindbergh","route_type":3,"route_color":"#FFFFFF","route_text_color":"#000000"}],"agency_name":"Metro St. Louis"},"geometry":{"type":"Point","coordinates":[-90.34961,38.73177]}},{"type":"Feature","properties":{"stop_id":"9210","stop_code":"9210","stop_name":"NATURAL BRIDGE @ FAIRFIELD EB","stop_desc":"NEAR SIDE NATURAL BRIDGE @ FAIRFIELD EB","wheelchair_boarding":2,"routes":[{"route_id":"19614","agency_id":"70006","route_short_name":"49","route_long_name":"Lindbergh","route_type":3,"route_color":"#FFFFFF","route_text_color":"#000000"}],"agency_name":"Metro St. Louis"},"geometry":{"type":"Point","coordinates":[-90.34693,38.73041]}},{"type":"Feature","properties":{"stop_id":"9211","stop_code":"9211","stop_name":"NATURAL BRIDGE @ BROWN EB","stop_desc":"MID-BLOCK NATURAL BRIDGE @ BROWN EB","wheelchair_boarding":2,"routes":[{"route_id":"19614","agency_id":"70006","route_short_name":"49","route_long_name":"Lindbergh","route_type":3,"route_color":"#FFFFFF","route_text_color":"#000000"}],"agency_name":"Metro St. Louis"},"geometry":{"type":"Point","coordinates":[-90.34382,38.72783]}},{"type":"Feature","properties":{"stop_id":"9213","stop_code":"9213","stop_name":"NATURAL BRIDGE @ MCKIBBON EB","stop_desc":"NEAR SIDE NATURAL BRIDGE @ MCKIBBON EB","wheelchair_boarding":2,"routes":[{"route_id":"19614","agency_id":"70006","route_short_name":"49","route_long_name":"Lindbergh","route_type":3,"route_color":"#FFFFFF","route_text_color":"#000000"}],"agency_name":"Metro St. Louis"},"geometry":{"type":"Point","coordinates":[-90.34162,38.72607]}},{"type":"Feature","properties":{"stop_id":"9214","stop_code":"9214","stop_name":"NATURAL BRIDGE @ HAROLD EB","stop_desc":"FAR SIDE NATURAL BRIDGE @ HAROLD EB","wheelchair_boarding":2,"routes":[{"route_id":"19614","agency_id":"70006","route_short_name":"49","route_long_name":"Lindbergh","route_type":3,"route_color":"#FFFFFF","route_text_color":"#000000"}],"agency_name":"Metro St. Louis"},"geometry":{"type":"Point","coordinates":[-90.33647,38.72276]}},{"type":"Feature","properties":{"stop_id":"9215","stop_code":"9215","stop_name":"NATURAL BRIDGE @ ENGLER EB","stop_desc":"NEAR SIDE NATURAL BRIDGE @ ENGLER EB","wheelchair_boarding":2,"routes":[{"route_id":"19614","agency_id":"70006","route_short_name":"49","route_long_name":"Lindbergh","route_type":3,"route_color":"#FFFFFF","route_text_color":"#000000"}],"agency_name":"Metro St. Louis"},"geometry":{"type":"Point","coordinates":[-90.33354,38.72083]}},{"type":"Feature","properties":{"stop_id":"9216","stop_code":"9216","stop_name":"NATURAL BRIDGE @ SARGENT EB","stop_desc":"NEAR SIDE NATURAL BRIDGE @ SARGENT EB","wheelchair_boarding":1,"routes":[{"route_id":"19614","agency_id":"70006","route_short_name":"49","route_long_name":"Lindbergh","route_type":3,"route_color":"#FFFFFF","route_text_color":"#000000"}],"agency_name":"Metro St. Louis"},"geometry":{"type":"Point","coordinates":[-90.32972,38.71774]}},{"type":"Feature","properties":{"stop_id":"9218","stop_code":"9218","stop_name":"NATURAL BRIDGE @ LEEWARD EB","stop_desc":"NEAR SIDE NATURAL BRIDGE @ LEEWARD EB","wheelchair_boarding":1,"routes":[{"route_id":"19614","agency_id":"70006","route_short_name":"49","route_long_name":"Lindbergh","route_type":3,"route_color":"#FFFFFF","route_text_color":"#000000"}],"agency_name":"Metro St. Louis"},"geometry":{"type":"Point","coordinates":[-90.32593,38.7154]}},{"type":"Feature","properties":{"stop_id":"9219","stop_code":"9219","stop_name":"NATURAL BRIDGE @ RAMONA EB","stop_desc":"NEAR SIDE NATURAL BRIDGE @ RAMONA EB","wheelchair_boarding":2,"routes":[{"route_id":"19614","agency_id":"70006","route_short_name":"49","route_long_name":"Lindbergh","route_type":3,"route_color":"#FFFFFF","route_text_color":"#000000"}],"agency_name":"Metro St. Louis"},"geometry":{"type":"Point","coordinates":[-90.32334,38.7137]}},{"type":"Feature","properties":{"stop_id":"9220","stop_code":"9220","stop_name":"NATURAL BRIDGE @ MEDORA EB","stop_desc":"FAR SIDE NATURAL BRIDGE @ MEDORA EB","wheelchair_boarding":2,"routes":[{"route_id":"19614","agency_id":"70006","route_short_name":"49","route_long_name":"Lindbergh","route_type":3,"route_color":"#FFFFFF","route_text_color":"#000000"}],"agency_name":"Metro St. Louis"},"geometry":{"type":"Point","coordinates":[-90.32118,38.71204]}},{"type":"Feature","properties":{"stop_id":"9971","stop_code":"9971","stop_name":"LINDBERGH @ CONCORD WB","stop_desc":"FAR SIDE LINDBERGH @ CONCORD WB","wheelchair_boarding":1,"routes":[{"route_id":"19614","agency_id":"70006","route_short_name":"49","route_long_name":"Lindbergh","route_type":3,"route_color":"#FFFFFF","route_text_color":"#000000"}],"agency_name":"Metro St. Louis"},"geometry":{"type":"Point","coordinates":[-90.34264,38.5154]}},{"type":"Feature","properties":{"stop_id":"9972","stop_code":"9972","stop_name":"LINDBERGH @ FLORI WB","stop_desc":"FAR SIDE LINDBERGH @ FLORI WB","wheelchair_boarding":1,"routes":[{"route_id":"19614","agency_id":"70006","route_short_name":"49","route_long_name":"Lindbergh","route_type":3,"route_color":"#FFFFFF","route_text_color":"#000000"}],"agency_name":"Metro St. Louis"},"geometry":{"type":"Point","coordinates":[-90.34364,38.52006]}},{"type":"Feature","properties":{"stop_id":"9973","stop_code":"9973","stop_name":"LINDBERGH @ MUELLER WB","stop_desc":"FAR SIDE LINDBERGH @ MUELLER WB","wheelchair_boarding":1,"routes":[{"route_id":"19614","agency_id":"70006","route_short_name":"49","route_long_name":"Lindbergh","route_type":3,"route_color":"#FFFFFF","route_text_color":"#000000"}],"agency_name":"Metro St. Louis"},"geometry":{"type":"Point","coordinates":[-90.34819,38.52245]}},{"type":"Feature","properties":{"stop_id":"9974","stop_code":"9974","stop_name":"LINDBERGH @ LIN FERRY WB","stop_desc":"NEAR SIDE LINDBERGH @ LIN FERRY WB","wheelchair_boarding":1,"routes":[{"route_id":"19614","agency_id":"70006","route_short_name":"49","route_long_name":"Lindbergh","route_type":3,"route_color":"#FFFFFF","route_text_color":"#000000"}],"agency_name":"Metro St. Louis"},"geometry":{"type":"Point","coordinates":[-90.3512,38.52319]}}]}