{"type":"FeatureCollection","features":[{"type":"Feature","properties":{"agency_name":"Metro St. Louis","route_id":"19633","agency_id":"70006","route_short_name":"97","route_long_name":"Delmar","route_type":3,"route_color":"#FFFFFF","route_text_color":"#000000"},"geometry":{"type":"MultiLineString","coordinates":[[[-90.20257,38.62568],[-90.20259,38.62568],[-90.20253,38.62568],[-90.20249,38.62565],[-90.20246,38.6256],[-90.20257,38.62503],[-90.20253,38.62498],[-90.20231,38.62495],[-90.20188,38.62591],[-90.20104,38.62808],[-90.20056,38.62954],[-90.20027,38.63028],[-90.2,38.63124],[-90.19959,38.63235],[-90.1995,38.6325],[-90.1992,38.63284],[-90.19895,38.63303],[-90.1987,38.63325],[-90.19851,38.63346],[-90.19837,38.63372],[-90.19802,38.63475],[-90.21228,38.63776],[-90.21597,38.63852],[-90.21608,38.63856],[-90.21628,38.63867],[-90.21656,38.63887],[-90.21762,38.63956],[-90.21832,38.63975],[-90.21857,38.63901],[-90.22045,38.63942],[-90.22292,38.63993],[-90.22409,38.64],[-90.22436,38.63926],[-90.22715,38.63983],[-90.22898,38.64022],[-90.22927,38.64031],[-90.23001,38.64062],[-90.23031,38.64078],[-90.23407,38.64243],[-90.23381,38.6428],[-90.23637,38.64394],[-90.23777,38.64334],[-90.25473,38.65079],[-90.25487,38.65084],[-90.25501,38.65087],[-90.26243,38.65153],[-90.26353,38.65157],[-90.26381,38.65163],[-90.26711,38.65199],[-90.27243,38.65254],[-90.27282,38.6526],[-90.2743,38.65298],[-90.27524,38.65311],[-90.28442,38.65401],[-90.28511,38.65409],[-90.29288,38.65484],[-90.29406,38.65492],[-90.29419,38.6549],[-90.29469,38.65495],[-90.29496,38.65543],[-90.29503,38.65552],[-90.29512,38.65559],[-90.29533,38.65568],[-90.29582,38.65575],[-90.29608,38.65562],[-90.29604,38.65541],[-90.29601,38.65508],[-90.30346,38.65583],[-90.30599,38.65606],[-90.30875,38.65636],[-90.30991,38.65645],[-90.31051,38.65654],[-90.31055,38.6566],[-90.31062,38.65665],[-90.31073,38.65668],[-90.31094,38.65661],[-90.31152,38.65661],[-90.31461,38.6569],[-90.31733,38.65719],[-90.32033,38.65746],[-90.32507,38.65796],[-90.32866,38.65826],[-90.32969,38.65844],[-90.33165,38.65873],[-90.33226,38.6588],[-90.33284,38.65832],[-90.33311,38.65664],[-90.33349,38.65403],[-90.33361,38.65332],[-90.33404,38.65014],[-90.3342,38.65002],[-90.33438,38.64993],[-90.33684,38.65014],[-90.33844,38.64895],[-90.33862,38.64765],[-90.34003,38.64751],[-90.34022,38.6462],[-90.33917,38.64609]]]}},{"type":"Feature","properties":{"stop_id":"14403","stop_code":"14403","stop_name":"CLAYTON TRANSIT CENTER","wheelchair_boarding":1,"routes":[{"route_id":"19628","agency_id":"70006","route_short_name":"79","route_long_name":"Ferguson-Clayton","route_type":3,"route_color":"#FFFFFF","route_text_color":"#000000"},{"route_id":"19633","agency_id":"70006","route_short_name":"97","route_long_name":"Delmar","route_type":3,"route_color":"#FFFFFF","route_text_color":"#000000"}],"agency_name":"Metro St. Louis"},"geometry":{"type":"Point","coordinates":[-90.33974,38.64607]}},{"type":"Feature","properties":{"stop_id":"14674","stop_code":"14674","stop_name":"CENTRAL @ CARONDELET SB","stop_desc":"FAR SIDE CENTRAL @ CARONDELET SB","wheelchair_boarding":1,"routes":[{"route_id":"19608","agency_id":"70006","route_short_name":"33","route_long_name":"Midland","route_type":3,"route_color":"#FFFFFF","route_text_color":"#000000"},{"route_id":"19628","agency_id":"70006","route_short_name":"79","route_long_name":"Ferguson-Clayton","route_type":3,"route_color":"#FFFFFF","route_text_color":"#000000"},{"route_id":"19633","agency_id":"70006","route_short_name":"97","route_long_name":"Delmar","route_type":3,"route_color":"#FFFFFF","route_text_color":"#000000"}],"agency_name":"Metro St. Louis"},"geometry":{"type":"Point","coordinates":[-90.33865,38.64834]}},{"type":"Feature","properties":{"stop_id":"14823","stop_code":"14823","stop_name":"14TH STREET @ WASHINGTON NB","stop_desc":"FAR SIDE 14TH STREET @ WASHINGTON NB","wheelchair_boarding":1,"routes":[{"route_id":"19612","agency_id":"70006","route_short_name":"41","route_long_name":"Lee","route_type":3,"route_color":"#FFFFFF","route_text_color":"#000000"},{"route_id":"19624","agency_id":"70006","route_short_name":"74","route_long_name":"Florissant","route_type":3,"route_color":"#FFFFFF","route_text_color":"#000000"},{"route_id":"19633","agency_id":"70006","route_short_name":"97","route_long_name":"Delmar","route_type":3,"route_color":"#FFFFFF","route_text_color":"#000000"}],"agency_name":"Metro St. Louis"},"geometry":{"type":"Point","coordinates":[-90.1994,38.63246]}},{"type":"Feature","properties":{"stop_id":"14940","stop_code":"14940","stop_name":"DELMAR @ GRAND WB","stop_desc":"FAR SIDE DELMAR @ GRAND WB","wheelchair_boarding":1,"routes":[{"route_id":"19633","agency_id":"70006","route_short_name":"97","route_long_name":"Delmar","route_type":3,"route_color":"#FFFFFF","route_text_color":"#000000"}],"agency_name":"Metro St. Louis"},"geometry":{"type":"Point","coordinates":[-90.23055,38.64097]}},{"type":"Feature","properties":{"stop_id":"15194","stop_code":"15194","stop_name":"DELMAR @ LEONARD WB","stop_desc":"NEAR SIDE DELMAR @ LEONARD WB","wheelchair_boarding":2,"routes":[{"route_id":"19633","agency_id":"70006","route_short_name":"97","route_long_name":"Delmar","route_type":3,"route_color":"#FFFFFF","route_text_color":"#000000"}],"agency_name":"Metro St. Louis"},"geometry":{"type":"Point","coordinates":[-90.22544,38.63956]}},{"type":"Feature","properties":{"stop_id":"15196","stop_code":"15196","stop_name":"DELMAR @ THERESA WB","stop_desc":"NEAR SIDE DELMAR @ THERESA WB","wheelchair_boarding":1,"routes":[{"route_id":"19633","agency_id":"70006","route_short_name":"97","route_long_name":"Delmar","route_type":3,"route_color":"#FFFFFF","route_text_color":"#000000"}],"agency_name":"Metro St. Louis"},"geometry":{"type":"Point","coordinates":[-90.22849,38.64019]}},{"type":"Feature","properties":{"stop_id":"15197","stop_code":"15197","stop_name":"ENRIGHT @ SPRING WB","stop_desc":"FAR SIDE ENRIGHT @ SPRING WB","wheelchair_boarding":1,"routes":[{"route_id":"19633","agency_id":"70006","route_short_name":"97","route_long_name":"Delmar","route_type":3,"route_color":"#FFFFFF","route_text_color":"#000000"}],"agency_name":"Metro St. Louis"},"geometry":{"type":"Point","coordinates":[-90.23409,38.64301]}},{"type":"Feature","properties":{"stop_id":"15198","stop_code":"15198","stop_name":"ENRIGHT @ VANDEVENTER WB","stop_desc":"NEAR SIDE ENRIGHT @ VANDEVENTER WB","wheelchair_boarding":1,"routes":[{"route_id":"19633","agency_id":"70006","route_short_name":"97","route_long_name":"Delmar","route_type":3,"route_color":"#FFFFFF","route_text_color":"#000000"}],"agency_name":"Metro St. Louis"},"geometry":{"type":"Point","coordinates":[-90.2363,38.64396]}},{"type":"Feature","properties":{"stop_id":"15707","stop_code":"15707","stop_name":"CIVIC CENTER TRANSIT CENTER","wheelchair_boarding":1,"routes":[{"route_id":"19631","agency_id":"70006","route_short_name":"94","route_long_name":"Page","route_type":3,"route_color":"#FFFFFF","route_text_color":"#000000"},{"route_id":"19633","agency_id":"70006","route_short_name":"97","route_long_name":"Delmar","route_type":3,"route_color":"#FFFFFF","route_text_color":"#000000"}],"agency_name":"Metro St. Louis"},"geometry":{"type":"Point","coordinates":[-90.20252,38.62525]}},{"type":"Feature","properties":{"stop_id":"15939","stop_code":"15939","stop_name":"DELMAR @ HAMILTON WB","stop_desc":"NEAR SIDE DELMAR @ HAMILTON WB","wheelchair_boarding":1,"routes":[{"route_id":"19633","agency_id":"70006","route_short_name":"97","route_long_name":"Delmar","route_type":3,"route_color":"#FFFFFF","route_text_color":"#000000"}],"agency_name":"Metro St. Louis"},"geometry":{"type":"Point","coordinates":[-90.29081,38.65464]}},{"type":"Feature","properties":{"stop_id":"2010","stop_code":"2010","stop_name":"VANDEVENTER @ DELMAR SB","stop_desc":"NEAR SIDE VANDEVENTER @ DELMAR SB","wheelchair_boarding":2,"routes":[{"route_id":"19633","agency_id":"70006","route_short_name":"97","route_long_name":"Delmar","route_type":3,"route_color":"#FFFFFF","route_text_color":"#000000"}],"agency_name":"Metro St. Louis"},"geometry":{"type":"Point","coordinates":[-90.23771,38.64358]}},{"type":"Feature","properties":{"stop_id":"2011","stop_code":"2011","stop_name":"3965 DELMAR WB","stop_desc":"MID-BLOCK 3965 DELMAR WB","wheelchair_boarding":2,"routes":[{"route_id":"19633","agency_id":"70006","route_short_name":"97","route_long_name":"Delmar","route_type":3,"route_color":"#FFFFFF","route_text_color":"#000000"}],"agency_name":"Metro St. Louis"},"geometry":{"type":"Point","coordinates":[-90.2402,38.64447]}},{"type":"Feature","properties":{"stop_id":"2012","stop_code":"2012","stop_name":"DELMAR @ SARAH WB","stop_desc":"FAR SIDE DELMAR @ SARAH WB","wheelchair_boarding":1,"routes":[{"route_id":"19633","agency_id":"70006","route_short_name":"97","route_long_name":"Delmar","route_type":3,"route_color":"#FFFFFF","route_text_color":"#000000"}],"agency_name":"Metro St. Louis"},"geometry":{"type":"Point","coordinates":[-90.24261,38.64553]}},{"type":"Feature","properties":{"stop_id":"2013","stop_code":"2013","stop_name":"DELMAR @ WHITTIER WB","stop_desc":"NEAR SIDE DELMAR @ WHITTIER WB","wheelchair_boarding":2,"routes":[{"route_id":"19633","agency_id":"70006","route_short_name":"97","route_long_name":"Delmar","route_type":3,"route_color":"#FFFFFF","route_text_color":"#000000"}],"agency_name":"Metro St. Louis"},"geometry":{"type":"Point","coordinates":[-90.2453,38.64672]}},{"type":"Feature","properties":{"stop_id":"2014","stop_code":"2014","stop_name":"DELMAR @ PENDLETON WB","stop_desc":"NEAR SIDE DELMAR @ PENDLETON WB","wheelchair_boarding":2,"routes":[{"route_id":"19633","agency_id":"70006","route_short_name":"97","route_long_name":"Delmar","route_type":3,"route_color":"#FFFFFF","route_text_color":"#000000"}],"agency_name":"Metro St. Louis"},"geometry":{"type":"Point","coordinates":[-90.24755,38.6477]}},{"type":"Feature","properties":{"stop_id":"2015","stop_code":"2015","stop_name":"DELMAR @ NEWSTEAD WB","stop_desc":"FAR SIDE DELMAR @ NEWSTEAD WB","wheelchair_boarding":2,"routes":[{"route_id":"19633","agency_id":"70006","route_short_name":"97","route_long_name":"Delmar","route_type":3,"route_color":"#FFFFFF","route_text_color":"#000000"}],"agency_name":"Metro St. Louis"},"geometry":{"type":"Point","coordinates":[-90.25083,38.64912]}},{"type":"Feature","properties":{"stop_id":"2016","stop_code":"2016","stop_name":"DELMAR @ TAYLOR WB","stop_desc":"NEAR SIDE DELMAR @ TAYLOR WB","wheelchair_boarding":1,"routes":[{"route_id":"19633","agency_id":"70006","route_short_name":"97","route_long_name":"Delmar","route_type":3,"route_color":"#FFFFFF","route_text_color":"#000000"}],"agency_name":"Metro St. Louis"},"geometry":{"type":"Point","coordinates":[-90.25327,38.6502]}},{"type":"Feature","properties":{"stop_id":"2017","stop_code":"2017","stop_name":"DELMAR @ WALTON WB","stop_desc":"NEAR SIDE DELMAR @ WALTON WB","wheelchair_boarding":1,"routes":[{"route_id":"19633","agency_id":"70006","route_short_name":"97","route_long_name":"Delmar","route_type":3,"route_color":"#FFFFFF","route_text_color":"#000000"}],"agency_name":"Metro St. Louis"},"geometry":{"type":"Point","coordinates":[-90.25726,38.65114]}},{"type":"Feature","properties":{"stop_id":"2018","stop_code":"2018","stop_name":"DELMAR @ EUCLID WB","stop_desc":"NEAR SIDE DELMAR @ EUCLID WB","wheelchair_boarding":1,"routes":[{"route_id":"19633","agency_id":"70006","route_short_name":"97","route_long_name":"Delmar","route_type":3,"route_color":"#FFFFFF","route_text_color":"#000000"}],"agency_name":"Metro St. Louis"},"geometry":{"type":"Point","coordinates":[-90.26013,38.65139]}},{"type":"Feature","properties":{"stop_id":"2019","stop_code":"2019","stop_name":"DELMAR @ KINGSHIGHWAY WB","stop_desc":"FAR SIDE DELMAR @ KINGSHIGHWAY WB","wheelchair_boarding":1,"routes":[{"route_id":"19633","agency_id":"70006","route_short_name":"97","route_long_name":"Delmar","route_type":3,"route_color":"#FFFFFF","route_text_color":"#000000"}],"agency_name":"Metro St. Louis"},"geometry":{"type":"Point","coordinates":[-90.26405,38.6517]}},{"type":"Feature","properties":{"stop_id":"2020","stop_code":"2020","stop_name":"DELMAR @ ACADEMY WB","stop_desc":"NEAR SIDE DELMAR @ ACADEMY WB","wheelchair_boarding":1,"routes":[{"route_id":"19633","agency_id":"70006","route_short_name":"97","route_long_name":"Delmar","route_type":3,"route_color":"#FFFFFF","route_text_color":"#000000"}],"agency_name":"Metro St. Louis"},"geometry":{"type":"Point","coordinates":[-90.26689,38.65198]}},{"type":"Feature","properties":{"stop_id":"2022","stop_code":"2022","stop_name":"DELMAR @ CLARENDON WB","stop_desc":"FAR SIDE DELMAR @ CLARENDON WB","wheelchair_boarding":1,"routes":[{"route_id":"19633","agency_id":"70006","route_short_name":"97","route_long_name":"Delmar","route_type":3,"route_color":"#FFFFFF","route_text_color":"#000000"}],"agency_name":"Metro St. Louis"},"geometry":{"type":"Point","coordinates":[-90.27101,38.65243]}},{"type":"Feature","properties":{"stop_id":"2023","stop_code":"2023","stop_name":"DELMAR @ UNION WB","stop_desc":"NEAR SIDE DELMAR @ UNION WB","wheelchair_boarding":1,"routes":[{"route_id":"19633","agency_id":"70006","route_short_name":"97","route_long_name":"Delmar","route_type":3,"route_color":"#FFFFFF","route_text_color":"#000000"}],"agency_name":"Metro St. Louis"},"geometry":{"type":"Point","coordinates":[-90.27301,38.65269]}},{"type":"Feature","properties":{"stop_id":"2024","stop_code":"2024","stop_name":"5351 DELMAR WB","stop_desc":"MID-BLOCK 5351 DELMAR WB","wheelchair_boarding":1,"routes":[{"route_id":"19633","agency_id":"70006","route_short_name":"97","route_long_name":"Delmar","route_type":3,"route_color":"#FFFFFF","route_text_color":"#000000"}],"agency_name":"Metro St. Louis"},"geometry":{"type":"Point","coordinates":[-90.27526,38.65316]}},{"type":"Feature","properties":{"stop_id":"2025","stop_code":"2025","stop_name":"DELMAR @ BELT WB","stop_desc":"FAR SIDE DELMAR @ BELT WB","wheelchair_boarding":1,"routes":[{"route_id":"19633","agency_id":"70006","route_short_name":"97","route_long_name":"Delmar","route_type":3,"route_color":"#FFFFFF","route_text_color":"#000000"}],"agency_name":"Metro St. Louis"},"geometry":{"type":"Point","coordinates":[-90.27941,38.65356]}},{"type":"Feature","properties":{"stop_id":"2026","stop_code":"2026","stop_name":"DELMAR @ CLARA WB","stop_desc":"FAR SIDE DELMAR @ CLARA WB","wheelchair_boarding":1,"routes":[{"route_id":"19633","agency_id":"70006","route_short_name":"97","route_long_name":"Delmar","route_type":3,"route_color":"#FFFFFF","route_text_color":"#000000"}],"agency_name":"Metro St. Louis"},"geometry":{"type":"Point","coordinates":[-90.28249,38.65387]}},{"type":"Feature","properties":{"stop_id":"2027","stop_code":"2027","stop_name":"DELMAR @ DEBALIVIERE WB","stop_desc":"NEAR SIDE DELMAR @ DEBALIVIERE WB","wheelchair_boarding":1,"routes":[{"route_id":"19633","agency_id":"70006","route_short_name":"97","route_long_name":"Delmar","route_type":3,"route_color":"#FFFFFF","route_text_color":"#000000"}],"agency_name":"Metro St. Louis"},"geometry":{"type":"Point","coordinates":[-90.28402,38.65402]}},{"type":"Feature","properties":{"stop_id":"2028","stop_code":"2028","stop_name":"DELMAR @ GOODFELLOW WB","stop_desc":"FAR SIDE DELMAR @ GOODFELLOW WB","wheelchair_boarding":1,"routes":[{"route_id":"19633","agency_id":"70006","route_short_name":"97","route_long_name":"Delmar","route_type":3,"route_color":"#FFFFFF","route_text_color":"#000000"}],"agency_name":"Metro St. Louis"},"geometry":{"type":"Point","coordinates":[-90.28717,38.65434]}},{"type":"Feature","properties":{"stop_id":"2030","stop_code":"2030","stop_name":"DELMAR LOOP TRANSIT CENTER WB","wheelchair_boarding":1,"routes":[{"route_id":"19633","agency_id":"70006","route_short_name":"97","route_long_name":"Delmar","route_type":3,"route_color":"#FFFFFF","route_text_color":"#000000"}],"agency_name":"Metro St. Louis"},"geometry":{"type":"Point","coordinates":[-90.29488,38.65541]}},{"type":"Feature","properties":{"stop_id":"2031","stop_code":"2031","stop_name":"DELMAR @ 6161 DELMAR WB","stop_desc":"MID-BLOCK DELMAR @ 6161 DELMAR WB","wheelchair_boarding":1,"routes":[{"route_id":"19593","agency_id":"70006","route_short_name":"2","route_long_name":"Red","route_type":3,"route_color":"#FFFFFF","route_text_color":"#000000"},{"route_id":"19601","agency_id":"70006","route_short_name":"16","route_long_name":"City Limits","route_type":3,"route_color":"#FFFFFF","route_text_color":"#000000"},{"route_id":"19633","agency_id":"70006","route_short_name":"97","route_long_name":"Delmar","route_type":3,"route_color":"#FFFFFF","route_text_color":"#000000"}],"agency_name":"Metro St. Louis"},"geometry":{"type":"Point","coordinates":[-90.29787,38.65528]}},{"type":"Feature","properties":{"stop_id":"2033","stop_code":"2033","stop_name":"DELMAR @ LIMIT WB","stop_desc":"NEAR SIDE DELMAR @ LIMIT WB","wheelchair_boarding":1,"routes":[{"route_id":"19633","agency_id":"70006","route_short_name":"97","route_long_name":"Delmar","route_type":3,"route_color":"#FFFFFF","route_text_color":"#000000"}],"agency_name":"Metro St. Louis"},"geometry":{"type":"Point","coordinates":[-90.30224,38.65575]}},{"type":"Feature","properties":{"stop_id":"2035","stop_code":"2035","stop_name":"DELMAR @ LELAND WB","stop_desc":"NEAR SIDE DELMAR @ LELAND WB","wheelchair_boarding":1,"routes":[{"route_id":"19633","agency_id":"70006","route_short_name":"97","route_long_name":"Delmar","route_type":3,"route_color":"#FFFFFF","route_text_color":"#000000"}],"agency_name":"Metro St. Louis"},"geometry":{"type":"Point","coordinates":[-90.3058,38.65607]}},{"type":"Feature","properties":{"stop_id":"2037","stop_code":"2037","stop_name":"DELMAR @ KINGSLAND WB","stop_desc":"FAR SIDE DELMAR @ KINGSLAND WB","wheelchair_boarding":1,"routes":[{"route_id":"19633","agency_id":"70006","route_short_name":"97","route_long_name":"Delmar","route_type":3,"route_color":"#FFFFFF","route_text_color":"#000000"}],"agency_name":"Metro St. Louis"},"geometry":{"type":"Point","coordinates":[-90.30943,38.65648]}},{"type":"Feature","properties":{"stop_id":"2038","stop_code":"2038","stop_name":"DELMAR @ YALE WB","stop_desc":"FAR SIDE DELMAR @ YALE WB","wheelchair_boarding":1,"routes":[{"route_id":"19633","agency_id":"70006","route_short_name":"97","route_long_name":"Delmar","route_type":3,"route_color":"#FFFFFF","route_text_color":"#000000"}],"agency_name":"Metro St. Louis"},"geometry":{"type":"Point","coordinates":[-90.31513,38.65701]}},{"type":"Feature","properties":{"stop_id":"2039","stop_code":"2039","stop_name":"DELMAR @ VASSAR WB","stop_desc":"FAR SIDE DELMAR @ VASSAR WB","wheelchair_boarding":1,"routes":[{"route_id":"19633","agency_id":"70006","route_short_name":"97","route_long_name":"Delmar","route_type":3,"route_color":"#FFFFFF","route_text_color":"#000000"}],"agency_name":"Metro St. Louis"},"geometry":{"type":"Point","coordinates":[-90.31751,38.65724]}},{"type":"Feature","properties":{"stop_id":"2040","stop_code":"2040","stop_name":"DELMAR @ MIDLAND WB","stop_desc":"NEAR SIDE DELMAR @ MIDLAND WB","wheelchair_boarding":1,"routes":[{"route_id":"19633","agency_id":"70006","route_short_name":"97","route_long_name":"Delmar","route_type":3,"route_color":"#FFFFFF","route_text_color":"#000000"}],"agency_name":"Metro St. Louis"},"geometry":{"type":"Point","coordinates":[-90.32046,38.65757]}},{"type":"Feature","properties":{"stop_id":"2041","stop_code":"2041","stop_name":"DELMAR @ PURDUE WB","stop_desc":"FAR SIDE DELMAR @ PURDUE WB","wheelchair_boarding":1,"routes":[{"route_id":"19633","agency_id":"70006","route_short_name":"97","route_long_name":"Delmar","route_type":3,"route_color":"#FFFFFF","route_text_color":"#000000"}],"agency_name":"Metro St. Louis"},"geometry":{"type":"Point","coordinates":[-90.32529,38.65802]}},{"type":"Feature","properties":{"stop_id":"2042","stop_code":"2042","stop_name":"DELMAR @ JACKSON WB","stop_desc":"NEAR SIDE DELMAR @ JACKSON WB","wheelchair_boarding":1,"routes":[{"route_id":"19633","agency_id":"70006","route_short_name":"97","route_long_name":"Delmar","route_type":3,"route_color":"#FFFFFF","route_text_color":"#000000"}],"agency_name":"Metro St. Louis"},"geometry":{"type":"Point","coordinates":[-90.32829,38.65832]}},{"type":"Feature","properties":{"stop_id":"5218","stop_code":"5218","stop_name":"NORTH HANLEY @ MARYLAND SB","stop_desc":"FAR SIDE NORTH HANLEY @ MARYLAND SB","wheelchair_boarding":2,"routes":[{"route_id":"19608","agency_id":"70006","route_short_name":"33","route_long_name":"Midland","route_type":3,"route_color":"#FFFFFF","route_text_color":"#000000"},{"route_id":"19628","agency_id":"70006","route_short_name":"79","route_long_name":"Ferguson-Clayton","route_type":3,"route_color":"#FFFFFF","route_text_color":"#000000"},{"route_id":"19633","agency_id":"70006","route_short_name":"97","route_long_name":"Delmar","route_type":3,"route_color":"#FFFFFF","route_text_color":"#000000"}],"agency_name":"Metro St. Louis"},"geometry":{"type":"Point","coordinates":[-90.33405,38.6508]}},{"type":"Feature","properties":{"stop_id":"5929","stop_code":"5929","stop_name":"NORTH HANLEY @ DELMAR SB","stop_desc":"FAR SIDE NORTH HANLEY @ DELMAR SB","wheelchair_boarding":2,"routes":[{"route_id":"19608","agency_id":"70006","route_short_name":"33","route_long_name":"Midland","route_type":3,"route_color":"#FFFFFF","route_text_color":"#000000"},{"route_id":"19628","agency_id":"70006","route_short_name":"79","route_long_name":"Ferguson-Clayton","route_type":3,"route_color":"#FFFFFF","route_text_color":"#000000"},{"route_id":"19633","agency_id":"70006","route_short_name":"97","route_long_name":"Delmar","route_type":3,"route_color":"#FFFFFF","route_text_color":"#000000"}],"agency_name":"Metro St. Louis"},"geometry":{"type":"Point","coordinates":[-90.33289,38.65847]}},{"type":"Feature","properties":{"stop_id":"5930","stop_code":"5930","stop_name":"NORTH HANLEY @ STRATFORD SB","stop_desc":"FAR SIDE NORTH HANLEY @ STRATFORD SB","wheelchair_boarding":1,"routes":[{"route_id":"19608","agency_id":"70006","route_short_name":"33","route_long_name":"Midland","route_type":3,"route_color":"#FFFFFF","route_text_color":"#000000"},{"route_id":"19628","agency_id":"70006","route_short_name":"79","route_long_name":"Ferguson-Clayton","route_type":3,"route_color":"#FFFFFF","route_text_color":"#000000"},{"route_id":"19633","agency_id":"70006","route_short_name":"97","route_long_name":"Delmar","route_type":3,"route_color":"#FFFFFF","route_text_color":"#000000"}],"agency_name":"Metro St. Louis"},"geometry":{"type":"Point","coordinates":[-90.33327,38.65598]}},{"type":"Feature","properties":{"stop_id":"5931","stop_code":"5931","stop_name":"NORTH HANLEY @ PERSHING SB","stop_desc":"NEAR SIDE NORTH HANLEY @ PERSHING SB","wheelchair_boarding":1,"routes":[{"route_id":"19608","agency_id":"70006","route_short_name":"33","route_long_name":"Midland","route_type":3,"route_color":"#FFFFFF","route_text_color":"#000000"},{"route_id":"19628","agency_id":"70006","route_short_name":"79","route_long_name":"Ferguson-Clayton","route_type":3,"route_color":"#FFFFFF","route_text_color":"#000000"},{"route_id":"19633","agency_id":"70006","route_short_name":"97","route_long_name":"Delmar","route_type":3,"route_color":"#FFFFFF","route_text_color":"#000000"}],"agency_name":"Metro St. Louis"},"geometry":{"type":"Point","coordinates":[-90.33352,38.65443]}},{"type":"Feature","properties":{"stop_id":"7015","stop_code":"7015","stop_name":"DR ML KING @ 18TH STREET WB","stop_desc":"FAR SIDE DR ML KING @ 18TH STREET WB","wheelchair_boarding":1,"routes":[{"route_id":"19633","agency_id":"70006","route_short_name":"97","route_long_name":"Delmar","route_type":3,"route_color":"#FFFFFF","route_text_color":"#000000"}],"agency_name":"Metro St. Louis"},"geometry":{"type":"Point","coordinates":[-90.20401,38.63608]}},{"type":"Feature","properties":{"stop_id":"7017","stop_code":"7017","stop_name":"DR ML KING @ 20TH STREET WB","stop_desc":"FAR SIDE DR ML KING @ 20TH STREET WB","wheelchair_boarding":1,"routes":[{"route_id":"19633","agency_id":"70006","route_short_name":"97","route_long_name":"Delmar","route_type":3,"route_color":"#FFFFFF","route_text_color":"#000000"}],"agency_name":"Metro St. Louis"},"geometry":{"type":"Point","coordinates":[-90.20696,38.6367]}},{"type":"Feature","properties":{"stop_id":"7020","stop_code":"7020","stop_name":"DR ML KING @ JEFFERSON WB","stop_desc":"NEAR SIDE DR ML KING @ JEFFERSON WB","wheelchair_boarding":2,"routes":[{"route_id":"19633","agency_id":"70006","route_short_name":"97","route_long_name":"Delmar","route_type":3,"route_color":"#FFFFFF","route_text_color":"#000000"}],"agency_name":"Metro St. Louis"},"geometry":{"type":"Point","coordinates":[-90.21306,38.63798]}},{"type":"Feature","properties":{"stop_id":"7023","stop_code":"7023","stop_name":"DR ML KING @ LEFFINGWELL WB","stop_desc":"FAR SIDE DR ML KING @ LEFFINGWELL WB","wheelchair_boarding":1,"routes":[{"route_id":"19633","agency_id":"70006","route_short_name":"97","route_long_name":"Delmar","route_type":3,"route_color":"#FFFFFF","route_text_color":"#000000"}],"agency_name":"Metro St. Louis"},"geometry":{"type":"Point","coordinates":[-90.21671,38.63901]}},{"type":"Feature","properties":{"stop_id":"7024","stop_code":"7024","stop_name":"T E HUNTLEY @ FRANKLIN SB","stop_desc":"NEAR SIDE T E HUNTLEY @ FRANKLIN SB","wheelchair_boarding":2,"routes":[{"route_id":"19633","agency_id":"70006","route_short_name":"97","route_long_name":"Delmar","route_type":3,"route_color":"#FFFFFF","route_text_color":"#000000"}],"agency_name":"Metro St. Louis"},"geometry":{"type":"Point","coordinates":[-90.21865,38.63919]}},{"type":"Feature","properties":{"stop_id":"7651","stop_code":"7651","stop_name":"14TH STREET @ CHESTNUT NB","stop_desc":"NEAR SIDE 14TH STREET @ CHESTNUT NB","wheelchair_boarding":1,"routes":[{"route_id":"19598","agency_id":"70006","route_short_name":"10","route_long_name":"Gravois-Lindell","route_type":3,"route_color":"#FFFFFF","route_text_color":"#000000"},{"route_id":"19607","agency_id":"70006","route_short_name":"32","route_long_name":"Dr ML King","route_type":3,"route_color":"#FFFFFF","route_text_color":"#000000"},{"route_id":"19611","agency_id":"70006","route_short_name":"40","route_long_name":"Broadway-Halls Ferry","route_type":3,"route_color":"#FFFFFF","route_text_color":"#000000"},{"route_id":"19612","agency_id":"70006","route_short_name":"41","route_long_name":"Lee","route_type":3,"route_color":"#FFFFFF","route_text_color":"#000000"},{"route_id":"19624","agency_id":"70006","route_short_name":"74","route_long_name":"Florissant","route_type":3,"route_color":"#FFFFFF","route_text_color":"#000000"},{"route_id":"19633","agency_id":"70006","route_short_name":"97","route_long_name":"Delmar","route_type":3,"route_color":"#FFFFFF","route_text_color":"#000000"}],"agency_name":"Metro St. Louis"},"geometry":{"type":"Point","coordinates":[-90.20077,38.62859]}},{"type":"Feature","properties":{"stop_id":"8058","stop_code":"8058","stop_name":"FORSYTH @ NORTH HANLEY WB","stop_desc":"FAR SIDE FORSYTH @ NORTH HANLEY WB","wheelchair_boarding":1,"routes":[{"route_id":"19608","agency_id":"70006","route_short_name":"33","route_long_name":"Midland","route_type":3,"route_color":"#FFFFFF","route_text_color":"#000000"},{"route_id":"19628","agency_id":"70006","route_short_name":"79","route_long_name":"Ferguson-Clayton","route_type":3,"route_color":"#FFFFFF","route_text_color":"#000000"},{"route_id":"19633","agency_id":"70006","route_short_name":"97","route_long_name":"Delmar","route_type":3,"route_color":"#FFFFFF","route_text_color":"#000000"}],"agency_name":"Metro St. Louis"},"geometry":{"type":"Point","coordinates":[-90.33524,38.65006]}},{"type":"Feature","properties":{"stop_id":"8430","stop_code":"8430","stop_name":"FRANKLIN @ GARRISON WB","stop_desc":"FAR SIDE FRANKLIN @ GARRISON WB","wheelchair_boarding":1,"routes":[{"route_id":"19633","agency_id":"70006","route_short_name":"97","route_long_name":"Delmar","route_type":3,"route_color":"#FFFFFF","route_text_color":"#000000"}],"agency_name":"Metro St. Louis"},"geometry":{"type":"Point","coordinates":[-90.22103,38.63959]}},{"type":"Feature","properties":{"stop_id":"8432","stop_code":"8432","stop_name":"FRANKLIN @ COMPTON WB","stop_desc":"NEAR SIDE FRANKLIN @ COMPTON WB","wheelchair_boarding":1,"routes":[{"route_id":"19633","agency_id":"70006","route_short_name":"97","route_long_name":"Delmar","route_type":3,"route_color":"#FFFFFF","route_text_color":"#000000"}],"agency_name":"Metro St. Louis"},"geometry":{"type":"Point","coordinates":[-90.22324,38.64003]}}]}