{"type":"FeatureCollection","features":[{"type":"Feature","properties":{"agency_name":"Metro St. Louis","route_id":"19602","agency_id":"70006","route_short_name":"18","route_long_name":"Taylor","route_type":3,"route_color":"#FFFFFF","route_text_color":"#000000"},"geometry":{"type":"MultiLineString","coordinates":[[[-90.22788,38.67929],[-90.22582,38.68038],[-90.23045,38.67793],[-90.23063,38.6778],[-90.23296,38.67452],[-90.23381,38.67334],[-90.23394,38.6732],[-90.23406,38.67304],[-90.2343,38.67267],[-90.23453,38.67239],[-90.23562,38.67083],[-90.23587,38.67049],[-90.23648,38.66979],[-90.23727,38.66871],[-90.23916,38.66598],[-90.24046,38.66419],[-90.2411,38.66326],[-90.24409,38.66338],[-90.24636,38.66018],[-90.24805,38.65783],[-90.24886,38.65666],[-90.25031,38.65462],[-90.25097,38.65372],[-90.2523,38.65184],[-90.25348,38.65024],[-90.2541,38.64933],[-90.25687,38.64545],[-90.25698,38.64526],[-90.25707,38.64505],[-90.25768,38.6432],[-90.25971,38.6372],[-90.25973,38.63702],[-90.25966,38.63651],[-90.25961,38.63631],[-90.25977,38.63625],[-90.26009,38.6362],[-90.26049,38.63618],[-90.26058,38.6358],[-90.26056,38.63578],[-90.25992,38.63564],[-90.25989,38.63564]]]}},{"type":"Feature","properties":{"stop_id":"16089","stop_code":"16089","stop_name":"CENTRAL WEST END TRANSIT CENTER","wheelchair_boarding":1,"routes":[{"route_id":"19602","agency_id":"70006","route_short_name":"18","route_long_name":"Taylor","route_type":3,"route_color":"#FFFFFF","route_text_color":"#000000"},{"route_id":"19613","agency_id":"70006","route_short_name":"42","route_long_name":"Sarah","route_type":3,"route_color":"#FFFFFF","route_text_color":"#000000"}],"agency_name":"Metro St. Louis"},"geometry":{"type":"Point","coordinates":[-90.26025,38.63592]}},{"type":"Feature","properties":{"stop_id":"16490","stop_code":"16490","stop_name":"NEWSTEAD @ BESSIE SB","stop_desc":"FAR SIDE NEWSTEAD @ BESSIE SB","wheelchair_boarding":2,"routes":[{"route_id":"19602","agency_id":"70006","route_short_name":"18","route_long_name":"Taylor","route_type":3,"route_color":"#FFFFFF","route_text_color":"#000000"}],"agency_name":"Metro St. Louis"},"geometry":{"type":"Point","coordinates":[-90.23222,38.67571]}},{"type":"Feature","properties":{"stop_id":"5332","stop_code":"5332","stop_name":"TAYLOR @ PARKVIEW PLACE SB","stop_desc":"NEAR SIDE TAYLOR @ PARKVIEW PLACE SB","wheelchair_boarding":1,"routes":[{"route_id":"19592","agency_id":"70006","route_short_name":"1","route_long_name":"Gold","route_type":3,"route_color":"#FFFFFF","route_text_color":"#000000"},{"route_id":"19598","agency_id":"70006","route_short_name":"10","route_long_name":"Gravois-Lindell","route_type":3,"route_color":"#FFFFFF","route_text_color":"#000000"},{"route_id":"19600","agency_id":"70006","route_short_name":"13","route_long_name":"Union","route_type":3,"route_color":"#FFFFFF","route_text_color":"#000000"},{"route_id":"19602","agency_id":"70006","route_short_name":"18","route_long_name":"Taylor","route_type":3,"route_color":"#FFFFFF","route_text_color":"#000000"},{"route_id":"19613","agency_id":"70006","route_short_name":"42","route_long_name":"Sarah","route_type":3,"route_color":"#FFFFFF","route_text_color":"#000000"},{"route_id":"19632","agency_id":"70006","route_short_name":"95","route_long_name":"Kingshighway","route_type":3,"route_color":"#FFFFFF","route_text_color":"#000000"}],"agency_name":"Metro St. Louis"},"geometry":{"type":"Point","coordinates":[-90.25974,38.6373]}},{"type":"Feature","properties":{"stop_id":"7976","stop_code":"7976","stop_name":"POPE @ WEST FLORISSANT SB","stop_desc":"FAR SIDE POPE @ WEST FLORISSANT SB","wheelchair_boarding":2,"routes":[{"route_id":"19602","agency_id":"70006","route_short_name":"18","route_long_name":"Taylor","route_type":3,"route_color":"#FFFFFF","route_text_color":"#000000"},{"route_id":"19613","agency_id":"70006","route_short_name":"42","route_long_name":"Sarah","route_type":3,"route_color":"#FFFFFF","route_text_color":"#000000"}],"agency_name":"Metro St. Louis"},"geometry":{"type":"Point","coordinates":[-90.22519,38.68077]}},{"type":"Feature","properties":{"stop_id":"7977","stop_code":"7977","stop_name":"POPE @ ROSALIE SB","stop_desc":"FAR SIDE POPE @ ROSALIE SB","wheelchair_boarding":2,"routes":[{"route_id":"19602","agency_id":"70006","route_short_name":"18","route_long_name":"Taylor","route_type":3,"route_color":"#FFFFFF","route_text_color":"#000000"}],"agency_name":"Metro St. Louis"},"geometry":{"type":"Point","coordinates":[-90.22811,38.67924]}},{"type":"Feature","properties":{"stop_id":"7979","stop_code":"7979","stop_name":"POPE @ CARTER SB","stop_desc":"NEAR SIDE POPE @ CARTER SB","wheelchair_boarding":1,"routes":[{"route_id":"19602","agency_id":"70006","route_short_name":"18","route_long_name":"Taylor","route_type":3,"route_color":"#FFFFFF","route_text_color":"#000000"}],"agency_name":"Metro St. Louis"},"geometry":{"type":"Point","coordinates":[-90.2306,38.67789]}},{"type":"Feature","properties":{"stop_id":"7980","stop_code":"7980","stop_name":"NEWSTEAD @ LEE SB","stop_desc":"NEAR SIDE NEWSTEAD @ LEE SB","wheelchair_boarding":2,"routes":[{"route_id":"19602","agency_id":"70006","route_short_name":"18","route_long_name":"Taylor","route_type":3,"route_color":"#FFFFFF","route_text_color":"#000000"}],"agency_name":"Metro St. Louis"},"geometry":{"type":"Point","coordinates":[-90.23289,38.67468]}},{"type":"Feature","properties":{"stop_id":"7981","stop_code":"7981","stop_name":"NEWSTEAD @ KOSSUTH SB","stop_desc":"NEAR SIDE NEWSTEAD @ KOSSUTH SB","wheelchair_boarding":2,"routes":[{"route_id":"19602","agency_id":"70006","route_short_name":"18","route_long_name":"Taylor","route_type":3,"route_color":"#FFFFFF","route_text_color":"#000000"}],"agency_name":"Metro St. Louis"},"geometry":{"type":"Point","coordinates":[-90.23376,38.67352]}},{"type":"Feature","properties":{"stop_id":"7982","stop_code":"7982","stop_name":"NEWSTEAD @ MARGARETTA SB","stop_desc":"NEAR SIDE NEWSTEAD @ MARGARETTA SB","wheelchair_boarding":2,"routes":[{"route_id":"19602","agency_id":"70006","route_short_name":"18","route_long_name":"Taylor","route_type":3,"route_color":"#FFFFFF","route_text_color":"#000000"}],"agency_name":"Metro St. Louis"},"geometry":{"type":"Point","coordinates":[-90.23477,38.67215]}},{"type":"Feature","properties":{"stop_id":"7983","stop_code":"7983","stop_name":"NEWSTEAD @ SACRAMENTO SB","stop_desc":"FAR SIDE NEWSTEAD @ SACRAMENTO SB","wheelchair_boarding":1,"routes":[{"route_id":"19602","agency_id":"70006","route_short_name":"18","route_long_name":"Taylor","route_type":3,"route_color":"#FFFFFF","route_text_color":"#000000"}],"agency_name":"Metro St. Louis"},"geometry":{"type":"Point","coordinates":[-90.23596,38.67039]}},{"type":"Feature","properties":{"stop_id":"7984","stop_code":"7984","stop_name":"NEWSTEAD @ NATURAL BRIDGE SB","stop_desc":"FAR SIDE NEWSTEAD @ NATURAL BRIDGE SB","wheelchair_boarding":1,"routes":[{"route_id":"19602","agency_id":"70006","route_short_name":"18","route_long_name":"Taylor","route_type":3,"route_color":"#FFFFFF","route_text_color":"#000000"}],"agency_name":"Metro St. Louis"},"geometry":{"type":"Point","coordinates":[-90.23684,38.66945]}},{"type":"Feature","properties":{"stop_id":"7986","stop_code":"7986","stop_name":"NEWSTEAD @ ASHLAND SB","stop_desc":"FAR SIDE NEWSTEAD @ ASHLAND SB","wheelchair_boarding":1,"routes":[{"route_id":"19602","agency_id":"70006","route_short_name":"18","route_long_name":"Taylor","route_type":3,"route_color":"#FFFFFF","route_text_color":"#000000"}],"agency_name":"Metro St. Louis"},"geometry":{"type":"Point","coordinates":[-90.23814,38.66755]}},{"type":"Feature","properties":{"stop_id":"7987","stop_code":"7987","stop_name":"NEWSTEAD @ GREER SB","stop_desc":"NEAR SIDE NEWSTEAD @ GREER SB","wheelchair_boarding":1,"routes":[{"route_id":"19602","agency_id":"70006","route_short_name":"18","route_long_name":"Taylor","route_type":3,"route_color":"#FFFFFF","route_text_color":"#000000"}],"agency_name":"Metro St. Louis"},"geometry":{"type":"Point","coordinates":[-90.23906,38.66627]}},{"type":"Feature","properties":{"stop_id":"7988","stop_code":"7988","stop_name":"NEWSTEAD @ LABADIE SB","stop_desc":"NEAR SIDE NEWSTEAD @ LABADIE SB","wheelchair_boarding":1,"routes":[{"route_id":"19602","agency_id":"70006","route_short_name":"18","route_long_name":"Taylor","route_type":3,"route_color":"#FFFFFF","route_text_color":"#000000"}],"agency_name":"Metro St. Louis"},"geometry":{"type":"Point","coordinates":[-90.23972,38.66533]}},{"type":"Feature","properties":{"stop_id":"7989","stop_code":"7989","stop_name":"NEWSTEAD @ ST. LOUIS SB","stop_desc":"NEAR SIDE NEWSTEAD @ ST. LOUIS SB","wheelchair_boarding":1,"routes":[{"route_id":"19602","agency_id":"70006","route_short_name":"18","route_long_name":"Taylor","route_type":3,"route_color":"#FFFFFF","route_text_color":"#000000"}],"agency_name":"Metro St. Louis"},"geometry":{"type":"Point","coordinates":[-90.24039,38.66438]}},{"type":"Feature","properties":{"stop_id":"7990","stop_code":"7990","stop_name":"MAFFITT @ NEWSTEAD WB","stop_desc":"FAR SIDE MAFFITT @ NEWSTEAD WB","wheelchair_boarding":1,"routes":[{"route_id":"19602","agency_id":"70006","route_short_name":"18","route_long_name":"Taylor","route_type":3,"route_color":"#FFFFFF","route_text_color":"#000000"}],"agency_name":"Metro St. Louis"},"geometry":{"type":"Point","coordinates":[-90.24147,38.66348]}},{"type":"Feature","properties":{"stop_id":"7991","stop_code":"7991","stop_name":"TAYLOR @ MAFFITT SB","stop_desc":"FAR SIDE TAYLOR @ MAFFITT SB","wheelchair_boarding":2,"routes":[{"route_id":"19602","agency_id":"70006","route_short_name":"18","route_long_name":"Taylor","route_type":3,"route_color":"#FFFFFF","route_text_color":"#000000"}],"agency_name":"Metro St. Louis"},"geometry":{"type":"Point","coordinates":[-90.24364,38.66406]}},{"type":"Feature","properties":{"stop_id":"7993","stop_code":"7993","stop_name":"TAYLOR @ ST. FERDINAND SB","stop_desc":"NEAR SIDE TAYLOR @ ST. FERDINAND SB","wheelchair_boarding":2,"routes":[{"route_id":"19602","agency_id":"70006","route_short_name":"18","route_long_name":"Taylor","route_type":3,"route_color":"#FFFFFF","route_text_color":"#000000"}],"agency_name":"Metro St. Louis"},"geometry":{"type":"Point","coordinates":[-90.24513,38.66205]}},{"type":"Feature","properties":{"stop_id":"7994","stop_code":"7994","stop_name":"TAYLOR @ GARFIELD SB","stop_desc":"NEAR SIDE TAYLOR @ GARFIELD SB","wheelchair_boarding":2,"routes":[{"route_id":"19602","agency_id":"70006","route_short_name":"18","route_long_name":"Taylor","route_type":3,"route_color":"#FFFFFF","route_text_color":"#000000"}],"agency_name":"Metro St. Louis"},"geometry":{"type":"Point","coordinates":[-90.24617,38.66048]}},{"type":"Feature","properties":{"stop_id":"7997","stop_code":"7997","stop_name":"TAYLOR @ DR ML KING SB","stop_desc":"NEAR SIDE TAYLOR @ DR ML KING SB","wheelchair_boarding":1,"routes":[{"route_id":"19602","agency_id":"70006","route_short_name":"18","route_long_name":"Taylor","route_type":3,"route_color":"#FFFFFF","route_text_color":"#000000"}],"agency_name":"Metro St. Louis"},"geometry":{"type":"Point","coordinates":[-90.24801,38.658]}},{"type":"Feature","properties":{"stop_id":"7999","stop_code":"7999","stop_name":"TAYLOR @ PAGE SB","stop_desc":"FAR SIDE TAYLOR @ PAGE SB","wheelchair_boarding":1,"routes":[{"route_id":"19602","agency_id":"70006","route_short_name":"18","route_long_name":"Taylor","route_type":3,"route_color":"#FFFFFF","route_text_color":"#000000"}],"agency_name":"Metro St. Louis"},"geometry":{"type":"Point","coordinates":[-90.24981,38.65549]}},{"type":"Feature","properties":{"stop_id":"8001","stop_code":"8001","stop_name":"TAYLOR @ FINNEY SB","stop_desc":"FAR SIDE TAYLOR @ FINNEY SB","wheelchair_boarding":2,"routes":[{"route_id":"19602","agency_id":"70006","route_short_name":"18","route_long_name":"Taylor","route_type":3,"route_color":"#FFFFFF","route_text_color":"#000000"}],"agency_name":"Metro St. Louis"},"geometry":{"type":"Point","coordinates":[-90.25117,38.65357]}},{"type":"Feature","properties":{"stop_id":"8002","stop_code":"8002","stop_name":"TAYLOR @ SUBURBAN TRAK HODIAMONT SB","stop_desc":"NEAR SIDE TAYLOR @ SUBURBAN TRAK HODIAMONT SB","wheelchair_boarding":1,"routes":[{"route_id":"19602","agency_id":"70006","route_short_name":"18","route_long_name":"Taylor","route_type":3,"route_color":"#FFFFFF","route_text_color":"#000000"}],"agency_name":"Metro St. Louis"},"geometry":{"type":"Point","coordinates":[-90.2523,38.652]}},{"type":"Feature","properties":{"stop_id":"8003","stop_code":"8003","stop_name":"TAYLOR @ DELMAR SB","stop_desc":"NEAR SIDE TAYLOR @ DELMAR SB","wheelchair_boarding":1,"routes":[{"route_id":"19602","agency_id":"70006","route_short_name":"18","route_long_name":"Taylor","route_type":3,"route_color":"#FFFFFF","route_text_color":"#000000"}],"agency_name":"Metro St. Louis"},"geometry":{"type":"Point","coordinates":[-90.25337,38.65048]}},{"type":"Feature","properties":{"stop_id":"8004","stop_code":"8004","stop_name":"TAYLOR @ WASHINGTON SB","stop_desc":"NEAR SIDE TAYLOR @ WASHINGTON SB","wheelchair_boarding":2,"routes":[{"route_id":"19602","agency_id":"70006","route_short_name":"18","route_long_name":"Taylor","route_type":3,"route_color":"#FFFFFF","route_text_color":"#000000"}],"agency_name":"Metro St. Louis"},"geometry":{"type":"Point","coordinates":[-90.25411,38.64949]}},{"type":"Feature","properties":{"stop_id":"8005","stop_code":"8005","stop_name":"TAYLOR @ OLIVE SB","stop_desc":"FAR SIDE TAYLOR @ OLIVE SB","wheelchair_boarding":1,"routes":[{"route_id":"19602","agency_id":"70006","route_short_name":"18","route_long_name":"Taylor","route_type":3,"route_color":"#FFFFFF","route_text_color":"#000000"}],"agency_name":"Metro St. Louis"},"geometry":{"type":"Point","coordinates":[-90.2551,38.64805]}},{"type":"Feature","properties":{"stop_id":"8006","stop_code":"8006","stop_name":"TAYLOR @ MCPHERSON SB","stop_desc":"NEAR SIDE TAYLOR @ MCPHERSON SB","wheelchair_boarding":2,"routes":[{"route_id":"19602","agency_id":"70006","route_short_name":"18","route_long_name":"Taylor","route_type":3,"route_color":"#FFFFFF","route_text_color":"#000000"}],"agency_name":"Metro St. Louis"},"geometry":{"type":"Point","coordinates":[-90.25619,38.64655]}},{"type":"Feature","properties":{"stop_id":"8007","stop_code":"8007","stop_name":"TAYLOR @ PERSHING SB","stop_desc":"FAR SIDE TAYLOR @ PERSHING SB","wheelchair_boarding":2,"routes":[{"route_id":"19602","agency_id":"70006","route_short_name":"18","route_long_name":"Taylor","route_type":3,"route_color":"#FFFFFF","route_text_color":"#000000"}],"agency_name":"Metro St. Louis"},"geometry":{"type":"Point","coordinates":[-90.25712,38.64514]}},{"type":"Feature","properties":{"stop_id":"8008","stop_code":"8008","stop_name":"TAYLOR @ MARYLAND SB","stop_desc":"FAR SIDE TAYLOR @ MARYLAND SB","wheelchair_boarding":2,"routes":[{"route_id":"19602","agency_id":"70006","route_short_name":"18","route_long_name":"Taylor","route_type":3,"route_color":"#FFFFFF","route_text_color":"#000000"}],"agency_name":"Metro St. Louis"},"geometry":{"type":"Point","coordinates":[-90.25764,38.64337]}},{"type":"Feature","properties":{"stop_id":"8009","stop_code":"8009","stop_name":"TAYLOR @ LINDELL SB","stop_desc":"FAR SIDE TAYLOR @ LINDELL SB","wheelchair_boarding":1,"routes":[{"route_id":"19600","agency_id":"70006","route_short_name":"13","route_long_name":"Union","route_type":3,"route_color":"#FFFFFF","route_text_color":"#000000"},{"route_id":"19602","agency_id":"70006","route_short_name":"18","route_long_name":"Taylor","route_type":3,"route_color":"#FFFFFF","route_text_color":"#000000"}],"agency_name":"Metro St. Louis"},"geometry":{"type":"Point","coordinates":[-90.25803,38.64227]}},{"type":"Feature","properties":{"stop_id":"8010","stop_code":"8010","stop_name":"TAYLOR @ WEST PINE SB","stop_desc":"FAR SIDE TAYLOR @ WEST PINE SB","wheelchair_boarding":2,"routes":[{"route_id":"19600","agency_id":"70006","route_short_name":"13","route_long_name":"Union","route_type":3,"route_color":"#FFFFFF","route_text_color":"#000000"},{"route_id":"19602","agency_id":"70006","route_short_name":"18","route_long_name":"Taylor","route_type":3,"route_color":"#FFFFFF","route_text_color":"#000000"}],"agency_name":"Metro St. Louis"},"geometry":{"type":"Point","coordinates":[-90.25853,38.64085]}},{"type":"Feature","properties":{"stop_id":"8011","stop_code":"8011","stop_name":"TAYLOR @ LACLEDE SB","stop_desc":"FAR SIDE TAYLOR @ LACLEDE SB","wheelchair_boarding":1,"routes":[{"route_id":"19600","agency_id":"70006","route_short_name":"13","route_long_name":"Union","route_type":3,"route_color":"#FFFFFF","route_text_color":"#000000"},{"route_id":"19602","agency_id":"70006","route_short_name":"18","route_long_name":"Taylor","route_type":3,"route_color":"#FFFFFF","route_text_color":"#000000"}],"agency_name":"Metro St. Louis"},"geometry":{"type":"Point","coordinates":[-90.25903,38.63944]}},{"type":"Feature","properties":{"stop_id":"8012","stop_code":"8012","stop_name":"TAYLOR @ FOREST PARK SB","stop_desc":"NEAR SIDE TAYLOR @ FOREST PARK SB","wheelchair_boarding":2,"routes":[{"route_id":"19600","agency_id":"70006","route_short_name":"13","route_long_name":"Union","route_type":3,"route_color":"#FFFFFF","route_text_color":"#000000"},{"route_id":"19602","agency_id":"70006","route_short_name":"18","route_long_name":"Taylor","route_type":3,"route_color":"#FFFFFF","route_text_color":"#000000"}],"agency_name":"Metro St. Louis"},"geometry":{"type":"Point","coordinates":[-90.2593,38.63869]}}]}