{"type":"FeatureCollection","features":[{"type":"Feature","properties":{"agency_name":"Metro St. Louis","route_id":"19622","agency_id":"70006","route_short_name":"70","route_long_name":"Grand","route_type":3,"route_color":"#FFFFFF","route_text_color":"#000000"},"geometry":{"type":"MultiLineString","coordinates":[[[-90.26286,38.55735],[-90.26278,38.55742],[-90.26286,38.55735],[-90.26287,38.55731],[-90.26283,38.55722],[-90.26277,38.55719],[-90.26273,38.55718],[-90.26236,38.55729],[-90.26215,38.55717],[-90.26192,38.5571],[-90.26169,38.55758],[-90.26143,38.55786],[-90.2613,38.55803],[-90.26125,38.55811],[-90.26122,38.5582],[-90.26122,38.55844],[-90.26126,38.55876],[-90.26117,38.55923],[-90.26117,38.55939],[-90.2612,38.55953],[-90.26127,38.55967],[-90.26135,38.55978],[-90.26146,38.55988],[-90.26215,38.56032],[-90.26224,38.5604],[-90.26229,38.56048],[-90.26231,38.56056],[-90.2623,38.56064],[-90.26227,38.56072],[-90.26183,38.56149],[-90.26164,38.56171],[-90.26132,38.56201],[-90.26111,38.56216],[-90.26091,38.56226],[-90.26063,38.56234],[-90.25962,38.5625],[-90.25864,38.56361],[-90.25737,38.56513],[-90.25595,38.56678],[-90.25472,38.5682],[-90.25404,38.56895],[-90.25276,38.57049],[-90.2493,38.57459],[-90.24877,38.57524],[-90.2459,38.57861],[-90.24444,38.58041],[-90.24423,38.58069],[-90.24419,38.58082],[-90.2442,38.58092],[-90.24496,38.58509],[-90.24497,38.58528],[-90.24494,38.58563],[-90.24403,38.59103],[-90.24364,38.59383],[-90.24327,38.59606],[-90.24242,38.6018],[-90.24225,38.60273],[-90.2422,38.60326],[-90.24214,38.60334],[-90.24212,38.60342],[-90.24209,38.60363],[-90.24152,38.60629],[-90.24111,38.60808],[-90.24062,38.61047],[-90.24048,38.61132],[-90.24028,38.61223],[-90.23994,38.61344],[-90.23987,38.61376],[-90.23977,38.61426],[-90.23971,38.61465],[-90.23938,38.61616],[-90.23924,38.61709],[-90.23906,38.6181],[-90.23862,38.62017],[-90.2385,38.62066],[-90.23799,38.62224],[-90.23666,38.62599],[-90.23602,38.62788],[-90.23521,38.63018],[-90.23518,38.63027],[-90.23519,38.63041],[-90.23495,38.63117],[-90.23409,38.6336],[-90.23363,38.63496],[-90.23304,38.63652],[-90.23279,38.63725],[-90.23252,38.63772],[-90.23096,38.63989],[-90.23031,38.64078],[-90.23009,38.64105],[-90.22849,38.64383],[-90.22805,38.64456],[-90.22683,38.64671],[-90.22641,38.64742],[-90.22599,38.64818],[-90.22491,38.64975],[-90.22435,38.6505],[-90.22298,38.65247],[-90.22113,38.65507],[-90.21991,38.65669],[-90.21934,38.65751],[-90.21745,38.66015],[-90.21675,38.66114],[-90.21621,38.66194],[-90.21515,38.66342],[-90.21422,38.6648],[-90.21285,38.66663],[-90.21109,38.66907],[-90.21093,38.66921],[-90.21081,38.66928],[-90.20906,38.67022],[-90.20845,38.67032],[-90.20839,38.67035],[-90.20805,38.67076],[-90.20618,38.67176],[-90.20564,38.6721],[-90.20481,38.67271],[-90.20364,38.67334],[-90.20433,38.67424],[-90.20505,38.67523],[-90.20577,38.67608],[-90.20676,38.67713],[-90.20735,38.67763],[-90.2104,38.68002],[-90.21111,38.68044],[-90.21774,38.6842],[-90.22013,38.68603],[-90.22033,38.6859],[-90.22043,38.6859],[-90.22052,38.68594]]]}},{"type":"Feature","properties":{"stop_id":"13487","stop_code":"13487","stop_name":"NORTH BROADWAY TRANSIT CENTER","wheelchair_boarding":1,"routes":[{"route_id":"19622","agency_id":"70006","route_short_name":"70","route_long_name":"Grand","route_type":3,"route_color":"#FFFFFF","route_text_color":"#000000"},{"route_id":"19632","agency_id":"70006","route_short_name":"95","route_long_name":"Kingshighway","route_type":3,"route_color":"#FFFFFF","route_text_color":"#000000"}],"agency_name":"Metro St. Louis"},"geometry":{"type":"Point","coordinates":[-90.22054,38.6861]}},{"type":"Feature","properties":{"stop_id":"15824","stop_code":"15824","stop_name":"LOUGHBOROUGH COMMONS","stop_desc":"MID-BLOCK LOUGHBOROUGH COMMONS","wheelchair_boarding":1,"routes":[{"route_id":"19622","agency_id":"70006","route_short_name":"70","route_long_name":"Grand","route_type":3,"route_color":"#FFFFFF","route_text_color":"#000000"}],"agency_name":"Metro St. Louis"},"geometry":{"type":"Point","coordinates":[-90.26238,38.55731]}},{"type":"Feature","properties":{"stop_id":"4113","stop_code":"4113","stop_name":"GRAND @ GRAVOIS NB","stop_desc":"FAR SIDE GRAND @ GRAVOIS NB","wheelchair_boarding":1,"routes":[{"route_id":"19622","agency_id":"70006","route_short_name":"70","route_long_name":"Grand","route_type":3,"route_color":"#FFFFFF","route_text_color":"#000000"}],"agency_name":"Metro St. Louis"},"geometry":{"type":"Point","coordinates":[-90.24366,38.59304]}},{"type":"Feature","properties":{"stop_id":"4115","stop_code":"4115","stop_name":"GRAND @ CHEROKEE NB","stop_desc":"NEAR SIDE GRAND @ CHEROKEE NB","wheelchair_boarding":1,"routes":[{"route_id":"19596","agency_id":"70006","route_short_name":"8","route_long_name":"Shaw-Cherokee","route_type":3,"route_color":"#FFFFFF","route_text_color":"#000000"},{"route_id":"19622","agency_id":"70006","route_short_name":"70","route_long_name":"Grand","route_type":3,"route_color":"#FFFFFF","route_text_color":"#000000"}],"agency_name":"Metro St. Louis"},"geometry":{"type":"Point","coordinates":[-90.24331,38.59536]}},{"type":"Feature","properties":{"stop_id":"4116","stop_code":"4116","stop_name":"GRAND @ UTAH PLACE NB","stop_desc":"FAR SIDE GRAND @ UTAH PLACE NB","wheelchair_boarding":1,"routes":[{"route_id":"19596","agency_id":"70006","route_short_name":"8","route_long_name":"Shaw-Cherokee","route_type":3,"route_color":"#FFFFFF","route_text_color":"#000000"},{"route_id":"19622","agency_id":"70006","route_short_name":"70","route_long_name":"Grand","route_type":3,"route_color":"#FFFFFF","route_text_color":"#000000"}],"agency_name":"Metro St. Louis"},"geometry":{"type":"Point","coordinates":[-90.24293,38.59773]}},{"type":"Feature","properties":{"stop_id":"4118","stop_code":"4118","stop_name":"GRAND @ JUNIATA NB","stop_desc":"FAR SIDE GRAND @ JUNIATA NB","wheelchair_boarding":1,"routes":[{"route_id":"19596","agency_id":"70006","route_short_name":"8","route_long_name":"Shaw-Cherokee","route_type":3,"route_color":"#FFFFFF","route_text_color":"#000000"},{"route_id":"19622","agency_id":"70006","route_short_name":"70","route_long_name":"Grand","route_type":3,"route_color":"#FFFFFF","route_text_color":"#000000"}],"agency_name":"Metro St. Louis"},"geometry":{"type":"Point","coordinates":[-90.24239,38.60133]}},{"type":"Feature","properties":{"stop_id":"4119","stop_code":"4119","stop_name":"GRAND @ ARSENAL NB","stop_desc":"FAR SIDE GRAND @ ARSENAL NB","wheelchair_boarding":1,"routes":[{"route_id":"19596","agency_id":"70006","route_short_name":"8","route_long_name":"Shaw-Cherokee","route_type":3,"route_color":"#FFFFFF","route_text_color":"#000000"},{"route_id":"19622","agency_id":"70006","route_short_name":"70","route_long_name":"Grand","route_type":3,"route_color":"#FFFFFF","route_text_color":"#000000"}],"agency_name":"Metro St. Louis"},"geometry":{"type":"Point","coordinates":[-90.2421,38.60329]}},{"type":"Feature","properties":{"stop_id":"4120","stop_code":"4120","stop_name":"GRAND @ HALLIDAY NB","stop_desc":"NEAR SIDE GRAND @ HALLIDAY NB","wheelchair_boarding":1,"routes":[{"route_id":"19596","agency_id":"70006","route_short_name":"8","route_long_name":"Shaw-Cherokee","route_type":3,"route_color":"#FFFFFF","route_text_color":"#000000"},{"route_id":"19622","agency_id":"70006","route_short_name":"70","route_long_name":"Grand","route_type":3,"route_color":"#FFFFFF","route_text_color":"#000000"}],"agency_name":"Metro St. Louis"},"geometry":{"type":"Point","coordinates":[-90.24171,38.60508]}},{"type":"Feature","properties":{"stop_id":"4121","stop_code":"4121","stop_name":"GRAND @ SIDNEY NB","stop_desc":"NEAR SIDE GRAND @ SIDNEY NB","wheelchair_boarding":1,"routes":[{"route_id":"19622","agency_id":"70006","route_short_name":"70","route_long_name":"Grand","route_type":3,"route_color":"#FFFFFF","route_text_color":"#000000"}],"agency_name":"Metro St. Louis"},"geometry":{"type":"Point","coordinates":[-90.24114,38.60774]}},{"type":"Feature","properties":{"stop_id":"4124","stop_code":"4124","stop_name":"GRAND @ LONGFELLOW NB","stop_desc":"NEAR SIDE GRAND @ LONGFELLOW NB","wheelchair_boarding":1,"routes":[{"route_id":"19622","agency_id":"70006","route_short_name":"70","route_long_name":"Grand","route_type":3,"route_color":"#FFFFFF","route_text_color":"#000000"}],"agency_name":"Metro St. Louis"},"geometry":{"type":"Point","coordinates":[-90.24055,38.61072]}},{"type":"Feature","properties":{"stop_id":"4127","stop_code":"4127","stop_name":"GRAND @ SHAW NB","stop_desc":"NEAR SIDE GRAND @ SHAW NB","wheelchair_boarding":1,"routes":[{"route_id":"19622","agency_id":"70006","route_short_name":"70","route_long_name":"Grand","route_type":3,"route_color":"#FFFFFF","route_text_color":"#000000"}],"agency_name":"Metro St. Louis"},"geometry":{"type":"Point","coordinates":[-90.23964,38.61479]}},{"type":"Feature","properties":{"stop_id":"4128","stop_code":"4128","stop_name":"GRAND @ MCREE NB","stop_desc":"NEAR SIDE GRAND @ MCREE NB","wheelchair_boarding":1,"routes":[{"route_id":"19622","agency_id":"70006","route_short_name":"70","route_long_name":"Grand","route_type":3,"route_color":"#FFFFFF","route_text_color":"#000000"}],"agency_name":"Metro St. Louis"},"geometry":{"type":"Point","coordinates":[-90.23903,38.61789]}},{"type":"Feature","properties":{"stop_id":"4129","stop_code":"4129","stop_name":"GRAND @ PARK NB","stop_desc":"NEAR SIDE GRAND @ PARK NB","wheelchair_boarding":1,"routes":[{"route_id":"19622","agency_id":"70006","route_short_name":"70","route_long_name":"Grand","route_type":3,"route_color":"#FFFFFF","route_text_color":"#000000"}],"agency_name":"Metro St. Louis"},"geometry":{"type":"Point","coordinates":[-90.23875,38.61936]}},{"type":"Feature","properties":{"stop_id":"4131","stop_code":"4131","stop_name":"GRAND @ VISTA NB","stop_desc":"NEAR SIDE GRAND @ VISTA NB","wheelchair_boarding":1,"routes":[{"route_id":"19622","agency_id":"70006","route_short_name":"70","route_long_name":"Grand","route_type":3,"route_color":"#FFFFFF","route_text_color":"#000000"}],"agency_name":"Metro St. Louis"},"geometry":{"type":"Point","coordinates":[-90.23808,38.62188]}},{"type":"Feature","properties":{"stop_id":"4133","stop_code":"4133","stop_name":"GRAND @ RUTGER NB","stop_desc":"NEAR SIDE GRAND @ RUTGER NB","wheelchair_boarding":1,"routes":[{"route_id":"19622","agency_id":"70006","route_short_name":"70","route_long_name":"Grand","route_type":3,"route_color":"#FFFFFF","route_text_color":"#000000"}],"agency_name":"Metro St. Louis"},"geometry":{"type":"Point","coordinates":[-90.23781,38.62305]}},{"type":"Feature","properties":{"stop_id":"4134","stop_code":"4134","stop_name":"GRAND @ CHOUTEAU NB","stop_desc":"NEAR SIDE GRAND @ CHOUTEAU NB","wheelchair_boarding":1,"routes":[{"route_id":"19622","agency_id":"70006","route_short_name":"70","route_long_name":"Grand","route_type":3,"route_color":"#FFFFFF","route_text_color":"#000000"}],"agency_name":"Metro St. Louis"},"geometry":{"type":"Point","coordinates":[-90.23686,38.62533]}},{"type":"Feature","properties":{"stop_id":"4135","stop_code":"4135","stop_name":"GRAND TRANSIT CENTER NB","stop_desc":"MID-BLOCK GRAND TRANSIT CENTER NB","wheelchair_boarding":1,"routes":[{"route_id":"19622","agency_id":"70006","route_short_name":"70","route_long_name":"Grand","route_type":3,"route_color":"#FFFFFF","route_text_color":"#000000"}],"agency_name":"Metro St. Louis"},"geometry":{"type":"Point","coordinates":[-90.23515,38.63005]}},{"type":"Feature","properties":{"stop_id":"4136","stop_code":"4136","stop_name":"GRAND @ COUNCIL PLAZA NB","stop_desc":"NEAR SIDE GRAND @ COUNCIL PLAZA NB","wheelchair_boarding":1,"routes":[{"route_id":"19622","agency_id":"70006","route_short_name":"70","route_long_name":"Grand","route_type":3,"route_color":"#FFFFFF","route_text_color":"#000000"}],"agency_name":"Metro St. Louis"},"geometry":{"type":"Point","coordinates":[-90.23439,38.63234]}},{"type":"Feature","properties":{"stop_id":"4137","stop_code":"4137","stop_name":"GRAND @ LACLEDE NB","stop_desc":"FAR SIDE GRAND @ LACLEDE NB","wheelchair_boarding":1,"routes":[{"route_id":"19622","agency_id":"70006","route_short_name":"70","route_long_name":"Grand","route_type":3,"route_color":"#FFFFFF","route_text_color":"#000000"}],"agency_name":"Metro St. Louis"},"geometry":{"type":"Point","coordinates":[-90.23348,38.63503]}},{"type":"Feature","properties":{"stop_id":"4138","stop_code":"4138","stop_name":"GRAND @ LINDELL NB","stop_desc":"FAR SIDE GRAND @ LINDELL NB","wheelchair_boarding":1,"routes":[{"route_id":"19622","agency_id":"70006","route_short_name":"70","route_long_name":"Grand","route_type":3,"route_color":"#FFFFFF","route_text_color":"#000000"}],"agency_name":"Metro St. Louis"},"geometry":{"type":"Point","coordinates":[-90.23255,38.63753]}},{"type":"Feature","properties":{"stop_id":"4142","stop_code":"4142","stop_name":"GRAND @ FRANKLIN NB","stop_desc":"NEAR SIDE GRAND @ FRANKLIN NB","wheelchair_boarding":1,"routes":[{"route_id":"19622","agency_id":"70006","route_short_name":"70","route_long_name":"Grand","route_type":3,"route_color":"#FFFFFF","route_text_color":"#000000"}],"agency_name":"Metro St. Louis"},"geometry":{"type":"Point","coordinates":[-90.22994,38.6411]}},{"type":"Feature","properties":{"stop_id":"4143","stop_code":"4143","stop_name":"GRAND @ BELL NB","stop_desc":"MID-BLOCK GRAND @ BELL NB","wheelchair_boarding":1,"routes":[{"route_id":"19622","agency_id":"70006","route_short_name":"70","route_long_name":"Grand","route_type":3,"route_color":"#FFFFFF","route_text_color":"#000000"}],"agency_name":"Metro St. Louis"},"geometry":{"type":"Point","coordinates":[-90.22899,38.64284]}},{"type":"Feature","properties":{"stop_id":"4146","stop_code":"4146","stop_name":"GRAND @ DR ML KING NB","stop_desc":"NEAR SIDE GRAND @ DR ML KING NB","wheelchair_boarding":1,"routes":[{"route_id":"19622","agency_id":"70006","route_short_name":"70","route_long_name":"Grand","route_type":3,"route_color":"#FFFFFF","route_text_color":"#000000"}],"agency_name":"Metro St. Louis"},"geometry":{"type":"Point","coordinates":[-90.227,38.64631]}},{"type":"Feature","properties":{"stop_id":"4147","stop_code":"4147","stop_name":"GRAND @ CASS NB","stop_desc":"FAR SIDE GRAND @ CASS NB","wheelchair_boarding":1,"routes":[{"route_id":"19622","agency_id":"70006","route_short_name":"70","route_long_name":"Grand","route_type":3,"route_color":"#FFFFFF","route_text_color":"#000000"}],"agency_name":"Metro St. Louis"},"geometry":{"type":"Point","coordinates":[-90.22568,38.64849]}},{"type":"Feature","properties":{"stop_id":"4149","stop_code":"4149","stop_name":"GRAND @ NORTH MARKET NB","stop_desc":"FAR SIDE GRAND @ NORTH MARKET NB","wheelchair_boarding":1,"routes":[{"route_id":"19622","agency_id":"70006","route_short_name":"70","route_long_name":"Grand","route_type":3,"route_color":"#FFFFFF","route_text_color":"#000000"}],"agency_name":"Metro St. Louis"},"geometry":{"type":"Point","coordinates":[-90.22353,38.65153]}},{"type":"Feature","properties":{"stop_id":"4151","stop_code":"4151","stop_name":"GRAND @ ST. LOUIS NB","stop_desc":"NEAR SIDE GRAND @ ST. LOUIS NB","wheelchair_boarding":1,"routes":[{"route_id":"19622","agency_id":"70006","route_short_name":"70","route_long_name":"Grand","route_type":3,"route_color":"#FFFFFF","route_text_color":"#000000"}],"agency_name":"Metro St. Louis"},"geometry":{"type":"Point","coordinates":[-90.2213,38.65466]}},{"type":"Feature","properties":{"stop_id":"4152","stop_code":"4152","stop_name":"GRAND @ DODIER NB","stop_desc":"FAR SIDE GRAND @ DODIER NB","wheelchair_boarding":1,"routes":[{"route_id":"19622","agency_id":"70006","route_short_name":"70","route_long_name":"Grand","route_type":3,"route_color":"#FFFFFF","route_text_color":"#000000"}],"agency_name":"Metro St. Louis"},"geometry":{"type":"Point","coordinates":[-90.2196,38.65693]}},{"type":"Feature","properties":{"stop_id":"4156","stop_code":"4156","stop_name":"GRAND @ HEBERT NB","stop_desc":"NEAR SIDE GRAND @ HEBERT NB","wheelchair_boarding":1,"routes":[{"route_id":"19622","agency_id":"70006","route_short_name":"70","route_long_name":"Grand","route_type":3,"route_color":"#FFFFFF","route_text_color":"#000000"}],"agency_name":"Metro St. Louis"},"geometry":{"type":"Point","coordinates":[-90.21804,38.65911]}},{"type":"Feature","properties":{"stop_id":"4157","stop_code":"4157","stop_name":"GRAND @ NATURAL BRIDGE NB","stop_desc":"FAR SIDE GRAND @ NATURAL BRIDGE NB","wheelchair_boarding":1,"routes":[{"route_id":"19622","agency_id":"70006","route_short_name":"70","route_long_name":"Grand","route_type":3,"route_color":"#FFFFFF","route_text_color":"#000000"}],"agency_name":"Metro St. Louis"},"geometry":{"type":"Point","coordinates":[-90.21626,38.66169]}},{"type":"Feature","properties":{"stop_id":"4158","stop_code":"4158","stop_name":"GRAND @ BARRETT NB","stop_desc":"FAR SIDE GRAND @ BARRETT NB","wheelchair_boarding":2,"routes":[{"route_id":"19622","agency_id":"70006","route_short_name":"70","route_long_name":"Grand","route_type":3,"route_color":"#FFFFFF","route_text_color":"#000000"}],"agency_name":"Metro St. Louis"},"geometry":{"type":"Point","coordinates":[-90.21534,38.66301]}},{"type":"Feature","properties":{"stop_id":"4159","stop_code":"4159","stop_name":"GRAND @ KOSSUTH NB","stop_desc":"NEAR SIDE GRAND @ KOSSUTH NB","wheelchair_boarding":1,"routes":[{"route_id":"19622","agency_id":"70006","route_short_name":"70","route_long_name":"Grand","route_type":3,"route_color":"#FFFFFF","route_text_color":"#000000"}],"agency_name":"Metro St. Louis"},"geometry":{"type":"Point","coordinates":[-90.21421,38.66451]}},{"type":"Feature","properties":{"stop_id":"4161","stop_code":"4161","stop_name":"GRAND @ PENROSE NB","stop_desc":"NEAR SIDE GRAND @ PENROSE NB","wheelchair_boarding":1,"routes":[{"route_id":"19622","agency_id":"70006","route_short_name":"70","route_long_name":"Grand","route_type":3,"route_color":"#FFFFFF","route_text_color":"#000000"}],"agency_name":"Metro St. Louis"},"geometry":{"type":"Point","coordinates":[-90.21296,38.66624]}},{"type":"Feature","properties":{"stop_id":"4163","stop_code":"4163","stop_name":"GRAND @ NORTH FLORISSANT NB","stop_desc":"FAR SIDE GRAND @ NORTH FLORISSANT NB","wheelchair_boarding":1,"routes":[{"route_id":"19622","agency_id":"70006","route_short_name":"70","route_long_name":"Grand","route_type":3,"route_color":"#FFFFFF","route_text_color":"#000000"}],"agency_name":"Metro St. Louis"},"geometry":{"type":"Point","coordinates":[-90.21045,38.66938]}},{"type":"Feature","properties":{"stop_id":"4166","stop_code":"4166","stop_name":"GRAND @ BLAIR NB","stop_desc":"NEAR SIDE GRAND @ BLAIR NB","wheelchair_boarding":1,"routes":[{"route_id":"19622","agency_id":"70006","route_short_name":"70","route_long_name":"Grand","route_type":3,"route_color":"#FFFFFF","route_text_color":"#000000"}],"agency_name":"Metro St. Louis"},"geometry":{"type":"Point","coordinates":[-90.20675,38.67135]}},{"type":"Feature","properties":{"stop_id":"4167","stop_code":"4167","stop_name":"BROADWAY @ JOHN NB","stop_desc":"FAR SIDE BROADWAY @ JOHN NB","wheelchair_boarding":1,"routes":[{"route_id":"19611","agency_id":"70006","route_short_name":"40","route_long_name":"Broadway-Halls Ferry","route_type":3,"route_color":"#FFFFFF","route_text_color":"#000000"},{"route_id":"19622","agency_id":"70006","route_short_name":"70","route_long_name":"Grand","route_type":3,"route_color":"#FFFFFF","route_text_color":"#000000"}],"agency_name":"Metro St. Louis"},"geometry":{"type":"Point","coordinates":[-90.20439,38.67449]}},{"type":"Feature","properties":{"stop_id":"6614","stop_code":"6614","stop_name":"BROADWAY @ PRAIRIE NB","stop_desc":"FAR SIDE BROADWAY @ PRAIRIE NB","wheelchair_boarding":1,"routes":[{"route_id":"19611","agency_id":"70006","route_short_name":"40","route_long_name":"Broadway-Halls Ferry","route_type":3,"route_color":"#FFFFFF","route_text_color":"#000000"},{"route_id":"19622","agency_id":"70006","route_short_name":"70","route_long_name":"Grand","route_type":3,"route_color":"#FFFFFF","route_text_color":"#000000"}],"agency_name":"Metro St. Louis"},"geometry":{"type":"Point","coordinates":[-90.20588,38.67639]}},{"type":"Feature","properties":{"stop_id":"6616","stop_code":"6616","stop_name":"BROADWAY @ TALCOTT NB","stop_desc":"FAR SIDE BROADWAY @ TALCOTT NB","wheelchair_boarding":1,"routes":[{"route_id":"19611","agency_id":"70006","route_short_name":"40","route_long_name":"Broadway-Halls Ferry","route_type":3,"route_color":"#FFFFFF","route_text_color":"#000000"},{"route_id":"19622","agency_id":"70006","route_short_name":"70","route_long_name":"Grand","route_type":3,"route_color":"#FFFFFF","route_text_color":"#000000"}],"agency_name":"Metro St. Louis"},"geometry":{"type":"Point","coordinates":[-90.20815,38.67836]}},{"type":"Feature","properties":{"stop_id":"6618","stop_code":"6618","stop_name":"BROADWAY @ ADELAIDE NB","stop_desc":"FAR SIDE BROADWAY @ ADELAIDE NB","wheelchair_boarding":2,"routes":[{"route_id":"19611","agency_id":"70006","route_short_name":"40","route_long_name":"Broadway-Halls Ferry","route_type":3,"route_color":"#FFFFFF","route_text_color":"#000000"},{"route_id":"19622","agency_id":"70006","route_short_name":"70","route_long_name":"Grand","route_type":3,"route_color":"#FFFFFF","route_text_color":"#000000"}],"agency_name":"Metro St. Louis"},"geometry":{"type":"Point","coordinates":[-90.21071,38.68029]}},{"type":"Feature","properties":{"stop_id":"6621","stop_code":"6621","stop_name":"BROADWAY @ RED BUD NB","stop_desc":"NEAR SIDE BROADWAY @ RED BUD NB","wheelchair_boarding":1,"routes":[{"route_id":"19611","agency_id":"70006","route_short_name":"40","route_long_name":"Broadway-Halls Ferry","route_type":3,"route_color":"#FFFFFF","route_text_color":"#000000"},{"route_id":"19622","agency_id":"70006","route_short_name":"70","route_long_name":"Grand","route_type":3,"route_color":"#FFFFFF","route_text_color":"#000000"}],"agency_name":"Metro St. Louis"},"geometry":{"type":"Point","coordinates":[-90.21343,38.68182]}},{"type":"Feature","properties":{"stop_id":"6623","stop_code":"6623","stop_name":"BROADWAY @ CLARENCE NB","stop_desc":"FAR SIDE BROADWAY @ CLARENCE NB","wheelchair_boarding":2,"routes":[{"route_id":"19611","agency_id":"70006","route_short_name":"40","route_long_name":"Broadway-Halls Ferry","route_type":3,"route_color":"#FFFFFF","route_text_color":"#000000"},{"route_id":"19622","agency_id":"70006","route_short_name":"70","route_long_name":"Grand","route_type":3,"route_color":"#FFFFFF","route_text_color":"#000000"}],"agency_name":"Metro St. Louis"},"geometry":{"type":"Point","coordinates":[-90.21662,38.68364]}},{"type":"Feature","properties":{"stop_id":"8856","stop_code":"8856","stop_name":"GRAND @ HOLLY HILLS NB","stop_desc":"NEAR SIDE GRAND @ HOLLY HILLS NB","wheelchair_boarding":1,"routes":[{"route_id":"19622","agency_id":"70006","route_short_name":"70","route_long_name":"Grand","route_type":3,"route_color":"#FFFFFF","route_text_color":"#000000"}],"agency_name":"Metro St. Louis"},"geometry":{"type":"Point","coordinates":[-90.26162,38.56172]}},{"type":"Feature","properties":{"stop_id":"8872","stop_code":"8872","stop_name":"GRAND @ CHIPPEWA NB","stop_desc":"FAR SIDE GRAND @ CHIPPEWA NB","wheelchair_boarding":1,"routes":[{"route_id":"19622","agency_id":"70006","route_short_name":"70","route_long_name":"Grand","route_type":3,"route_color":"#FFFFFF","route_text_color":"#000000"}],"agency_name":"Metro St. Louis"},"geometry":{"type":"Point","coordinates":[-90.24433,38.58862]}},{"type":"Feature","properties":{"stop_id":"9011","stop_code":"9011","stop_name":"GRAND @ WILMINGTON NB","stop_desc":"FAR SIDE GRAND @ WILMINGTON NB","wheelchair_boarding":1,"routes":[{"route_id":"19622","agency_id":"70006","route_short_name":"70","route_long_name":"Grand","route_type":3,"route_color":"#FFFFFF","route_text_color":"#000000"}],"agency_name":"Metro St. Louis"},"geometry":{"type":"Point","coordinates":[-90.25636,38.56622]}},{"type":"Feature","properties":{"stop_id":"9013","stop_code":"9013","stop_name":"GRAND @ BATES NB","stop_desc":"FAR SIDE GRAND @ BATES NB","wheelchair_boarding":1,"routes":[{"route_id":"19622","agency_id":"70006","route_short_name":"70","route_long_name":"Grand","route_type":3,"route_color":"#FFFFFF","route_text_color":"#000000"}],"agency_name":"Metro St. Louis"},"geometry":{"type":"Point","coordinates":[-90.25417,38.56875]}},{"type":"Feature","properties":{"stop_id":"9015","stop_code":"9015","stop_name":"GRAND @ EICHELBERGER NB","stop_desc":"NEAR SIDE GRAND @ EICHELBERGER NB","wheelchair_boarding":1,"routes":[{"route_id":"19622","agency_id":"70006","route_short_name":"70","route_long_name":"Grand","route_type":3,"route_color":"#FFFFFF","route_text_color":"#000000"}],"agency_name":"Metro St. Louis"},"geometry":{"type":"Point","coordinates":[-90.25282,38.57033]}},{"type":"Feature","properties":{"stop_id":"9017","stop_code":"9017","stop_name":"GRAND @ DELOR NB","stop_desc":"FAR SIDE GRAND @ DELOR NB","wheelchair_boarding":1,"routes":[{"route_id":"19622","agency_id":"70006","route_short_name":"70","route_long_name":"Grand","route_type":3,"route_color":"#FFFFFF","route_text_color":"#000000"}],"agency_name":"Metro St. Louis"},"geometry":{"type":"Point","coordinates":[-90.25037,38.57323]}},{"type":"Feature","properties":{"stop_id":"9018","stop_code":"9018","stop_name":"GRAND @ ITASKA NB","stop_desc":"NEAR SIDE GRAND @ ITASKA NB","wheelchair_boarding":1,"routes":[{"route_id":"19622","agency_id":"70006","route_short_name":"70","route_long_name":"Grand","route_type":3,"route_color":"#FFFFFF","route_text_color":"#000000"}],"agency_name":"Metro St. Louis"},"geometry":{"type":"Point","coordinates":[-90.24932,38.57448]}},{"type":"Feature","properties":{"stop_id":"9019","stop_code":"9019","stop_name":"GRAND @ TAFT NB","stop_desc":"FAR SIDE GRAND @ TAFT NB","wheelchair_boarding":1,"routes":[{"route_id":"19622","agency_id":"70006","route_short_name":"70","route_long_name":"Grand","route_type":3,"route_color":"#FFFFFF","route_text_color":"#000000"}],"agency_name":"Metro St. Louis"},"geometry":{"type":"Point","coordinates":[-90.24716,38.57703]}},{"type":"Feature","properties":{"stop_id":"9020","stop_code":"9020","stop_name":"GRAND @ OSCEOLA NB","stop_desc":"MID-BLOCK GRAND @ OSCEOLA NB","wheelchair_boarding":1,"routes":[{"route_id":"19622","agency_id":"70006","route_short_name":"70","route_long_name":"Grand","route_type":3,"route_color":"#FFFFFF","route_text_color":"#000000"}],"agency_name":"Metro St. Louis"},"geometry":{"type":"Point","coordinates":[-90.2454,38.57916]}},{"type":"Feature","properties":{"stop_id":"9022","stop_code":"9022","stop_name":"GRAND @ KLOCKE NB","stop_desc":"NEAR SIDE GRAND @ KLOCKE NB","wheelchair_boarding":1,"routes":[{"route_id":"19622","agency_id":"70006","route_short_name":"70","route_long_name":"Grand","route_type":3,"route_color":"#FFFFFF","route_text_color":"#000000"}],"agency_name":"Metro St. Louis"},"geometry":{"type":"Point","coordinates":[-90.24429,38.58167]}},{"type":"Feature","properties":{"stop_id":"9023","stop_code":"9023","stop_name":"GRAND @ MONTANA NB","stop_desc":"NEAR SIDE GRAND @ MONTANA NB","wheelchair_boarding":1,"routes":[{"route_id":"19622","agency_id":"70006","route_short_name":"70","route_long_name":"Grand","route_type":3,"route_color":"#FFFFFF","route_text_color":"#000000"}],"agency_name":"Metro St. Louis"},"geometry":{"type":"Point","coordinates":[-90.24461,38.58366]}},{"type":"Feature","properties":{"stop_id":"9026","stop_code":"9026","stop_name":"GRAND @ KEOKUK NB","stop_desc":"NEAR SIDE GRAND @ KEOKUK NB","wheelchair_boarding":1,"routes":[{"route_id":"19622","agency_id":"70006","route_short_name":"70","route_long_name":"Grand","route_type":3,"route_color":"#FFFFFF","route_text_color":"#000000"}],"agency_name":"Metro St. Louis"},"geometry":{"type":"Point","coordinates":[-90.24476,38.58622]}},{"type":"Feature","properties":{"stop_id":"9028","stop_code":"9028","stop_name":"GRAND @ WINNEBAGO NB","stop_desc":"FAR SIDE GRAND @ WINNEBAGO NB","wheelchair_boarding":1,"routes":[{"route_id":"19622","agency_id":"70006","route_short_name":"70","route_long_name":"Grand","route_type":3,"route_color":"#FFFFFF","route_text_color":"#000000"}],"agency_name":"Metro St. Louis"},"geometry":{"type":"Point","coordinates":[-90.24405,38.5904]}},{"type":"Feature","properties":{"stop_id":"9082","stop_code":"9082","stop_name":"GRAND @ IRON NB","stop_desc":"NEAR SIDE GRAND @ IRON NB","wheelchair_boarding":1,"routes":[{"route_id":"19622","agency_id":"70006","route_short_name":"70","route_long_name":"Grand","route_type":3,"route_color":"#FFFFFF","route_text_color":"#000000"}],"agency_name":"Metro St. Louis"},"geometry":{"type":"Point","coordinates":[-90.25907,38.56305]}}]}