{"type":"FeatureCollection","features":[{"type":"Feature","properties":{"agency_name":"Metro St. Louis","route_id":"19599","agency_id":"70006","route_short_name":"11","route_long_name":"Chippewa","route_type":3,"route_color":"#FFFFFF","route_text_color":"#000000"},"geometry":{"type":"MultiLineString","coordinates":[[[-90.31943,38.5928],[-90.31913,38.59282],[-90.31943,38.5928],[-90.31983,38.59272],[-90.31988,38.59268],[-90.31991,38.59263],[-90.31989,38.59254],[-90.31984,38.5925],[-90.31977,38.59249],[-90.3194,38.59258],[-90.31876,38.59278],[-90.31856,38.59279],[-90.31842,38.59254],[-90.31844,38.59222],[-90.31641,38.59207],[-90.31475,38.59187],[-90.30514,38.59089],[-90.29962,38.59353],[-90.29925,38.59369],[-90.29898,38.59376],[-90.29872,38.5938],[-90.29813,38.5938],[-90.29782,38.59378],[-90.29428,38.59341],[-90.29314,38.5933],[-90.29198,38.59321],[-90.29006,38.59299],[-90.28476,38.59242],[-90.28331,38.59228],[-90.2793,38.59183],[-90.27568,38.59146],[-90.2753,38.59145],[-90.27482,38.59148],[-90.27417,38.59156],[-90.27405,38.59156],[-90.27279,38.5914],[-90.26978,38.59108],[-90.26684,38.59074],[-90.26404,38.59045],[-90.26178,38.59018],[-90.26018,38.59002],[-90.25974,38.58996],[-90.25923,38.58992],[-90.25566,38.58955],[-90.25169,38.58916],[-90.24963,38.58893],[-90.24681,38.58864],[-90.24464,38.5884],[-90.24414,38.58828],[-90.23835,38.58757],[-90.23491,38.58712],[-90.22699,38.58614],[-90.22656,38.58792],[-90.22648,38.5884],[-90.22619,38.5897],[-90.22603,38.59057],[-90.22582,38.59149],[-90.22435,38.5985],[-90.22426,38.59894],[-90.2242,38.59934],[-90.22385,38.60103],[-90.22303,38.60493],[-90.22289,38.60553],[-90.22277,38.60627],[-90.22157,38.61209],[-90.22144,38.6129],[-90.2213,38.61311],[-90.22099,38.61439],[-90.22073,38.6155],[-90.22031,38.61751],[-90.22017,38.618],[-90.22014,38.61815],[-90.22018,38.61829],[-90.21992,38.61897],[-90.21955,38.61985],[-90.21937,38.62032],[-90.21865,38.62196],[-90.21721,38.62196],[-90.21224,38.6209],[-90.20802,38.62003],[-90.20818,38.62033],[-90.20836,38.62073],[-90.20861,38.62142],[-90.20869,38.6217],[-90.20871,38.62186],[-90.2087,38.62199],[-90.20867,38.62211],[-90.20829,38.62316],[-90.20791,38.62429],[-90.20773,38.6249],[-90.20745,38.62568],[-90.20709,38.62676],[-90.20639,38.62683],[-90.20188,38.62591],[-90.20235,38.62487],[-90.20249,38.62485],[-90.20257,38.62481],[-90.20263,38.62466]]]}},{"type":"Feature","properties":{"stop_id":"14489","stop_code":"14489","stop_name":"JEFFERS0N @ CHEROKEE NB","stop_desc":"NEAR SIDE JEFFERS0N @ CHEROKEE NB","wheelchair_boarding":1,"routes":[{"route_id":"19599","agency_id":"70006","route_short_name":"11","route_long_name":"Chippewa","route_type":3,"route_color":"#FFFFFF","route_text_color":"#000000"}],"agency_name":"Metro St. Louis"},"geometry":{"type":"Point","coordinates":[-90.22544,38.5929]}},{"type":"Feature","properties":{"stop_id":"14769","stop_code":"14769","stop_name":"SHREWSBURY-LANSDOWNE I-44 TRANSIT CENTER","wheelchair_boarding":1,"routes":[{"route_id":"19599","agency_id":"70006","route_short_name":"11","route_long_name":"Chippewa","route_type":3,"route_color":"#FFFFFF","route_text_color":"#000000"},{"route_id":"19601","agency_id":"70006","route_short_name":"16","route_long_name":"City Limits","route_type":3,"route_color":"#FFFFFF","route_text_color":"#000000"},{"route_id":"19604","agency_id":"70006","route_short_name":"21","route_long_name":"Watson Rd","route_type":3,"route_color":"#FFFFFF","route_text_color":"#000000"},{"route_id":"19605","agency_id":"70006","route_short_name":"30","route_long_name":"Arsenal","route_type":3,"route_color":"#FFFFFF","route_text_color":"#000000"}],"agency_name":"Metro St. Louis"},"geometry":{"type":"Point","coordinates":[-90.31925,38.59277]}},{"type":"Feature","properties":{"stop_id":"15076","stop_code":"15076","stop_name":"CHIPPEWA @ MACKLIND EB","stop_desc":"FAR SIDE CHIPPEWA @ MACKLIND EB","wheelchair_boarding":1,"routes":[{"route_id":"19599","agency_id":"70006","route_short_name":"11","route_long_name":"Chippewa","route_type":3,"route_color":"#FFFFFF","route_text_color":"#000000"}],"agency_name":"Metro St. Louis"},"geometry":{"type":"Point","coordinates":[-90.28304,38.5922]}},{"type":"Feature","properties":{"stop_id":"16352","stop_code":"16352","stop_name":"18TH @ CHOUTEAU NB","stop_desc":"FAR SIDE 18TH @ CHOUTEAU NB","wheelchair_boarding":1,"routes":[{"route_id":"19599","agency_id":"70006","route_short_name":"11","route_long_name":"Chippewa","route_type":3,"route_color":"#FFFFFF","route_text_color":"#000000"}],"agency_name":"Metro St. Louis"},"geometry":{"type":"Point","coordinates":[-90.20806,38.62041]}},{"type":"Feature","properties":{"stop_id":"2928","stop_code":"2928","stop_name":"LANSDOWNE @ WABASH EB","stop_desc":"FAR SIDE LANSDOWNE @ WABASH EB","wheelchair_boarding":2,"routes":[{"route_id":"19599","agency_id":"70006","route_short_name":"11","route_long_name":"Chippewa","route_type":3,"route_color":"#FFFFFF","route_text_color":"#000000"},{"route_id":"19601","agency_id":"70006","route_short_name":"16","route_long_name":"City Limits","route_type":3,"route_color":"#FFFFFF","route_text_color":"#000000"}],"agency_name":"Metro St. Louis"},"geometry":{"type":"Point","coordinates":[-90.31576,38.5919]}},{"type":"Feature","properties":{"stop_id":"2929","stop_code":"2929","stop_name":"LANSDOWNE @ MCCAUSLAND EB","stop_desc":"NEAR SIDE LANSDOWNE @ MCCAUSLAND EB","wheelchair_boarding":2,"routes":[{"route_id":"19599","agency_id":"70006","route_short_name":"11","route_long_name":"Chippewa","route_type":3,"route_color":"#FFFFFF","route_text_color":"#000000"},{"route_id":"19601","agency_id":"70006","route_short_name":"16","route_long_name":"City Limits","route_type":3,"route_color":"#FFFFFF","route_text_color":"#000000"}],"agency_name":"Metro St. Louis"},"geometry":{"type":"Point","coordinates":[-90.31304,38.59164]}},{"type":"Feature","properties":{"stop_id":"2930","stop_code":"2930","stop_name":"LANSDOWNE @ JAMIESON EB","stop_desc":"NEAR SIDE LANSDOWNE @ JAMIESON EB","wheelchair_boarding":2,"routes":[{"route_id":"19599","agency_id":"70006","route_short_name":"11","route_long_name":"Chippewa","route_type":3,"route_color":"#FFFFFF","route_text_color":"#000000"}],"agency_name":"Metro St. Louis"},"geometry":{"type":"Point","coordinates":[-90.31007,38.59133]}},{"type":"Feature","properties":{"stop_id":"2931","stop_code":"2931","stop_name":"LANSDOWNE @ CHIPPEWA EB","stop_desc":"NEAR SIDE LANSDOWNE @ CHIPPEWA EB","wheelchair_boarding":2,"routes":[{"route_id":"19599","agency_id":"70006","route_short_name":"11","route_long_name":"Chippewa","route_type":3,"route_color":"#FFFFFF","route_text_color":"#000000"}],"agency_name":"Metro St. Louis"},"geometry":{"type":"Point","coordinates":[-90.30631,38.59096]}},{"type":"Feature","properties":{"stop_id":"3496","stop_code":"3496","stop_name":"CHOUTEAU @ DOLMAN EB","stop_desc":"NEAR SIDE CHOUTEAU @ DOLMAN EB","wheelchair_boarding":1,"routes":[{"route_id":"19599","agency_id":"70006","route_short_name":"11","route_long_name":"Chippewa","route_type":3,"route_color":"#FFFFFF","route_text_color":"#000000"},{"route_id":"19606","agency_id":"70006","route_short_name":"31","route_long_name":"Chouteau","route_type":3,"route_color":"#FFFFFF","route_text_color":"#000000"}],"agency_name":"Metro St. Louis"},"geometry":{"type":"Point","coordinates":[-90.20988,38.62036]}},{"type":"Feature","properties":{"stop_id":"3497","stop_code":"3497","stop_name":"18TH STREET @ GRATIOT NB","stop_desc":"FAR SIDE 18TH STREET @ GRATIOT NB","wheelchair_boarding":2,"routes":[{"route_id":"19599","agency_id":"70006","route_short_name":"11","route_long_name":"Chippewa","route_type":3,"route_color":"#FFFFFF","route_text_color":"#000000"}],"agency_name":"Metro St. Louis"},"geometry":{"type":"Point","coordinates":[-90.20837,38.62264]}},{"type":"Feature","properties":{"stop_id":"3499","stop_code":"3499","stop_name":"18TH STREET @ UNION STA METROLINK NB","stop_desc":"NEAR SIDE 18TH STREET @ UNION STA METROLINK NB","wheelchair_boarding":2,"routes":[{"route_id":"19599","agency_id":"70006","route_short_name":"11","route_long_name":"Chippewa","route_type":3,"route_color":"#FFFFFF","route_text_color":"#000000"}],"agency_name":"Metro St. Louis"},"geometry":{"type":"Point","coordinates":[-90.20699,38.62675]}},{"type":"Feature","properties":{"stop_id":"5150","stop_code":"5150","stop_name":"CHOUTEAU @ 22ND STREET EB","stop_desc":"NEAR SIDE CHOUTEAU @ 22ND STREET EB","wheelchair_boarding":1,"routes":[{"route_id":"19599","agency_id":"70006","route_short_name":"11","route_long_name":"Chippewa","route_type":3,"route_color":"#FFFFFF","route_text_color":"#000000"},{"route_id":"19606","agency_id":"70006","route_short_name":"31","route_long_name":"Chouteau","route_type":3,"route_color":"#FFFFFF","route_text_color":"#000000"}],"agency_name":"Metro St. Louis"},"geometry":{"type":"Point","coordinates":[-90.2156,38.62153]}},{"type":"Feature","properties":{"stop_id":"5151","stop_code":"5151","stop_name":"CHOUTEAU @ MISSISSIPPI EB","stop_desc":"NEAR SIDE CHOUTEAU @ MISSISSIPPI EB","wheelchair_boarding":1,"routes":[{"route_id":"19599","agency_id":"70006","route_short_name":"11","route_long_name":"Chippewa","route_type":3,"route_color":"#FFFFFF","route_text_color":"#000000"},{"route_id":"19606","agency_id":"70006","route_short_name":"31","route_long_name":"Chouteau","route_type":3,"route_color":"#FFFFFF","route_text_color":"#000000"}],"agency_name":"Metro St. Louis"},"geometry":{"type":"Point","coordinates":[-90.21206,38.62081]}},{"type":"Feature","properties":{"stop_id":"7653","stop_code":"7653","stop_name":"CIVIC CENTER TRANSIT CENTER","wheelchair_boarding":1,"routes":[{"route_id":"19594","agency_id":"70006","route_short_name":"4","route_long_name":"Natural Bridge","route_type":3,"route_color":"#FFFFFF","route_text_color":"#000000"},{"route_id":"19598","agency_id":"70006","route_short_name":"10","route_long_name":"Gravois-Lindell","route_type":3,"route_color":"#FFFFFF","route_text_color":"#000000"},{"route_id":"19599","agency_id":"70006","route_short_name":"11","route_long_name":"Chippewa","route_type":3,"route_color":"#FFFFFF","route_text_color":"#000000"},{"route_id":"19603","agency_id":"70006","route_short_name":"19","route_long_name":"St Louis Ave","route_type":3,"route_color":"#FFFFFF","route_text_color":"#000000"}],"agency_name":"Metro St. Louis"},"geometry":{"type":"Point","coordinates":[-90.20281,38.62428]}},{"type":"Feature","properties":{"stop_id":"8784","stop_code":"8784","stop_name":"CHIPPEWA @ HAMPTON EB","stop_desc":"FAR SIDE CHIPPEWA @ HAMPTON EB","wheelchair_boarding":1,"routes":[{"route_id":"19599","agency_id":"70006","route_short_name":"11","route_long_name":"Chippewa","route_type":3,"route_color":"#FFFFFF","route_text_color":"#000000"}],"agency_name":"Metro St. Louis"},"geometry":{"type":"Point","coordinates":[-90.29382,38.59333]}},{"type":"Feature","properties":{"stop_id":"8785","stop_code":"8785","stop_name":"CHIPPEWA @ SULPHUR EB","stop_desc":"NEAR SIDE CHIPPEWA @ SULPHUR EB","wheelchair_boarding":1,"routes":[{"route_id":"19599","agency_id":"70006","route_short_name":"11","route_long_name":"Chippewa","route_type":3,"route_color":"#FFFFFF","route_text_color":"#000000"}],"agency_name":"Metro St. Louis"},"geometry":{"type":"Point","coordinates":[-90.29208,38.59316]}},{"type":"Feature","properties":{"stop_id":"8787","stop_code":"8787","stop_name":"CHIPPEWA @ JANUARY EB","stop_desc":"NEAR SIDE CHIPPEWA @ JANUARY EB","wheelchair_boarding":1,"routes":[{"route_id":"19599","agency_id":"70006","route_short_name":"11","route_long_name":"Chippewa","route_type":3,"route_color":"#FFFFFF","route_text_color":"#000000"}],"agency_name":"Metro St. Louis"},"geometry":{"type":"Point","coordinates":[-90.28763,38.59265]}},{"type":"Feature","properties":{"stop_id":"8790","stop_code":"8790","stop_name":"CHIPPEWA @ BRANNON EB","stop_desc":"NEAR SIDE CHIPPEWA @ BRANNON EB","wheelchair_boarding":1,"routes":[{"route_id":"19599","agency_id":"70006","route_short_name":"11","route_long_name":"Chippewa","route_type":3,"route_color":"#FFFFFF","route_text_color":"#000000"}],"agency_name":"Metro St. Louis"},"geometry":{"type":"Point","coordinates":[-90.27952,38.59181]}},{"type":"Feature","properties":{"stop_id":"8792","stop_code":"8792","stop_name":"CHIPPEWA @ LAWN EB","stop_desc":"FAR SIDE CHIPPEWA @ LAWN EB","wheelchair_boarding":2,"routes":[{"route_id":"19599","agency_id":"70006","route_short_name":"11","route_long_name":"Chippewa","route_type":3,"route_color":"#FFFFFF","route_text_color":"#000000"}],"agency_name":"Metro St. Louis"},"geometry":{"type":"Point","coordinates":[-90.27528,38.59139]}},{"type":"Feature","properties":{"stop_id":"8793","stop_code":"8793","stop_name":"CHIPPEWA @ KINGSHIGHWAY EB","stop_desc":"FAR SIDE CHIPPEWA @ KINGSHIGHWAY EB","wheelchair_boarding":1,"routes":[{"route_id":"19599","agency_id":"70006","route_short_name":"11","route_long_name":"Chippewa","route_type":3,"route_color":"#FFFFFF","route_text_color":"#000000"}],"agency_name":"Metro St. Louis"},"geometry":{"type":"Point","coordinates":[-90.27143,38.59121]}},{"type":"Feature","properties":{"stop_id":"8794","stop_code":"8794","stop_name":"CHIPPEWA @ RIDGEWOOD EB","stop_desc":"NEAR SIDE CHIPPEWA @ RIDGEWOOD EB","wheelchair_boarding":1,"routes":[{"route_id":"19599","agency_id":"70006","route_short_name":"11","route_long_name":"Chippewa","route_type":3,"route_color":"#FFFFFF","route_text_color":"#000000"}],"agency_name":"Metro St. Louis"},"geometry":{"type":"Point","coordinates":[-90.2701,38.59106]}},{"type":"Feature","properties":{"stop_id":"8795","stop_code":"8795","stop_name":"CHIPPEWA @ ALFRED EB","stop_desc":"NEAR SIDE CHIPPEWA @ ALFRED EB","wheelchair_boarding":1,"routes":[{"route_id":"19599","agency_id":"70006","route_short_name":"11","route_long_name":"Chippewa","route_type":3,"route_color":"#FFFFFF","route_text_color":"#000000"}],"agency_name":"Metro St. Louis"},"geometry":{"type":"Point","coordinates":[-90.26708,38.59072]}},{"type":"Feature","properties":{"stop_id":"8796","stop_code":"8796","stop_name":"CHIPPEWA @ MORGANFORD EB","stop_desc":"FAR SIDE CHIPPEWA @ MORGANFORD EB","wheelchair_boarding":1,"routes":[{"route_id":"19599","agency_id":"70006","route_short_name":"11","route_long_name":"Chippewa","route_type":3,"route_color":"#FFFFFF","route_text_color":"#000000"}],"agency_name":"Metro St. Louis"},"geometry":{"type":"Point","coordinates":[-90.2638,38.59036]}},{"type":"Feature","properties":{"stop_id":"8798","stop_code":"8798","stop_name":"CHIPPEWA @ OAK HILL EB","stop_desc":"NEAR SIDE CHIPPEWA @ OAK HILL EB","wheelchair_boarding":1,"routes":[{"route_id":"19599","agency_id":"70006","route_short_name":"11","route_long_name":"Chippewa","route_type":3,"route_color":"#FFFFFF","route_text_color":"#000000"}],"agency_name":"Metro St. Louis"},"geometry":{"type":"Point","coordinates":[-90.25741,38.58968]}},{"type":"Feature","properties":{"stop_id":"8799","stop_code":"8799","stop_name":"CHIPPEWA @ GRAVOIS EB","stop_desc":"FAR SIDE CHIPPEWA @ GRAVOIS EB","wheelchair_boarding":1,"routes":[{"route_id":"19599","agency_id":"70006","route_short_name":"11","route_long_name":"Chippewa","route_type":3,"route_color":"#FFFFFF","route_text_color":"#000000"}],"agency_name":"Metro St. Louis"},"geometry":{"type":"Point","coordinates":[-90.25489,38.5894]}},{"type":"Feature","properties":{"stop_id":"8800","stop_code":"8800","stop_name":"CHIPPEWA @ GUSTINE EB","stop_desc":"NEAR SIDE CHIPPEWA @ GUSTINE EB","wheelchair_boarding":1,"routes":[{"route_id":"19599","agency_id":"70006","route_short_name":"11","route_long_name":"Chippewa","route_type":3,"route_color":"#FFFFFF","route_text_color":"#000000"}],"agency_name":"Metro St. Louis"},"geometry":{"type":"Point","coordinates":[-90.2522,38.58915]}},{"type":"Feature","properties":{"stop_id":"8802","stop_code":"8802","stop_name":"CHIPPEWA @ SPRING EB","stop_desc":"NEAR SIDE CHIPPEWA @ SPRING EB","wheelchair_boarding":1,"routes":[{"route_id":"19599","agency_id":"70006","route_short_name":"11","route_long_name":"Chippewa","route_type":3,"route_color":"#FFFFFF","route_text_color":"#000000"}],"agency_name":"Metro St. Louis"},"geometry":{"type":"Point","coordinates":[-90.2488,38.58882]}},{"type":"Feature","properties":{"stop_id":"8803","stop_code":"8803","stop_name":"CHIPPEWA @ GILES EB","stop_desc":"FAR SIDE CHIPPEWA @ GILES EB","wheelchair_boarding":1,"routes":[{"route_id":"19599","agency_id":"70006","route_short_name":"11","route_long_name":"Chippewa","route_type":3,"route_color":"#FFFFFF","route_text_color":"#000000"}],"agency_name":"Metro St. Louis"},"geometry":{"type":"Point","coordinates":[-90.24655,38.58853]}},{"type":"Feature","properties":{"stop_id":"8804","stop_code":"8804","stop_name":"CHIPPEWA @ GRAND EB","stop_desc":"FAR SIDE CHIPPEWA @ GRAND EB","wheelchair_boarding":1,"routes":[{"route_id":"19599","agency_id":"70006","route_short_name":"11","route_long_name":"Chippewa","route_type":3,"route_color":"#FFFFFF","route_text_color":"#000000"}],"agency_name":"Metro St. Louis"},"geometry":{"type":"Point","coordinates":[-90.24418,38.58825]}},{"type":"Feature","properties":{"stop_id":"8807","stop_code":"8807","stop_name":"CHIPPEWA @ COMPTON EB","stop_desc":"FAR SIDE CHIPPEWA @ COMPTON EB","wheelchair_boarding":1,"routes":[{"route_id":"19599","agency_id":"70006","route_short_name":"11","route_long_name":"Chippewa","route_type":3,"route_color":"#FFFFFF","route_text_color":"#000000"}],"agency_name":"Metro St. Louis"},"geometry":{"type":"Point","coordinates":[-90.23818,38.58751]}},{"type":"Feature","properties":{"stop_id":"8809","stop_code":"8809","stop_name":"CHIPPEWA @ PENNSYLVANIA EB","stop_desc":"FAR SIDE CHIPPEWA @ PENNSYLVANIA EB","wheelchair_boarding":1,"routes":[{"route_id":"19599","agency_id":"70006","route_short_name":"11","route_long_name":"Chippewa","route_type":3,"route_color":"#FFFFFF","route_text_color":"#000000"}],"agency_name":"Metro St. Louis"},"geometry":{"type":"Point","coordinates":[-90.23477,38.58708]}},{"type":"Feature","properties":{"stop_id":"8811","stop_code":"8811","stop_name":"CHIPPEWA @ IOWA EB","stop_desc":"NEAR SIDE CHIPPEWA @ IOWA EB","wheelchair_boarding":2,"routes":[{"route_id":"19599","agency_id":"70006","route_short_name":"11","route_long_name":"Chippewa","route_type":3,"route_color":"#FFFFFF","route_text_color":"#000000"}],"agency_name":"Metro St. Louis"},"geometry":{"type":"Point","coordinates":[-90.2312,38.58658]}},{"type":"Feature","properties":{"stop_id":"8812","stop_code":"8812","stop_name":"CHIPPEWA @ OHIO EB","stop_desc":"FAR SIDE CHIPPEWA @ OHIO EB","wheelchair_boarding":1,"routes":[{"route_id":"19599","agency_id":"70006","route_short_name":"11","route_long_name":"Chippewa","route_type":3,"route_color":"#FFFFFF","route_text_color":"#000000"}],"agency_name":"Metro St. Louis"},"geometry":{"type":"Point","coordinates":[-90.22899,38.58637]}},{"type":"Feature","properties":{"stop_id":"8814","stop_code":"8814","stop_name":"JEFFERSON @ CHIPPEWA NB","stop_desc":"FAR SIDE JEFFERSON @ CHIPPEWA NB","wheelchair_boarding":1,"routes":[{"route_id":"19596","agency_id":"70006","route_short_name":"8","route_long_name":"Shaw-Cherokee","route_type":3,"route_color":"#FFFFFF","route_text_color":"#000000"},{"route_id":"19599","agency_id":"70006","route_short_name":"11","route_long_name":"Chippewa","route_type":3,"route_color":"#FFFFFF","route_text_color":"#000000"}],"agency_name":"Metro St. Louis"},"geometry":{"type":"Point","coordinates":[-90.22675,38.58651]}},{"type":"Feature","properties":{"stop_id":"8816","stop_code":"8816","stop_name":"JEFFERSON @ MIAMI NB","stop_desc":"FAR SIDE JEFFERSON @ MIAMI NB","wheelchair_boarding":1,"routes":[{"route_id":"19596","agency_id":"70006","route_short_name":"8","route_long_name":"Shaw-Cherokee","route_type":3,"route_color":"#FFFFFF","route_text_color":"#000000"},{"route_id":"19599","agency_id":"70006","route_short_name":"11","route_long_name":"Chippewa","route_type":3,"route_color":"#FFFFFF","route_text_color":"#000000"}],"agency_name":"Metro St. Louis"},"geometry":{"type":"Point","coordinates":[-90.22604,38.59004]}},{"type":"Feature","properties":{"stop_id":"8819","stop_code":"8819","stop_name":"JEFFERSON @ UTAH NB","stop_desc":"NEAR SIDE JEFFERSON @ UTAH NB","wheelchair_boarding":1,"routes":[{"route_id":"19599","agency_id":"70006","route_short_name":"11","route_long_name":"Chippewa","route_type":3,"route_color":"#FFFFFF","route_text_color":"#000000"}],"agency_name":"Metro St. Louis"},"geometry":{"type":"Point","coordinates":[-90.22506,38.59474]}},{"type":"Feature","properties":{"stop_id":"8821","stop_code":"8821","stop_name":"JEFFERSON @ ARSENAL NB","stop_desc":"NEAR SIDE JEFFERSON @ ARSENAL NB","wheelchair_boarding":2,"routes":[{"route_id":"19599","agency_id":"70006","route_short_name":"11","route_long_name":"Chippewa","route_type":3,"route_color":"#FFFFFF","route_text_color":"#000000"}],"agency_name":"Metro St. Louis"},"geometry":{"type":"Point","coordinates":[-90.22426,38.5986]}},{"type":"Feature","properties":{"stop_id":"8822","stop_code":"8822","stop_name":"JEFFERSON @ PESTALOZZI NB","stop_desc":"NEAR SIDE JEFFERSON @ PESTALOZZI NB","wheelchair_boarding":1,"routes":[{"route_id":"19599","agency_id":"70006","route_short_name":"11","route_long_name":"Chippewa","route_type":3,"route_color":"#FFFFFF","route_text_color":"#000000"}],"agency_name":"Metro St. Louis"},"geometry":{"type":"Point","coordinates":[-90.22377,38.6008]}},{"type":"Feature","properties":{"stop_id":"8823","stop_code":"8823","stop_name":"JEFFERSON @ LYNCH NB","stop_desc":"NEAR SIDE JEFFERSON @ LYNCH NB","wheelchair_boarding":2,"routes":[{"route_id":"19599","agency_id":"70006","route_short_name":"11","route_long_name":"Chippewa","route_type":3,"route_color":"#FFFFFF","route_text_color":"#000000"}],"agency_name":"Metro St. Louis"},"geometry":{"type":"Point","coordinates":[-90.22336,38.60278]}},{"type":"Feature","properties":{"stop_id":"8824","stop_code":"8824","stop_name":"JEFFERSON @ GRAVOIS NB","stop_desc":"FAR SIDE JEFFERSON @ GRAVOIS NB","wheelchair_boarding":1,"routes":[{"route_id":"19599","agency_id":"70006","route_short_name":"11","route_long_name":"Chippewa","route_type":3,"route_color":"#FFFFFF","route_text_color":"#000000"}],"agency_name":"Metro St. Louis"},"geometry":{"type":"Point","coordinates":[-90.22282,38.60528]}},{"type":"Feature","properties":{"stop_id":"8826","stop_code":"8826","stop_name":"JEFFERSON @ SHENANDOAH NB","stop_desc":"NEAR SIDE JEFFERSON @ SHENANDOAH NB","wheelchair_boarding":2,"routes":[{"route_id":"19599","agency_id":"70006","route_short_name":"11","route_long_name":"Chippewa","route_type":3,"route_color":"#FFFFFF","route_text_color":"#000000"}],"agency_name":"Metro St. Louis"},"geometry":{"type":"Point","coordinates":[-90.22251,38.60696]}},{"type":"Feature","properties":{"stop_id":"8828","stop_code":"8828","stop_name":"JEFFERSON @ RUSSELL NB","stop_desc":"FAR SIDE JEFFERSON @ RUSSELL NB","wheelchair_boarding":1,"routes":[{"route_id":"19599","agency_id":"70006","route_short_name":"11","route_long_name":"Chippewa","route_type":3,"route_color":"#FFFFFF","route_text_color":"#000000"}],"agency_name":"Metro St. Louis"},"geometry":{"type":"Point","coordinates":[-90.22162,38.61131]}},{"type":"Feature","properties":{"stop_id":"8830","stop_code":"8830","stop_name":"JEFFERSON @ LAFAYETTE NB","stop_desc":"FAR SIDE JEFFERSON @ LAFAYETTE NB","wheelchair_boarding":1,"routes":[{"route_id":"19599","agency_id":"70006","route_short_name":"11","route_long_name":"Chippewa","route_type":3,"route_color":"#FFFFFF","route_text_color":"#000000"}],"agency_name":"Metro St. Louis"},"geometry":{"type":"Point","coordinates":[-90.22076,38.61516]}},{"type":"Feature","properties":{"stop_id":"8832","stop_code":"8832","stop_name":"JEFFERSON @ PARK NB","stop_desc":"FAR SIDE JEFFERSON @ PARK NB","wheelchair_boarding":1,"routes":[{"route_id":"19599","agency_id":"70006","route_short_name":"11","route_long_name":"Chippewa","route_type":3,"route_color":"#FFFFFF","route_text_color":"#000000"}],"agency_name":"Metro St. Louis"},"geometry":{"type":"Point","coordinates":[-90.21998,38.61856]}},{"type":"Feature","properties":{"stop_id":"8834","stop_code":"8834","stop_name":"JEFFERSON @ CHOUTEAU NB","stop_desc":"NEAR SIDE JEFFERSON @ CHOUTEAU NB","wheelchair_boarding":1,"routes":[{"route_id":"19599","agency_id":"70006","route_short_name":"11","route_long_name":"Chippewa","route_type":3,"route_color":"#FFFFFF","route_text_color":"#000000"}],"agency_name":"Metro St. Louis"},"geometry":{"type":"Point","coordinates":[-90.21865,38.62186]}},{"type":"Feature","properties":{"stop_id":"8968","stop_code":"8968","stop_name":"CHIPPEWA @ LANSDOWNE EB","stop_desc":"FAR SIDE CHIPPEWA @ LANSDOWNE EB","wheelchair_boarding":1,"routes":[{"route_id":"19599","agency_id":"70006","route_short_name":"11","route_long_name":"Chippewa","route_type":3,"route_color":"#FFFFFF","route_text_color":"#000000"},{"route_id":"19605","agency_id":"70006","route_short_name":"30","route_long_name":"Arsenal","route_type":3,"route_color":"#FFFFFF","route_text_color":"#000000"}],"agency_name":"Metro St. Louis"},"geometry":{"type":"Point","coordinates":[-90.30393,38.5914]}},{"type":"Feature","properties":{"stop_id":"8970","stop_code":"8970","stop_name":"CHIPPEWA @ WATSON EB","stop_desc":"FAR SIDE CHIPPEWA @ WATSON EB","wheelchair_boarding":1,"routes":[{"route_id":"19599","agency_id":"70006","route_short_name":"11","route_long_name":"Chippewa","route_type":3,"route_color":"#FFFFFF","route_text_color":"#000000"}],"agency_name":"Metro St. Louis"},"geometry":{"type":"Point","coordinates":[-90.30135,38.59263]}},{"type":"Feature","properties":{"stop_id":"8973","stop_code":"8973","stop_name":"CHIPPEWA @ CLIFTON EB","stop_desc":"FAR SIDE CHIPPEWA @ CLIFTON EB","wheelchair_boarding":1,"routes":[{"route_id":"19599","agency_id":"70006","route_short_name":"11","route_long_name":"Chippewa","route_type":3,"route_color":"#FFFFFF","route_text_color":"#000000"}],"agency_name":"Metro St. Louis"},"geometry":{"type":"Point","coordinates":[-90.29605,38.59353]}}]}