{"type":"FeatureCollection","features":[{"type":"Feature","properties":{"agency_name":"Metro St. Louis","route_id":"19624","agency_id":"70006","route_short_name":"74","route_long_name":"Florissant","route_type":3,"route_color":"#FFFFFF","route_text_color":"#000000"},"geometry":{"type":"MultiLineString","coordinates":[[[-90.2027,38.62541],[-90.20271,38.62522],[-90.20267,38.62563],[-90.20264,38.62566],[-90.20259,38.62568],[-90.20253,38.62568],[-90.20249,38.62565],[-90.20246,38.62559],[-90.20257,38.62504],[-90.20253,38.62498],[-90.20231,38.62495],[-90.20188,38.62591],[-90.20104,38.62808],[-90.20056,38.62954],[-90.20027,38.63028],[-90.2,38.63124],[-90.19959,38.63235],[-90.1995,38.6325],[-90.1992,38.63284],[-90.19895,38.63303],[-90.1987,38.63325],[-90.19851,38.63346],[-90.19837,38.63372],[-90.19699,38.63779],[-90.19696,38.63792],[-90.19696,38.63814],[-90.19705,38.63878],[-90.19705,38.63897],[-90.19703,38.63911],[-90.19619,38.6416],[-90.19571,38.6431],[-90.19577,38.6432],[-90.19617,38.64347],[-90.19632,38.64362],[-90.19655,38.64395],[-90.19707,38.64494],[-90.19712,38.64501],[-90.1972,38.64508],[-90.19757,38.64586],[-90.19796,38.6466],[-90.19878,38.64826],[-90.20057,38.65178],[-90.20116,38.6528],[-90.2015,38.65334],[-90.20187,38.654],[-90.20235,38.65481],[-90.20277,38.65549],[-90.2033,38.65621],[-90.20345,38.65637],[-90.20365,38.65669],[-90.20401,38.65735],[-90.20501,38.65938],[-90.20534,38.66001],[-90.20554,38.66044],[-90.20844,38.6663],[-90.20915,38.66767],[-90.2094,38.66791],[-90.21017,38.66842],[-90.21096,38.66899],[-90.21109,38.66907],[-90.21224,38.6696],[-90.21235,38.66967],[-90.21257,38.66986],[-90.21356,38.6709],[-90.21424,38.67158],[-90.21516,38.672],[-90.21713,38.67286],[-90.21883,38.67358],[-90.21898,38.67367],[-90.21918,38.67385],[-90.22207,38.67713],[-90.22376,38.67902],[-90.22391,38.67922],[-90.224,38.67937],[-90.22481,38.68092],[-90.22494,38.68114],[-90.22508,38.68135],[-90.22544,38.68177],[-90.22568,38.68198],[-90.22652,38.68245],[-90.2281,38.68321],[-90.22944,38.68392],[-90.22983,38.68419],[-90.23,38.68435],[-90.23593,38.6911],[-90.23715,38.69246],[-90.23795,38.69341],[-90.23857,38.69422],[-90.23911,38.69498],[-90.23928,38.69518],[-90.24702,38.70402],[-90.24771,38.70482],[-90.24837,38.70563],[-90.24934,38.70674],[-90.25002,38.70743],[-90.25121,38.7088],[-90.25182,38.70947],[-90.25371,38.71161],[-90.25434,38.71233],[-90.25501,38.71313],[-90.25519,38.71331],[-90.25555,38.7136],[-90.26043,38.71702],[-90.26137,38.71765],[-90.26214,38.71829],[-90.26253,38.71859],[-90.26384,38.71927],[-90.26454,38.71968],[-90.26602,38.72046],[-90.26944,38.7219],[-90.27077,38.72248],[-90.27294,38.72382],[-90.27449,38.72501],[-90.27511,38.72554],[-90.27589,38.72638],[-90.27634,38.72682],[-90.27669,38.72723],[-90.27685,38.72744],[-90.27763,38.72861],[-90.27774,38.72885],[-90.27779,38.72928],[-90.27779,38.72961],[-90.27771,38.73028],[-90.27754,38.73132],[-90.27747,38.73188],[-90.27744,38.73241],[-90.27749,38.73308],[-90.27754,38.73338],[-90.27774,38.73404],[-90.27785,38.73458],[-90.27815,38.73623],[-90.27836,38.73752],[-90.27843,38.73809],[-90.27847,38.73858],[-90.27845,38.7395],[-90.27852,38.7399],[-90.2788,38.74188],[-90.27906,38.74342],[-90.27926,38.74502],[-90.27992,38.74925],[-90.27991,38.75026],[-90.27987,38.75119],[-90.27984,38.75263],[-90.27978,38.75442],[-90.27969,38.75872],[-90.27969,38.75926],[-90.27966,38.75998],[-90.27965,38.76083],[-90.27969,38.76192],[-90.27981,38.76263],[-90.27996,38.76314],[-90.28013,38.7638],[-90.28049,38.76497],[-90.28061,38.76542],[-90.28069,38.76577],[-90.28069,38.7662],[-90.28018,38.76961],[-90.28011,38.7699],[-90.27971,38.76982],[-90.2795,38.76981],[-90.27929,38.76982],[-90.27898,38.76986],[-90.27867,38.76996],[-90.27793,38.77039],[-90.27761,38.77053],[-90.27718,38.77066],[-90.27667,38.77072],[-90.27625,38.77074],[-90.27468,38.77071]]]}},{"type":"Feature","properties":{"stop_id":"14823","stop_code":"14823","stop_name":"14TH STREET @ WASHINGTON NB","stop_desc":"FAR SIDE 14TH STREET @ WASHINGTON NB","wheelchair_boarding":1,"routes":[{"route_id":"19612","agency_id":"70006","route_short_name":"41","route_long_name":"Lee","route_type":3,"route_color":"#FFFFFF","route_text_color":"#000000"},{"route_id":"19624","agency_id":"70006","route_short_name":"74","route_long_name":"Florissant","route_type":3,"route_color":"#FFFFFF","route_text_color":"#000000"},{"route_id":"19633","agency_id":"70006","route_short_name":"97","route_long_name":"Delmar","route_type":3,"route_color":"#FFFFFF","route_text_color":"#000000"}],"agency_name":"Metro St. Louis"},"geometry":{"type":"Point","coordinates":[-90.1994,38.63246]}},{"type":"Feature","properties":{"stop_id":"14824","stop_code":"14824","stop_name":"14TH STREET @ DR ML KING NB","stop_desc":"NEAR SIDE 14TH STREET @ DR ML KING NB","wheelchair_boarding":1,"routes":[{"route_id":"19612","agency_id":"70006","route_short_name":"41","route_long_name":"Lee","route_type":3,"route_color":"#FFFFFF","route_text_color":"#000000"},{"route_id":"19624","agency_id":"70006","route_short_name":"74","route_long_name":"Florissant","route_type":3,"route_color":"#FFFFFF","route_text_color":"#000000"}],"agency_name":"Metro St. Louis"},"geometry":{"type":"Point","coordinates":[-90.1981,38.63436]}},{"type":"Feature","properties":{"stop_id":"15867","stop_code":"15867","stop_name":"14TH STREET @ OFALLON NB","stop_desc":"FAR SIDE 14TH STREET @ OFALLON NB","wheelchair_boarding":1,"routes":[{"route_id":"19624","agency_id":"70006","route_short_name":"74","route_long_name":"Florissant","route_type":3,"route_color":"#FFFFFF","route_text_color":"#000000"}],"agency_name":"Metro St. Louis"},"geometry":{"type":"Point","coordinates":[-90.19691,38.63931]}},{"type":"Feature","properties":{"stop_id":"15868","stop_code":"15868","stop_name":"14TH STREET @ CASS NB","stop_desc":"NEAR SIDE 14TH STREET @ CASS NB","wheelchair_boarding":1,"routes":[{"route_id":"19624","agency_id":"70006","route_short_name":"74","route_long_name":"Florissant","route_type":3,"route_color":"#FFFFFF","route_text_color":"#000000"}],"agency_name":"Metro St. Louis"},"geometry":{"type":"Point","coordinates":[-90.19633,38.64101]}},{"type":"Feature","properties":{"stop_id":"16146","stop_code":"16146","stop_name":"NORTH COUNTY TRANSIT CENTER","wheelchair_boarding":1,"routes":[{"route_id":"19611","agency_id":"70006","route_short_name":"40","route_long_name":"Broadway-Halls Ferry","route_type":3,"route_color":"#FFFFFF","route_text_color":"#000000"},{"route_id":"19619","agency_id":"70006","route_short_name":"60","route_long_name":"Shepley-Lilac","route_type":3,"route_color":"#FFFFFF","route_text_color":"#000000"},{"route_id":"19624","agency_id":"70006","route_short_name":"74","route_long_name":"Florissant","route_type":3,"route_color":"#FFFFFF","route_text_color":"#000000"},{"route_id":"19627","agency_id":"70006","route_short_name":"78","route_long_name":"Bellefontaine","route_type":3,"route_color":"#FFFFFF","route_text_color":"#000000"}],"agency_name":"Metro St. Louis"},"geometry":{"type":"Point","coordinates":[-90.27452,38.76987]}},{"type":"Feature","properties":{"stop_id":"16191","stop_code":"16191","stop_name":"WEST FLORISSANT @ I-70 EXIT 245B NB","stop_desc":"FAR SIDE WEST FLORISSANT @ I-70 EXIT 245B NB","wheelchair_boarding":1,"routes":[{"route_id":"19624","agency_id":"70006","route_short_name":"74","route_long_name":"Florissant","route_type":3,"route_color":"#FFFFFF","route_text_color":"#000000"},{"route_id":"19632","agency_id":"70006","route_short_name":"95","route_long_name":"Kingshighway","route_type":3,"route_color":"#FFFFFF","route_text_color":"#000000"}],"agency_name":"Metro St. Louis"},"geometry":{"type":"Point","coordinates":[-90.23059,38.68511]}},{"type":"Feature","properties":{"stop_id":"2384","stop_code":"2384","stop_name":"WEST FLORISSANT @ EUCLID NB","stop_desc":"NEAR SIDE WEST FLORISSANT @ EUCLID NB","wheelchair_boarding":1,"routes":[{"route_id":"19624","agency_id":"70006","route_short_name":"74","route_long_name":"Florissant","route_type":3,"route_color":"#FFFFFF","route_text_color":"#000000"},{"route_id":"19632","agency_id":"70006","route_short_name":"95","route_long_name":"Kingshighway","route_type":3,"route_color":"#FFFFFF","route_text_color":"#000000"}],"agency_name":"Metro St. Louis"},"geometry":{"type":"Point","coordinates":[-90.2343,38.68936]}},{"type":"Feature","properties":{"stop_id":"2385","stop_code":"2385","stop_name":"WEST FLORISSANT @ SHREVE NB","stop_desc":"FAR SIDE WEST FLORISSANT @ SHREVE NB","wheelchair_boarding":1,"routes":[{"route_id":"19624","agency_id":"70006","route_short_name":"74","route_long_name":"Florissant","route_type":3,"route_color":"#FFFFFF","route_text_color":"#000000"},{"route_id":"19632","agency_id":"70006","route_short_name":"95","route_long_name":"Kingshighway","route_type":3,"route_color":"#FFFFFF","route_text_color":"#000000"}],"agency_name":"Metro St. Louis"},"geometry":{"type":"Point","coordinates":[-90.23214,38.6869]}},{"type":"Feature","properties":{"stop_id":"3511","stop_code":"3511","stop_name":"NORTH FLORISSANT @ BLAIR NB","stop_desc":"FAR SIDE NORTH FLORISSANT @ BLAIR NB","wheelchair_boarding":1,"routes":[{"route_id":"19624","agency_id":"70006","route_short_name":"74","route_long_name":"Florissant","route_type":3,"route_color":"#FFFFFF","route_text_color":"#000000"}],"agency_name":"Metro St. Louis"},"geometry":{"type":"Point","coordinates":[-90.19597,38.64338]}},{"type":"Feature","properties":{"stop_id":"3512","stop_code":"3512","stop_name":"NORTH FLORISSANT @ MADISON NB","stop_desc":"NEAR SIDE NORTH FLORISSANT @ MADISON NB","wheelchair_boarding":1,"routes":[{"route_id":"19624","agency_id":"70006","route_short_name":"74","route_long_name":"Florissant","route_type":3,"route_color":"#FFFFFF","route_text_color":"#000000"}],"agency_name":"Metro St. Louis"},"geometry":{"type":"Point","coordinates":[-90.19703,38.645]}},{"type":"Feature","properties":{"stop_id":"3514","stop_code":"3514","stop_name":"NORTH FLORISSANT @ NORTH MARKET NB","stop_desc":"FAR SIDE NORTH FLORISSANT @ NORTH MARKET NB","wheelchair_boarding":1,"routes":[{"route_id":"19624","agency_id":"70006","route_short_name":"74","route_long_name":"Florissant","route_type":3,"route_color":"#FFFFFF","route_text_color":"#000000"}],"agency_name":"Metro St. Louis"},"geometry":{"type":"Point","coordinates":[-90.19846,38.6478]}},{"type":"Feature","properties":{"stop_id":"3516","stop_code":"3516","stop_name":"NORTH FLORISSANT @ ST. LOUIS NB","stop_desc":"NEAR SIDE NORTH FLORISSANT @ ST. LOUIS NB","wheelchair_boarding":1,"routes":[{"route_id":"19624","agency_id":"70006","route_short_name":"74","route_long_name":"Florissant","route_type":3,"route_color":"#FFFFFF","route_text_color":"#000000"}],"agency_name":"Metro St. Louis"},"geometry":{"type":"Point","coordinates":[-90.19979,38.65045]}},{"type":"Feature","properties":{"stop_id":"3518","stop_code":"3518","stop_name":"NORTH FLORISSANT @ SULLIVAN NB","stop_desc":"NEAR SIDE NORTH FLORISSANT @ SULLIVAN NB","wheelchair_boarding":1,"routes":[{"route_id":"19624","agency_id":"70006","route_short_name":"74","route_long_name":"Florissant","route_type":3,"route_color":"#FFFFFF","route_text_color":"#000000"}],"agency_name":"Metro St. Louis"},"geometry":{"type":"Point","coordinates":[-90.20146,38.65347]}},{"type":"Feature","properties":{"stop_id":"3520","stop_code":"3520","stop_name":"NORTH FLORISSANT @ PALM NB","stop_desc":"NEAR SIDE NORTH FLORISSANT @ PALM NB","wheelchair_boarding":1,"routes":[{"route_id":"19624","agency_id":"70006","route_short_name":"74","route_long_name":"Florissant","route_type":3,"route_color":"#FFFFFF","route_text_color":"#000000"}],"agency_name":"Metro St. Louis"},"geometry":{"type":"Point","coordinates":[-90.20294,38.65599]}},{"type":"Feature","properties":{"stop_id":"3521","stop_code":"3521","stop_name":"NORTH FLORISSANT @ BRANCH NB","stop_desc":"NEAR SIDE NORTH FLORISSANT @ BRANCH NB","wheelchair_boarding":1,"routes":[{"route_id":"19624","agency_id":"70006","route_short_name":"74","route_long_name":"Florissant","route_type":3,"route_color":"#FFFFFF","route_text_color":"#000000"}],"agency_name":"Metro St. Louis"},"geometry":{"type":"Point","coordinates":[-90.2039,38.65723]}},{"type":"Feature","properties":{"stop_id":"3522","stop_code":"3522","stop_name":"NORTH FLORISSANT @ SALISBURY NB","stop_desc":"NEAR SIDE NORTH FLORISSANT @ SALISBURY NB","wheelchair_boarding":1,"routes":[{"route_id":"19624","agency_id":"70006","route_short_name":"74","route_long_name":"Florissant","route_type":3,"route_color":"#FFFFFF","route_text_color":"#000000"}],"agency_name":"Metro St. Louis"},"geometry":{"type":"Point","coordinates":[-90.20491,38.65924]}},{"type":"Feature","properties":{"stop_id":"3524","stop_code":"3524","stop_name":"NORTH FLORISSANT @ BREMEN NB","stop_desc":"NEAR SIDE NORTH FLORISSANT @ BREMEN NB","wheelchair_boarding":1,"routes":[{"route_id":"19624","agency_id":"70006","route_short_name":"74","route_long_name":"Florissant","route_type":3,"route_color":"#FFFFFF","route_text_color":"#000000"}],"agency_name":"Metro St. Louis"},"geometry":{"type":"Point","coordinates":[-90.2059,38.66139]}},{"type":"Feature","properties":{"stop_id":"3526","stop_code":"3526","stop_name":"NORTH FLORISSANT @ ANGELICA NB","stop_desc":"FAR SIDE NORTH FLORISSANT @ ANGELICA NB","wheelchair_boarding":1,"routes":[{"route_id":"19624","agency_id":"70006","route_short_name":"74","route_long_name":"Florissant","route_type":3,"route_color":"#FFFFFF","route_text_color":"#000000"}],"agency_name":"Metro St. Louis"},"geometry":{"type":"Point","coordinates":[-90.20751,38.66445]}},{"type":"Feature","properties":{"stop_id":"3527","stop_code":"3527","stop_name":"NORTH FLORISSANT @ FERRY NB","stop_desc":"NEAR SIDE NORTH FLORISSANT @ FERRY NB","wheelchair_boarding":1,"routes":[{"route_id":"19624","agency_id":"70006","route_short_name":"74","route_long_name":"Florissant","route_type":3,"route_color":"#FFFFFF","route_text_color":"#000000"}],"agency_name":"Metro St. Louis"},"geometry":{"type":"Point","coordinates":[-90.20859,38.66672]}},{"type":"Feature","properties":{"stop_id":"3528","stop_code":"3528","stop_name":"NORTH FLORISSANT @ PLEASANT NB","stop_desc":"FAR SIDE NORTH FLORISSANT @ PLEASANT NB","wheelchair_boarding":1,"routes":[{"route_id":"19624","agency_id":"70006","route_short_name":"74","route_long_name":"Florissant","route_type":3,"route_color":"#FFFFFF","route_text_color":"#000000"}],"agency_name":"Metro St. Louis"},"geometry":{"type":"Point","coordinates":[-90.2096,38.66809]}},{"type":"Feature","properties":{"stop_id":"3529","stop_code":"3529","stop_name":"WEST FLORISSANT @ GRAND NB","stop_desc":"NEAR SIDE WEST FLORISSANT @ GRAND NB","wheelchair_boarding":1,"routes":[{"route_id":"19624","agency_id":"70006","route_short_name":"74","route_long_name":"Florissant","route_type":3,"route_color":"#FFFFFF","route_text_color":"#000000"}],"agency_name":"Metro St. Louis"},"geometry":{"type":"Point","coordinates":[-90.21087,38.66897]}},{"type":"Feature","properties":{"stop_id":"3531","stop_code":"3531","stop_name":"WEST FLORISSANT @ GANO NB","stop_desc":"NEAR SIDE WEST FLORISSANT @ GANO NB","wheelchair_boarding":1,"routes":[{"route_id":"19624","agency_id":"70006","route_short_name":"74","route_long_name":"Florissant","route_type":3,"route_color":"#FFFFFF","route_text_color":"#000000"}],"agency_name":"Metro St. Louis"},"geometry":{"type":"Point","coordinates":[-90.21347,38.67085]}},{"type":"Feature","properties":{"stop_id":"3533","stop_code":"3533","stop_name":"WEST FLORISSANT @ LINTON NB","stop_desc":"NEAR SIDE WEST FLORISSANT @ LINTON NB","wheelchair_boarding":1,"routes":[{"route_id":"19624","agency_id":"70006","route_short_name":"74","route_long_name":"Florissant","route_type":3,"route_color":"#FFFFFF","route_text_color":"#000000"}],"agency_name":"Metro St. Louis"},"geometry":{"type":"Point","coordinates":[-90.216,38.67239]}},{"type":"Feature","properties":{"stop_id":"3535","stop_code":"3535","stop_name":"WEST FLORISSANT @ WARNE NB","stop_desc":"NEAR SIDE WEST FLORISSANT @ WARNE NB","wheelchair_boarding":1,"routes":[{"route_id":"19624","agency_id":"70006","route_short_name":"74","route_long_name":"Florissant","route_type":3,"route_color":"#FFFFFF","route_text_color":"#000000"}],"agency_name":"Metro St. Louis"},"geometry":{"type":"Point","coordinates":[-90.21791,38.67323]}},{"type":"Feature","properties":{"stop_id":"3537","stop_code":"3537","stop_name":"WEST FLORISSANT @ ADELAIDE NB","stop_desc":"FAR SIDE WEST FLORISSANT @ ADELAIDE NB","wheelchair_boarding":1,"routes":[{"route_id":"19624","agency_id":"70006","route_short_name":"74","route_long_name":"Florissant","route_type":3,"route_color":"#FFFFFF","route_text_color":"#000000"}],"agency_name":"Metro St. Louis"},"geometry":{"type":"Point","coordinates":[-90.22023,38.67513]}},{"type":"Feature","properties":{"stop_id":"3538","stop_code":"3538","stop_name":"WEST FLORISSANT @ HARRIS NB","stop_desc":"NEAR SIDE WEST FLORISSANT @ HARRIS NB","wheelchair_boarding":1,"routes":[{"route_id":"19624","agency_id":"70006","route_short_name":"74","route_long_name":"Florissant","route_type":3,"route_color":"#FFFFFF","route_text_color":"#000000"}],"agency_name":"Metro St. Louis"},"geometry":{"type":"Point","coordinates":[-90.22126,38.67629]}},{"type":"Feature","properties":{"stop_id":"3539","stop_code":"3539","stop_name":"WEST FLORISSANT @ ATHLONE NB","stop_desc":"NEAR SIDE WEST FLORISSANT @ ATHLONE NB","wheelchair_boarding":1,"routes":[{"route_id":"19613","agency_id":"70006","route_short_name":"42","route_long_name":"Sarah","route_type":3,"route_color":"#FFFFFF","route_text_color":"#000000"},{"route_id":"19624","agency_id":"70006","route_short_name":"74","route_long_name":"Florissant","route_type":3,"route_color":"#FFFFFF","route_text_color":"#000000"}],"agency_name":"Metro St. Louis"},"geometry":{"type":"Point","coordinates":[-90.22289,38.67815]}},{"type":"Feature","properties":{"stop_id":"3541","stop_code":"3541","stop_name":"WEST FLORISSANT @ CLARENCE NB","stop_desc":"NEAR SIDE WEST FLORISSANT @ CLARENCE NB","wheelchair_boarding":1,"routes":[{"route_id":"19613","agency_id":"70006","route_short_name":"42","route_long_name":"Sarah","route_type":3,"route_color":"#FFFFFF","route_text_color":"#000000"},{"route_id":"19624","agency_id":"70006","route_short_name":"74","route_long_name":"Florissant","route_type":3,"route_color":"#FFFFFF","route_text_color":"#000000"}],"agency_name":"Metro St. Louis"},"geometry":{"type":"Point","coordinates":[-90.22418,38.67987]}},{"type":"Feature","properties":{"stop_id":"3542","stop_code":"3542","stop_name":"WEST FLORISSANT @ POPE NB","stop_desc":"FAR SIDE WEST FLORISSANT @ POPE NB","wheelchair_boarding":1,"routes":[{"route_id":"19624","agency_id":"70006","route_short_name":"74","route_long_name":"Florissant","route_type":3,"route_color":"#FFFFFF","route_text_color":"#000000"}],"agency_name":"Metro St. Louis"},"geometry":{"type":"Point","coordinates":[-90.22487,38.68121]}},{"type":"Feature","properties":{"stop_id":"3543","stop_code":"3543","stop_name":"WEST FLORISSANT @ KINGSHIGHWAY NB","stop_desc":"FAR SIDE WEST FLORISSANT @ KINGSHIGHWAY NB","wheelchair_boarding":1,"routes":[{"route_id":"19624","agency_id":"70006","route_short_name":"74","route_long_name":"Florissant","route_type":3,"route_color":"#FFFFFF","route_text_color":"#000000"}],"agency_name":"Metro St. Louis"},"geometry":{"type":"Point","coordinates":[-90.23607,38.69138]}},{"type":"Feature","properties":{"stop_id":"3545","stop_code":"3545","stop_name":"WEST FLORISSANT @ UNION NB","stop_desc":"NEAR SIDE WEST FLORISSANT @ UNION NB","wheelchair_boarding":1,"routes":[{"route_id":"19624","agency_id":"70006","route_short_name":"74","route_long_name":"Florissant","route_type":3,"route_color":"#FFFFFF","route_text_color":"#000000"}],"agency_name":"Metro St. Louis"},"geometry":{"type":"Point","coordinates":[-90.23899,38.69496]}},{"type":"Feature","properties":{"stop_id":"3547","stop_code":"3547","stop_name":"WEST FLORISSANT @ EMERSON NB","stop_desc":"NEAR SIDE WEST FLORISSANT @ EMERSON NB","wheelchair_boarding":1,"routes":[{"route_id":"19624","agency_id":"70006","route_short_name":"74","route_long_name":"Florissant","route_type":3,"route_color":"#FFFFFF","route_text_color":"#000000"}],"agency_name":"Metro St. Louis"},"geometry":{"type":"Point","coordinates":[-90.24088,38.69712]}},{"type":"Feature","properties":{"stop_id":"3548","stop_code":"3548","stop_name":"WEST FLORISSANT @ DAVISON NB","stop_desc":"FAR SIDE WEST FLORISSANT @ DAVISON NB","wheelchair_boarding":1,"routes":[{"route_id":"19624","agency_id":"70006","route_short_name":"74","route_long_name":"Florissant","route_type":3,"route_color":"#FFFFFF","route_text_color":"#000000"}],"agency_name":"Metro St. Louis"},"geometry":{"type":"Point","coordinates":[-90.24219,38.69862]}},{"type":"Feature","properties":{"stop_id":"3550","stop_code":"3550","stop_name":"WEST FLORISSANT @ THRUSH NB","stop_desc":"NEAR SIDE WEST FLORISSANT @ THRUSH NB","wheelchair_boarding":1,"routes":[{"route_id":"19624","agency_id":"70006","route_short_name":"74","route_long_name":"Florissant","route_type":3,"route_color":"#FFFFFF","route_text_color":"#000000"}],"agency_name":"Metro St. Louis"},"geometry":{"type":"Point","coordinates":[-90.24411,38.70082]}},{"type":"Feature","properties":{"stop_id":"3552","stop_code":"3552","stop_name":"WEST FLORISSANT @ ROBIN NB","stop_desc":"NEAR SIDE WEST FLORISSANT @ ROBIN NB","wheelchair_boarding":1,"routes":[{"route_id":"19624","agency_id":"70006","route_short_name":"74","route_long_name":"Florissant","route_type":3,"route_color":"#FFFFFF","route_text_color":"#000000"}],"agency_name":"Metro St. Louis"},"geometry":{"type":"Point","coordinates":[-90.24616,38.70319]}},{"type":"Feature","properties":{"stop_id":"3554","stop_code":"3554","stop_name":"WEST FLORISSANT @ PARTRIDGE NB","stop_desc":"NEAR SIDE WEST FLORISSANT @ PARTRIDGE NB","wheelchair_boarding":1,"routes":[{"route_id":"19624","agency_id":"70006","route_short_name":"74","route_long_name":"Florissant","route_type":3,"route_color":"#FFFFFF","route_text_color":"#000000"}],"agency_name":"Metro St. Louis"},"geometry":{"type":"Point","coordinates":[-90.24829,38.70561]}},{"type":"Feature","properties":{"stop_id":"3555","stop_code":"3555","stop_name":"WEST FLORISSANT @ RIVERVIEW NB","stop_desc":"FAR SIDE WEST FLORISSANT @ RIVERVIEW NB","wheelchair_boarding":1,"routes":[{"route_id":"19624","agency_id":"70006","route_short_name":"74","route_long_name":"Florissant","route_type":3,"route_color":"#FFFFFF","route_text_color":"#000000"}],"agency_name":"Metro St. Louis"},"geometry":{"type":"Point","coordinates":[-90.24965,38.70716]}},{"type":"Feature","properties":{"stop_id":"3556","stop_code":"3556","stop_name":"WEST FLORISSANT @ PARK NB","stop_desc":"NEAR SIDE WEST FLORISSANT @ PARK NB","wheelchair_boarding":1,"routes":[{"route_id":"19624","agency_id":"70006","route_short_name":"74","route_long_name":"Florissant","route_type":3,"route_color":"#FFFFFF","route_text_color":"#000000"}],"agency_name":"Metro St. Louis"},"geometry":{"type":"Point","coordinates":[-90.25112,38.70884]}},{"type":"Feature","properties":{"stop_id":"3558","stop_code":"3558","stop_name":"WEST FLORISSANT @ MIMIKA NB","stop_desc":"FAR SIDE WEST FLORISSANT @ MIMIKA NB","wheelchair_boarding":1,"routes":[{"route_id":"19624","agency_id":"70006","route_short_name":"74","route_long_name":"Florissant","route_type":3,"route_color":"#FFFFFF","route_text_color":"#000000"}],"agency_name":"Metro St. Louis"},"geometry":{"type":"Point","coordinates":[-90.25336,38.71137]}},{"type":"Feature","properties":{"stop_id":"3560","stop_code":"3560","stop_name":"WEST FLORISSANT @ GOODFELLOW NB","stop_desc":"NEAR SIDE WEST FLORISSANT @ GOODFELLOW NB","wheelchair_boarding":1,"routes":[{"route_id":"19624","agency_id":"70006","route_short_name":"74","route_long_name":"Florissant","route_type":3,"route_color":"#FFFFFF","route_text_color":"#000000"}],"agency_name":"Metro St. Louis"},"geometry":{"type":"Point","coordinates":[-90.25484,38.71307]}},{"type":"Feature","properties":{"stop_id":"3561","stop_code":"3561","stop_name":"WEST FLORISSANT @ ACME NB","stop_desc":"FAR SIDE WEST FLORISSANT @ ACME NB","wheelchair_boarding":2,"routes":[{"route_id":"19624","agency_id":"70006","route_short_name":"74","route_long_name":"Florissant","route_type":3,"route_color":"#FFFFFF","route_text_color":"#000000"}],"agency_name":"Metro St. Louis"},"geometry":{"type":"Point","coordinates":[-90.25607,38.71407]}},{"type":"Feature","properties":{"stop_id":"3563","stop_code":"3563","stop_name":"WEST FLORISSANT @ HAMILTON NB","stop_desc":"FAR SIDE WEST FLORISSANT @ HAMILTON NB","wheelchair_boarding":1,"routes":[{"route_id":"19624","agency_id":"70006","route_short_name":"74","route_long_name":"Florissant","route_type":3,"route_color":"#FFFFFF","route_text_color":"#000000"}],"agency_name":"Metro St. Louis"},"geometry":{"type":"Point","coordinates":[-90.25801,38.71542]}},{"type":"Feature","properties":{"stop_id":"3564","stop_code":"3564","stop_name":"WEST FLORISSANT @ HELEN NB","stop_desc":"FAR SIDE WEST FLORISSANT @ HELEN NB","wheelchair_boarding":2,"routes":[{"route_id":"19624","agency_id":"70006","route_short_name":"74","route_long_name":"Florissant","route_type":3,"route_color":"#FFFFFF","route_text_color":"#000000"}],"agency_name":"Metro St. Louis"},"geometry":{"type":"Point","coordinates":[-90.25931,38.71631]}},{"type":"Feature","properties":{"stop_id":"3565","stop_code":"3565","stop_name":"WEST FLORISSANT @ JENNINGS STATION ROAD NB","stop_desc":"NEAR SIDE WEST FLORISSANT @ JENNINGS STATION ROAD NB","wheelchair_boarding":1,"routes":[{"route_id":"19624","agency_id":"70006","route_short_name":"74","route_long_name":"Florissant","route_type":3,"route_color":"#FFFFFF","route_text_color":"#000000"}],"agency_name":"Metro St. Louis"},"geometry":{"type":"Point","coordinates":[-90.26097,38.71749]}},{"type":"Feature","properties":{"stop_id":"3567","stop_code":"3567","stop_name":"WEST FLORISSANT @ MAYFAIR PLACE NB","stop_desc":"NEAR SIDE WEST FLORISSANT @ MAYFAIR PLACE NB","wheelchair_boarding":1,"routes":[{"route_id":"19624","agency_id":"70006","route_short_name":"74","route_long_name":"Florissant","route_type":3,"route_color":"#FFFFFF","route_text_color":"#000000"}],"agency_name":"Metro St. Louis"},"geometry":{"type":"Point","coordinates":[-90.26434,38.71967]}},{"type":"Feature","properties":{"stop_id":"3569","stop_code":"3569","stop_name":"WEST FLORISSANT @ HIGGINS NB","stop_desc":"FAR SIDE WEST FLORISSANT @ HIGGINS NB","wheelchair_boarding":2,"routes":[{"route_id":"19624","agency_id":"70006","route_short_name":"74","route_long_name":"Florissant","route_type":3,"route_color":"#FFFFFF","route_text_color":"#000000"}],"agency_name":"Metro St. Louis"},"geometry":{"type":"Point","coordinates":[-90.2671,38.72102]}},{"type":"Feature","properties":{"stop_id":"3570","stop_code":"3570","stop_name":"WEST FLORISSANT @ MCLARAN NB","stop_desc":"NEAR SIDE WEST FLORISSANT @ MCLARAN NB","wheelchair_boarding":1,"routes":[{"route_id":"19624","agency_id":"70006","route_short_name":"74","route_long_name":"Florissant","route_type":3,"route_color":"#FFFFFF","route_text_color":"#000000"}],"agency_name":"Metro St. Louis"},"geometry":{"type":"Point","coordinates":[-90.27045,38.72243]}},{"type":"Feature","properties":{"stop_id":"3572","stop_code":"3572","stop_name":"WEST FLORISSANT @ OSBORN NB","stop_desc":"NEAR SIDE WEST FLORISSANT @ OSBORN NB","wheelchair_boarding":1,"routes":[{"route_id":"19624","agency_id":"70006","route_short_name":"74","route_long_name":"Florissant","route_type":3,"route_color":"#FFFFFF","route_text_color":"#000000"}],"agency_name":"Metro St. Louis"},"geometry":{"type":"Point","coordinates":[-90.27368,38.72447]}},{"type":"Feature","properties":{"stop_id":"3574","stop_code":"3574","stop_name":"WEST FLORISSANT @ EMERSON ELECTRIC NB","stop_desc":"MID-BLOCK WEST FLORISSANT @ EMERSON ELECTRIC NB","wheelchair_boarding":1,"routes":[{"route_id":"19624","agency_id":"70006","route_short_name":"74","route_long_name":"Florissant","route_type":3,"route_color":"#FFFFFF","route_text_color":"#000000"}],"agency_name":"Metro St. Louis"},"geometry":{"type":"Point","coordinates":[-90.27756,38.73061]}},{"type":"Feature","properties":{"stop_id":"3575","stop_code":"3575","stop_name":"WEST FLORISSANT @ SOLWAY NB","stop_desc":"NEAR SIDE WEST FLORISSANT @ SOLWAY NB","wheelchair_boarding":1,"routes":[{"route_id":"19624","agency_id":"70006","route_short_name":"74","route_long_name":"Florissant","route_type":3,"route_color":"#FFFFFF","route_text_color":"#000000"}],"agency_name":"Metro St. Louis"},"geometry":{"type":"Point","coordinates":[-90.27739,38.73281]}},{"type":"Feature","properties":{"stop_id":"3576","stop_code":"3576","stop_name":"WEST FLORISSANT @ FERGUSON NB","stop_desc":"MID-BLOCK WEST FLORISSANT @ FERGUSON NB","wheelchair_boarding":1,"routes":[{"route_id":"19624","agency_id":"70006","route_short_name":"74","route_long_name":"Florissant","route_type":3,"route_color":"#FFFFFF","route_text_color":"#000000"}],"agency_name":"Metro St. Louis"},"geometry":{"type":"Point","coordinates":[-90.27787,38.73555]}},{"type":"Feature","properties":{"stop_id":"3578","stop_code":"3578","stop_name":"WEST FLORISSANT @ CANFIELD NB","stop_desc":"NEAR SIDE WEST FLORISSANT @ CANFIELD NB","wheelchair_boarding":1,"routes":[{"route_id":"19624","agency_id":"70006","route_short_name":"74","route_long_name":"Florissant","route_type":3,"route_color":"#FFFFFF","route_text_color":"#000000"}],"agency_name":"Metro St. Louis"},"geometry":{"type":"Point","coordinates":[-90.27832,38.738]}},{"type":"Feature","properties":{"stop_id":"3579","stop_code":"3579","stop_name":"WEST FLORISSANT @ NORTHWIND ESTATES NB","stop_desc":"FAR SIDE WEST FLORISSANT @ NORTHWIND ESTATES NB","wheelchair_boarding":1,"routes":[{"route_id":"19624","agency_id":"70006","route_short_name":"74","route_long_name":"Florissant","route_type":3,"route_color":"#FFFFFF","route_text_color":"#000000"}],"agency_name":"Metro St. Louis"},"geometry":{"type":"Point","coordinates":[-90.27842,38.73998]}},{"type":"Feature","properties":{"stop_id":"3581","stop_code":"3581","stop_name":"WEST FLORISSANT @ KAPPEL NB","stop_desc":"NEAR SIDE WEST FLORISSANT @ KAPPEL NB","wheelchair_boarding":1,"routes":[{"route_id":"19624","agency_id":"70006","route_short_name":"74","route_long_name":"Florissant","route_type":3,"route_color":"#FFFFFF","route_text_color":"#000000"}],"agency_name":"Metro St. Louis"},"geometry":{"type":"Point","coordinates":[-90.27909,38.74449]}},{"type":"Feature","properties":{"stop_id":"3582","stop_code":"3582","stop_name":"WEST FLORISSANT @ CHAMBERS NB","stop_desc":"FAR SIDE WEST FLORISSANT @ CHAMBERS NB","wheelchair_boarding":1,"routes":[{"route_id":"19624","agency_id":"70006","route_short_name":"74","route_long_name":"Florissant","route_type":3,"route_color":"#FFFFFF","route_text_color":"#000000"}],"agency_name":"Metro St. Louis"},"geometry":{"type":"Point","coordinates":[-90.2798,38.75019]}},{"type":"Feature","properties":{"stop_id":"3583","stop_code":"3583","stop_name":"WEST FLORISSANT @ PARNELLO NB","stop_desc":"FAR SIDE WEST FLORISSANT @ PARNELLO NB","wheelchair_boarding":1,"routes":[{"route_id":"19624","agency_id":"70006","route_short_name":"74","route_long_name":"Florissant","route_type":3,"route_color":"#FFFFFF","route_text_color":"#000000"}],"agency_name":"Metro St. Louis"},"geometry":{"type":"Point","coordinates":[-90.27974,38.75319]}},{"type":"Feature","properties":{"stop_id":"3585","stop_code":"3585","stop_name":"WEST FLORISSANT @ YARWOOD COURT NB","stop_desc":"NEAR SIDE WEST FLORISSANT @ YARWOOD COURT NB","wheelchair_boarding":1,"routes":[{"route_id":"19624","agency_id":"70006","route_short_name":"74","route_long_name":"Florissant","route_type":3,"route_color":"#FFFFFF","route_text_color":"#000000"}],"agency_name":"Metro St. Louis"},"geometry":{"type":"Point","coordinates":[-90.27964,38.75678]}},{"type":"Feature","properties":{"stop_id":"3586","stop_code":"3586","stop_name":"WEST FLORISSANT @ CHAMPLIN NB","stop_desc":"FAR SIDE WEST FLORISSANT @ CHAMPLIN NB","wheelchair_boarding":1,"routes":[{"route_id":"19624","agency_id":"70006","route_short_name":"74","route_long_name":"Florissant","route_type":3,"route_color":"#FFFFFF","route_text_color":"#000000"}],"agency_name":"Metro St. Louis"},"geometry":{"type":"Point","coordinates":[-90.2796,38.75954]}},{"type":"Feature","properties":{"stop_id":"3588","stop_code":"3588","stop_name":"WEST FLORISSANT @ KEELEN NB","stop_desc":"NEAR SIDE WEST FLORISSANT @ KEELEN NB","wheelchair_boarding":1,"routes":[{"route_id":"19624","agency_id":"70006","route_short_name":"74","route_long_name":"Florissant","route_type":3,"route_color":"#FFFFFF","route_text_color":"#000000"}],"agency_name":"Metro St. Louis"},"geometry":{"type":"Point","coordinates":[-90.27994,38.7637]}},{"type":"Feature","properties":{"stop_id":"3590","stop_code":"3590","stop_name":"WEST FLORISSANT @ SOMERSET TERRACE NB","stop_desc":"FAR SIDE WEST FLORISSANT @ SOMERSET TERRACE NB","wheelchair_boarding":1,"routes":[{"route_id":"19624","agency_id":"70006","route_short_name":"74","route_long_name":"Florissant","route_type":3,"route_color":"#FFFFFF","route_text_color":"#000000"}],"agency_name":"Metro St. Louis"},"geometry":{"type":"Point","coordinates":[-90.28034,38.76725]}},{"type":"Feature","properties":{"stop_id":"3693","stop_code":"3693","stop_name":"PERSHALL @ METRO PLAZA EB","stop_desc":"MID-BLOCK PERSHALL @ METRO PLAZA EB","wheelchair_boarding":2,"routes":[{"route_id":"19611","agency_id":"70006","route_short_name":"40","route_long_name":"Broadway-Halls Ferry","route_type":3,"route_color":"#FFFFFF","route_text_color":"#000000"},{"route_id":"19619","agency_id":"70006","route_short_name":"60","route_long_name":"Shepley-Lilac","route_type":3,"route_color":"#FFFFFF","route_text_color":"#000000"},{"route_id":"19624","agency_id":"70006","route_short_name":"74","route_long_name":"Florissant","route_type":3,"route_color":"#FFFFFF","route_text_color":"#000000"},{"route_id":"19626","agency_id":"70006","route_short_name":"77","route_long_name":"Village Square","route_type":3,"route_color":"#FFFFFF","route_text_color":"#000000"},{"route_id":"19627","agency_id":"70006","route_short_name":"78","route_long_name":"Bellefontaine","route_type":3,"route_color":"#FFFFFF","route_text_color":"#000000"},{"route_id":"19628","agency_id":"70006","route_short_name":"79","route_long_name":"Ferguson-Clayton","route_type":3,"route_color":"#FFFFFF","route_text_color":"#000000"}],"agency_name":"Metro St. Louis"},"geometry":{"type":"Point","coordinates":[-90.27873,38.77001]}},{"type":"Feature","properties":{"stop_id":"7010","stop_code":"7010","stop_name":"14TH STREET @ COLE NB","stop_desc":"NEAR SIDE 14TH STREET @ COLE NB","wheelchair_boarding":1,"routes":[{"route_id":"19612","agency_id":"70006","route_short_name":"41","route_long_name":"Lee","route_type":3,"route_color":"#FFFFFF","route_text_color":"#000000"},{"route_id":"19624","agency_id":"70006","route_short_name":"74","route_long_name":"Florissant","route_type":3,"route_color":"#FFFFFF","route_text_color":"#000000"}],"agency_name":"Metro St. Louis"},"geometry":{"type":"Point","coordinates":[-90.19766,38.63565]}},{"type":"Feature","properties":{"stop_id":"731","stop_code":"731","stop_name":"WEST FLORISSANT @ BUZZ WESTFALL PLAZA NB","stop_desc":"NEAR SIDE WEST FLORISSANT @ BUZZ WESTFALL PLAZA NB","wheelchair_boarding":2,"routes":[{"route_id":"19624","agency_id":"70006","route_short_name":"74","route_long_name":"Florissant","route_type":3,"route_color":"#FFFFFF","route_text_color":"#000000"}],"agency_name":"Metro St. Louis"},"geometry":{"type":"Point","coordinates":[-90.27591,38.72659]}},{"type":"Feature","properties":{"stop_id":"7651","stop_code":"7651","stop_name":"14TH STREET @ CHESTNUT NB","stop_desc":"NEAR SIDE 14TH STREET @ CHESTNUT NB","wheelchair_boarding":1,"routes":[{"route_id":"19598","agency_id":"70006","route_short_name":"10","route_long_name":"Gravois-Lindell","route_type":3,"route_color":"#FFFFFF","route_text_color":"#000000"},{"route_id":"19607","agency_id":"70006","route_short_name":"32","route_long_name":"Dr ML King","route_type":3,"route_color":"#FFFFFF","route_text_color":"#000000"},{"route_id":"19611","agency_id":"70006","route_short_name":"40","route_long_name":"Broadway-Halls Ferry","route_type":3,"route_color":"#FFFFFF","route_text_color":"#000000"},{"route_id":"19612","agency_id":"70006","route_short_name":"41","route_long_name":"Lee","route_type":3,"route_color":"#FFFFFF","route_text_color":"#000000"},{"route_id":"19624","agency_id":"70006","route_short_name":"74","route_long_name":"Florissant","route_type":3,"route_color":"#FFFFFF","route_text_color":"#000000"},{"route_id":"19633","agency_id":"70006","route_short_name":"97","route_long_name":"Delmar","route_type":3,"route_color":"#FFFFFF","route_text_color":"#000000"}],"agency_name":"Metro St. Louis"},"geometry":{"type":"Point","coordinates":[-90.20077,38.62859]}},{"type":"Feature","properties":{"stop_id":"7852","stop_code":"7852","stop_name":"CIVIC CENTER TRANSIT CENTER","wheelchair_boarding":1,"routes":[{"route_id":"19611","agency_id":"70006","route_short_name":"40","route_long_name":"Broadway-Halls Ferry","route_type":3,"route_color":"#FFFFFF","route_text_color":"#000000"},{"route_id":"19612","agency_id":"70006","route_short_name":"41","route_long_name":"Lee","route_type":3,"route_color":"#FFFFFF","route_text_color":"#000000"},{"route_id":"19624","agency_id":"70006","route_short_name":"74","route_long_name":"Florissant","route_type":3,"route_color":"#FFFFFF","route_text_color":"#000000"}],"agency_name":"Metro St. Louis"},"geometry":{"type":"Point","coordinates":[-90.20277,38.62528]}}]}