{"type":"FeatureCollection","features":[{"type":"Feature","properties":{"agency_name":"Metro St. Louis","route_id":"19629","agency_id":"70006","route_short_name":"90","route_long_name":"Hampton","route_type":3,"route_color":"#FFFFFF","route_text_color":"#000000"},"geometry":{"type":"MultiLineString","coordinates":[[[-90.29386,38.56448],[-90.29375,38.56455],[-90.29417,38.56429],[-90.29435,38.56454],[-90.29452,38.56486],[-90.29514,38.56618],[-90.29613,38.56814],[-90.29627,38.56849],[-90.29633,38.56882],[-90.29634,38.56905],[-90.29632,38.56928],[-90.29616,38.57023],[-90.29596,38.57138],[-90.2959,38.57165],[-90.29572,38.57208],[-90.29511,38.57297],[-90.29495,38.57332],[-90.29477,38.57408],[-90.2944,38.57617],[-90.29371,38.57987],[-90.29333,38.58207],[-90.29278,38.58511],[-90.29249,38.58687],[-90.29249,38.58709],[-90.29256,38.5873],[-90.29261,38.5874],[-90.29275,38.58758],[-90.29301,38.58779],[-90.29351,38.58807],[-90.29378,38.58828],[-90.29407,38.5886],[-90.29423,38.58885],[-90.29433,38.5891],[-90.29438,38.5893],[-90.29442,38.58956],[-90.29456,38.5912],[-90.29454,38.59209],[-90.29451,38.59234],[-90.29447,38.59262],[-90.29428,38.59341],[-90.29416,38.59381],[-90.29406,38.59408],[-90.2937,38.59485],[-90.29309,38.59588],[-90.2929,38.59636],[-90.29281,38.59672],[-90.2924,38.5993],[-90.29213,38.60073],[-90.29183,38.60258],[-90.29171,38.60312],[-90.2916,38.60347],[-90.2914,38.60392],[-90.29124,38.6042],[-90.29102,38.60452],[-90.29075,38.60483],[-90.28949,38.60615],[-90.28913,38.60665],[-90.28893,38.60698],[-90.28877,38.60739],[-90.28865,38.60779],[-90.28812,38.61041],[-90.28783,38.61176],[-90.28759,38.61222],[-90.28725,38.61334],[-90.28716,38.61384],[-90.28712,38.61435],[-90.28712,38.61481],[-90.28715,38.61533],[-90.28714,38.61567],[-90.28718,38.61584],[-90.28711,38.61627],[-90.2871,38.61648],[-90.28713,38.6168],[-90.28726,38.61724],[-90.28747,38.61764],[-90.28766,38.61792],[-90.28805,38.61841],[-90.28824,38.61872],[-90.28836,38.619],[-90.2884,38.61918],[-90.28846,38.61965],[-90.28847,38.6202],[-90.28843,38.62058],[-90.2881,38.62222],[-90.28799,38.6227],[-90.28787,38.62335],[-90.28783,38.62367],[-90.28782,38.62393],[-90.28793,38.62469],[-90.28793,38.62485],[-90.28783,38.62552],[-90.2876,38.62668],[-90.28745,38.62753],[-90.2871,38.62977],[-90.287,38.63018],[-90.28687,38.63055],[-90.2864,38.63175],[-90.28626,38.63217],[-90.28606,38.63255],[-90.28567,38.63291],[-90.28544,38.63302],[-90.28538,38.63303],[-90.28532,38.63307],[-90.28528,38.63312],[-90.28527,38.63318],[-90.28528,38.63323],[-90.28523,38.63341],[-90.28522,38.63362],[-90.28509,38.63401],[-90.28486,38.63487],[-90.28472,38.63487],[-90.28468,38.63491],[-90.28466,38.63496],[-90.28468,38.63501],[-90.28472,38.63505],[-90.28479,38.63506],[-90.28486,38.63505],[-90.2849,38.63501],[-90.28492,38.63496],[-90.28633,38.63543],[-90.28758,38.6358],[-90.28795,38.63595],[-90.28812,38.63609],[-90.28825,38.63626],[-90.28909,38.63752],[-90.29101,38.63689],[-90.29115,38.63716],[-90.29145,38.63761],[-90.29173,38.6379],[-90.29213,38.63822],[-90.29343,38.63917],[-90.29466,38.63993],[-90.29567,38.64052],[-90.29591,38.64073],[-90.29604,38.6409],[-90.29617,38.64119],[-90.29621,38.6414],[-90.29619,38.64172],[-90.2961,38.64235],[-90.29595,38.64247],[-90.29558,38.64282],[-90.2953,38.64298],[-90.29461,38.64321],[-90.29375,38.64346],[-90.29292,38.64361],[-90.29238,38.64361],[-90.29206,38.64355],[-90.29001,38.64247],[-90.28968,38.64232],[-90.28937,38.64222],[-90.28882,38.64213],[-90.28849,38.64213],[-90.2881,38.64217],[-90.28747,38.64234],[-90.28708,38.64249],[-90.28673,38.64271],[-90.28638,38.64298],[-90.28609,38.64329],[-90.28568,38.64345],[-90.28523,38.64357],[-90.28555,38.64389],[-90.28565,38.64406],[-90.28575,38.64429],[-90.28579,38.64448],[-90.28579,38.64456],[-90.2856,38.64458],[-90.28533,38.64468],[-90.28512,38.64483],[-90.28501,38.64495],[-90.28498,38.64502],[-90.28494,38.6452],[-90.28496,38.64536],[-90.28505,38.64558],[-90.28518,38.64581],[-90.28538,38.64607],[-90.28543,38.64616],[-90.2855,38.6464],[-90.28551,38.64654],[-90.28541,38.64743],[-90.28538,38.64761],[-90.28531,38.64784],[-90.28514,38.64866],[-90.28493,38.64985],[-90.28485,38.65055],[-90.28469,38.6513]],[[-90.28443,38.65295],[-90.28466,38.65158],[-90.28435,38.65342],[-90.28427,38.654],[-90.28675,38.65424],[-90.28668,38.65477],[-90.28557,38.6619],[-90.28532,38.66361],[-90.28523,38.66402],[-90.28496,38.66443],[-90.27939,38.67208],[-90.27569,38.67754],[-90.27488,38.6787],[-90.2746,38.67914],[-90.27411,38.67986],[-90.27282,38.68172],[-90.27266,38.68201],[-90.27158,38.685],[-90.27125,38.686],[-90.27079,38.68725],[-90.2694,38.69063],[-90.26851,38.69266],[-90.26804,38.69366],[-90.2676,38.69455],[-90.26709,38.69568],[-90.26667,38.69654],[-90.26639,38.69718],[-90.26601,38.69778],[-90.26482,38.69945],[-90.26405,38.7006],[-90.26387,38.70084],[-90.2634,38.70153],[-90.26164,38.70397],[-90.26124,38.70455],[-90.26074,38.70521],[-90.25635,38.71126],[-90.25386,38.71472],[-90.25363,38.71508],[-90.2534,38.71571],[-90.25319,38.71614],[-90.25225,38.71787],[-90.25187,38.71863],[-90.25166,38.71883],[-90.25135,38.7189],[-90.25081,38.71882],[-90.2506,38.71883],[-90.25039,38.71888],[-90.248,38.7198],[-90.24417,38.72131],[-90.24326,38.7217],[-90.24194,38.7222],[-90.24138,38.72234],[-90.24058,38.72234],[-90.24053,38.72227],[-90.24046,38.72222],[-90.24016,38.72216],[-90.24007,38.72217],[-90.23995,38.72221],[-90.23983,38.72227],[-90.23978,38.72232],[-90.23972,38.72247],[-90.23634,38.72272],[-90.23601,38.72276],[-90.2353,38.72293],[-90.23467,38.72317],[-90.23433,38.72334],[-90.2307,38.72531],[-90.22974,38.72581],[-90.22947,38.72592],[-90.2285,38.7262],[-90.22794,38.72633],[-90.22736,38.72649],[-90.22353,38.72757],[-90.22325,38.72761],[-90.22319,38.72759],[-90.22316,38.72754],[-90.22318,38.72741],[-90.22369,38.72708],[-90.22376,38.72716],[-90.22383,38.72718]]]}},{"type":"Feature","properties":{"stop_id":"10285","stop_code":"10285","stop_name":"HAMPTON @ ROBERT NB","stop_desc":"NEAR SIDE HAMPTON @ ROBERT NB","wheelchair_boarding":2,"routes":[{"route_id":"19629","agency_id":"70006","route_short_name":"90","route_long_name":"Hampton","route_type":3,"route_color":"#FFFFFF","route_text_color":"#000000"}],"agency_name":"Metro St. Louis"},"geometry":{"type":"Point","coordinates":[-90.29584,38.57157]}},{"type":"Feature","properties":{"stop_id":"10287","stop_code":"10287","stop_name":"HAMPTON @ LOUGHBOROUGH NB","stop_desc":"FAR SIDE HAMPTON @ LOUGHBOROUGH NB","wheelchair_boarding":1,"routes":[{"route_id":"19629","agency_id":"70006","route_short_name":"90","route_long_name":"Hampton","route_type":3,"route_color":"#FFFFFF","route_text_color":"#000000"}],"agency_name":"Metro St. Louis"},"geometry":{"type":"Point","coordinates":[-90.29467,38.57419]}},{"type":"Feature","properties":{"stop_id":"10291","stop_code":"10291","stop_name":"HAMPTON @ HOLLY HILLS NB","stop_desc":"NEAR SIDE HAMPTON @ HOLLY HILLS NB","wheelchair_boarding":2,"routes":[{"route_id":"19629","agency_id":"70006","route_short_name":"90","route_long_name":"Hampton","route_type":3,"route_color":"#FFFFFF","route_text_color":"#000000"}],"agency_name":"Metro St. Louis"},"geometry":{"type":"Point","coordinates":[-90.29402,38.57785]}},{"type":"Feature","properties":{"stop_id":"10293","stop_code":"10293","stop_name":"HAMPTON @ MILENTZ NB","stop_desc":"NEAR SIDE HAMPTON @ MILENTZ NB","wheelchair_boarding":1,"routes":[{"route_id":"19629","agency_id":"70006","route_short_name":"90","route_long_name":"Hampton","route_type":3,"route_color":"#FFFFFF","route_text_color":"#000000"}],"agency_name":"Metro St. Louis"},"geometry":{"type":"Point","coordinates":[-90.29368,38.5797]}},{"type":"Feature","properties":{"stop_id":"10295","stop_code":"10295","stop_name":"HAMPTON @ EICHELBERGER NB","stop_desc":"FAR SIDE HAMPTON @ EICHELBERGER NB","wheelchair_boarding":1,"routes":[{"route_id":"19629","agency_id":"70006","route_short_name":"90","route_long_name":"Hampton","route_type":3,"route_color":"#FFFFFF","route_text_color":"#000000"}],"agency_name":"Metro St. Louis"},"geometry":{"type":"Point","coordinates":[-90.29316,38.58255]}},{"type":"Feature","properties":{"stop_id":"10297","stop_code":"10297","stop_name":"HAMPTON @ DELOR NB","stop_desc":"NEAR SIDE HAMPTON @ DELOR NB","wheelchair_boarding":1,"routes":[{"route_id":"19629","agency_id":"70006","route_short_name":"90","route_long_name":"Hampton","route_type":3,"route_color":"#FFFFFF","route_text_color":"#000000"}],"agency_name":"Metro St. Louis"},"geometry":{"type":"Point","coordinates":[-90.29291,38.58402]}},{"type":"Feature","properties":{"stop_id":"1443","stop_code":"1443","stop_name":"FOREST PARK TRANSIT CENTER NB","stop_desc":"FAR SIDE FOREST PARK TRANSIT CENTER NB","wheelchair_boarding":1,"routes":[{"route_id":"19629","agency_id":"70006","route_short_name":"90","route_long_name":"Hampton","route_type":3,"route_color":"#FFFFFF","route_text_color":"#000000"}],"agency_name":"Metro St. Louis"},"geometry":{"type":"Point","coordinates":[-90.28511,38.64831]}},{"type":"Feature","properties":{"stop_id":"14433","stop_code":"14433","stop_name":"GRAND @ HISTORY MUSEUM NB","stop_desc":"NEAR SIDE GRAND @ HISTORY MUSEUM NB","wheelchair_boarding":1,"routes":[{"route_id":"19629","agency_id":"70006","route_short_name":"90","route_long_name":"Hampton","route_type":3,"route_color":"#FFFFFF","route_text_color":"#000000"}],"agency_name":"Metro St. Louis"},"geometry":{"type":"Point","coordinates":[-90.28559,38.64412]}},{"type":"Feature","properties":{"stop_id":"15073","stop_code":"15073","stop_name":"RIVERVIEW @ BROADWAY EB","stop_desc":"FAR SIDE RIVERVIEW @ BROADWAY EB","wheelchair_boarding":2,"routes":[{"route_id":"19601","agency_id":"70006","route_short_name":"16","route_long_name":"City Limits","route_type":3,"route_color":"#FFFFFF","route_text_color":"#000000"},{"route_id":"19611","agency_id":"70006","route_short_name":"40","route_long_name":"Broadway-Halls Ferry","route_type":3,"route_color":"#FFFFFF","route_text_color":"#000000"},{"route_id":"19612","agency_id":"70006","route_short_name":"41","route_long_name":"Lee","route_type":3,"route_color":"#FFFFFF","route_text_color":"#000000"},{"route_id":"19619","agency_id":"70006","route_short_name":"60","route_long_name":"Shepley-Lilac","route_type":3,"route_color":"#FFFFFF","route_text_color":"#000000"},{"route_id":"19620","agency_id":"70006","route_short_name":"61","route_long_name":"Chambers Rd","route_type":3,"route_color":"#FFFFFF","route_text_color":"#000000"},{"route_id":"19621","agency_id":"70006","route_short_name":"64","route_long_name":"Lucas-Hunt","route_type":3,"route_color":"#FFFFFF","route_text_color":"#000000"},{"route_id":"19627","agency_id":"70006","route_short_name":"78","route_long_name":"Bellefontaine","route_type":3,"route_color":"#FFFFFF","route_text_color":"#000000"},{"route_id":"19629","agency_id":"70006","route_short_name":"90","route_long_name":"Hampton","route_type":3,"route_color":"#FFFFFF","route_text_color":"#000000"}],"agency_name":"Metro St. Louis"},"geometry":{"type":"Point","coordinates":[-90.22708,38.72658]}},{"type":"Feature","properties":{"stop_id":"16090","stop_code":"16090","stop_name":"RIVERVIEW TRANSIT CENTER","wheelchair_boarding":1,"routes":[{"route_id":"19620","agency_id":"70006","route_short_name":"61","route_long_name":"Chambers Rd","route_type":3,"route_color":"#FFFFFF","route_text_color":"#000000"},{"route_id":"19621","agency_id":"70006","route_short_name":"64","route_long_name":"Lucas-Hunt","route_type":3,"route_color":"#FFFFFF","route_text_color":"#000000"},{"route_id":"19627","agency_id":"70006","route_short_name":"78","route_long_name":"Bellefontaine","route_type":3,"route_color":"#FFFFFF","route_text_color":"#000000"},{"route_id":"19629","agency_id":"70006","route_short_name":"90","route_long_name":"Hampton","route_type":3,"route_color":"#FFFFFF","route_text_color":"#000000"}],"agency_name":"Metro St. Louis"},"geometry":{"type":"Point","coordinates":[-90.22399,38.72717]}},{"type":"Feature","properties":{"stop_id":"16186","stop_code":"16186","stop_name":"1900 HAMPTON NB","stop_desc":"NEAR SIDE 1900 HAMPTON NB","wheelchair_boarding":2,"routes":[{"route_id":"19629","agency_id":"70006","route_short_name":"90","route_long_name":"Hampton","route_type":3,"route_color":"#FFFFFF","route_text_color":"#000000"}],"agency_name":"Metro St. Louis"},"geometry":{"type":"Point","coordinates":[-90.28835,38.61997]}},{"type":"Feature","properties":{"stop_id":"16399","stop_code":"16399","stop_name":"GOODFELLOW @ VERONICA EB","stop_desc":"NEAR SIDE GOODFELLOW @ VERONICA EB","wheelchair_boarding":1,"routes":[{"route_id":"19629","agency_id":"70006","route_short_name":"90","route_long_name":"Hampton","route_type":3,"route_color":"#FFFFFF","route_text_color":"#000000"}],"agency_name":"Metro St. Louis"},"geometry":{"type":"Point","coordinates":[-90.24809,38.71972]}},{"type":"Feature","properties":{"stop_id":"16401","stop_code":"16401","stop_name":"GOODFELLOW @ NORTHCREST EB","stop_desc":"NEAR SIDE GOODFELLOW @ NORTHCREST EB","wheelchair_boarding":1,"routes":[{"route_id":"19629","agency_id":"70006","route_short_name":"90","route_long_name":"Hampton","route_type":3,"route_color":"#FFFFFF","route_text_color":"#000000"}],"agency_name":"Metro St. Louis"},"geometry":{"type":"Point","coordinates":[-90.24466,38.72104]}},{"type":"Feature","properties":{"stop_id":"1949","stop_code":"1949","stop_name":"HAMPTON @ DEVONSHIRE NB","stop_desc":"NEAR SIDE HAMPTON @ DEVONSHIRE NB","wheelchair_boarding":2,"routes":[{"route_id":"19629","agency_id":"70006","route_short_name":"90","route_long_name":"Hampton","route_type":3,"route_color":"#FFFFFF","route_text_color":"#000000"}],"agency_name":"Metro St. Louis"},"geometry":{"type":"Point","coordinates":[-90.29407,38.58867]}},{"type":"Feature","properties":{"stop_id":"1950","stop_code":"1950","stop_name":"HAMPTON @ SUTHERLAND NB","stop_desc":"FAR SIDE HAMPTON @ SUTHERLAND NB","wheelchair_boarding":1,"routes":[{"route_id":"19629","agency_id":"70006","route_short_name":"90","route_long_name":"Hampton","route_type":3,"route_color":"#FFFFFF","route_text_color":"#000000"}],"agency_name":"Metro St. Louis"},"geometry":{"type":"Point","coordinates":[-90.29447,38.59086]}},{"type":"Feature","properties":{"stop_id":"3275","stop_code":"3275","stop_name":"HAMPTON @ GRAVOIS NB","stop_desc":"FAR SIDE HAMPTON @ GRAVOIS NB","wheelchair_boarding":2,"routes":[{"route_id":"19629","agency_id":"70006","route_short_name":"90","route_long_name":"Hampton","route_type":3,"route_color":"#FFFFFF","route_text_color":"#000000"}],"agency_name":"Metro St. Louis"},"geometry":{"type":"Point","coordinates":[-90.2944,38.5649]}},{"type":"Feature","properties":{"stop_id":"3276","stop_code":"3276","stop_name":"HAMPTON @ CHIPPEWA NB","stop_desc":"NEAR SIDE HAMPTON @ CHIPPEWA NB","wheelchair_boarding":1,"routes":[{"route_id":"19629","agency_id":"70006","route_short_name":"90","route_long_name":"Hampton","route_type":3,"route_color":"#FFFFFF","route_text_color":"#000000"}],"agency_name":"Metro St. Louis"},"geometry":{"type":"Point","coordinates":[-90.29443,38.59241]}},{"type":"Feature","properties":{"stop_id":"3277","stop_code":"3277","stop_name":"HAMPTON @ CHIPPEWA NB","stop_desc":"FAR SIDE HAMPTON @ CHIPPEWA NB","wheelchair_boarding":1,"routes":[{"route_id":"19629","agency_id":"70006","route_short_name":"90","route_long_name":"Hampton","route_type":3,"route_color":"#FFFFFF","route_text_color":"#000000"}],"agency_name":"Metro St. Louis"},"geometry":{"type":"Point","coordinates":[-90.29412,38.59367]}},{"type":"Feature","properties":{"stop_id":"3278","stop_code":"3278","stop_name":"HAMPTON @ MARDEL NB","stop_desc":"FAR SIDE HAMPTON @ MARDEL NB","wheelchair_boarding":2,"routes":[{"route_id":"19629","agency_id":"70006","route_short_name":"90","route_long_name":"Hampton","route_type":3,"route_color":"#FFFFFF","route_text_color":"#000000"}],"agency_name":"Metro St. Louis"},"geometry":{"type":"Point","coordinates":[-90.2934,38.59518]}},{"type":"Feature","properties":{"stop_id":"3279","stop_code":"3279","stop_name":"HAMPTON @ PERNOD NB","stop_desc":"FAR SIDE HAMPTON @ PERNOD NB","wheelchair_boarding":1,"routes":[{"route_id":"19629","agency_id":"70006","route_short_name":"90","route_long_name":"Hampton","route_type":3,"route_color":"#FFFFFF","route_text_color":"#000000"}],"agency_name":"Metro St. Louis"},"geometry":{"type":"Point","coordinates":[-90.29267,38.59695]}},{"type":"Feature","properties":{"stop_id":"3280","stop_code":"3280","stop_name":"HAMPTON @ MARQUETTE NB","stop_desc":"FAR SIDE HAMPTON @ MARQUETTE NB","wheelchair_boarding":2,"routes":[{"route_id":"19629","agency_id":"70006","route_short_name":"90","route_long_name":"Hampton","route_type":3,"route_color":"#FFFFFF","route_text_color":"#000000"}],"agency_name":"Metro St. Louis"},"geometry":{"type":"Point","coordinates":[-90.29227,38.59955]}},{"type":"Feature","properties":{"stop_id":"3281","stop_code":"3281","stop_name":"HAMPTON @ FYLER NB","stop_desc":"FAR SIDE HAMPTON @ FYLER NB","wheelchair_boarding":1,"routes":[{"route_id":"19629","agency_id":"70006","route_short_name":"90","route_long_name":"Hampton","route_type":3,"route_color":"#FFFFFF","route_text_color":"#000000"}],"agency_name":"Metro St. Louis"},"geometry":{"type":"Point","coordinates":[-90.2918,38.60228]}},{"type":"Feature","properties":{"stop_id":"3282","stop_code":"3282","stop_name":"HAMPTON @ SCANLAN NB","stop_desc":"NEAR SIDE HAMPTON @ SCANLAN NB","wheelchair_boarding":1,"routes":[{"route_id":"19629","agency_id":"70006","route_short_name":"90","route_long_name":"Hampton","route_type":3,"route_color":"#FFFFFF","route_text_color":"#000000"}],"agency_name":"Metro St. Louis"},"geometry":{"type":"Point","coordinates":[-90.29109,38.60431]}},{"type":"Feature","properties":{"stop_id":"3284","stop_code":"3284","stop_name":"HAMPTON @ ARSENAL NB","stop_desc":"FAR SIDE HAMPTON @ ARSENAL NB","wheelchair_boarding":2,"routes":[{"route_id":"19629","agency_id":"70006","route_short_name":"90","route_long_name":"Hampton","route_type":3,"route_color":"#FFFFFF","route_text_color":"#000000"}],"agency_name":"Metro St. Louis"},"geometry":{"type":"Point","coordinates":[-90.28875,38.60719]}},{"type":"Feature","properties":{"stop_id":"3285","stop_code":"3285","stop_name":"HAMPTON @ SOUTHWEST NB","stop_desc":"FAR SIDE HAMPTON @ SOUTHWEST NB","wheelchair_boarding":2,"routes":[{"route_id":"19629","agency_id":"70006","route_short_name":"90","route_long_name":"Hampton","route_type":3,"route_color":"#FFFFFF","route_text_color":"#000000"}],"agency_name":"Metro St. Louis"},"geometry":{"type":"Point","coordinates":[-90.28841,38.60846]}},{"type":"Feature","properties":{"stop_id":"3286","stop_code":"3286","stop_name":"HAMPTON @ REBER PLACE NB","stop_desc":"NEAR SIDE HAMPTON @ REBER PLACE NB","wheelchair_boarding":1,"routes":[{"route_id":"19629","agency_id":"70006","route_short_name":"90","route_long_name":"Hampton","route_type":3,"route_color":"#FFFFFF","route_text_color":"#000000"}],"agency_name":"Metro St. Louis"},"geometry":{"type":"Point","coordinates":[-90.2881,38.61006]}},{"type":"Feature","properties":{"stop_id":"3287","stop_code":"3287","stop_name":"HAMPTON @ COLUMBIA NB","stop_desc":"FAR SIDE HAMPTON @ COLUMBIA NB","wheelchair_boarding":1,"routes":[{"route_id":"19629","agency_id":"70006","route_short_name":"90","route_long_name":"Hampton","route_type":3,"route_color":"#FFFFFF","route_text_color":"#000000"}],"agency_name":"Metro St. Louis"},"geometry":{"type":"Point","coordinates":[-90.28754,38.61231]}},{"type":"Feature","properties":{"stop_id":"3288","stop_code":"3288","stop_name":"HAMPTON @ ELIZABETH NB","stop_desc":"FAR SIDE HAMPTON @ ELIZABETH NB","wheelchair_boarding":1,"routes":[{"route_id":"19629","agency_id":"70006","route_short_name":"90","route_long_name":"Hampton","route_type":3,"route_color":"#FFFFFF","route_text_color":"#000000"}],"agency_name":"Metro St. Louis"},"geometry":{"type":"Point","coordinates":[-90.28714,38.61535]}},{"type":"Feature","properties":{"stop_id":"3289","stop_code":"3289","stop_name":"HAMPTON @ WILSON NB","stop_desc":"NEAR SIDE HAMPTON @ WILSON NB","wheelchair_boarding":2,"routes":[{"route_id":"19629","agency_id":"70006","route_short_name":"90","route_long_name":"Hampton","route_type":3,"route_color":"#FFFFFF","route_text_color":"#000000"}],"agency_name":"Metro St. Louis"},"geometry":{"type":"Point","coordinates":[-90.28718,38.61733]}},{"type":"Feature","properties":{"stop_id":"3290","stop_code":"3290","stop_name":"HAMPTON @ LLOYD NB","stop_desc":"NEAR SIDE HAMPTON @ LLOYD NB","wheelchair_boarding":1,"routes":[{"route_id":"19629","agency_id":"70006","route_short_name":"90","route_long_name":"Hampton","route_type":3,"route_color":"#FFFFFF","route_text_color":"#000000"}],"agency_name":"Metro St. Louis"},"geometry":{"type":"Point","coordinates":[-90.2878,38.62312]}},{"type":"Feature","properties":{"stop_id":"3291","stop_code":"3291","stop_name":"HAMPTON @ PARK NB","stop_desc":"NEAR SIDE HAMPTON @ PARK NB","wheelchair_boarding":2,"routes":[{"route_id":"19629","agency_id":"70006","route_short_name":"90","route_long_name":"Hampton","route_type":3,"route_color":"#FFFFFF","route_text_color":"#000000"}],"agency_name":"Metro St. Louis"},"geometry":{"type":"Point","coordinates":[-90.2876,38.62629]}},{"type":"Feature","properties":{"stop_id":"3293","stop_code":"3293","stop_name":"HAMPTON @ CRESCENT NB","stop_desc":"FAR SIDE HAMPTON @ CRESCENT NB","wheelchair_boarding":2,"routes":[{"route_id":"19629","agency_id":"70006","route_short_name":"90","route_long_name":"Hampton","route_type":3,"route_color":"#FFFFFF","route_text_color":"#000000"}],"agency_name":"Metro St. Louis"},"geometry":{"type":"Point","coordinates":[-90.2872,38.62848]}},{"type":"Feature","properties":{"stop_id":"3294","stop_code":"3294","stop_name":"HAMPTON @ CLAYTON NB","stop_desc":"FAR SIDE HAMPTON @ CLAYTON NB","wheelchair_boarding":1,"routes":[{"route_id":"19629","agency_id":"70006","route_short_name":"90","route_long_name":"Hampton","route_type":3,"route_color":"#FFFFFF","route_text_color":"#000000"}],"agency_name":"Metro St. Louis"},"geometry":{"type":"Point","coordinates":[-90.28697,38.62999]}},{"type":"Feature","properties":{"stop_id":"3296","stop_code":"3296","stop_name":"CONCOURSE @ WASHINGTON NB","stop_desc":"NEAR SIDE CONCOURSE @ WASHINGTON NB","wheelchair_boarding":1,"routes":[{"route_id":"19629","agency_id":"70006","route_short_name":"90","route_long_name":"Hampton","route_type":3,"route_color":"#FFFFFF","route_text_color":"#000000"}],"agency_name":"Metro St. Louis"},"geometry":{"type":"Point","coordinates":[-90.28503,38.63405]}},{"type":"Feature","properties":{"stop_id":"3298","stop_code":"3298","stop_name":"FINE ARTS @ ST. LOUIS ZOO NB","stop_desc":"FAR SIDE FINE ARTS @ ST. LOUIS ZOO NB","wheelchair_boarding":1,"routes":[{"route_id":"19629","agency_id":"70006","route_short_name":"90","route_long_name":"Hampton","route_type":3,"route_color":"#FFFFFF","route_text_color":"#000000"}],"agency_name":"Metro St. Louis"},"geometry":{"type":"Point","coordinates":[-90.29113,38.63719]}},{"type":"Feature","properties":{"stop_id":"3299","stop_code":"3299","stop_name":"FINE ARTS @ ART MUSEUM NB","stop_desc":"NEAR SIDE FINE ARTS @ ART MUSEUM NB","wheelchair_boarding":1,"routes":[{"route_id":"19629","agency_id":"70006","route_short_name":"90","route_long_name":"Hampton","route_type":3,"route_color":"#FFFFFF","route_text_color":"#000000"}],"agency_name":"Metro St. Louis"},"geometry":{"type":"Point","coordinates":[-90.294,38.63959]}},{"type":"Feature","properties":{"stop_id":"3300","stop_code":"3300","stop_name":"LAGOON @ GRAND BASIN EB","stop_desc":"NEAR SIDE LAGOON @ GRAND BASIN EB","wheelchair_boarding":1,"routes":[{"route_id":"19629","agency_id":"70006","route_short_name":"90","route_long_name":"Hampton","route_type":3,"route_color":"#FFFFFF","route_text_color":"#000000"}],"agency_name":"Metro St. Louis"},"geometry":{"type":"Point","coordinates":[-90.29208,38.64353]}},{"type":"Feature","properties":{"stop_id":"3302","stop_code":"3302","stop_name":"DEBALIVIERE @ DEBALIVIERE GARAGE NB","stop_desc":"NEAR SIDE DEBALIVIERE @ DEBALIVIERE GARAGE NB","wheelchair_boarding":1,"routes":[{"route_id":"19629","agency_id":"70006","route_short_name":"90","route_long_name":"Hampton","route_type":3,"route_color":"#FFFFFF","route_text_color":"#000000"}],"agency_name":"Metro St. Louis"},"geometry":{"type":"Point","coordinates":[-90.28436,38.65375]}},{"type":"Feature","properties":{"stop_id":"3303","stop_code":"3303","stop_name":"GOODFELLOW @ DELMAR NB","stop_desc":"FAR SIDE GOODFELLOW @ DELMAR NB","wheelchair_boarding":1,"routes":[{"route_id":"19629","agency_id":"70006","route_short_name":"90","route_long_name":"Hampton","route_type":3,"route_color":"#FFFFFF","route_text_color":"#000000"}],"agency_name":"Metro St. Louis"},"geometry":{"type":"Point","coordinates":[-90.28663,38.65468]}},{"type":"Feature","properties":{"stop_id":"3307","stop_code":"3307","stop_name":"GOODFELLOW @ CABANNE NB","stop_desc":"FAR SIDE GOODFELLOW @ CABANNE NB","wheelchair_boarding":1,"routes":[{"route_id":"19629","agency_id":"70006","route_short_name":"90","route_long_name":"Hampton","route_type":3,"route_color":"#FFFFFF","route_text_color":"#000000"}],"agency_name":"Metro St. Louis"},"geometry":{"type":"Point","coordinates":[-90.28591,38.65927]}},{"type":"Feature","properties":{"stop_id":"3309","stop_code":"3309","stop_name":"GOODFELLOW @ MAPLE NB","stop_desc":"FAR SIDE GOODFELLOW @ MAPLE NB","wheelchair_boarding":1,"routes":[{"route_id":"19629","agency_id":"70006","route_short_name":"90","route_long_name":"Hampton","route_type":3,"route_color":"#FFFFFF","route_text_color":"#000000"}],"agency_name":"Metro St. Louis"},"geometry":{"type":"Point","coordinates":[-90.28564,38.66109]}},{"type":"Feature","properties":{"stop_id":"3310","stop_code":"3310","stop_name":"GOODFELLOW @ BARTMER NB","stop_desc":"FAR SIDE GOODFELLOW @ BARTMER NB","wheelchair_boarding":1,"routes":[{"route_id":"19629","agency_id":"70006","route_short_name":"90","route_long_name":"Hampton","route_type":3,"route_color":"#FFFFFF","route_text_color":"#000000"}],"agency_name":"Metro St. Louis"},"geometry":{"type":"Point","coordinates":[-90.2853,38.66328]}},{"type":"Feature","properties":{"stop_id":"3311","stop_code":"3311","stop_name":"GOODFELLOW @ ETZEL NB","stop_desc":"FAR SIDE GOODFELLOW @ ETZEL NB","wheelchair_boarding":1,"routes":[{"route_id":"19629","agency_id":"70006","route_short_name":"90","route_long_name":"Hampton","route_type":3,"route_color":"#FFFFFF","route_text_color":"#000000"}],"agency_name":"Metro St. Louis"},"geometry":{"type":"Point","coordinates":[-90.28502,38.66427]}},{"type":"Feature","properties":{"stop_id":"3312","stop_code":"3312","stop_name":"GOODFELLOW @ JULIAN NB","stop_desc":"NEAR SIDE GOODFELLOW @ JULIAN NB","wheelchair_boarding":1,"routes":[{"route_id":"19629","agency_id":"70006","route_short_name":"90","route_long_name":"Hampton","route_type":3,"route_color":"#FFFFFF","route_text_color":"#000000"}],"agency_name":"Metro St. Louis"},"geometry":{"type":"Point","coordinates":[-90.28424,38.66532]}},{"type":"Feature","properties":{"stop_id":"3313","stop_code":"3313","stop_name":"GOODFELLOW @ PAGE NB","stop_desc":"NEAR SIDE GOODFELLOW @ PAGE NB","wheelchair_boarding":1,"routes":[{"route_id":"19629","agency_id":"70006","route_short_name":"90","route_long_name":"Hampton","route_type":3,"route_color":"#FFFFFF","route_text_color":"#000000"}],"agency_name":"Metro St. Louis"},"geometry":{"type":"Point","coordinates":[-90.2833,38.66661]}},{"type":"Feature","properties":{"stop_id":"3315","stop_code":"3315","stop_name":"GOODFELLOW @ RIDGE NB","stop_desc":"FAR SIDE GOODFELLOW @ RIDGE NB","wheelchair_boarding":1,"routes":[{"route_id":"19629","agency_id":"70006","route_short_name":"90","route_long_name":"Hampton","route_type":3,"route_color":"#FFFFFF","route_text_color":"#000000"}],"agency_name":"Metro St. Louis"},"geometry":{"type":"Point","coordinates":[-90.28109,38.66964]}},{"type":"Feature","properties":{"stop_id":"3318","stop_code":"3318","stop_name":"GOODFELLOW @ ST. LOUIS NB","stop_desc":"FAR SIDE GOODFELLOW @ ST. LOUIS NB","wheelchair_boarding":1,"routes":[{"route_id":"19629","agency_id":"70006","route_short_name":"90","route_long_name":"Hampton","route_type":3,"route_color":"#FFFFFF","route_text_color":"#000000"}],"agency_name":"Metro St. Louis"},"geometry":{"type":"Point","coordinates":[-90.27384,38.68016]}},{"type":"Feature","properties":{"stop_id":"3319","stop_code":"3319","stop_name":"GOODFELLOW @ GREER NB","stop_desc":"FAR SIDE GOODFELLOW @ GREER NB","wheelchair_boarding":2,"routes":[{"route_id":"19629","agency_id":"70006","route_short_name":"90","route_long_name":"Hampton","route_type":3,"route_color":"#FFFFFF","route_text_color":"#000000"}],"agency_name":"Metro St. Louis"},"geometry":{"type":"Point","coordinates":[-90.27295,38.68146]}},{"type":"Feature","properties":{"stop_id":"3320","stop_code":"3320","stop_name":"GOODFELLOW @ SELBER COURT NB","stop_desc":"FAR SIDE GOODFELLOW @ SELBER COURT NB","wheelchair_boarding":2,"routes":[{"route_id":"19629","agency_id":"70006","route_short_name":"90","route_long_name":"Hampton","route_type":3,"route_color":"#FFFFFF","route_text_color":"#000000"}],"agency_name":"Metro St. Louis"},"geometry":{"type":"Point","coordinates":[-90.27223,38.68301]}},{"type":"Feature","properties":{"stop_id":"3322","stop_code":"3322","stop_name":"GOODFELLOW @ NATURAL BRIDGE NB","stop_desc":"FAR SIDE GOODFELLOW @ NATURAL BRIDGE NB","wheelchair_boarding":1,"routes":[{"route_id":"19629","agency_id":"70006","route_short_name":"90","route_long_name":"Hampton","route_type":3,"route_color":"#FFFFFF","route_text_color":"#000000"}],"agency_name":"Metro St. Louis"},"geometry":{"type":"Point","coordinates":[-90.27087,38.68664]}},{"type":"Feature","properties":{"stop_id":"3324","stop_code":"3324","stop_name":"GOODFELLOW @ LINCOLN WAY NB","stop_desc":"NEAR SIDE GOODFELLOW @ LINCOLN WAY NB","wheelchair_boarding":2,"routes":[{"route_id":"19629","agency_id":"70006","route_short_name":"90","route_long_name":"Hampton","route_type":3,"route_color":"#FFFFFF","route_text_color":"#000000"}],"agency_name":"Metro St. Louis"},"geometry":{"type":"Point","coordinates":[-90.27021,38.68826]}},{"type":"Feature","properties":{"stop_id":"3326","stop_code":"3326","stop_name":"GOODFELLOW @ FEDERAL CENTER NB","stop_desc":"NEAR SIDE GOODFELLOW @ FEDERAL CENTER NB","wheelchair_boarding":1,"routes":[{"route_id":"19629","agency_id":"70006","route_short_name":"90","route_long_name":"Hampton","route_type":3,"route_color":"#FFFFFF","route_text_color":"#000000"}],"agency_name":"Metro St. Louis"},"geometry":{"type":"Point","coordinates":[-90.26811,38.69311]}},{"type":"Feature","properties":{"stop_id":"3328","stop_code":"3328","stop_name":"GOODFELLOW @ STRATFORD NB","stop_desc":"NEAR SIDE GOODFELLOW @ STRATFORD NB","wheelchair_boarding":1,"routes":[{"route_id":"19629","agency_id":"70006","route_short_name":"90","route_long_name":"Hampton","route_type":3,"route_color":"#FFFFFF","route_text_color":"#000000"}],"agency_name":"Metro St. Louis"},"geometry":{"type":"Point","coordinates":[-90.26622,38.69731]}},{"type":"Feature","properties":{"stop_id":"3329","stop_code":"3329","stop_name":"GOODFELLOW @ AMELIA NB","stop_desc":"FAR SIDE GOODFELLOW @ AMELIA NB","wheelchair_boarding":2,"routes":[{"route_id":"19629","agency_id":"70006","route_short_name":"90","route_long_name":"Hampton","route_type":3,"route_color":"#FFFFFF","route_text_color":"#000000"}],"agency_name":"Metro St. Louis"},"geometry":{"type":"Point","coordinates":[-90.26508,38.69881]}},{"type":"Feature","properties":{"stop_id":"3330","stop_code":"3330","stop_name":"GOODFELLOW @ LILLIAN NB","stop_desc":"FAR SIDE GOODFELLOW @ LILLIAN NB","wheelchair_boarding":1,"routes":[{"route_id":"19629","agency_id":"70006","route_short_name":"90","route_long_name":"Hampton","route_type":3,"route_color":"#FFFFFF","route_text_color":"#000000"}],"agency_name":"Metro St. Louis"},"geometry":{"type":"Point","coordinates":[-90.26313,38.70171]}},{"type":"Feature","properties":{"stop_id":"3332","stop_code":"3332","stop_name":"GOODFELLOW @ LALITE NB","stop_desc":"NEAR SIDE GOODFELLOW @ LALITE NB","wheelchair_boarding":1,"routes":[{"route_id":"19629","agency_id":"70006","route_short_name":"90","route_long_name":"Hampton","route_type":3,"route_color":"#FFFFFF","route_text_color":"#000000"}],"agency_name":"Metro St. Louis"},"geometry":{"type":"Point","coordinates":[-90.26174,38.70376]}},{"type":"Feature","properties":{"stop_id":"3334","stop_code":"3334","stop_name":"GOODFELLOW @ LUCILLE NB","stop_desc":"NEAR SIDE GOODFELLOW @ LUCILLE NB","wheelchair_boarding":1,"routes":[{"route_id":"19629","agency_id":"70006","route_short_name":"90","route_long_name":"Hampton","route_type":3,"route_color":"#FFFFFF","route_text_color":"#000000"}],"agency_name":"Metro St. Louis"},"geometry":{"type":"Point","coordinates":[-90.2598,38.70644]}},{"type":"Feature","properties":{"stop_id":"3335","stop_code":"3335","stop_name":"GOODFELLOW @ EMMA NB","stop_desc":"NEAR SIDE GOODFELLOW @ EMMA NB","wheelchair_boarding":1,"routes":[{"route_id":"19629","agency_id":"70006","route_short_name":"90","route_long_name":"Hampton","route_type":3,"route_color":"#FFFFFF","route_text_color":"#000000"}],"agency_name":"Metro St. Louis"},"geometry":{"type":"Point","coordinates":[-90.25877,38.70783]}},{"type":"Feature","properties":{"stop_id":"3336","stop_code":"3336","stop_name":"GOODFELLOW @ LENA NB","stop_desc":"FAR SIDE GOODFELLOW @ LENA NB","wheelchair_boarding":1,"routes":[{"route_id":"19629","agency_id":"70006","route_short_name":"90","route_long_name":"Hampton","route_type":3,"route_color":"#FFFFFF","route_text_color":"#000000"}],"agency_name":"Metro St. Louis"},"geometry":{"type":"Point","coordinates":[-90.25744,38.70967]}},{"type":"Feature","properties":{"stop_id":"3337","stop_code":"3337","stop_name":"GOODFELLOW @ WEST FLORISSANT NB","stop_desc":"FAR SIDE GOODFELLOW @ WEST FLORISSANT NB","wheelchair_boarding":1,"routes":[{"route_id":"19629","agency_id":"70006","route_short_name":"90","route_long_name":"Hampton","route_type":3,"route_color":"#FFFFFF","route_text_color":"#000000"}],"agency_name":"Metro St. Louis"},"geometry":{"type":"Point","coordinates":[-90.25483,38.71326]}},{"type":"Feature","properties":{"stop_id":"3339","stop_code":"3339","stop_name":"GOODFELLOW @ SWITZER NB","stop_desc":"NEAR SIDE GOODFELLOW @ SWITZER NB","wheelchair_boarding":1,"routes":[{"route_id":"19629","agency_id":"70006","route_short_name":"90","route_long_name":"Hampton","route_type":3,"route_color":"#FFFFFF","route_text_color":"#000000"}],"agency_name":"Metro St. Louis"},"geometry":{"type":"Point","coordinates":[-90.25257,38.71714]}},{"type":"Feature","properties":{"stop_id":"3340","stop_code":"3340","stop_name":"GOODFELLOW @ MCLARAN EB","stop_desc":"FAR SIDE GOODFELLOW @ MCLARAN EB","wheelchair_boarding":1,"routes":[{"route_id":"19629","agency_id":"70006","route_short_name":"90","route_long_name":"Hampton","route_type":3,"route_color":"#FFFFFF","route_text_color":"#000000"}],"agency_name":"Metro St. Louis"},"geometry":{"type":"Point","coordinates":[-90.25097,38.71879]}},{"type":"Feature","properties":{"stop_id":"3427","stop_code":"3427","stop_name":"HAMPTON @ PARKVIEW NB","stop_desc":"NEAR SIDE HAMPTON @ PARKVIEW NB","wheelchair_boarding":2,"routes":[{"route_id":"19629","agency_id":"70006","route_short_name":"90","route_long_name":"Hampton","route_type":3,"route_color":"#FFFFFF","route_text_color":"#000000"}],"agency_name":"Metro St. Louis"},"geometry":{"type":"Point","coordinates":[-90.29533,38.56675]}},{"type":"Feature","properties":{"stop_id":"5271","stop_code":"5271","stop_name":"DEBALIVIERE @ KINGSBURY PLACE NB","stop_desc":"NEAR SIDE DEBALIVIERE @ KINGSBURY PLACE NB","wheelchair_boarding":1,"routes":[{"route_id":"19629","agency_id":"70006","route_short_name":"90","route_long_name":"Hampton","route_type":3,"route_color":"#FFFFFF","route_text_color":"#000000"}],"agency_name":"Metro St. Louis"},"geometry":{"type":"Point","coordinates":[-90.28474,38.6515]}},{"type":"Feature","properties":{"stop_id":"6296","stop_code":"6296","stop_name":"GOODFELLOW @ HALLS FERRY CIRCLE EB","stop_desc":"NEAR SIDE GOODFELLOW @ HALLS FERRY CIRCLE EB","wheelchair_boarding":1,"routes":[{"route_id":"19629","agency_id":"70006","route_short_name":"90","route_long_name":"Hampton","route_type":3,"route_color":"#FFFFFF","route_text_color":"#000000"}],"agency_name":"Metro St. Louis"},"geometry":{"type":"Point","coordinates":[-90.2414,38.72225]}},{"type":"Feature","properties":{"stop_id":"6388","stop_code":"6388","stop_name":"RIVERVIEW @ HALLS FERRY CIRCLE EB","stop_desc":"FAR SIDE RIVERVIEW @ HALLS FERRY CIRCLE EB","wheelchair_boarding":1,"routes":[{"route_id":"19611","agency_id":"70006","route_short_name":"40","route_long_name":"Broadway-Halls Ferry","route_type":3,"route_color":"#FFFFFF","route_text_color":"#000000"},{"route_id":"19612","agency_id":"70006","route_short_name":"41","route_long_name":"Lee","route_type":3,"route_color":"#FFFFFF","route_text_color":"#000000"},{"route_id":"19621","agency_id":"70006","route_short_name":"64","route_long_name":"Lucas-Hunt","route_type":3,"route_color":"#FFFFFF","route_text_color":"#000000"},{"route_id":"19629","agency_id":"70006","route_short_name":"90","route_long_name":"Hampton","route_type":3,"route_color":"#FFFFFF","route_text_color":"#000000"}],"agency_name":"Metro St. Louis"},"geometry":{"type":"Point","coordinates":[-90.2393,38.72248]}},{"type":"Feature","properties":{"stop_id":"6390","stop_code":"6390","stop_name":"RIVERVIEW @ NEWBY EB","stop_desc":"NEAR SIDE RIVERVIEW @ NEWBY EB","wheelchair_boarding":2,"routes":[{"route_id":"19611","agency_id":"70006","route_short_name":"40","route_long_name":"Broadway-Halls Ferry","route_type":3,"route_color":"#FFFFFF","route_text_color":"#000000"},{"route_id":"19612","agency_id":"70006","route_short_name":"41","route_long_name":"Lee","route_type":3,"route_color":"#FFFFFF","route_text_color":"#000000"},{"route_id":"19621","agency_id":"70006","route_short_name":"64","route_long_name":"Lucas-Hunt","route_type":3,"route_color":"#FFFFFF","route_text_color":"#000000"},{"route_id":"19629","agency_id":"70006","route_short_name":"90","route_long_name":"Hampton","route_type":3,"route_color":"#FFFFFF","route_text_color":"#000000"}],"agency_name":"Metro St. Louis"},"geometry":{"type":"Point","coordinates":[-90.2349,38.72302]}},{"type":"Feature","properties":{"stop_id":"6392","stop_code":"6392","stop_name":"RIVERVIEW @ JORDAN EB","stop_desc":"NEAR SIDE RIVERVIEW @ JORDAN EB","wheelchair_boarding":2,"routes":[{"route_id":"19611","agency_id":"70006","route_short_name":"40","route_long_name":"Broadway-Halls Ferry","route_type":3,"route_color":"#FFFFFF","route_text_color":"#000000"},{"route_id":"19612","agency_id":"70006","route_short_name":"41","route_long_name":"Lee","route_type":3,"route_color":"#FFFFFF","route_text_color":"#000000"},{"route_id":"19621","agency_id":"70006","route_short_name":"64","route_long_name":"Lucas-Hunt","route_type":3,"route_color":"#FFFFFF","route_text_color":"#000000"},{"route_id":"19629","agency_id":"70006","route_short_name":"90","route_long_name":"Hampton","route_type":3,"route_color":"#FFFFFF","route_text_color":"#000000"}],"agency_name":"Metro St. Louis"},"geometry":{"type":"Point","coordinates":[-90.23086,38.72518]}},{"type":"Feature","properties":{"stop_id":"6393","stop_code":"6393","stop_name":"RIVERVIEW @ BROADWAY EB","stop_desc":"NEAR SIDE RIVERVIEW @ BROADWAY EB","wheelchair_boarding":2,"routes":[{"route_id":"19611","agency_id":"70006","route_short_name":"40","route_long_name":"Broadway-Halls Ferry","route_type":3,"route_color":"#FFFFFF","route_text_color":"#000000"},{"route_id":"19612","agency_id":"70006","route_short_name":"41","route_long_name":"Lee","route_type":3,"route_color":"#FFFFFF","route_text_color":"#000000"},{"route_id":"19621","agency_id":"70006","route_short_name":"64","route_long_name":"Lucas-Hunt","route_type":3,"route_color":"#FFFFFF","route_text_color":"#000000"},{"route_id":"19629","agency_id":"70006","route_short_name":"90","route_long_name":"Hampton","route_type":3,"route_color":"#FFFFFF","route_text_color":"#000000"}],"agency_name":"Metro St. Louis"},"geometry":{"type":"Point","coordinates":[-90.22857,38.72615]}},{"type":"Feature","properties":{"stop_id":"7214","stop_code":"7214","stop_name":"GOODFELLOW @ THEODOSIA NB","stop_desc":"NEAR SIDE GOODFELLOW @ THEODOSIA NB","wheelchair_boarding":2,"routes":[{"route_id":"19603","agency_id":"70006","route_short_name":"19","route_long_name":"St Louis Ave","route_type":3,"route_color":"#FFFFFF","route_text_color":"#000000"},{"route_id":"19629","agency_id":"70006","route_short_name":"90","route_long_name":"Hampton","route_type":3,"route_color":"#FFFFFF","route_text_color":"#000000"}],"agency_name":"Metro St. Louis"},"geometry":{"type":"Point","coordinates":[-90.27866,38.67296]}},{"type":"Feature","properties":{"stop_id":"7215","stop_code":"7215","stop_name":"GOODFELLOW @ LOTUS NB","stop_desc":"FAR SIDE GOODFELLOW @ LOTUS NB","wheelchair_boarding":2,"routes":[{"route_id":"19603","agency_id":"70006","route_short_name":"19","route_long_name":"St Louis Ave","route_type":3,"route_color":"#FFFFFF","route_text_color":"#000000"},{"route_id":"19629","agency_id":"70006","route_short_name":"90","route_long_name":"Hampton","route_type":3,"route_color":"#FFFFFF","route_text_color":"#000000"}],"agency_name":"Metro St. Louis"},"geometry":{"type":"Point","coordinates":[-90.27751,38.6748]}},{"type":"Feature","properties":{"stop_id":"7216","stop_code":"7216","stop_name":"GOODFELLOW @ HIGHLAND NB","stop_desc":"NEAR SIDE GOODFELLOW @ HIGHLAND NB","wheelchair_boarding":2,"routes":[{"route_id":"19603","agency_id":"70006","route_short_name":"19","route_long_name":"St Louis Ave","route_type":3,"route_color":"#FFFFFF","route_text_color":"#000000"},{"route_id":"19629","agency_id":"70006","route_short_name":"90","route_long_name":"Hampton","route_type":3,"route_color":"#FFFFFF","route_text_color":"#000000"}],"agency_name":"Metro St. Louis"},"geometry":{"type":"Point","coordinates":[-90.27664,38.67608]}},{"type":"Feature","properties":{"stop_id":"7217","stop_code":"7217","stop_name":"GOODFELLOW @ KENNERLY NB","stop_desc":"FAR SIDE GOODFELLOW @ KENNERLY NB","wheelchair_boarding":1,"routes":[{"route_id":"19603","agency_id":"70006","route_short_name":"19","route_long_name":"St Louis Ave","route_type":3,"route_color":"#FFFFFF","route_text_color":"#000000"},{"route_id":"19629","agency_id":"70006","route_short_name":"90","route_long_name":"Hampton","route_type":3,"route_color":"#FFFFFF","route_text_color":"#000000"}],"agency_name":"Metro St. Louis"},"geometry":{"type":"Point","coordinates":[-90.27597,38.67704]}},{"type":"Feature","properties":{"stop_id":"7219","stop_code":"7219","stop_name":"GOODFELLOW @ TERRY NB","stop_desc":"FAR SIDE GOODFELLOW @ TERRY NB","wheelchair_boarding":2,"routes":[{"route_id":"19603","agency_id":"70006","route_short_name":"19","route_long_name":"St Louis Ave","route_type":3,"route_color":"#FFFFFF","route_text_color":"#000000"},{"route_id":"19629","agency_id":"70006","route_short_name":"90","route_long_name":"Hampton","route_type":3,"route_color":"#FFFFFF","route_text_color":"#000000"}],"agency_name":"Metro St. Louis"},"geometry":{"type":"Point","coordinates":[-90.27504,38.67846]}},{"type":"Feature","properties":{"stop_id":"7406","stop_code":"7406","stop_name":"GOODFELLOW @ DR ML KING NB","stop_desc":"NEAR SIDE GOODFELLOW @ DR ML KING NB","wheelchair_boarding":1,"routes":[{"route_id":"19629","agency_id":"70006","route_short_name":"90","route_long_name":"Hampton","route_type":3,"route_color":"#FFFFFF","route_text_color":"#000000"}],"agency_name":"Metro St. Louis"},"geometry":{"type":"Point","coordinates":[-90.27948,38.67178]}},{"type":"Feature","properties":{"stop_id":"768","stop_code":"768","stop_name":"GRAVOIS-HAMPTON TRANSIT CENTER","wheelchair_boarding":1,"routes":[{"route_id":"19598","agency_id":"70006","route_short_name":"10","route_long_name":"Gravois-Lindell","route_type":3,"route_color":"#FFFFFF","route_text_color":"#000000"},{"route_id":"19629","agency_id":"70006","route_short_name":"90","route_long_name":"Hampton","route_type":3,"route_color":"#FFFFFF","route_text_color":"#000000"},{"route_id":"19632","agency_id":"70006","route_short_name":"95","route_long_name":"Kingshighway","route_type":3,"route_color":"#FFFFFF","route_text_color":"#000000"}],"agency_name":"Metro St. Louis"},"geometry":{"type":"Point","coordinates":[-90.29389,38.56476]}},{"type":"Feature","properties":{"stop_id":"8951","stop_code":"8951","stop_name":"HAMPTON @ NOTTINGHAM NB","stop_desc":"NEAR SIDE HAMPTON @ NOTTINGHAM NB","wheelchair_boarding":1,"routes":[{"route_id":"19629","agency_id":"70006","route_short_name":"90","route_long_name":"Hampton","route_type":3,"route_color":"#FFFFFF","route_text_color":"#000000"}],"agency_name":"Metro St. Louis"},"geometry":{"type":"Point","coordinates":[-90.29243,38.58671]}}]}