{"type":"FeatureCollection","features":[{"type":"Feature","properties":{"agency_name":"Metro St. Louis","route_id":"19649","agency_id":"70006","route_short_name":"23","route_long_name":"Belleville-College","route_type":3,"route_color":"#FFFFFF","route_text_color":"#000000"},"geometry":{"type":"MultiLineString","coordinates":[[[-89.97503,38.52198],[-89.97451,38.52159],[-89.97503,38.52198],[-89.97508,38.522],[-89.97518,38.52203],[-89.97529,38.52203],[-89.97538,38.52201],[-89.97544,38.52197],[-89.97552,38.52191],[-89.97556,38.52185],[-89.97601,38.52046],[-89.97754,38.51936],[-89.97625,38.51819],[-89.97347,38.51574],[-89.97249,38.51639],[-89.97063,38.51771],[-89.96965,38.51838],[-89.96774,38.51976],[-89.9669,38.52032],[-89.96611,38.5209],[-89.96524,38.52147],[-89.96162,38.52403],[-89.96525,38.52722],[-89.96669,38.52852],[-89.96739,38.52921],[-89.96846,38.53021],[-89.96852,38.5304],[-89.96851,38.53061],[-89.9684,38.53085],[-89.96723,38.53165],[-89.96531,38.53293],[-89.96516,38.53301],[-89.96463,38.53338],[-89.96443,38.5335],[-89.96381,38.5336],[-89.96265,38.5336],[-89.96228,38.53358],[-89.96184,38.53349],[-89.96148,38.53335],[-89.96122,38.5332],[-89.96097,38.53302],[-89.96016,38.53233],[-89.9599,38.53208],[-89.95928,38.53155],[-89.95871,38.53102],[-89.95709,38.52957],[-89.95659,38.52914],[-89.95634,38.52895],[-89.95604,38.52867],[-89.95509,38.52785],[-89.95467,38.52745],[-89.95411,38.52699],[-89.95269,38.52575],[-89.94961,38.52301],[-89.94724,38.5208],[-89.9454,38.51903],[-89.94501,38.51868],[-89.94481,38.51839],[-89.94467,38.51807],[-89.94465,38.5179],[-89.94467,38.51774],[-89.94473,38.51758],[-89.94482,38.51743],[-89.94496,38.51729],[-89.94518,38.51712],[-89.94616,38.51668],[-89.94657,38.51646],[-89.94692,38.51619],[-89.94722,38.51587],[-89.94732,38.51573],[-89.94741,38.51556],[-89.94748,38.51539],[-89.94753,38.51501],[-89.94752,38.51467],[-89.94753,38.5139],[-89.94749,38.51205],[-89.95054,38.51202],[-89.95055,38.51252],[-89.95157,38.51251],[-89.95166,38.51254],[-89.95182,38.51263],[-89.95201,38.51265],[-89.95203,38.51285],[-89.95218,38.51314],[-89.9522,38.51326],[-89.95219,38.5143],[-89.95216,38.51491],[-89.95217,38.51539],[-89.95224,38.51624],[-89.95237,38.5173],[-89.95071,38.51764],[-89.94916,38.51793],[-89.94745,38.51823],[-89.94552,38.5186],[-89.94501,38.51868],[-89.94253,38.51914],[-89.94124,38.51935],[-89.94009,38.51946],[-89.93938,38.5195],[-89.93873,38.51951],[-89.93351,38.51952],[-89.92862,38.51945],[-89.92823,38.51949],[-89.92667,38.5195],[-89.92063,38.5195],[-89.92031,38.51931],[-89.9203,38.5184],[-89.92038,38.51779],[-89.92048,38.51741],[-89.92051,38.51719],[-89.92053,38.5155],[-89.91996,38.5155],[-89.91987,38.51555],[-89.91982,38.51565]]]}},{"type":"Feature","properties":{"stop_id":"10606","stop_code":"10606","stop_name":"COLLEGE TRANSIT CENTER","stop_desc":"NEAR SIDE COLLEGE TRANSIT CENTER","wheelchair_boarding":1,"routes":[{"route_id":"19649","agency_id":"70006","route_short_name":"23","route_long_name":"Belleville-College","route_type":3,"route_color":"#FFFFFF","route_text_color":"#000000"}],"agency_name":"Metro St. Louis"},"geometry":{"type":"Point","coordinates":[-89.91984,38.51644]}},{"type":"Feature","properties":{"stop_id":"11065","stop_code":"11065","stop_name":"CARLYLE @ SHOP N SAVE ENTRANCE EB","stop_desc":"FAR SIDE CARLYLE @ SHOP N SAVE ENTRANCE EB","wheelchair_boarding":2,"routes":[{"route_id":"19649","agency_id":"70006","route_short_name":"23","route_long_name":"Belleville-College","route_type":3,"route_color":"#FFFFFF","route_text_color":"#000000"}],"agency_name":"Metro St. Louis"},"geometry":{"type":"Point","coordinates":[-89.95031,38.51762]}},{"type":"Feature","properties":{"stop_id":"11066","stop_code":"11066","stop_name":"CARLYLE @ LAWNDALE EB","stop_desc":"FAR SIDE CARLYLE @ LAWNDALE EB","wheelchair_boarding":2,"routes":[{"route_id":"19649","agency_id":"70006","route_short_name":"23","route_long_name":"Belleville-College","route_type":3,"route_color":"#FFFFFF","route_text_color":"#000000"}],"agency_name":"Metro St. Louis"},"geometry":{"type":"Point","coordinates":[-89.94692,38.51825]}},{"type":"Feature","properties":{"stop_id":"11067","stop_code":"11067","stop_name":"CARLYLE @ WEST EB","stop_desc":"FAR SIDE CARLYLE @ WEST EB","wheelchair_boarding":2,"routes":[{"route_id":"19649","agency_id":"70006","route_short_name":"23","route_long_name":"Belleville-College","route_type":3,"route_color":"#FFFFFF","route_text_color":"#000000"}],"agency_name":"Metro St. Louis"},"geometry":{"type":"Point","coordinates":[-89.94421,38.51874]}},{"type":"Feature","properties":{"stop_id":"11068","stop_code":"11068","stop_name":"CARLYLE @ LINCOLNSHIRE EB","stop_desc":"FAR SIDE CARLYLE @ LINCOLNSHIRE EB","wheelchair_boarding":2,"routes":[{"route_id":"19649","agency_id":"70006","route_short_name":"23","route_long_name":"Belleville-College","route_type":3,"route_color":"#FFFFFF","route_text_color":"#000000"}],"agency_name":"Metro St. Louis"},"geometry":{"type":"Point","coordinates":[-89.9423,38.51909]}},{"type":"Feature","properties":{"stop_id":"11070","stop_code":"11070","stop_name":"CARLYLE @ BUNKER HILL EB","stop_desc":"NEAR SIDE CARLYLE @ BUNKER HILL EB","wheelchair_boarding":2,"routes":[{"route_id":"19649","agency_id":"70006","route_short_name":"23","route_long_name":"Belleville-College","route_type":3,"route_color":"#FFFFFF","route_text_color":"#000000"}],"agency_name":"Metro St. Louis"},"geometry":{"type":"Point","coordinates":[-89.9389,38.51943]}},{"type":"Feature","properties":{"stop_id":"11071","stop_code":"11071","stop_name":"CARLYLE @ LINCOLN PLACE COURT EB","stop_desc":"FAR SIDE CARLYLE @ LINCOLN PLACE COURT EB","wheelchair_boarding":2,"routes":[{"route_id":"19649","agency_id":"70006","route_short_name":"23","route_long_name":"Belleville-College","route_type":3,"route_color":"#FFFFFF","route_text_color":"#000000"}],"agency_name":"Metro St. Louis"},"geometry":{"type":"Point","coordinates":[-89.937,38.51943]}},{"type":"Feature","properties":{"stop_id":"11072","stop_code":"11072","stop_name":"CARLYLE @ BRADFORD PLACE EB","stop_desc":"FAR SIDE CARLYLE @ BRADFORD PLACE EB","wheelchair_boarding":2,"routes":[{"route_id":"19649","agency_id":"70006","route_short_name":"23","route_long_name":"Belleville-College","route_type":3,"route_color":"#FFFFFF","route_text_color":"#000000"}],"agency_name":"Metro St. Louis"},"geometry":{"type":"Point","coordinates":[-89.93197,38.5194]}},{"type":"Feature","properties":{"stop_id":"11101","stop_code":"11101","stop_name":"SCHEEL @ BENTON WB","stop_desc":"NEAR SIDE SCHEEL @ BENTON WB","wheelchair_boarding":2,"routes":[{"route_id":"19636","agency_id":"70006","route_short_name":"1","route_long_name":"Main Street - State Street","route_type":3,"route_color":"#FFFFFF","route_text_color":"#000000"},{"route_id":"19647","agency_id":"70006","route_short_name":"15","route_long_name":"Belleville-O'Fallon","route_type":3,"route_color":"#FFFFFF","route_text_color":"#000000"},{"route_id":"19648","agency_id":"70006","route_short_name":"16","route_long_name":"St. Clair Square","route_type":3,"route_color":"#FFFFFF","route_text_color":"#000000"},{"route_id":"19649","agency_id":"70006","route_short_name":"23","route_long_name":"Belleville-College","route_type":3,"route_color":"#FFFFFF","route_text_color":"#000000"}],"agency_name":"Metro St. Louis"},"geometry":{"type":"Point","coordinates":[-89.97596,38.52055]}},{"type":"Feature","properties":{"stop_id":"11102","stop_code":"11102","stop_name":"BELLEVILLE TRANSIT CENTER","wheelchair_boarding":1,"routes":[{"route_id":"19636","agency_id":"70006","route_short_name":"1","route_long_name":"Main Street - State Street","route_type":3,"route_color":"#FFFFFF","route_text_color":"#000000"},{"route_id":"19647","agency_id":"70006","route_short_name":"15","route_long_name":"Belleville-O'Fallon","route_type":3,"route_color":"#FFFFFF","route_text_color":"#000000"},{"route_id":"19648","agency_id":"70006","route_short_name":"16","route_long_name":"St. Clair Square","route_type":3,"route_color":"#FFFFFF","route_text_color":"#000000"},{"route_id":"19649","agency_id":"70006","route_short_name":"23","route_long_name":"Belleville-College","route_type":3,"route_color":"#FFFFFF","route_text_color":"#000000"}],"agency_name":"Metro St. Louis"},"geometry":{"type":"Point","coordinates":[-89.97461,38.5217]}},{"type":"Feature","properties":{"stop_id":"11109","stop_code":"11109","stop_name":"CARLYLE @ SHADY EB","stop_desc":"NEAR SIDE CARLYLE @ SHADY EB","wheelchair_boarding":2,"routes":[{"route_id":"19649","agency_id":"70006","route_short_name":"23","route_long_name":"Belleville-College","route_type":3,"route_color":"#FFFFFF","route_text_color":"#000000"}],"agency_name":"Metro St. Louis"},"geometry":{"type":"Point","coordinates":[-89.94103,38.51929]}},{"type":"Feature","properties":{"stop_id":"11130","stop_code":"11130","stop_name":"B STREET @ PENNSYLVANIA EB","stop_desc":"FAR SIDE B STREET @ PENNSYLVANIA EB","wheelchair_boarding":2,"routes":[{"route_id":"19649","agency_id":"70006","route_short_name":"23","route_long_name":"Belleville-College","route_type":3,"route_color":"#FFFFFF","route_text_color":"#000000"}],"agency_name":"Metro St. Louis"},"geometry":{"type":"Point","coordinates":[-89.97239,38.51649]}},{"type":"Feature","properties":{"stop_id":"11131","stop_code":"11131","stop_name":"B STREET @ VIRGINIA EB","stop_desc":"NEAR SIDE B STREET @ VIRGINIA EB","wheelchair_boarding":2,"routes":[{"route_id":"19649","agency_id":"70006","route_short_name":"23","route_long_name":"Belleville-College","route_type":3,"route_color":"#FFFFFF","route_text_color":"#000000"}],"agency_name":"Metro St. Louis"},"geometry":{"type":"Point","coordinates":[-89.97166,38.51701]}},{"type":"Feature","properties":{"stop_id":"11132","stop_code":"11132","stop_name":"B STREET @ IOWA EB","stop_desc":"FAR SIDE B STREET @ IOWA EB","wheelchair_boarding":2,"routes":[{"route_id":"19649","agency_id":"70006","route_short_name":"23","route_long_name":"Belleville-College","route_type":3,"route_color":"#FFFFFF","route_text_color":"#000000"}],"agency_name":"Metro St. Louis"},"geometry":{"type":"Point","coordinates":[-89.96956,38.51846]}},{"type":"Feature","properties":{"stop_id":"11133","stop_code":"11133","stop_name":"B STREET @ FLORIDA EB","stop_desc":"NEAR SIDE B STREET @ FLORIDA EB","wheelchair_boarding":2,"routes":[{"route_id":"19649","agency_id":"70006","route_short_name":"23","route_long_name":"Belleville-College","route_type":3,"route_color":"#FFFFFF","route_text_color":"#000000"}],"agency_name":"Metro St. Louis"},"geometry":{"type":"Point","coordinates":[-89.96786,38.51966]}},{"type":"Feature","properties":{"stop_id":"11134","stop_code":"11134","stop_name":"B STREET @ LUCINDA EB","stop_desc":"NEAR SIDE B STREET @ LUCINDA EB","wheelchair_boarding":2,"routes":[{"route_id":"19649","agency_id":"70006","route_short_name":"23","route_long_name":"Belleville-College","route_type":3,"route_color":"#FFFFFF","route_text_color":"#000000"}],"agency_name":"Metro St. Louis"},"geometry":{"type":"Point","coordinates":[-89.96624,38.5208]}},{"type":"Feature","properties":{"stop_id":"11136","stop_code":"11136","stop_name":"B STREET @ DELAWARE EB","stop_desc":"FAR SIDE B STREET @ DELAWARE EB","wheelchair_boarding":2,"routes":[{"route_id":"19649","agency_id":"70006","route_short_name":"23","route_long_name":"Belleville-College","route_type":3,"route_color":"#FFFFFF","route_text_color":"#000000"}],"agency_name":"Metro St. Louis"},"geometry":{"type":"Point","coordinates":[-89.96353,38.52273]}},{"type":"Feature","properties":{"stop_id":"11137","stop_code":"11137","stop_name":"1820 B STREET EB","stop_desc":"MID-BLOCK 1820 B STREET EB","wheelchair_boarding":2,"routes":[{"route_id":"19649","agency_id":"70006","route_short_name":"23","route_long_name":"Belleville-College","route_type":3,"route_color":"#FFFFFF","route_text_color":"#000000"}],"agency_name":"Metro St. Louis"},"geometry":{"type":"Point","coordinates":[-89.96219,38.52366]}},{"type":"Feature","properties":{"stop_id":"11142","stop_code":"11142","stop_name":"WEST @ LEBANON EB","stop_desc":"FAR SIDE WEST @ LEBANON EB","routes":[{"route_id":"19649","agency_id":"70006","route_short_name":"23","route_long_name":"Belleville-College","route_type":3,"route_color":"#FFFFFF","route_text_color":"#000000"}],"agency_name":"Metro St. Louis"},"geometry":{"type":"Point","coordinates":[-89.96279,38.53349]}},{"type":"Feature","properties":{"stop_id":"11145","stop_code":"11145","stop_name":"1301 WEST SB","stop_desc":"FAR SIDE 1301 WEST SB","wheelchair_boarding":2,"routes":[{"route_id":"19649","agency_id":"70006","route_short_name":"23","route_long_name":"Belleville-College","route_type":3,"route_color":"#FFFFFF","route_text_color":"#000000"}],"agency_name":"Metro St. Louis"},"geometry":{"type":"Point","coordinates":[-89.95872,38.53089]}},{"type":"Feature","properties":{"stop_id":"11146","stop_code":"11146","stop_name":"WEST @ DELMAR SB","stop_desc":"NEAR SIDE WEST @ DELMAR SB","wheelchair_boarding":2,"routes":[{"route_id":"19649","agency_id":"70006","route_short_name":"23","route_long_name":"Belleville-College","route_type":3,"route_color":"#FFFFFF","route_text_color":"#000000"}],"agency_name":"Metro St. Louis"},"geometry":{"type":"Point","coordinates":[-89.95676,38.52922]}},{"type":"Feature","properties":{"stop_id":"11148","stop_code":"11148","stop_name":"WEST @ A STREET SB","stop_desc":"NEAR SIDE WEST @ A STREET SB","wheelchair_boarding":2,"routes":[{"route_id":"19649","agency_id":"70006","route_short_name":"23","route_long_name":"Belleville-College","route_type":3,"route_color":"#FFFFFF","route_text_color":"#000000"}],"agency_name":"Metro St. Louis"},"geometry":{"type":"Point","coordinates":[-89.95434,38.52708]}},{"type":"Feature","properties":{"stop_id":"11149","stop_code":"11149","stop_name":"WEST @ MAIN SB","stop_desc":"NEAR SIDE WEST @ MAIN SB","wheelchair_boarding":2,"routes":[{"route_id":"19649","agency_id":"70006","route_short_name":"23","route_long_name":"Belleville-College","route_type":3,"route_color":"#FFFFFF","route_text_color":"#000000"}],"agency_name":"Metro St. Louis"},"geometry":{"type":"Point","coordinates":[-89.95292,38.52584]}},{"type":"Feature","properties":{"stop_id":"11150","stop_code":"11150","stop_name":"WEST @ WOODS WAY SB","stop_desc":"NEAR SIDE WEST @ WOODS WAY SB","wheelchair_boarding":2,"routes":[{"route_id":"19649","agency_id":"70006","route_short_name":"23","route_long_name":"Belleville-College","route_type":3,"route_color":"#FFFFFF","route_text_color":"#000000"}],"agency_name":"Metro St. Louis"},"geometry":{"type":"Point","coordinates":[-89.95095,38.52411]}},{"type":"Feature","properties":{"stop_id":"11151","stop_code":"11151","stop_name":"WEST @ ORCHARD SB","stop_desc":"NEAR SIDE WEST @ ORCHARD SB","wheelchair_boarding":2,"routes":[{"route_id":"19649","agency_id":"70006","route_short_name":"23","route_long_name":"Belleville-College","route_type":3,"route_color":"#FFFFFF","route_text_color":"#000000"}],"agency_name":"Metro St. Louis"},"geometry":{"type":"Point","coordinates":[-89.9498,38.52311]}},{"type":"Feature","properties":{"stop_id":"11152","stop_code":"11152","stop_name":"WEST @ CARDINAL SB","stop_desc":"NEAR SIDE WEST @ CARDINAL SB","wheelchair_boarding":2,"routes":[{"route_id":"19649","agency_id":"70006","route_short_name":"23","route_long_name":"Belleville-College","route_type":3,"route_color":"#FFFFFF","route_text_color":"#000000"}],"agency_name":"Metro St. Louis"},"geometry":{"type":"Point","coordinates":[-89.94838,38.52179]}},{"type":"Feature","properties":{"stop_id":"11153","stop_code":"11153","stop_name":"WEST @ SHADY SB","stop_desc":"FAR SIDE WEST @ SHADY SB","wheelchair_boarding":2,"routes":[{"route_id":"19649","agency_id":"70006","route_short_name":"23","route_long_name":"Belleville-College","route_type":3,"route_color":"#FFFFFF","route_text_color":"#000000"}],"agency_name":"Metro St. Louis"},"geometry":{"type":"Point","coordinates":[-89.94713,38.52061]}},{"type":"Feature","properties":{"stop_id":"11160","stop_code":"11160","stop_name":"VICKSBURG @ MILL SPRINGS WB","stop_desc":"FAR SIDE VICKSBURG @ MILL SPRINGS WB","wheelchair_boarding":2,"routes":[{"route_id":"19649","agency_id":"70006","route_short_name":"23","route_long_name":"Belleville-College","route_type":3,"route_color":"#FFFFFF","route_text_color":"#000000"}],"agency_name":"Metro St. Louis"},"geometry":{"type":"Point","coordinates":[-89.94883,38.51209]}},{"type":"Feature","properties":{"stop_id":"11161","stop_code":"11161","stop_name":"VICKSBURG @ CEDAR MOUNTAIN WB","stop_desc":"NEAR SIDE VICKSBURG @ CEDAR MOUNTAIN WB","wheelchair_boarding":2,"routes":[{"route_id":"19649","agency_id":"70006","route_short_name":"23","route_long_name":"Belleville-College","route_type":3,"route_color":"#FFFFFF","route_text_color":"#000000"}],"agency_name":"Metro St. Louis"},"geometry":{"type":"Point","coordinates":[-89.95034,38.51207]}},{"type":"Feature","properties":{"stop_id":"11163","stop_code":"11163","stop_name":"DENVERSHIRE @ CARLYLE PLAZA ENTRANCE NB","stop_desc":"FAR SIDE DENVERSHIRE @ CARLYLE PLAZA ENTRANCE NB","wheelchair_boarding":2,"routes":[{"route_id":"19649","agency_id":"70006","route_short_name":"23","route_long_name":"Belleville-College","route_type":3,"route_color":"#FFFFFF","route_text_color":"#000000"}],"agency_name":"Metro St. Louis"},"geometry":{"type":"Point","coordinates":[-89.95218,38.51426]}},{"type":"Feature","properties":{"stop_id":"11189","stop_code":"11189","stop_name":"VICKSBURG @ DENVERSHIRE WB","stop_desc":"NEAR SIDE VICKSBURG @ DENVERSHIRE WB","wheelchair_boarding":2,"routes":[{"route_id":"19649","agency_id":"70006","route_short_name":"23","route_long_name":"Belleville-College","route_type":3,"route_color":"#FFFFFF","route_text_color":"#000000"}],"agency_name":"Metro St. Louis"},"geometry":{"type":"Point","coordinates":[-89.95191,38.51266]}},{"type":"Feature","properties":{"stop_id":"11192","stop_code":"11192","stop_name":"WEST @ VICKSBURG SB","stop_desc":"NEAR SIDE WEST @ VICKSBURG SB","wheelchair_boarding":2,"routes":[{"route_id":"19649","agency_id":"70006","route_short_name":"23","route_long_name":"Belleville-College","route_type":3,"route_color":"#FFFFFF","route_text_color":"#000000"}],"agency_name":"Metro St. Louis"},"geometry":{"type":"Point","coordinates":[-89.94758,38.51267]}},{"type":"Feature","properties":{"stop_id":"11998","stop_code":"11998","stop_name":"LEBANON @ DEWEY EB","stop_desc":"FAR SIDE LEBANON @ DEWEY EB","wheelchair_boarding":2,"routes":[{"route_id":"19647","agency_id":"70006","route_short_name":"15","route_long_name":"Belleville-O'Fallon","route_type":3,"route_color":"#FFFFFF","route_text_color":"#000000"},{"route_id":"19649","agency_id":"70006","route_short_name":"23","route_long_name":"Belleville-College","route_type":3,"route_color":"#FFFFFF","route_text_color":"#000000"}],"agency_name":"Metro St. Louis"},"geometry":{"type":"Point","coordinates":[-89.96723,38.53166]}},{"type":"Feature","properties":{"stop_id":"11999","stop_code":"11999","stop_name":"LEBANON @ FREEMONT EB","stop_desc":"NEAR SIDE LEBANON @ FREEMONT EB","wheelchair_boarding":2,"routes":[{"route_id":"19647","agency_id":"70006","route_short_name":"15","route_long_name":"Belleville-O'Fallon","route_type":3,"route_color":"#FFFFFF","route_text_color":"#000000"},{"route_id":"19649","agency_id":"70006","route_short_name":"23","route_long_name":"Belleville-College","route_type":3,"route_color":"#FFFFFF","route_text_color":"#000000"}],"agency_name":"Metro St. Louis"},"geometry":{"type":"Point","coordinates":[-89.96601,38.53246]}},{"type":"Feature","properties":{"stop_id":"12170","stop_code":"12170","stop_name":"SCHEEL @ DOUGLAS WB","stop_desc":"NEAR SIDE SCHEEL @ DOUGLAS WB","wheelchair_boarding":2,"routes":[{"route_id":"19636","agency_id":"70006","route_short_name":"1","route_long_name":"Main Street - State Street","route_type":3,"route_color":"#FFFFFF","route_text_color":"#000000"},{"route_id":"19647","agency_id":"70006","route_short_name":"15","route_long_name":"Belleville-O'Fallon","route_type":3,"route_color":"#FFFFFF","route_text_color":"#000000"},{"route_id":"19648","agency_id":"70006","route_short_name":"16","route_long_name":"St. Clair Square","route_type":3,"route_color":"#FFFFFF","route_text_color":"#000000"},{"route_id":"19649","agency_id":"70006","route_short_name":"23","route_long_name":"Belleville-College","route_type":3,"route_color":"#FFFFFF","route_text_color":"#000000"}],"agency_name":"Metro St. Louis"},"geometry":{"type":"Point","coordinates":[-89.97736,38.51957]}},{"type":"Feature","properties":{"stop_id":"12172","stop_code":"12172","stop_name":"DOUGLAS @ SYCAMORE SB","stop_desc":"NEAR SIDE DOUGLAS @ SYCAMORE SB","wheelchair_boarding":2,"routes":[{"route_id":"19649","agency_id":"70006","route_short_name":"23","route_long_name":"Belleville-College","route_type":3,"route_color":"#FFFFFF","route_text_color":"#000000"}],"agency_name":"Metro St. Louis"},"geometry":{"type":"Point","coordinates":[-89.97667,38.51855]}},{"type":"Feature","properties":{"stop_id":"12174","stop_code":"12174","stop_name":"DOUGLAS @ C STREET SB","stop_desc":"NEAR SIDE DOUGLAS @ C STREET SB","wheelchair_boarding":2,"routes":[{"route_id":"19649","agency_id":"70006","route_short_name":"23","route_long_name":"Belleville-College","route_type":3,"route_color":"#FFFFFF","route_text_color":"#000000"}],"agency_name":"Metro St. Louis"},"geometry":{"type":"Point","coordinates":[-89.97457,38.51667]}},{"type":"Feature","properties":{"stop_id":"12175","stop_code":"12175","stop_name":"DOUGLAS @ B STREET SB","stop_desc":"NEAR SIDE DOUGLAS @ B STREET SB","wheelchair_boarding":2,"routes":[{"route_id":"19649","agency_id":"70006","route_short_name":"23","route_long_name":"Belleville-College","route_type":3,"route_color":"#FFFFFF","route_text_color":"#000000"}],"agency_name":"Metro St. Louis"},"geometry":{"type":"Point","coordinates":[-89.97381,38.51599]}},{"type":"Feature","properties":{"stop_id":"15394","stop_code":"15394","stop_name":"DOUGLAS @ D STREET SB","stop_desc":"FAR SIDE DOUGLAS @ D STREET SB","wheelchair_boarding":2,"routes":[{"route_id":"19649","agency_id":"70006","route_short_name":"23","route_long_name":"Belleville-College","route_type":3,"route_color":"#FFFFFF","route_text_color":"#000000"}],"agency_name":"Metro St. Louis"},"geometry":{"type":"Point","coordinates":[-89.97532,38.51733]}},{"type":"Feature","properties":{"stop_id":"15395","stop_code":"15395","stop_name":"B STREET @ MISSOURI EB","stop_desc":"NEAR SIDE B STREET @ MISSOURI EB","wheelchair_boarding":2,"routes":[{"route_id":"19649","agency_id":"70006","route_short_name":"23","route_long_name":"Belleville-College","route_type":3,"route_color":"#FFFFFF","route_text_color":"#000000"}],"agency_name":"Metro St. Louis"},"geometry":{"type":"Point","coordinates":[-89.97076,38.51762]}},{"type":"Feature","properties":{"stop_id":"15399","stop_code":"15399","stop_name":"WEST @ LINDBERGH CIRCLE SB","stop_desc":"NEAR SIDE WEST @ LINDBERGH CIRCLE SB","wheelchair_boarding":2,"routes":[{"route_id":"19649","agency_id":"70006","route_short_name":"23","route_long_name":"Belleville-College","route_type":3,"route_color":"#FFFFFF","route_text_color":"#000000"}],"agency_name":"Metro St. Louis"},"geometry":{"type":"Point","coordinates":[-89.94518,38.51723]}},{"type":"Feature","properties":{"stop_id":"15400","stop_code":"15400","stop_name":"2905 WEST SB","stop_desc":"MID-BLOCK 2905 WEST SB","wheelchair_boarding":2,"routes":[{"route_id":"19649","agency_id":"70006","route_short_name":"23","route_long_name":"Belleville-College","route_type":3,"route_color":"#FFFFFF","route_text_color":"#000000"}],"agency_name":"Metro St. Louis"},"geometry":{"type":"Point","coordinates":[-89.94698,38.51627]}},{"type":"Feature","properties":{"stop_id":"15401","stop_code":"15401","stop_name":"WEST @ FIVE FORKS SB","stop_desc":"NEAR SIDE WEST @ FIVE FORKS SB","wheelchair_boarding":2,"routes":[{"route_id":"19649","agency_id":"70006","route_short_name":"23","route_long_name":"Belleville-College","route_type":3,"route_color":"#FFFFFF","route_text_color":"#000000"}],"agency_name":"Metro St. Louis"},"geometry":{"type":"Point","coordinates":[-89.94762,38.5148]}},{"type":"Feature","properties":{"stop_id":"15402","stop_code":"15402","stop_name":"WEST @ RUTLEDGE SB","stop_desc":"NEAR SIDE WEST @ RUTLEDGE SB","wheelchair_boarding":2,"routes":[{"route_id":"19649","agency_id":"70006","route_short_name":"23","route_long_name":"Belleville-College","route_type":3,"route_color":"#FFFFFF","route_text_color":"#000000"}],"agency_name":"Metro St. Louis"},"geometry":{"type":"Point","coordinates":[-89.94761,38.51398]}},{"type":"Feature","properties":{"stop_id":"15403","stop_code":"15403","stop_name":"VICKSBURG @ CEDAR MOUNTAIN WB","stop_desc":"FAR SIDE VICKSBURG @ CEDAR MOUNTAIN WB","wheelchair_boarding":2,"routes":[{"route_id":"19649","agency_id":"70006","route_short_name":"23","route_long_name":"Belleville-College","route_type":3,"route_color":"#FFFFFF","route_text_color":"#000000"}],"agency_name":"Metro St. Louis"},"geometry":{"type":"Point","coordinates":[-89.95094,38.51257]}},{"type":"Feature","properties":{"stop_id":"15404","stop_code":"15404","stop_name":"DENVERSHIRE @ SHERWIN WILLIAMS NB","stop_desc":"MID-BLOCK DENVERSHIRE @ SHERWIN WILLIAMS NB","wheelchair_boarding":2,"routes":[{"route_id":"19649","agency_id":"70006","route_short_name":"23","route_long_name":"Belleville-College","route_type":3,"route_color":"#FFFFFF","route_text_color":"#000000"}],"agency_name":"Metro St. Louis"},"geometry":{"type":"Point","coordinates":[-89.95225,38.51637]}},{"type":"Feature","properties":{"stop_id":"15405","stop_code":"15405","stop_name":"CARLYLE @ GREEN MOUNT EB","stop_desc":"FAR SIDE CARLYLE @ GREEN MOUNT EB","wheelchair_boarding":2,"routes":[{"route_id":"19649","agency_id":"70006","route_short_name":"23","route_long_name":"Belleville-College","route_type":3,"route_color":"#FFFFFF","route_text_color":"#000000"}],"agency_name":"Metro St. Louis"},"geometry":{"type":"Point","coordinates":[-89.92774,38.51938]}},{"type":"Feature","properties":{"stop_id":"15406","stop_code":"15406","stop_name":"CARLYLE @ BACK EB","stop_desc":"NEAR SIDE CARLYLE @ BACK EB","wheelchair_boarding":2,"routes":[{"route_id":"19649","agency_id":"70006","route_short_name":"23","route_long_name":"Belleville-College","route_type":3,"route_color":"#FFFFFF","route_text_color":"#000000"}],"agency_name":"Metro St. Louis"},"geometry":{"type":"Point","coordinates":[-89.92078,38.51939]}},{"type":"Feature","properties":{"stop_id":"15407","stop_code":"15407","stop_name":"SWIC RING ROAD @ BACK SB","stop_desc":"NEAR SIDE SWIC RING ROAD @ BACK SB","wheelchair_boarding":2,"routes":[{"route_id":"19649","agency_id":"70006","route_short_name":"23","route_long_name":"Belleville-College","route_type":3,"route_color":"#FFFFFF","route_text_color":"#000000"}],"agency_name":"Metro St. Louis"},"geometry":{"type":"Point","coordinates":[-89.92053,38.51757]}},{"type":"Feature","properties":{"stop_id":"15912","stop_code":"15912","stop_name":"CARLYLE @ COLLEGE PLAZA EB","stop_desc":"FAR SIDE CARLYLE @ COLLEGE PLAZA EB","wheelchair_boarding":2,"routes":[{"route_id":"19649","agency_id":"70006","route_short_name":"23","route_long_name":"Belleville-College","route_type":3,"route_color":"#FFFFFF","route_text_color":"#000000"}],"agency_name":"Metro St. Louis"},"geometry":{"type":"Point","coordinates":[-89.9345,38.51942]}},{"type":"Feature","properties":{"stop_id":"16510","stop_code":"16510","stop_name":"WEST @ MALLARD SB","stop_desc":"NEAR SIDE WEST @ MALLARD SB","wheelchair_boarding":2,"routes":[{"route_id":"19649","agency_id":"70006","route_short_name":"23","route_long_name":"Belleville-College","route_type":3,"route_color":"#FFFFFF","route_text_color":"#000000"}],"agency_name":"Metro St. Louis"},"geometry":{"type":"Point","coordinates":[-89.96048,38.53247]}},{"type":"Feature","properties":{"stop_id":"16512","stop_code":"16512","stop_name":"SHERMAN @ LA SALLE NB","stop_desc":"FAR SIDE SHERMAN @ LA SALLE NB","wheelchair_boarding":2,"routes":[{"route_id":"19649","agency_id":"70006","route_short_name":"23","route_long_name":"Belleville-College","route_type":3,"route_color":"#FFFFFF","route_text_color":"#000000"}],"agency_name":"Metro St. Louis"},"geometry":{"type":"Point","coordinates":[-89.96683,38.52879]}},{"type":"Feature","properties":{"stop_id":"16516","stop_code":"16516","stop_name":"WEST @ B STREET SB","stop_desc":"NEAR SIDE WEST @ B STREET SB","wheelchair_boarding":2,"routes":[{"route_id":"19649","agency_id":"70006","route_short_name":"23","route_long_name":"Belleville-College","route_type":3,"route_color":"#FFFFFF","route_text_color":"#000000"}],"agency_name":"Metro St. Louis"},"geometry":{"type":"Point","coordinates":[-89.95573,38.52826]}}]}