{"type":"FeatureCollection","features":[{"type":"Feature","properties":{"agency_name":"Metro St. Louis","route_id":"19621","agency_id":"70006","route_short_name":"64","route_long_name":"Lucas-Hunt","route_type":3,"route_color":"#FFFFFF","route_text_color":"#000000"},"geometry":{"type":"MultiLineString","coordinates":[[[-90.30172,38.6856],[-90.30161,38.68505],[-90.30172,38.6856],[-90.30182,38.68564],[-90.30225,38.68562],[-90.30256,38.68527],[-90.30272,38.68506],[-90.30271,38.68495],[-90.30255,38.68486],[-90.30283,38.68454],[-90.30149,38.68383],[-90.30114,38.68363],[-90.29861,38.68234],[-90.29631,38.68111],[-90.29545,38.68067],[-90.29532,38.68107],[-90.29497,38.6824],[-90.29422,38.68495],[-90.29412,38.68519],[-90.29337,38.68725],[-90.29335,38.68745],[-90.29337,38.68758],[-90.29355,38.68816],[-90.29374,38.68886],[-90.29385,38.68915],[-90.2939,38.68923],[-90.29505,38.69033],[-90.29539,38.69068],[-90.29551,38.69087],[-90.29573,38.69132],[-90.29617,38.6924],[-90.29668,38.6942],[-90.29675,38.69462],[-90.29676,38.69494],[-90.29669,38.69548],[-90.29661,38.69582],[-90.29615,38.69669],[-90.29595,38.697],[-90.29379,38.70003],[-90.29344,38.7005],[-90.29317,38.70079],[-90.29235,38.70184],[-90.29177,38.70266],[-90.29054,38.70433],[-90.28985,38.70532],[-90.28904,38.7064],[-90.2868,38.70948],[-90.28661,38.70976],[-90.28636,38.71008],[-90.28617,38.7104],[-90.28572,38.71105],[-90.28539,38.71146],[-90.28502,38.71198],[-90.28404,38.71341],[-90.28169,38.71668],[-90.28125,38.71735],[-90.2807,38.7181],[-90.28037,38.71858],[-90.27841,38.72118],[-90.27574,38.72488],[-90.27539,38.72533],[-90.27525,38.72545],[-90.27511,38.72554],[-90.27453,38.72587],[-90.27262,38.72704],[-90.27238,38.72709],[-90.27077,38.72803],[-90.26984,38.72853],[-90.26932,38.72878],[-90.26904,38.72894],[-90.26894,38.72908],[-90.26731,38.73011],[-90.26714,38.73025],[-90.2669,38.73048],[-90.26663,38.73082],[-90.26647,38.73108],[-90.26635,38.73137],[-90.26628,38.73179],[-90.26625,38.73233],[-90.26621,38.73261],[-90.26614,38.73288],[-90.26606,38.73309],[-90.26587,38.7334],[-90.26332,38.73682],[-90.26294,38.73726],[-90.26249,38.73765],[-90.26207,38.73797],[-90.26154,38.7383],[-90.26038,38.73895],[-90.2574,38.74056],[-90.25506,38.74187],[-90.25458,38.74211],[-90.25425,38.74223],[-90.25383,38.74234],[-90.2535,38.7424],[-90.25285,38.74248],[-90.25219,38.74229],[-90.25203,38.74185],[-90.25139,38.74044],[-90.25124,38.74013],[-90.25099,38.73967],[-90.25072,38.73922],[-90.24998,38.73805],[-90.24979,38.73778],[-90.24947,38.73726],[-90.24852,38.73584],[-90.24816,38.73534],[-90.24717,38.73379],[-90.24669,38.73303],[-90.24625,38.73228],[-90.24602,38.73185],[-90.24328,38.72761],[-90.24277,38.72671],[-90.24223,38.72591],[-90.2418,38.72523],[-90.24169,38.72502],[-90.24036,38.72287],[-90.24051,38.7228],[-90.24059,38.72272],[-90.24064,38.72259],[-90.24065,38.72248],[-90.24058,38.72234],[-90.24053,38.72227],[-90.24046,38.72222],[-90.24016,38.72216],[-90.24007,38.72217],[-90.23995,38.72221],[-90.23983,38.72227],[-90.23978,38.72232],[-90.23972,38.72247],[-90.23634,38.72272],[-90.23601,38.72276],[-90.2353,38.72293],[-90.23467,38.72317],[-90.23433,38.72334],[-90.2307,38.72531],[-90.22974,38.72581],[-90.22947,38.72592],[-90.2285,38.7262],[-90.22794,38.72633],[-90.22736,38.72649],[-90.22353,38.72757],[-90.22325,38.72761],[-90.22319,38.72759],[-90.22316,38.72754],[-90.22318,38.72741],[-90.22369,38.72708],[-90.22376,38.72716],[-90.22383,38.72718]]]}},{"type":"Feature","properties":{"stop_id":"10137","stop_code":"10137","stop_name":"HALLS FERRY @ LUCAS-HUNT SB","stop_desc":"MID-BLOCK HALLS FERRY @ LUCAS-HUNT SB","wheelchair_boarding":2,"routes":[{"route_id":"19611","agency_id":"70006","route_short_name":"40","route_long_name":"Broadway-Halls Ferry","route_type":3,"route_color":"#FFFFFF","route_text_color":"#000000"},{"route_id":"19621","agency_id":"70006","route_short_name":"64","route_long_name":"Lucas-Hunt","route_type":3,"route_color":"#FFFFFF","route_text_color":"#000000"}],"agency_name":"Metro St. Louis"},"geometry":{"type":"Point","coordinates":[-90.25195,38.74149]}},{"type":"Feature","properties":{"stop_id":"10139","stop_code":"10139","stop_name":"HALLS FERRY @ DORWOOD SB","stop_desc":"FAR SIDE HALLS FERRY @ DORWOOD SB","wheelchair_boarding":2,"routes":[{"route_id":"19611","agency_id":"70006","route_short_name":"40","route_long_name":"Broadway-Halls Ferry","route_type":3,"route_color":"#FFFFFF","route_text_color":"#000000"},{"route_id":"19621","agency_id":"70006","route_short_name":"64","route_long_name":"Lucas-Hunt","route_type":3,"route_color":"#FFFFFF","route_text_color":"#000000"}],"agency_name":"Metro St. Louis"},"geometry":{"type":"Point","coordinates":[-90.2506,38.73889]}},{"type":"Feature","properties":{"stop_id":"10141","stop_code":"10141","stop_name":"HALLS FERRY @ ST. CYR SB","stop_desc":"NEAR SIDE HALLS FERRY @ ST. CYR SB","wheelchair_boarding":1,"routes":[{"route_id":"19611","agency_id":"70006","route_short_name":"40","route_long_name":"Broadway-Halls Ferry","route_type":3,"route_color":"#FFFFFF","route_text_color":"#000000"},{"route_id":"19621","agency_id":"70006","route_short_name":"64","route_long_name":"Lucas-Hunt","route_type":3,"route_color":"#FFFFFF","route_text_color":"#000000"}],"agency_name":"Metro St. Louis"},"geometry":{"type":"Point","coordinates":[-90.24868,38.73594]}},{"type":"Feature","properties":{"stop_id":"10143","stop_code":"10143","stop_name":"HALLS FERRY @ GLEN GARDEN SB","stop_desc":"NEAR SIDE HALLS FERRY @ GLEN GARDEN SB","wheelchair_boarding":1,"routes":[{"route_id":"19611","agency_id":"70006","route_short_name":"40","route_long_name":"Broadway-Halls Ferry","route_type":3,"route_color":"#FFFFFF","route_text_color":"#000000"},{"route_id":"19621","agency_id":"70006","route_short_name":"64","route_long_name":"Lucas-Hunt","route_type":3,"route_color":"#FFFFFF","route_text_color":"#000000"}],"agency_name":"Metro St. Louis"},"geometry":{"type":"Point","coordinates":[-90.24731,38.73383]}},{"type":"Feature","properties":{"stop_id":"10144","stop_code":"10144","stop_name":"HALLS FERRY @ COZENS SB","stop_desc":"FAR SIDE HALLS FERRY @ COZENS SB","wheelchair_boarding":1,"routes":[{"route_id":"19611","agency_id":"70006","route_short_name":"40","route_long_name":"Broadway-Halls Ferry","route_type":3,"route_color":"#FFFFFF","route_text_color":"#000000"},{"route_id":"19621","agency_id":"70006","route_short_name":"64","route_long_name":"Lucas-Hunt","route_type":3,"route_color":"#FFFFFF","route_text_color":"#000000"}],"agency_name":"Metro St. Louis"},"geometry":{"type":"Point","coordinates":[-90.24609,38.73183]}},{"type":"Feature","properties":{"stop_id":"13248","stop_code":"13248","stop_name":"LUCAS-HUNT @ LUTHERAN HIGH SCHOOL NORTH NB","stop_desc":"NEAR SIDE LUCAS-HUNT @ LUTHERAN HIGH SCHOOL NORTH NB","wheelchair_boarding":1,"routes":[{"route_id":"19621","agency_id":"70006","route_short_name":"64","route_long_name":"Lucas-Hunt","route_type":3,"route_color":"#FFFFFF","route_text_color":"#000000"}],"agency_name":"Metro St. Louis"},"geometry":{"type":"Point","coordinates":[-90.28172,38.7166]}},{"type":"Feature","properties":{"stop_id":"13276","stop_code":"13276","stop_name":"ST. CHARLES ROCK ROAD @ LULU EB","stop_desc":"NEAR SIDE ST. CHARLES ROCK ROAD @ LULU EB","wheelchair_boarding":1,"routes":[{"route_id":"19603","agency_id":"70006","route_short_name":"19","route_long_name":"St Louis Ave","route_type":3,"route_color":"#FFFFFF","route_text_color":"#000000"},{"route_id":"19607","agency_id":"70006","route_short_name":"32","route_long_name":"Dr ML King","route_type":3,"route_color":"#FFFFFF","route_text_color":"#000000"},{"route_id":"19621","agency_id":"70006","route_short_name":"64","route_long_name":"Lucas-Hunt","route_type":3,"route_color":"#FFFFFF","route_text_color":"#000000"}],"agency_name":"Metro St. Louis"},"geometry":{"type":"Point","coordinates":[-90.29904,38.68248]}},{"type":"Feature","properties":{"stop_id":"13308","stop_code":"13308","stop_name":"LUCAS-HUNT @ ST. LOUIS NB","stop_desc":"FAR SIDE LUCAS-HUNT @ ST. LOUIS NB","wheelchair_boarding":1,"routes":[{"route_id":"19621","agency_id":"70006","route_short_name":"64","route_long_name":"Lucas-Hunt","route_type":3,"route_color":"#FFFFFF","route_text_color":"#000000"}],"agency_name":"Metro St. Louis"},"geometry":{"type":"Point","coordinates":[-90.29346,38.68824]}},{"type":"Feature","properties":{"stop_id":"13877","stop_code":"13877","stop_name":"LUCAS-HUNT @ BURRWOOD NB","stop_desc":"NEAR SIDE LUCAS-HUNT @ BURRWOOD NB","wheelchair_boarding":1,"routes":[{"route_id":"19621","agency_id":"70006","route_short_name":"64","route_long_name":"Lucas-Hunt","route_type":3,"route_color":"#FFFFFF","route_text_color":"#000000"}],"agency_name":"Metro St. Louis"},"geometry":{"type":"Point","coordinates":[-90.28408,38.71323]}},{"type":"Feature","properties":{"stop_id":"14095","stop_code":"14095","stop_name":"LUCAS-HUNT @ NORTH MARKET NB","stop_desc":"FAR SIDE LUCAS-HUNT @ NORTH MARKET NB","wheelchair_boarding":2,"routes":[{"route_id":"19621","agency_id":"70006","route_short_name":"64","route_long_name":"Lucas-Hunt","route_type":3,"route_color":"#FFFFFF","route_text_color":"#000000"}],"agency_name":"Metro St. Louis"},"geometry":{"type":"Point","coordinates":[-90.2938,38.68575]}},{"type":"Feature","properties":{"stop_id":"14096","stop_code":"14096","stop_name":"LUCAS-HUNT @  JESSE JACKSON NB","stop_desc":"NEAR SIDE LUCAS-HUNT @  JESSE JACKSON NB","wheelchair_boarding":1,"routes":[{"route_id":"19621","agency_id":"70006","route_short_name":"64","route_long_name":"Lucas-Hunt","route_type":3,"route_color":"#FFFFFF","route_text_color":"#000000"}],"agency_name":"Metro St. Louis"},"geometry":{"type":"Point","coordinates":[-90.29341,38.68691]}},{"type":"Feature","properties":{"stop_id":"14098","stop_code":"14098","stop_name":"LUCAS-HUNT @ FARLEY NB","stop_desc":"NEAR SIDE LUCAS-HUNT @ FARLEY NB","wheelchair_boarding":1,"routes":[{"route_id":"19621","agency_id":"70006","route_short_name":"64","route_long_name":"Lucas-Hunt","route_type":3,"route_color":"#FFFFFF","route_text_color":"#000000"}],"agency_name":"Metro St. Louis"},"geometry":{"type":"Point","coordinates":[-90.28957,38.70558]}},{"type":"Feature","properties":{"stop_id":"14100","stop_code":"14100","stop_name":"LUCAS-HUNT @ EUNICE NB","stop_desc":"NEAR SIDE LUCAS-HUNT @ EUNICE NB","wheelchair_boarding":1,"routes":[{"route_id":"19621","agency_id":"70006","route_short_name":"64","route_long_name":"Lucas-Hunt","route_type":3,"route_color":"#FFFFFF","route_text_color":"#000000"}],"agency_name":"Metro St. Louis"},"geometry":{"type":"Point","coordinates":[-90.27865,38.72078]}},{"type":"Feature","properties":{"stop_id":"14101","stop_code":"14101","stop_name":"LUCAS-HUNT @ JENWOOD NB","stop_desc":"NEAR SIDE LUCAS-HUNT @ JENWOOD NB","wheelchair_boarding":1,"routes":[{"route_id":"19621","agency_id":"70006","route_short_name":"64","route_long_name":"Lucas-Hunt","route_type":3,"route_color":"#FFFFFF","route_text_color":"#000000"}],"agency_name":"Metro St. Louis"},"geometry":{"type":"Point","coordinates":[-90.2768,38.72331]}},{"type":"Feature","properties":{"stop_id":"14104","stop_code":"14104","stop_name":"LUCAS-HUNT @ EAGLE VALLEY NB","stop_desc":"NEAR SIDE LUCAS-HUNT @ EAGLE VALLEY NB","wheelchair_boarding":1,"routes":[{"route_id":"19621","agency_id":"70006","route_short_name":"64","route_long_name":"Lucas-Hunt","route_type":3,"route_color":"#FFFFFF","route_text_color":"#000000"}],"agency_name":"Metro St. Louis"},"geometry":{"type":"Point","coordinates":[-90.28052,38.71823]}},{"type":"Feature","properties":{"stop_id":"14497","stop_code":"14497","stop_name":"LUCAS-HUNT @ WEST FLORISSANT NB","stop_desc":"FAR SIDE LUCAS-HUNT @ WEST FLORISSANT NB","wheelchair_boarding":2,"routes":[{"route_id":"19621","agency_id":"70006","route_short_name":"64","route_long_name":"Lucas-Hunt","route_type":3,"route_color":"#FFFFFF","route_text_color":"#000000"}],"agency_name":"Metro St. Louis"},"geometry":{"type":"Point","coordinates":[-90.27447,38.72583]}},{"type":"Feature","properties":{"stop_id":"14785","stop_code":"14785","stop_name":"LUCAS-HUNT @ GROVELAND NB","stop_desc":"FAR SIDE LUCAS-HUNT @ GROVELAND NB","wheelchair_boarding":1,"routes":[{"route_id":"19621","agency_id":"70006","route_short_name":"64","route_long_name":"Lucas-Hunt","route_type":3,"route_color":"#FFFFFF","route_text_color":"#000000"}],"agency_name":"Metro St. Louis"},"geometry":{"type":"Point","coordinates":[-90.28697,38.70912]}},{"type":"Feature","properties":{"stop_id":"14786","stop_code":"14786","stop_name":"LUCAS-HUNT @ ROCK ROAD NB","stop_desc":"FAR SIDE LUCAS-HUNT @ ROCK ROAD NB","wheelchair_boarding":2,"routes":[{"route_id":"19621","agency_id":"70006","route_short_name":"64","route_long_name":"Lucas-Hunt","route_type":3,"route_color":"#FFFFFF","route_text_color":"#000000"}],"agency_name":"Metro St. Louis"},"geometry":{"type":"Point","coordinates":[-90.29522,38.68109]}},{"type":"Feature","properties":{"stop_id":"14788","stop_code":"14788","stop_name":"LUCAS-HUNT @ NORMANDY HIGH SCHOOL NB","stop_desc":"MID-BLOCK LUCAS-HUNT @ NORMANDY HIGH SCHOOL NB","wheelchair_boarding":2,"routes":[{"route_id":"19621","agency_id":"70006","route_short_name":"64","route_long_name":"Lucas-Hunt","route_type":3,"route_color":"#FFFFFF","route_text_color":"#000000"}],"agency_name":"Metro St. Louis"},"geometry":{"type":"Point","coordinates":[-90.29473,38.68286]}},{"type":"Feature","properties":{"stop_id":"14920","stop_code":"14920","stop_name":"LUCAS-HUNT @ KINAMORE NB","stop_desc":"NEAR SIDE LUCAS-HUNT @ KINAMORE NB","wheelchair_boarding":2,"routes":[{"route_id":"19621","agency_id":"70006","route_short_name":"64","route_long_name":"Lucas-Hunt","route_type":3,"route_color":"#FFFFFF","route_text_color":"#000000"}],"agency_name":"Metro St. Louis"},"geometry":{"type":"Point","coordinates":[-90.27237,38.72708]}},{"type":"Feature","properties":{"stop_id":"15073","stop_code":"15073","stop_name":"RIVERVIEW @ BROADWAY EB","stop_desc":"FAR SIDE RIVERVIEW @ BROADWAY EB","wheelchair_boarding":2,"routes":[{"route_id":"19601","agency_id":"70006","route_short_name":"16","route_long_name":"City Limits","route_type":3,"route_color":"#FFFFFF","route_text_color":"#000000"},{"route_id":"19611","agency_id":"70006","route_short_name":"40","route_long_name":"Broadway-Halls Ferry","route_type":3,"route_color":"#FFFFFF","route_text_color":"#000000"},{"route_id":"19612","agency_id":"70006","route_short_name":"41","route_long_name":"Lee","route_type":3,"route_color":"#FFFFFF","route_text_color":"#000000"},{"route_id":"19619","agency_id":"70006","route_short_name":"60","route_long_name":"Shepley-Lilac","route_type":3,"route_color":"#FFFFFF","route_text_color":"#000000"},{"route_id":"19620","agency_id":"70006","route_short_name":"61","route_long_name":"Chambers Rd","route_type":3,"route_color":"#FFFFFF","route_text_color":"#000000"},{"route_id":"19621","agency_id":"70006","route_short_name":"64","route_long_name":"Lucas-Hunt","route_type":3,"route_color":"#FFFFFF","route_text_color":"#000000"},{"route_id":"19627","agency_id":"70006","route_short_name":"78","route_long_name":"Bellefontaine","route_type":3,"route_color":"#FFFFFF","route_text_color":"#000000"},{"route_id":"19629","agency_id":"70006","route_short_name":"90","route_long_name":"Hampton","route_type":3,"route_color":"#FFFFFF","route_text_color":"#000000"}],"agency_name":"Metro St. Louis"},"geometry":{"type":"Point","coordinates":[-90.22708,38.72658]}},{"type":"Feature","properties":{"stop_id":"15232","stop_code":"15232","stop_name":"LUCAS-HUNT @ NEMNICH EB","stop_desc":"FAR SIDE LUCAS-HUNT @ NEMNICH EB","wheelchair_boarding":2,"routes":[{"route_id":"19621","agency_id":"70006","route_short_name":"64","route_long_name":"Lucas-Hunt","route_type":3,"route_color":"#FFFFFF","route_text_color":"#000000"}],"agency_name":"Metro St. Louis"},"geometry":{"type":"Point","coordinates":[-90.25439,38.74213]}},{"type":"Feature","properties":{"stop_id":"15498","stop_code":"15498","stop_name":"LUCAS-HUNT @ JACOBI EB","stop_desc":"NEAR SIDE LUCAS-HUNT @ JACOBI EB","wheelchair_boarding":2,"routes":[{"route_id":"19621","agency_id":"70006","route_short_name":"64","route_long_name":"Lucas-Hunt","route_type":3,"route_color":"#FFFFFF","route_text_color":"#000000"}],"agency_name":"Metro St. Louis"},"geometry":{"type":"Point","coordinates":[-90.25864,38.73982]}},{"type":"Feature","properties":{"stop_id":"15953","stop_code":"15953","stop_name":"HALLS FERRY @ WESTCHESTER SB","stop_desc":"FAR SIDE HALLS FERRY @ WESTCHESTER SB","wheelchair_boarding":1,"routes":[{"route_id":"19611","agency_id":"70006","route_short_name":"40","route_long_name":"Broadway-Halls Ferry","route_type":3,"route_color":"#FFFFFF","route_text_color":"#000000"},{"route_id":"19621","agency_id":"70006","route_short_name":"64","route_long_name":"Lucas-Hunt","route_type":3,"route_color":"#FFFFFF","route_text_color":"#000000"}],"agency_name":"Metro St. Louis"},"geometry":{"type":"Point","coordinates":[-90.24394,38.72845]}},{"type":"Feature","properties":{"stop_id":"16090","stop_code":"16090","stop_name":"RIVERVIEW TRANSIT CENTER","wheelchair_boarding":1,"routes":[{"route_id":"19620","agency_id":"70006","route_short_name":"61","route_long_name":"Chambers Rd","route_type":3,"route_color":"#FFFFFF","route_text_color":"#000000"},{"route_id":"19621","agency_id":"70006","route_short_name":"64","route_long_name":"Lucas-Hunt","route_type":3,"route_color":"#FFFFFF","route_text_color":"#000000"},{"route_id":"19627","agency_id":"70006","route_short_name":"78","route_long_name":"Bellefontaine","route_type":3,"route_color":"#FFFFFF","route_text_color":"#000000"},{"route_id":"19629","agency_id":"70006","route_short_name":"90","route_long_name":"Hampton","route_type":3,"route_color":"#FFFFFF","route_text_color":"#000000"}],"agency_name":"Metro St. Louis"},"geometry":{"type":"Point","coordinates":[-90.22399,38.72717]}},{"type":"Feature","properties":{"stop_id":"16409","stop_code":"16409","stop_name":"LUCAS-HUNT @ LIONS PARK NB","stop_desc":"FAR SIDE LUCAS-HUNT @ LIONS PARK NB","wheelchair_boarding":2,"routes":[{"route_id":"19621","agency_id":"70006","route_short_name":"64","route_long_name":"Lucas-Hunt","route_type":3,"route_color":"#FFFFFF","route_text_color":"#000000"}],"agency_name":"Metro St. Louis"},"geometry":{"type":"Point","coordinates":[-90.26516,38.73418]}},{"type":"Feature","properties":{"stop_id":"4371","stop_code":"4371","stop_name":"LUCAS-HUNT @ COLONIAL NB","stop_desc":"NEAR SIDE LUCAS-HUNT @ COLONIAL NB","wheelchair_boarding":1,"routes":[{"route_id":"19621","agency_id":"70006","route_short_name":"64","route_long_name":"Lucas-Hunt","route_type":3,"route_color":"#FFFFFF","route_text_color":"#000000"}],"agency_name":"Metro St. Louis"},"geometry":{"type":"Point","coordinates":[-90.29568,38.69139]}},{"type":"Feature","properties":{"stop_id":"4372","stop_code":"4372","stop_name":"LUCAS-HUNT @ LINCOLN NB","stop_desc":"NEAR SIDE LUCAS-HUNT @ LINCOLN NB","wheelchair_boarding":1,"routes":[{"route_id":"19621","agency_id":"70006","route_short_name":"64","route_long_name":"Lucas-Hunt","route_type":3,"route_color":"#FFFFFF","route_text_color":"#000000"}],"agency_name":"Metro St. Louis"},"geometry":{"type":"Point","coordinates":[-90.2963,38.69313]}},{"type":"Feature","properties":{"stop_id":"4374","stop_code":"4374","stop_name":"LUCAS-HUNT @ LEXINGTON NB","stop_desc":"FAR SIDE LUCAS-HUNT @ LEXINGTON NB","wheelchair_boarding":1,"routes":[{"route_id":"19621","agency_id":"70006","route_short_name":"64","route_long_name":"Lucas-Hunt","route_type":3,"route_color":"#FFFFFF","route_text_color":"#000000"}],"agency_name":"Metro St. Louis"},"geometry":{"type":"Point","coordinates":[-90.29646,38.69592]}},{"type":"Feature","properties":{"stop_id":"4376","stop_code":"4376","stop_name":"LUCAS-HUNT @ EDISON NB","stop_desc":"FAR SIDE LUCAS-HUNT @ EDISON NB","wheelchair_boarding":2,"routes":[{"route_id":"19621","agency_id":"70006","route_short_name":"64","route_long_name":"Lucas-Hunt","route_type":3,"route_color":"#FFFFFF","route_text_color":"#000000"}],"agency_name":"Metro St. Louis"},"geometry":{"type":"Point","coordinates":[-90.29466,38.69866]}},{"type":"Feature","properties":{"stop_id":"6300","stop_code":"6300","stop_name":"HALLS FERRY @ JENNINGS STATION ROAD SB","stop_desc":"FAR SIDE HALLS FERRY @ JENNINGS STATION ROAD SB","wheelchair_boarding":1,"routes":[{"route_id":"19611","agency_id":"70006","route_short_name":"40","route_long_name":"Broadway-Halls Ferry","route_type":3,"route_color":"#FFFFFF","route_text_color":"#000000"},{"route_id":"19621","agency_id":"70006","route_short_name":"64","route_long_name":"Lucas-Hunt","route_type":3,"route_color":"#FFFFFF","route_text_color":"#000000"}],"agency_name":"Metro St. Louis"},"geometry":{"type":"Point","coordinates":[-90.24302,38.72701]}},{"type":"Feature","properties":{"stop_id":"6301","stop_code":"6301","stop_name":"HALLS FERRY @ HALLS FERRY CIRCLE SB","stop_desc":"NEAR SIDE HALLS FERRY @ HALLS FERRY CIRCLE SB","wheelchair_boarding":1,"routes":[{"route_id":"19611","agency_id":"70006","route_short_name":"40","route_long_name":"Broadway-Halls Ferry","route_type":3,"route_color":"#FFFFFF","route_text_color":"#000000"},{"route_id":"19621","agency_id":"70006","route_short_name":"64","route_long_name":"Lucas-Hunt","route_type":3,"route_color":"#FFFFFF","route_text_color":"#000000"}],"agency_name":"Metro St. Louis"},"geometry":{"type":"Point","coordinates":[-90.24094,38.72365]}},{"type":"Feature","properties":{"stop_id":"6388","stop_code":"6388","stop_name":"RIVERVIEW @ HALLS FERRY CIRCLE EB","stop_desc":"FAR SIDE RIVERVIEW @ HALLS FERRY CIRCLE EB","wheelchair_boarding":1,"routes":[{"route_id":"19611","agency_id":"70006","route_short_name":"40","route_long_name":"Broadway-Halls Ferry","route_type":3,"route_color":"#FFFFFF","route_text_color":"#000000"},{"route_id":"19612","agency_id":"70006","route_short_name":"41","route_long_name":"Lee","route_type":3,"route_color":"#FFFFFF","route_text_color":"#000000"},{"route_id":"19621","agency_id":"70006","route_short_name":"64","route_long_name":"Lucas-Hunt","route_type":3,"route_color":"#FFFFFF","route_text_color":"#000000"},{"route_id":"19629","agency_id":"70006","route_short_name":"90","route_long_name":"Hampton","route_type":3,"route_color":"#FFFFFF","route_text_color":"#000000"}],"agency_name":"Metro St. Louis"},"geometry":{"type":"Point","coordinates":[-90.2393,38.72248]}},{"type":"Feature","properties":{"stop_id":"6390","stop_code":"6390","stop_name":"RIVERVIEW @ NEWBY EB","stop_desc":"NEAR SIDE RIVERVIEW @ NEWBY EB","wheelchair_boarding":2,"routes":[{"route_id":"19611","agency_id":"70006","route_short_name":"40","route_long_name":"Broadway-Halls Ferry","route_type":3,"route_color":"#FFFFFF","route_text_color":"#000000"},{"route_id":"19612","agency_id":"70006","route_short_name":"41","route_long_name":"Lee","route_type":3,"route_color":"#FFFFFF","route_text_color":"#000000"},{"route_id":"19621","agency_id":"70006","route_short_name":"64","route_long_name":"Lucas-Hunt","route_type":3,"route_color":"#FFFFFF","route_text_color":"#000000"},{"route_id":"19629","agency_id":"70006","route_short_name":"90","route_long_name":"Hampton","route_type":3,"route_color":"#FFFFFF","route_text_color":"#000000"}],"agency_name":"Metro St. Louis"},"geometry":{"type":"Point","coordinates":[-90.2349,38.72302]}},{"type":"Feature","properties":{"stop_id":"6392","stop_code":"6392","stop_name":"RIVERVIEW @ JORDAN EB","stop_desc":"NEAR SIDE RIVERVIEW @ JORDAN EB","wheelchair_boarding":2,"routes":[{"route_id":"19611","agency_id":"70006","route_short_name":"40","route_long_name":"Broadway-Halls Ferry","route_type":3,"route_color":"#FFFFFF","route_text_color":"#000000"},{"route_id":"19612","agency_id":"70006","route_short_name":"41","route_long_name":"Lee","route_type":3,"route_color":"#FFFFFF","route_text_color":"#000000"},{"route_id":"19621","agency_id":"70006","route_short_name":"64","route_long_name":"Lucas-Hunt","route_type":3,"route_color":"#FFFFFF","route_text_color":"#000000"},{"route_id":"19629","agency_id":"70006","route_short_name":"90","route_long_name":"Hampton","route_type":3,"route_color":"#FFFFFF","route_text_color":"#000000"}],"agency_name":"Metro St. Louis"},"geometry":{"type":"Point","coordinates":[-90.23086,38.72518]}},{"type":"Feature","properties":{"stop_id":"6393","stop_code":"6393","stop_name":"RIVERVIEW @ BROADWAY EB","stop_desc":"NEAR SIDE RIVERVIEW @ BROADWAY EB","wheelchair_boarding":2,"routes":[{"route_id":"19611","agency_id":"70006","route_short_name":"40","route_long_name":"Broadway-Halls Ferry","route_type":3,"route_color":"#FFFFFF","route_text_color":"#000000"},{"route_id":"19612","agency_id":"70006","route_short_name":"41","route_long_name":"Lee","route_type":3,"route_color":"#FFFFFF","route_text_color":"#000000"},{"route_id":"19621","agency_id":"70006","route_short_name":"64","route_long_name":"Lucas-Hunt","route_type":3,"route_color":"#FFFFFF","route_text_color":"#000000"},{"route_id":"19629","agency_id":"70006","route_short_name":"90","route_long_name":"Hampton","route_type":3,"route_color":"#FFFFFF","route_text_color":"#000000"}],"agency_name":"Metro St. Louis"},"geometry":{"type":"Point","coordinates":[-90.22857,38.72615]}},{"type":"Feature","properties":{"stop_id":"673","stop_code":"673","stop_name":"LUCAS-HUNT @ NATURAL BRIDGE NB","stop_desc":"FAR SIDE LUCAS-HUNT @ NATURAL BRIDGE NB","wheelchair_boarding":1,"routes":[{"route_id":"19621","agency_id":"70006","route_short_name":"64","route_long_name":"Lucas-Hunt","route_type":3,"route_color":"#FFFFFF","route_text_color":"#000000"}],"agency_name":"Metro St. Louis"},"geometry":{"type":"Point","coordinates":[-90.29224,38.70185]}},{"type":"Feature","properties":{"stop_id":"7424","stop_code":"7424","stop_name":"ROCK ROAD TRANSIT CENTER","wheelchair_boarding":1,"routes":[{"route_id":"19593","agency_id":"70006","route_short_name":"2","route_long_name":"Red","route_type":3,"route_color":"#FFFFFF","route_text_color":"#000000"},{"route_id":"19603","agency_id":"70006","route_short_name":"19","route_long_name":"St Louis Ave","route_type":3,"route_color":"#FFFFFF","route_text_color":"#000000"},{"route_id":"19607","agency_id":"70006","route_short_name":"32","route_long_name":"Dr ML King","route_type":3,"route_color":"#FFFFFF","route_text_color":"#000000"},{"route_id":"19610","agency_id":"70006","route_short_name":"35","route_long_name":"Rock Road","route_type":3,"route_color":"#FFFFFF","route_text_color":"#000000"},{"route_id":"19621","agency_id":"70006","route_short_name":"64","route_long_name":"Lucas-Hunt","route_type":3,"route_color":"#FFFFFF","route_text_color":"#000000"}],"agency_name":"Metro St. Louis"},"geometry":{"type":"Point","coordinates":[-90.30164,38.68516]}},{"type":"Feature","properties":{"stop_id":"8289","stop_code":"8289","stop_name":"LUCAS-HUNT @ HORD NB","stop_desc":"FAR SIDE LUCAS-HUNT @ HORD NB","wheelchair_boarding":2,"routes":[{"route_id":"19621","agency_id":"70006","route_short_name":"64","route_long_name":"Lucas-Hunt","route_type":3,"route_color":"#FFFFFF","route_text_color":"#000000"}],"agency_name":"Metro St. Louis"},"geometry":{"type":"Point","coordinates":[-90.26829,38.72941]}}]}