{"type":"FeatureCollection","features":[{"type":"Feature","properties":{"agency_name":"Metro St. Louis","route_id":"19602","agency_id":"70006","route_short_name":"18","route_long_name":"Taylor","route_type":3,"route_color":"#FFFFFF","route_text_color":"#000000"},"geometry":{"type":"MultiLineString","coordinates":[[[-90.26058,38.6358],[-90.26055,38.6359],[-90.26058,38.6358],[-90.26054,38.63577],[-90.2599,38.63564],[-90.25986,38.63575],[-90.25987,38.63603],[-90.25984,38.63624],[-90.25961,38.63631],[-90.25966,38.63651],[-90.25973,38.63702],[-90.25971,38.6372],[-90.25966,38.63737],[-90.25768,38.6432],[-90.25707,38.64505],[-90.25698,38.64526],[-90.25687,38.64545],[-90.2541,38.64933],[-90.25348,38.65024],[-90.2523,38.65184],[-90.25097,38.65372],[-90.25031,38.65462],[-90.24886,38.65666],[-90.24805,38.65783],[-90.24636,38.66018],[-90.24409,38.66338],[-90.2411,38.66326],[-90.24046,38.66419],[-90.23916,38.66598],[-90.23727,38.66871],[-90.23648,38.66979],[-90.23587,38.67049],[-90.23562,38.67083],[-90.23453,38.67239],[-90.2343,38.67267],[-90.23406,38.67304],[-90.23394,38.6732],[-90.23381,38.67334],[-90.23296,38.67452],[-90.23063,38.6778],[-90.23045,38.67793],[-90.22788,38.67929]]]}},{"type":"Feature","properties":{"stop_id":"16089","stop_code":"16089","stop_name":"CENTRAL WEST END TRANSIT CENTER","wheelchair_boarding":1,"routes":[{"route_id":"19602","agency_id":"70006","route_short_name":"18","route_long_name":"Taylor","route_type":3,"route_color":"#FFFFFF","route_text_color":"#000000"},{"route_id":"19613","agency_id":"70006","route_short_name":"42","route_long_name":"Sarah","route_type":3,"route_color":"#FFFFFF","route_text_color":"#000000"}],"agency_name":"Metro St. Louis"},"geometry":{"type":"Point","coordinates":[-90.26025,38.63592]}},{"type":"Feature","properties":{"stop_id":"8018","stop_code":"8018","stop_name":"TAYLOR @ FOREST PARK NB","stop_desc":"FAR SIDE TAYLOR @ FOREST PARK NB","wheelchair_boarding":1,"routes":[{"route_id":"19600","agency_id":"70006","route_short_name":"13","route_long_name":"Union","route_type":3,"route_color":"#FFFFFF","route_text_color":"#000000"},{"route_id":"19602","agency_id":"70006","route_short_name":"18","route_long_name":"Taylor","route_type":3,"route_color":"#FFFFFF","route_text_color":"#000000"}],"agency_name":"Metro St. Louis"},"geometry":{"type":"Point","coordinates":[-90.25922,38.63855]}},{"type":"Feature","properties":{"stop_id":"8019","stop_code":"8019","stop_name":"TAYLOR @ LACLEDE NB","stop_desc":"FAR SIDE TAYLOR @ LACLEDE NB","wheelchair_boarding":2,"routes":[{"route_id":"19600","agency_id":"70006","route_short_name":"13","route_long_name":"Union","route_type":3,"route_color":"#FFFFFF","route_text_color":"#000000"},{"route_id":"19602","agency_id":"70006","route_short_name":"18","route_long_name":"Taylor","route_type":3,"route_color":"#FFFFFF","route_text_color":"#000000"}],"agency_name":"Metro St. Louis"},"geometry":{"type":"Point","coordinates":[-90.25877,38.6399]}},{"type":"Feature","properties":{"stop_id":"8020","stop_code":"8020","stop_name":"TAYLOR @ WEST PINE NB","stop_desc":"NEAR SIDE TAYLOR @ WEST PINE NB","wheelchair_boarding":2,"routes":[{"route_id":"19600","agency_id":"70006","route_short_name":"13","route_long_name":"Union","route_type":3,"route_color":"#FFFFFF","route_text_color":"#000000"},{"route_id":"19602","agency_id":"70006","route_short_name":"18","route_long_name":"Taylor","route_type":3,"route_color":"#FFFFFF","route_text_color":"#000000"}],"agency_name":"Metro St. Louis"},"geometry":{"type":"Point","coordinates":[-90.25844,38.64079]}},{"type":"Feature","properties":{"stop_id":"8021","stop_code":"8021","stop_name":"TAYLOR @ LINDELL NB","stop_desc":"NEAR SIDE TAYLOR @ LINDELL NB","wheelchair_boarding":1,"routes":[{"route_id":"19600","agency_id":"70006","route_short_name":"13","route_long_name":"Union","route_type":3,"route_color":"#FFFFFF","route_text_color":"#000000"},{"route_id":"19602","agency_id":"70006","route_short_name":"18","route_long_name":"Taylor","route_type":3,"route_color":"#FFFFFF","route_text_color":"#000000"}],"agency_name":"Metro St. Louis"},"geometry":{"type":"Point","coordinates":[-90.25798,38.64223]}},{"type":"Feature","properties":{"stop_id":"8022","stop_code":"8022","stop_name":"TAYLOR @ MARYLAND NB","stop_desc":"NEAR SIDE TAYLOR @ MARYLAND NB","wheelchair_boarding":2,"routes":[{"route_id":"19602","agency_id":"70006","route_short_name":"18","route_long_name":"Taylor","route_type":3,"route_color":"#FFFFFF","route_text_color":"#000000"}],"agency_name":"Metro St. Louis"},"geometry":{"type":"Point","coordinates":[-90.25763,38.64325]}},{"type":"Feature","properties":{"stop_id":"8023","stop_code":"8023","stop_name":"TAYLOR @ PERSHING NB","stop_desc":"NEAR SIDE TAYLOR @ PERSHING NB","wheelchair_boarding":2,"routes":[{"route_id":"19602","agency_id":"70006","route_short_name":"18","route_long_name":"Taylor","route_type":3,"route_color":"#FFFFFF","route_text_color":"#000000"}],"agency_name":"Metro St. Louis"},"geometry":{"type":"Point","coordinates":[-90.25704,38.64512]}},{"type":"Feature","properties":{"stop_id":"8024","stop_code":"8024","stop_name":"TAYLOR @ MCPHERSON NB","stop_desc":"FAR SIDE TAYLOR @ MCPHERSON NB","wheelchair_boarding":2,"routes":[{"route_id":"19602","agency_id":"70006","route_short_name":"18","route_long_name":"Taylor","route_type":3,"route_color":"#FFFFFF","route_text_color":"#000000"}],"agency_name":"Metro St. Louis"},"geometry":{"type":"Point","coordinates":[-90.25611,38.64653]}},{"type":"Feature","properties":{"stop_id":"8025","stop_code":"8025","stop_name":"TAYLOR @ OLIVE NB","stop_desc":"FAR SIDE TAYLOR @ OLIVE NB","wheelchair_boarding":1,"routes":[{"route_id":"19602","agency_id":"70006","route_short_name":"18","route_long_name":"Taylor","route_type":3,"route_color":"#FFFFFF","route_text_color":"#000000"}],"agency_name":"Metro St. Louis"},"geometry":{"type":"Point","coordinates":[-90.25481,38.64834]}},{"type":"Feature","properties":{"stop_id":"8026","stop_code":"8026","stop_name":"TAYLOR @ WASHINGTON NB","stop_desc":"FAR SIDE TAYLOR @ WASHINGTON NB","wheelchair_boarding":2,"routes":[{"route_id":"19602","agency_id":"70006","route_short_name":"18","route_long_name":"Taylor","route_type":3,"route_color":"#FFFFFF","route_text_color":"#000000"}],"agency_name":"Metro St. Louis"},"geometry":{"type":"Point","coordinates":[-90.254,38.64948]}},{"type":"Feature","properties":{"stop_id":"8027","stop_code":"8027","stop_name":"TAYLOR @ DELMAR NB","stop_desc":"FAR SIDE TAYLOR @ DELMAR NB","wheelchair_boarding":2,"routes":[{"route_id":"19602","agency_id":"70006","route_short_name":"18","route_long_name":"Taylor","route_type":3,"route_color":"#FFFFFF","route_text_color":"#000000"}],"agency_name":"Metro St. Louis"},"geometry":{"type":"Point","coordinates":[-90.25318,38.65053]}},{"type":"Feature","properties":{"stop_id":"8028","stop_code":"8028","stop_name":"TAYLOR @ BELLE PLACE NB","stop_desc":"NEAR SIDE TAYLOR @ BELLE PLACE NB","wheelchair_boarding":1,"routes":[{"route_id":"19602","agency_id":"70006","route_short_name":"18","route_long_name":"Taylor","route_type":3,"route_color":"#FFFFFF","route_text_color":"#000000"}],"agency_name":"Metro St. Louis"},"geometry":{"type":"Point","coordinates":[-90.25204,38.65214]}},{"type":"Feature","properties":{"stop_id":"8029","stop_code":"8029","stop_name":"TAYLOR @ FINNEY NB","stop_desc":"NEAR SIDE TAYLOR @ FINNEY NB","wheelchair_boarding":2,"routes":[{"route_id":"19602","agency_id":"70006","route_short_name":"18","route_long_name":"Taylor","route_type":3,"route_color":"#FFFFFF","route_text_color":"#000000"}],"agency_name":"Metro St. Louis"},"geometry":{"type":"Point","coordinates":[-90.25107,38.65354]}},{"type":"Feature","properties":{"stop_id":"8031","stop_code":"8031","stop_name":"TAYLOR @ PAGE NB","stop_desc":"NEAR SIDE TAYLOR @ PAGE NB","wheelchair_boarding":1,"routes":[{"route_id":"19602","agency_id":"70006","route_short_name":"18","route_long_name":"Taylor","route_type":3,"route_color":"#FFFFFF","route_text_color":"#000000"}],"agency_name":"Metro St. Louis"},"geometry":{"type":"Point","coordinates":[-90.2497,38.65545]}},{"type":"Feature","properties":{"stop_id":"8033","stop_code":"8033","stop_name":"TAYLOR @ DR ML KING NB","stop_desc":"NEAR SIDE TAYLOR @ DR ML KING NB","wheelchair_boarding":1,"routes":[{"route_id":"19602","agency_id":"70006","route_short_name":"18","route_long_name":"Taylor","route_type":3,"route_color":"#FFFFFF","route_text_color":"#000000"}],"agency_name":"Metro St. Louis"},"geometry":{"type":"Point","coordinates":[-90.24818,38.65764]}},{"type":"Feature","properties":{"stop_id":"8036","stop_code":"8036","stop_name":"TAYLOR @ GARFIELD NB","stop_desc":"NEAR SIDE TAYLOR @ GARFIELD NB","wheelchair_boarding":2,"routes":[{"route_id":"19602","agency_id":"70006","route_short_name":"18","route_long_name":"Taylor","route_type":3,"route_color":"#FFFFFF","route_text_color":"#000000"}],"agency_name":"Metro St. Louis"},"geometry":{"type":"Point","coordinates":[-90.24652,38.66]}},{"type":"Feature","properties":{"stop_id":"8037","stop_code":"8037","stop_name":"TAYLOR @ ST. FERDINAND NB","stop_desc":"FAR SIDE TAYLOR @ ST. FERDINAND NB","wheelchair_boarding":2,"routes":[{"route_id":"19602","agency_id":"70006","route_short_name":"18","route_long_name":"Taylor","route_type":3,"route_color":"#FFFFFF","route_text_color":"#000000"}],"agency_name":"Metro St. Louis"},"geometry":{"type":"Point","coordinates":[-90.24513,38.66188]}},{"type":"Feature","properties":{"stop_id":"8040","stop_code":"8040","stop_name":"TAYLOR @ MAFFITT NB","stop_desc":"NEAR SIDE TAYLOR @ MAFFITT NB","wheelchair_boarding":1,"routes":[{"route_id":"19602","agency_id":"70006","route_short_name":"18","route_long_name":"Taylor","route_type":3,"route_color":"#FFFFFF","route_text_color":"#000000"}],"agency_name":"Metro St. Louis"},"geometry":{"type":"Point","coordinates":[-90.24348,38.66415]}},{"type":"Feature","properties":{"stop_id":"8042","stop_code":"8042","stop_name":"NEWSTEAD @ ST. LOUIS NB","stop_desc":"NEAR SIDE NEWSTEAD @ ST. LOUIS NB","wheelchair_boarding":1,"routes":[{"route_id":"19602","agency_id":"70006","route_short_name":"18","route_long_name":"Taylor","route_type":3,"route_color":"#FFFFFF","route_text_color":"#000000"}],"agency_name":"Metro St. Louis"},"geometry":{"type":"Point","coordinates":[-90.24063,38.6639]}},{"type":"Feature","properties":{"stop_id":"8043","stop_code":"8043","stop_name":"NEWSTEAD @ LABADIE NB","stop_desc":"FAR SIDE NEWSTEAD @ LABADIE NB","wheelchair_boarding":1,"routes":[{"route_id":"19602","agency_id":"70006","route_short_name":"18","route_long_name":"Taylor","route_type":3,"route_color":"#FFFFFF","route_text_color":"#000000"}],"agency_name":"Metro St. Louis"},"geometry":{"type":"Point","coordinates":[-90.23966,38.66523]}},{"type":"Feature","properties":{"stop_id":"8044","stop_code":"8044","stop_name":"NEWSTEAD @ GREER NB","stop_desc":"FAR SIDE NEWSTEAD @ GREER NB","wheelchair_boarding":1,"routes":[{"route_id":"19602","agency_id":"70006","route_short_name":"18","route_long_name":"Taylor","route_type":3,"route_color":"#FFFFFF","route_text_color":"#000000"}],"agency_name":"Metro St. Louis"},"geometry":{"type":"Point","coordinates":[-90.23901,38.66615]}},{"type":"Feature","properties":{"stop_id":"8045","stop_code":"8045","stop_name":"NEWSTEAD @ ASHLAND NB","stop_desc":"NEAR SIDE NEWSTEAD @ ASHLAND NB","wheelchair_boarding":1,"routes":[{"route_id":"19602","agency_id":"70006","route_short_name":"18","route_long_name":"Taylor","route_type":3,"route_color":"#FFFFFF","route_text_color":"#000000"}],"agency_name":"Metro St. Louis"},"geometry":{"type":"Point","coordinates":[-90.23806,38.66749]}},{"type":"Feature","properties":{"stop_id":"8046","stop_code":"8046","stop_name":"NEWSTEAD @ LEXINGTON NB","stop_desc":"NEAR SIDE NEWSTEAD @ LEXINGTON NB","wheelchair_boarding":1,"routes":[{"route_id":"19602","agency_id":"70006","route_short_name":"18","route_long_name":"Taylor","route_type":3,"route_color":"#FFFFFF","route_text_color":"#000000"}],"agency_name":"Metro St. Louis"},"geometry":{"type":"Point","coordinates":[-90.23742,38.66844]}},{"type":"Feature","properties":{"stop_id":"8047","stop_code":"8047","stop_name":"NEWSTEAD @ NATURAL BRIDGE NB","stop_desc":"FAR SIDE NEWSTEAD @ NATURAL BRIDGE NB","wheelchair_boarding":1,"routes":[{"route_id":"19602","agency_id":"70006","route_short_name":"18","route_long_name":"Taylor","route_type":3,"route_color":"#FFFFFF","route_text_color":"#000000"}],"agency_name":"Metro St. Louis"},"geometry":{"type":"Point","coordinates":[-90.23619,38.67]}},{"type":"Feature","properties":{"stop_id":"8048","stop_code":"8048","stop_name":"NEWSTEAD @ SAN FRANCISCO NB","stop_desc":"NEAR SIDE NEWSTEAD @ SAN FRANCISCO NB","wheelchair_boarding":2,"routes":[{"route_id":"19602","agency_id":"70006","route_short_name":"18","route_long_name":"Taylor","route_type":3,"route_color":"#FFFFFF","route_text_color":"#000000"}],"agency_name":"Metro St. Louis"},"geometry":{"type":"Point","coordinates":[-90.23493,38.67176]}},{"type":"Feature","properties":{"stop_id":"8050","stop_code":"8050","stop_name":"NEWSTEAD @ KOSSUTH NB","stop_desc":"NEAR SIDE NEWSTEAD @ KOSSUTH NB","wheelchair_boarding":2,"routes":[{"route_id":"19602","agency_id":"70006","route_short_name":"18","route_long_name":"Taylor","route_type":3,"route_color":"#FFFFFF","route_text_color":"#000000"}],"agency_name":"Metro St. Louis"},"geometry":{"type":"Point","coordinates":[-90.23395,38.67317]}},{"type":"Feature","properties":{"stop_id":"8051","stop_code":"8051","stop_name":"NEWSTEAD @ LEE NB","stop_desc":"NEAR SIDE NEWSTEAD @ LEE NB","wheelchair_boarding":1,"routes":[{"route_id":"19602","agency_id":"70006","route_short_name":"18","route_long_name":"Taylor","route_type":3,"route_color":"#FFFFFF","route_text_color":"#000000"}],"agency_name":"Metro St. Louis"},"geometry":{"type":"Point","coordinates":[-90.23307,38.67431]}},{"type":"Feature","properties":{"stop_id":"8052","stop_code":"8052","stop_name":"NEWSTEAD @ BESSIE NB","stop_desc":"FAR SIDE NEWSTEAD @ BESSIE NB","wheelchair_boarding":2,"routes":[{"route_id":"19602","agency_id":"70006","route_short_name":"18","route_long_name":"Taylor","route_type":3,"route_color":"#FFFFFF","route_text_color":"#000000"}],"agency_name":"Metro St. Louis"},"geometry":{"type":"Point","coordinates":[-90.23183,38.67599]}},{"type":"Feature","properties":{"stop_id":"8053","stop_code":"8053","stop_name":"POPE @ CARTER NB","stop_desc":"FAR SIDE POPE @ CARTER NB","wheelchair_boarding":1,"routes":[{"route_id":"19602","agency_id":"70006","route_short_name":"18","route_long_name":"Taylor","route_type":3,"route_color":"#FFFFFF","route_text_color":"#000000"}],"agency_name":"Metro St. Louis"},"geometry":{"type":"Point","coordinates":[-90.23049,38.67786]}},{"type":"Feature","properties":{"stop_id":"8054","stop_code":"8054","stop_name":"POPE @ ROSALIE NB","stop_desc":"NEAR SIDE POPE @ ROSALIE NB","wheelchair_boarding":2,"routes":[{"route_id":"19602","agency_id":"70006","route_short_name":"18","route_long_name":"Taylor","route_type":3,"route_color":"#FFFFFF","route_text_color":"#000000"}],"agency_name":"Metro St. Louis"},"geometry":{"type":"Point","coordinates":[-90.22802,38.67919]}},{"type":"Feature","properties":{"stop_id":"8055","stop_code":"8055","stop_name":"POPE @ WEST FLORISSANT NB","stop_desc":"NEAR SIDE POPE @ WEST FLORISSANT NB","wheelchair_boarding":2,"routes":[{"route_id":"19602","agency_id":"70006","route_short_name":"18","route_long_name":"Taylor","route_type":3,"route_color":"#FFFFFF","route_text_color":"#000000"},{"route_id":"19613","agency_id":"70006","route_short_name":"42","route_long_name":"Sarah","route_type":3,"route_color":"#FFFFFF","route_text_color":"#000000"}],"agency_name":"Metro St. Louis"},"geometry":{"type":"Point","coordinates":[-90.22504,38.68077]}}]}