{"type":"FeatureCollection","features":[{"type":"Feature","properties":{"agency_name":"Metro St. Louis","route_id":"19615","agency_id":"70006","route_short_name":"56","route_long_name":"Kirkwood-Webster","route_type":3,"route_color":"#FFFFFF","route_text_color":"#000000"},"geometry":{"type":"MultiLineString","coordinates":[[[-90.41736,38.5686],[-90.41736,38.56831],[-90.41735,38.56914],[-90.41737,38.56958],[-90.41733,38.57056],[-90.41596,38.57056],[-90.41586,38.56934],[-90.4159,38.56692],[-90.41368,38.56685],[-90.40968,38.56678],[-90.40677,38.5667],[-90.40403,38.56667],[-90.40363,38.56672],[-90.40343,38.56677],[-90.40308,38.56688],[-90.40209,38.56725],[-90.40129,38.56747],[-90.40065,38.56761],[-90.39977,38.56776],[-90.399,38.56782],[-90.39458,38.56782],[-90.39283,38.56787],[-90.39151,38.56795],[-90.39135,38.56797],[-90.39114,38.56803],[-90.39085,38.56816],[-90.38983,38.56874],[-90.38756,38.57009],[-90.38693,38.57044],[-90.38646,38.57069],[-90.38545,38.57113],[-90.38422,38.57186],[-90.3837,38.57214],[-90.38316,38.57225],[-90.38027,38.57272],[-90.3798,38.57283],[-90.37725,38.57355],[-90.37729,38.57549],[-90.37726,38.57821],[-90.37727,38.57916],[-90.37724,38.58082],[-90.37724,38.58389],[-90.3771,38.58399],[-90.37676,38.58416],[-90.3764,38.5843],[-90.37586,38.58448],[-90.37566,38.58453],[-90.37518,38.5846],[-90.37418,38.58456],[-90.37368,38.58457],[-90.37272,38.58466],[-90.37185,38.58477],[-90.37142,38.5848],[-90.37115,38.58485],[-90.371,38.5849],[-90.37085,38.58497],[-90.37069,38.58507],[-90.37054,38.58522],[-90.37047,38.58534],[-90.37027,38.58576],[-90.36984,38.5868],[-90.36934,38.58866],[-90.36906,38.58955],[-90.36896,38.58978],[-90.36887,38.59005],[-90.36874,38.59034],[-90.36848,38.59088],[-90.36829,38.59122],[-90.36798,38.5917],[-90.36777,38.59197],[-90.36754,38.5922],[-90.3673,38.59241],[-90.36704,38.59262],[-90.36675,38.59282],[-90.36648,38.59298],[-90.36614,38.59315],[-90.36588,38.59326],[-90.36566,38.59333],[-90.36545,38.59337],[-90.36495,38.5934],[-90.36474,38.59344],[-90.36437,38.59346],[-90.36355,38.59344],[-90.36283,38.59339],[-90.35506,38.59256],[-90.35471,38.59251],[-90.34776,38.59176],[-90.3469,38.59168],[-90.34617,38.59159],[-90.34104,38.59105],[-90.34059,38.59092],[-90.33958,38.59113],[-90.33932,38.59121],[-90.33878,38.59147],[-90.33805,38.59187],[-90.3373,38.59236],[-90.33672,38.59244],[-90.33622,38.59211],[-90.336,38.59199],[-90.33556,38.59167],[-90.33539,38.59158],[-90.33515,38.59141],[-90.33486,38.59126],[-90.3346,38.59119],[-90.33405,38.59119],[-90.33242,38.59152],[-90.3322,38.59155],[-90.33204,38.59155],[-90.33149,38.5915],[-90.33038,38.59136],[-90.33005,38.59134],[-90.32715,38.59106],[-90.32613,38.59094],[-90.32407,38.59074],[-90.32324,38.59064],[-90.32304,38.59064],[-90.32283,38.59066],[-90.32256,38.5908],[-90.32158,38.59145],[-90.32135,38.59168],[-90.32113,38.59194],[-90.32101,38.59209],[-90.32095,38.59222],[-90.32026,38.59226],[-90.31992,38.59223],[-90.31924,38.59226],[-90.31844,38.59222],[-90.31843,38.59257],[-90.31856,38.59279],[-90.3186,38.59282],[-90.31878,38.59286],[-90.31943,38.5928],[-90.31983,38.59272],[-90.31989,38.59267],[-90.31991,38.59259],[-90.31987,38.59252],[-90.31979,38.59249]]]}},{"type":"Feature","properties":{"stop_id":"13343","stop_code":"13343","stop_name":"STLCC MERAMEC","stop_desc":"MID-BLOCK STLCC MERAMEC","wheelchair_boarding":1,"routes":[{"route_id":"19604","agency_id":"70006","route_short_name":"21","route_long_name":"Watson Rd","route_type":3,"route_color":"#FFFFFF","route_text_color":"#000000"},{"route_id":"19615","agency_id":"70006","route_short_name":"56","route_long_name":"Kirkwood-Webster","route_type":3,"route_color":"#FFFFFF","route_text_color":"#000000"}],"agency_name":"Metro St. Louis"},"geometry":{"type":"Point","coordinates":[-90.41737,38.56819]}},{"type":"Feature","properties":{"stop_id":"16303","stop_code":"16303","stop_name":"SHREWSBURY-LANSDOWNE I-44 TRANSIT CENTER","wheelchair_boarding":1,"routes":[{"route_id":"19597","agency_id":"70006","route_short_name":"9","route_long_name":"Oakville","route_type":3,"route_color":"#FFFFFF","route_text_color":"#000000"},{"route_id":"19615","agency_id":"70006","route_short_name":"56","route_long_name":"Kirkwood-Webster","route_type":3,"route_color":"#FFFFFF","route_text_color":"#000000"}],"agency_name":"Metro St. Louis"},"geometry":{"type":"Point","coordinates":[-90.31943,38.59258]}},{"type":"Feature","properties":{"stop_id":"2899","stop_code":"2899","stop_name":"LOCKWOOD @ BERRY EB","stop_desc":"FAR SIDE LOCKWOOD @ BERRY EB","wheelchair_boarding":1,"routes":[{"route_id":"19615","agency_id":"70006","route_short_name":"56","route_long_name":"Kirkwood-Webster","route_type":3,"route_color":"#FFFFFF","route_text_color":"#000000"}],"agency_name":"Metro St. Louis"},"geometry":{"type":"Point","coordinates":[-90.37657,38.58424]}},{"type":"Feature","properties":{"stop_id":"2902","stop_code":"2902","stop_name":"LOCKWOOD @ JACKSON NB","stop_desc":"NEAR SIDE LOCKWOOD @ JACKSON NB","wheelchair_boarding":2,"routes":[{"route_id":"19615","agency_id":"70006","route_short_name":"56","route_long_name":"Kirkwood-Webster","route_type":3,"route_color":"#FFFFFF","route_text_color":"#000000"}],"agency_name":"Metro St. Louis"},"geometry":{"type":"Point","coordinates":[-90.37028,38.58567]}},{"type":"Feature","properties":{"stop_id":"2909","stop_code":"2909","stop_name":"LOCKWOOD @ JEFFERSON EB","stop_desc":"NEAR SIDE LOCKWOOD @ JEFFERSON EB","wheelchair_boarding":1,"routes":[{"route_id":"19615","agency_id":"70006","route_short_name":"56","route_long_name":"Kirkwood-Webster","route_type":3,"route_color":"#FFFFFF","route_text_color":"#000000"}],"agency_name":"Metro St. Louis"},"geometry":{"type":"Point","coordinates":[-90.36328,38.5934]}},{"type":"Feature","properties":{"stop_id":"2910","stop_code":"2910","stop_name":"LOCKWOOD @ GORE EB","stop_desc":"NEAR SIDE LOCKWOOD @ GORE EB","wheelchair_boarding":1,"routes":[{"route_id":"19615","agency_id":"70006","route_short_name":"56","route_long_name":"Kirkwood-Webster","route_type":3,"route_color":"#FFFFFF","route_text_color":"#000000"}],"agency_name":"Metro St. Louis"},"geometry":{"type":"Point","coordinates":[-90.35964,38.59301]}},{"type":"Feature","properties":{"stop_id":"2911","stop_code":"2911","stop_name":"LOCKWOOD @ ELM EB","stop_desc":"FAR SIDE LOCKWOOD @ ELM EB","wheelchair_boarding":1,"routes":[{"route_id":"19615","agency_id":"70006","route_short_name":"56","route_long_name":"Kirkwood-Webster","route_type":3,"route_color":"#FFFFFF","route_text_color":"#000000"}],"agency_name":"Metro St. Louis"},"geometry":{"type":"Point","coordinates":[-90.35588,38.59259]}},{"type":"Feature","properties":{"stop_id":"2913","stop_code":"2913","stop_name":"LOCKWOOD @ PLANT EB","stop_desc":"FAR SIDE LOCKWOOD @ PLANT EB","wheelchair_boarding":1,"routes":[{"route_id":"19615","agency_id":"70006","route_short_name":"56","route_long_name":"Kirkwood-Webster","route_type":3,"route_color":"#FFFFFF","route_text_color":"#000000"}],"agency_name":"Metro St. Louis"},"geometry":{"type":"Point","coordinates":[-90.35235,38.59221]}},{"type":"Feature","properties":{"stop_id":"2916","stop_code":"2916","stop_name":"LOCKWOOD @ PLYMOUTH EB","stop_desc":"FAR SIDE LOCKWOOD @ PLYMOUTH EB","wheelchair_boarding":2,"routes":[{"route_id":"19615","agency_id":"70006","route_short_name":"56","route_long_name":"Kirkwood-Webster","route_type":3,"route_color":"#FFFFFF","route_text_color":"#000000"}],"agency_name":"Metro St. Louis"},"geometry":{"type":"Point","coordinates":[-90.3459,38.59152]}},{"type":"Feature","properties":{"stop_id":"2917","stop_code":"2917","stop_name":"LOCKWOOD @ BOMPART EB","stop_desc":"FAR SIDE LOCKWOOD @ BOMPART EB","wheelchair_boarding":1,"routes":[{"route_id":"19615","agency_id":"70006","route_short_name":"56","route_long_name":"Kirkwood-Webster","route_type":3,"route_color":"#FFFFFF","route_text_color":"#000000"}],"agency_name":"Metro St. Louis"},"geometry":{"type":"Point","coordinates":[-90.34276,38.59119]}},{"type":"Feature","properties":{"stop_id":"2920","stop_code":"2920","stop_name":"BIG BEND @ OLD ORCHARD EB","stop_desc":"NEAR SIDE BIG BEND @ OLD ORCHARD EB","wheelchair_boarding":1,"routes":[{"route_id":"19615","agency_id":"70006","route_short_name":"56","route_long_name":"Kirkwood-Webster","route_type":3,"route_color":"#FFFFFF","route_text_color":"#000000"}],"agency_name":"Metro St. Louis"},"geometry":{"type":"Point","coordinates":[-90.33909,38.59125]}},{"type":"Feature","properties":{"stop_id":"2923","stop_code":"2923","stop_name":"MURDOCH @ LACLEDE STATION EB","stop_desc":"FAR SIDE MURDOCH @ LACLEDE STATION EB","wheelchair_boarding":2,"routes":[{"route_id":"19615","agency_id":"70006","route_short_name":"56","route_long_name":"Kirkwood-Webster","route_type":3,"route_color":"#FFFFFF","route_text_color":"#000000"}],"agency_name":"Metro St. Louis"},"geometry":{"type":"Point","coordinates":[-90.3333,38.59127]}},{"type":"Feature","properties":{"stop_id":"2924","stop_code":"2924","stop_name":"MURDOCH @ SHREWSBURY EB","stop_desc":"NEAR SIDE MURDOCH @ SHREWSBURY EB","wheelchair_boarding":1,"routes":[{"route_id":"19615","agency_id":"70006","route_short_name":"56","route_long_name":"Kirkwood-Webster","route_type":3,"route_color":"#FFFFFF","route_text_color":"#000000"}],"agency_name":"Metro St. Louis"},"geometry":{"type":"Point","coordinates":[-90.32741,38.59102]}},{"type":"Feature","properties":{"stop_id":"2926","stop_code":"2926","stop_name":"MURDOCH CUT OFF @ ST VINCENT EB","stop_desc":"NEAR SIDE MURDOCH CUT OFF @ ST VINCENT EB","wheelchair_boarding":2,"routes":[{"route_id":"19615","agency_id":"70006","route_short_name":"56","route_long_name":"Kirkwood-Webster","route_type":3,"route_color":"#FFFFFF","route_text_color":"#000000"}],"agency_name":"Metro St. Louis"},"geometry":{"type":"Point","coordinates":[-90.32183,38.59123]}},{"type":"Feature","properties":{"stop_id":"4207","stop_code":"4207","stop_name":"BIG BEND @ MURDOCH NB","stop_desc":"NEAR SIDE BIG BEND @ MURDOCH NB","wheelchair_boarding":1,"routes":[{"route_id":"19615","agency_id":"70006","route_short_name":"56","route_long_name":"Kirkwood-Webster","route_type":3,"route_color":"#FFFFFF","route_text_color":"#000000"}],"agency_name":"Metro St. Louis"},"geometry":{"type":"Point","coordinates":[-90.33702,38.59241]}},{"type":"Feature","properties":{"stop_id":"4492","stop_code":"4492","stop_name":"BIG BEND @ GRANTS TRAIL NB","stop_desc":"NEAR SIDE BIG BEND @ GRANTS TRAIL NB","wheelchair_boarding":2,"routes":[{"route_id":"19615","agency_id":"70006","route_short_name":"56","route_long_name":"Kirkwood-Webster","route_type":3,"route_color":"#FFFFFF","route_text_color":"#000000"}],"agency_name":"Metro St. Louis"},"geometry":{"type":"Point","coordinates":[-90.39024,38.5684]}},{"type":"Feature","properties":{"stop_id":"4494","stop_code":"4494","stop_name":"BIG BEND @ SAPPINGTON EB","stop_desc":"NEAR SIDE BIG BEND @ SAPPINGTON EB","wheelchair_boarding":1,"routes":[{"route_id":"19615","agency_id":"70006","route_short_name":"56","route_long_name":"Kirkwood-Webster","route_type":3,"route_color":"#FFFFFF","route_text_color":"#000000"}],"agency_name":"Metro St. Louis"},"geometry":{"type":"Point","coordinates":[-90.38776,38.56989]}},{"type":"Feature","properties":{"stop_id":"4495","stop_code":"4495","stop_name":"BIG BEND @ WILDWOOD CIRCLE EB","stop_desc":"NEAR SIDE BIG BEND @ WILDWOOD CIRCLE EB","wheelchair_boarding":1,"routes":[{"route_id":"19615","agency_id":"70006","route_short_name":"56","route_long_name":"Kirkwood-Webster","route_type":3,"route_color":"#FFFFFF","route_text_color":"#000000"}],"agency_name":"Metro St. Louis"},"geometry":{"type":"Point","coordinates":[-90.38615,38.57076]}},{"type":"Feature","properties":{"stop_id":"4497","stop_code":"4497","stop_name":"BIG BEND @ DIVERSEY EB","stop_desc":"FAR SIDE BIG BEND @ DIVERSEY EB","wheelchair_boarding":2,"routes":[{"route_id":"19615","agency_id":"70006","route_short_name":"56","route_long_name":"Kirkwood-Webster","route_type":3,"route_color":"#FFFFFF","route_text_color":"#000000"}],"agency_name":"Metro St. Louis"},"geometry":{"type":"Point","coordinates":[-90.38198,38.57239]}},{"type":"Feature","properties":{"stop_id":"4499","stop_code":"4499","stop_name":"BIG BEND @ SANDERS PLACE EB","stop_desc":"FAR SIDE BIG BEND @ SANDERS PLACE EB","wheelchair_boarding":2,"routes":[{"route_id":"19615","agency_id":"70006","route_short_name":"56","route_long_name":"Kirkwood-Webster","route_type":3,"route_color":"#FFFFFF","route_text_color":"#000000"}],"agency_name":"Metro St. Louis"},"geometry":{"type":"Point","coordinates":[-90.37877,38.57308]}},{"type":"Feature","properties":{"stop_id":"9889","stop_code":"9889","stop_name":"BIG BEND @ MAEVILLE EB","stop_desc":"FAR SIDE BIG BEND @ MAEVILLE EB","wheelchair_boarding":1,"routes":[{"route_id":"19604","agency_id":"70006","route_short_name":"21","route_long_name":"Watson Rd","route_type":3,"route_color":"#FFFFFF","route_text_color":"#000000"},{"route_id":"19615","agency_id":"70006","route_short_name":"56","route_long_name":"Kirkwood-Webster","route_type":3,"route_color":"#FFFFFF","route_text_color":"#000000"}],"agency_name":"Metro St. Louis"},"geometry":{"type":"Point","coordinates":[-90.41346,38.5668]}},{"type":"Feature","properties":{"stop_id":"9891","stop_code":"9891","stop_name":"BIG BEND @ MARYHURST EB","stop_desc":"FAR SIDE BIG BEND @ MARYHURST EB","wheelchair_boarding":2,"routes":[{"route_id":"19604","agency_id":"70006","route_short_name":"21","route_long_name":"Watson Rd","route_type":3,"route_color":"#FFFFFF","route_text_color":"#000000"},{"route_id":"19615","agency_id":"70006","route_short_name":"56","route_long_name":"Kirkwood-Webster","route_type":3,"route_color":"#FFFFFF","route_text_color":"#000000"}],"agency_name":"Metro St. Louis"},"geometry":{"type":"Point","coordinates":[-90.40909,38.5667]}},{"type":"Feature","properties":{"stop_id":"9892","stop_code":"9892","stop_name":"BIG BEND @ KIRKWOOD EB","stop_desc":"FAR SIDE BIG BEND @ KIRKWOOD EB","wheelchair_boarding":2,"routes":[{"route_id":"19615","agency_id":"70006","route_short_name":"56","route_long_name":"Kirkwood-Webster","route_type":3,"route_color":"#FFFFFF","route_text_color":"#000000"}],"agency_name":"Metro St. Louis"},"geometry":{"type":"Point","coordinates":[-90.40586,38.56659]}},{"type":"Feature","properties":{"stop_id":"9893","stop_code":"9893","stop_name":"BIG BEND @ MILWAUKEE EB","stop_desc":"FAR SIDE BIG BEND @ MILWAUKEE EB","wheelchair_boarding":1,"routes":[{"route_id":"19615","agency_id":"70006","route_short_name":"56","route_long_name":"Kirkwood-Webster","route_type":3,"route_color":"#FFFFFF","route_text_color":"#000000"}],"agency_name":"Metro St. Louis"},"geometry":{"type":"Point","coordinates":[-90.40187,38.56725]}},{"type":"Feature","properties":{"stop_id":"9895","stop_code":"9895","stop_name":"BIG BEND @ BISHOPS GATE EB","stop_desc":"FAR SIDE BIG BEND @ BISHOPS GATE EB","wheelchair_boarding":2,"routes":[{"route_id":"19615","agency_id":"70006","route_short_name":"56","route_long_name":"Kirkwood-Webster","route_type":3,"route_color":"#FFFFFF","route_text_color":"#000000"}],"agency_name":"Metro St. Louis"},"geometry":{"type":"Point","coordinates":[-90.39747,38.56775]}}]}