{"type":"FeatureCollection","features":[{"type":"Feature","properties":{"agency_name":"Metro St. Louis","route_id":"19647","agency_id":"70006","route_short_name":"15","route_long_name":"Belleville-O'Fallon","route_type":3,"route_color":"#FFFFFF","route_text_color":"#000000"},"geometry":{"type":"MultiLineString","coordinates":[[[-89.90928,38.59007],[-89.9092,38.59106],[-89.90928,38.59007],[-89.91094,38.5897],[-89.91098,38.58913],[-89.91108,38.58824],[-89.91107,38.5875],[-89.91109,38.58704],[-89.91108,38.58594],[-89.91103,38.58473],[-89.91101,38.5829],[-89.91101,38.58234],[-89.91104,38.58189],[-89.91105,38.5792],[-89.91095,38.57845],[-89.91082,38.57805],[-89.91065,38.57769],[-89.90955,38.5755],[-89.90938,38.5752],[-89.90905,38.5747],[-89.90886,38.57444],[-89.90848,38.57399],[-89.9081,38.5736],[-89.9076,38.57315],[-89.90654,38.57329],[-89.90532,38.57305],[-89.90494,38.57287],[-89.90522,38.57238],[-89.90542,38.5722],[-89.90545,38.57213],[-89.90553,38.57204],[-89.9059,38.57175],[-89.9048,38.57082],[-89.9029,38.56926],[-89.9033,38.56907],[-89.9046,38.56859],[-89.90528,38.56842],[-89.90563,38.56835],[-89.90609,38.56829],[-89.90663,38.56826],[-89.90722,38.56827],[-89.90796,38.56834],[-89.90843,38.56843],[-89.90885,38.56854],[-89.90951,38.56878],[-89.91111,38.56946],[-89.91176,38.5697],[-89.91295,38.57],[-89.9134,38.57008],[-89.91433,38.57019],[-89.9151,38.57022],[-89.91884,38.57026],[-89.92056,38.57031],[-89.92266,38.57033],[-89.92404,38.57036],[-89.92767,38.57053],[-89.92985,38.57057],[-89.93111,38.57126],[-89.93114,38.57145],[-89.9313,38.57168],[-89.93137,38.57188],[-89.93136,38.57234],[-89.93115,38.57274],[-89.93081,38.57295],[-89.93061,38.57282],[-89.9304,38.57273],[-89.93014,38.57268],[-89.92971,38.57265],[-89.92906,38.57268],[-89.92907,38.57056]],[[-89.90248,38.56888],[-89.9033,38.56907],[-89.90248,38.56888],[-89.9022,38.56862],[-89.90187,38.56823],[-89.90143,38.56756],[-89.90128,38.56727],[-89.90112,38.56685],[-89.90094,38.56618],[-89.90092,38.56594],[-89.90093,38.56566],[-89.90091,38.56533],[-89.90093,38.5641],[-89.90089,38.5639],[-89.90081,38.56368],[-89.90064,38.5634],[-89.90051,38.56326],[-89.90033,38.56311],[-89.90012,38.56299],[-89.89762,38.5618],[-89.89721,38.56158],[-89.89947,38.55865],[-89.89979,38.5582],[-89.90081,38.55687],[-89.90111,38.55653],[-89.90142,38.55623],[-89.90164,38.55605],[-89.90278,38.55523],[-89.90478,38.55371],[-89.90755,38.55168],[-89.90827,38.55121],[-89.90885,38.55087],[-89.90919,38.5507],[-89.90974,38.55047],[-89.9109,38.55015],[-89.91172,38.54998],[-89.91235,38.54987],[-89.91382,38.54966],[-89.91507,38.54945],[-89.91563,38.54933],[-89.91818,38.54869],[-89.91857,38.54862],[-89.91918,38.54852],[-89.92722,38.54736],[-89.93016,38.54691],[-89.93056,38.54682],[-89.93165,38.54648],[-89.93476,38.54538],[-89.93826,38.54404],[-89.94002,38.54339],[-89.94232,38.54262],[-89.94433,38.54199],[-89.94488,38.54183],[-89.94779,38.54108],[-89.94968,38.54056],[-89.95121,38.54018],[-89.95177,38.54005],[-89.95262,38.5399],[-89.95375,38.53974],[-89.95453,38.53956],[-89.95491,38.53944],[-89.95612,38.53903],[-89.95722,38.53863],[-89.9593,38.5378],[-89.96169,38.53674],[-89.96198,38.5366],[-89.96213,38.5365],[-89.96232,38.53634],[-89.96255,38.5361],[-89.9632,38.53521],[-89.96352,38.53474],[-89.96391,38.53409],[-89.96424,38.53366],[-89.96443,38.5335],[-89.96463,38.53338],[-89.96516,38.53301],[-89.96531,38.53293],[-89.9684,38.53085],[-89.96932,38.53025],[-89.9714,38.52896],[-89.97206,38.52858],[-89.97306,38.52789],[-89.97386,38.52731],[-89.97422,38.52702],[-89.97574,38.52594],[-89.97705,38.52495],[-89.98032,38.52192],[-89.97929,38.52121],[-89.97832,38.52057],[-89.97787,38.52024],[-89.9778,38.52015],[-89.97772,38.52],[-89.97767,38.51962],[-89.97764,38.51952],[-89.97754,38.51936],[-89.97551,38.52083],[-89.97539,38.52084],[-89.97531,38.52081],[-89.97508,38.52061],[-89.97504,38.52059],[-89.97495,38.52057],[-89.97481,38.52059],[-89.97473,38.52063],[-89.97409,38.52114],[-89.97407,38.52118],[-89.97407,38.52123],[-89.97412,38.52129]],[[-89.92148,38.57033],[-89.92056,38.57031],[-89.92148,38.57033],[-89.92151,38.57352],[-89.92039,38.57358],[-89.92026,38.57353],[-89.92024,38.57346],[-89.92021,38.57307],[-89.92015,38.57298],[-89.92003,38.57289],[-89.91878,38.57287],[-89.91884,38.57026]]]}},{"type":"Feature","properties":{"stop_id":"10836","stop_code":"10836","stop_name":"3RD STREET @ LINCOLN WB","stop_desc":"NEAR SIDE 3RD STREET @ LINCOLN WB","wheelchair_boarding":2,"routes":[{"route_id":"19647","agency_id":"70006","route_short_name":"15","route_long_name":"Belleville-O'Fallon","route_type":3,"route_color":"#FFFFFF","route_text_color":"#000000"}],"agency_name":"Metro St. Louis"},"geometry":{"type":"Point","coordinates":[-89.91063,38.59018]}},{"type":"Feature","properties":{"stop_id":"10979","stop_code":"10979","stop_name":"LINCOLN @ WEST US-50 SB","stop_desc":"FAR SIDE LINCOLN @ WEST US-50 SB","wheelchair_boarding":2,"routes":[{"route_id":"19647","agency_id":"70006","route_short_name":"15","route_long_name":"Belleville-O'Fallon","route_type":3,"route_color":"#FFFFFF","route_text_color":"#000000"}],"agency_name":"Metro St. Louis"},"geometry":{"type":"Point","coordinates":[-89.91109,38.58458]}},{"type":"Feature","properties":{"stop_id":"10980","stop_code":"10980","stop_name":"LINCOLN @ 5TH STREET SB","stop_desc":"NEAR SIDE LINCOLN @ 5TH STREET SB","wheelchair_boarding":2,"routes":[{"route_id":"19644","agency_id":"70006","route_short_name":"12","route_long_name":"OFallon-Fairview Heights","route_type":3,"route_color":"#FFFFFF","route_text_color":"#000000"},{"route_id":"19647","agency_id":"70006","route_short_name":"15","route_long_name":"Belleville-O'Fallon","route_type":3,"route_color":"#FFFFFF","route_text_color":"#000000"}],"agency_name":"Metro St. Louis"},"geometry":{"type":"Point","coordinates":[-89.91106,38.58865]}},{"type":"Feature","properties":{"stop_id":"10983","stop_code":"10983","stop_name":"LINCOLN @ 7TH STREET SB","stop_desc":"FAR SIDE LINCOLN @ 7TH STREET SB","wheelchair_boarding":2,"routes":[{"route_id":"19644","agency_id":"70006","route_short_name":"12","route_long_name":"OFallon-Fairview Heights","route_type":3,"route_color":"#FFFFFF","route_text_color":"#000000"},{"route_id":"19647","agency_id":"70006","route_short_name":"15","route_long_name":"Belleville-O'Fallon","route_type":3,"route_color":"#FFFFFF","route_text_color":"#000000"}],"agency_name":"Metro St. Louis"},"geometry":{"type":"Point","coordinates":[-89.91111,38.5864]}},{"type":"Feature","properties":{"stop_id":"11102","stop_code":"11102","stop_name":"BELLEVILLE TRANSIT CENTER","wheelchair_boarding":1,"routes":[{"route_id":"19636","agency_id":"70006","route_short_name":"1","route_long_name":"Main Street - State Street","route_type":3,"route_color":"#FFFFFF","route_text_color":"#000000"},{"route_id":"19647","agency_id":"70006","route_short_name":"15","route_long_name":"Belleville-O'Fallon","route_type":3,"route_color":"#FFFFFF","route_text_color":"#000000"},{"route_id":"19648","agency_id":"70006","route_short_name":"16","route_long_name":"St. Clair Square","route_type":3,"route_color":"#FFFFFF","route_text_color":"#000000"},{"route_id":"19649","agency_id":"70006","route_short_name":"23","route_long_name":"Belleville-College","route_type":3,"route_color":"#FFFFFF","route_text_color":"#000000"}],"agency_name":"Metro St. Louis"},"geometry":{"type":"Point","coordinates":[-89.97461,38.5217]}},{"type":"Feature","properties":{"stop_id":"11366","stop_code":"11366","stop_name":"DOUGLAS @ LEBANON SB","stop_desc":"FAR SIDE DOUGLAS @ LEBANON SB","wheelchair_boarding":2,"routes":[{"route_id":"19647","agency_id":"70006","route_short_name":"15","route_long_name":"Belleville-O'Fallon","route_type":3,"route_color":"#FFFFFF","route_text_color":"#000000"}],"agency_name":"Metro St. Louis"},"geometry":{"type":"Point","coordinates":[-89.98007,38.52169]}},{"type":"Feature","properties":{"stop_id":"11902","stop_code":"11902","stop_name":"LINCOLN @ HARVARD SB","stop_desc":"FAR SIDE LINCOLN @ HARVARD SB","wheelchair_boarding":2,"routes":[{"route_id":"19647","agency_id":"70006","route_short_name":"15","route_long_name":"Belleville-O'Fallon","route_type":3,"route_color":"#FFFFFF","route_text_color":"#000000"}],"agency_name":"Metro St. Louis"},"geometry":{"type":"Point","coordinates":[-89.91108,38.58212]}},{"type":"Feature","properties":{"stop_id":"11903","stop_code":"11903","stop_name":"LINCOLN @ WESTERMINSTER SB","stop_desc":"FAR SIDE LINCOLN @ WESTERMINSTER SB","wheelchair_boarding":2,"routes":[{"route_id":"19647","agency_id":"70006","route_short_name":"15","route_long_name":"Belleville-O'Fallon","route_type":3,"route_color":"#FFFFFF","route_text_color":"#000000"}],"agency_name":"Metro St. Louis"},"geometry":{"type":"Point","coordinates":[-89.91107,38.57995]}},{"type":"Feature","properties":{"stop_id":"11905","stop_code":"11905","stop_name":"LINCOLN @ WHITE PINE SB","stop_desc":"FAR SIDE LINCOLN @ WHITE PINE SB","wheelchair_boarding":2,"routes":[{"route_id":"19647","agency_id":"70006","route_short_name":"15","route_long_name":"Belleville-O'Fallon","route_type":3,"route_color":"#FFFFFF","route_text_color":"#000000"}],"agency_name":"Metro St. Louis"},"geometry":{"type":"Point","coordinates":[-89.9109,38.5782]}},{"type":"Feature","properties":{"stop_id":"11906","stop_code":"11906","stop_name":"LINCOLN @ PIERCE SB","stop_desc":"FAR SIDE LINCOLN @ PIERCE SB","wheelchair_boarding":2,"routes":[{"route_id":"19647","agency_id":"70006","route_short_name":"15","route_long_name":"Belleville-O'Fallon","route_type":3,"route_color":"#FFFFFF","route_text_color":"#000000"}],"agency_name":"Metro St. Louis"},"geometry":{"type":"Point","coordinates":[-89.91057,38.57745]}},{"type":"Feature","properties":{"stop_id":"11907","stop_code":"11907","stop_name":"CROSS @ TAMARACK SB","stop_desc":"FAR SIDE CROSS @ TAMARACK SB","wheelchair_boarding":2,"routes":[{"route_id":"19647","agency_id":"70006","route_short_name":"15","route_long_name":"Belleville-O'Fallon","route_type":3,"route_color":"#FFFFFF","route_text_color":"#000000"}],"agency_name":"Metro St. Louis"},"geometry":{"type":"Point","coordinates":[-89.90093,38.5654]}},{"type":"Feature","properties":{"stop_id":"11908","stop_code":"11908","stop_name":"CROSS @ OAK SB","stop_desc":"FAR SIDE CROSS @ OAK SB","wheelchair_boarding":2,"routes":[{"route_id":"19647","agency_id":"70006","route_short_name":"15","route_long_name":"Belleville-O'Fallon","route_type":3,"route_color":"#FFFFFF","route_text_color":"#000000"}],"agency_name":"Metro St. Louis"},"geometry":{"type":"Point","coordinates":[-89.89881,38.56233]}},{"type":"Feature","properties":{"stop_id":"11909","stop_code":"11909","stop_name":"CROSS @ FRANK SCOTT PKWY SB","stop_desc":"FAR SIDE CROSS @ FRANK SCOTT PKWY SB","wheelchair_boarding":2,"routes":[{"route_id":"19647","agency_id":"70006","route_short_name":"15","route_long_name":"Belleville-O'Fallon","route_type":3,"route_color":"#FFFFFF","route_text_color":"#000000"}],"agency_name":"Metro St. Louis"},"geometry":{"type":"Point","coordinates":[-89.90239,38.56875]}},{"type":"Feature","properties":{"stop_id":"11910","stop_code":"11910","stop_name":"MAIN @ CROSS WB","stop_desc":"FAR SIDE MAIN @ CROSS WB","wheelchair_boarding":2,"routes":[{"route_id":"19647","agency_id":"70006","route_short_name":"15","route_long_name":"Belleville-O'Fallon","route_type":3,"route_color":"#FFFFFF","route_text_color":"#000000"}],"agency_name":"Metro St. Louis"},"geometry":{"type":"Point","coordinates":[-89.89751,38.56126]}},{"type":"Feature","properties":{"stop_id":"11912","stop_code":"11912","stop_name":"MAIN @ CHURCH WB","stop_desc":"FAR SIDE MAIN @ CHURCH WB","wheelchair_boarding":2,"routes":[{"route_id":"19647","agency_id":"70006","route_short_name":"15","route_long_name":"Belleville-O'Fallon","route_type":3,"route_color":"#FFFFFF","route_text_color":"#000000"}],"agency_name":"Metro St. Louis"},"geometry":{"type":"Point","coordinates":[-89.8985,38.55997]}},{"type":"Feature","properties":{"stop_id":"11913","stop_code":"11913","stop_name":"MAIN @ HILL WB","stop_desc":"NEAR SIDE MAIN @ HILL WB","wheelchair_boarding":2,"routes":[{"route_id":"19647","agency_id":"70006","route_short_name":"15","route_long_name":"Belleville-O'Fallon","route_type":3,"route_color":"#FFFFFF","route_text_color":"#000000"}],"agency_name":"Metro St. Louis"},"geometry":{"type":"Point","coordinates":[-89.8992,38.55907]}},{"type":"Feature","properties":{"stop_id":"11915","stop_code":"11915","stop_name":"MAIN @ JULIE WB","stop_desc":"NEAR SIDE MAIN @ JULIE WB","wheelchair_boarding":2,"routes":[{"route_id":"19647","agency_id":"70006","route_short_name":"15","route_long_name":"Belleville-O'Fallon","route_type":3,"route_color":"#FFFFFF","route_text_color":"#000000"}],"agency_name":"Metro St. Louis"},"geometry":{"type":"Point","coordinates":[-89.90054,38.5573]}},{"type":"Feature","properties":{"stop_id":"11917","stop_code":"11917","stop_name":"LEBANON @ VALLEY VIEW FARM WB","stop_desc":"NEAR SIDE LEBANON @ VALLEY VIEW FARM WB","wheelchair_boarding":2,"routes":[{"route_id":"19647","agency_id":"70006","route_short_name":"15","route_long_name":"Belleville-O'Fallon","route_type":3,"route_color":"#FFFFFF","route_text_color":"#000000"}],"agency_name":"Metro St. Louis"},"geometry":{"type":"Point","coordinates":[-89.90468,38.55382]}},{"type":"Feature","properties":{"stop_id":"11918","stop_code":"11918","stop_name":"LEBANON @ EAGLE WB","stop_desc":"FAR SIDE LEBANON @ EAGLE WB","wheelchair_boarding":2,"routes":[{"route_id":"19647","agency_id":"70006","route_short_name":"15","route_long_name":"Belleville-O'Fallon","route_type":3,"route_color":"#FFFFFF","route_text_color":"#000000"}],"agency_name":"Metro St. Louis"},"geometry":{"type":"Point","coordinates":[-89.91047,38.5503]}},{"type":"Feature","properties":{"stop_id":"11920","stop_code":"11920","stop_name":"LEBANON @ ACORN LAKE WB","stop_desc":"FAR SIDE LEBANON @ ACORN LAKE WB","wheelchair_boarding":2,"routes":[{"route_id":"19647","agency_id":"70006","route_short_name":"15","route_long_name":"Belleville-O'Fallon","route_type":3,"route_color":"#FFFFFF","route_text_color":"#000000"}],"agency_name":"Metro St. Louis"},"geometry":{"type":"Point","coordinates":[-89.91342,38.54975]}},{"type":"Feature","properties":{"stop_id":"11921","stop_code":"11921","stop_name":"LEBANON @ INDIAN RIDGE WB","stop_desc":"NEAR SIDE LEBANON @ INDIAN RIDGE WB","wheelchair_boarding":2,"routes":[{"route_id":"19647","agency_id":"70006","route_short_name":"15","route_long_name":"Belleville-O'Fallon","route_type":3,"route_color":"#FFFFFF","route_text_color":"#000000"}],"agency_name":"Metro St. Louis"},"geometry":{"type":"Point","coordinates":[-89.91553,38.54937]}},{"type":"Feature","properties":{"stop_id":"11922","stop_code":"11922","stop_name":"LEBANON @ ARCHVIEW WB","stop_desc":"FAR SIDE LEBANON @ ARCHVIEW WB","wheelchair_boarding":2,"routes":[{"route_id":"19647","agency_id":"70006","route_short_name":"15","route_long_name":"Belleville-O'Fallon","route_type":3,"route_color":"#FFFFFF","route_text_color":"#000000"}],"agency_name":"Metro St. Louis"},"geometry":{"type":"Point","coordinates":[-89.91774,38.54882]}},{"type":"Feature","properties":{"stop_id":"11923","stop_code":"11923","stop_name":"LEBANON @ EAGLES LANDING WB","stop_desc":"NEAR SIDE LEBANON @ EAGLES LANDING WB","wheelchair_boarding":2,"routes":[{"route_id":"19647","agency_id":"70006","route_short_name":"15","route_long_name":"Belleville-O'Fallon","route_type":3,"route_color":"#FFFFFF","route_text_color":"#000000"}],"agency_name":"Metro St. Louis"},"geometry":{"type":"Point","coordinates":[-89.92155,38.54822]}},{"type":"Feature","properties":{"stop_id":"11925","stop_code":"11925","stop_name":"LEBANON @ CHRISTINE WB","stop_desc":"NEAR SIDE LEBANON @ CHRISTINE WB","wheelchair_boarding":2,"routes":[{"route_id":"19647","agency_id":"70006","route_short_name":"15","route_long_name":"Belleville-O'Fallon","route_type":3,"route_color":"#FFFFFF","route_text_color":"#000000"}],"agency_name":"Metro St. Louis"},"geometry":{"type":"Point","coordinates":[-89.92324,38.54797]}},{"type":"Feature","properties":{"stop_id":"11926","stop_code":"11926","stop_name":"LEBANON @ GREEN MOUNT WB","stop_desc":"FAR SIDE LEBANON @ GREEN MOUNT WB","wheelchair_boarding":2,"routes":[{"route_id":"19647","agency_id":"70006","route_short_name":"15","route_long_name":"Belleville-O'Fallon","route_type":3,"route_color":"#FFFFFF","route_text_color":"#000000"}],"agency_name":"Metro St. Louis"},"geometry":{"type":"Point","coordinates":[-89.92943,38.54708]}},{"type":"Feature","properties":{"stop_id":"11927","stop_code":"11927","stop_name":"LEBANON @ ST. JOHN WB","stop_desc":"NEAR SIDE LEBANON @ ST. JOHN WB","wheelchair_boarding":2,"routes":[{"route_id":"19647","agency_id":"70006","route_short_name":"15","route_long_name":"Belleville-O'Fallon","route_type":3,"route_color":"#FFFFFF","route_text_color":"#000000"}],"agency_name":"Metro St. Louis"},"geometry":{"type":"Point","coordinates":[-89.93617,38.54489]}},{"type":"Feature","properties":{"stop_id":"11928","stop_code":"11928","stop_name":"LEBANON @ SIERRA WB","stop_desc":"FAR SIDE LEBANON @ SIERRA WB","wheelchair_boarding":2,"routes":[{"route_id":"19647","agency_id":"70006","route_short_name":"15","route_long_name":"Belleville-O'Fallon","route_type":3,"route_color":"#FFFFFF","route_text_color":"#000000"}],"agency_name":"Metro St. Louis"},"geometry":{"type":"Point","coordinates":[-89.93989,38.54351]}},{"type":"Feature","properties":{"stop_id":"11929","stop_code":"11929","stop_name":"LEBANON @ WILLIAMSBURG WB","stop_desc":"NEAR SIDE LEBANON @ WILLIAMSBURG WB","wheelchair_boarding":2,"routes":[{"route_id":"19647","agency_id":"70006","route_short_name":"15","route_long_name":"Belleville-O'Fallon","route_type":3,"route_color":"#FFFFFF","route_text_color":"#000000"}],"agency_name":"Metro St. Louis"},"geometry":{"type":"Point","coordinates":[-89.94259,38.54255]}},{"type":"Feature","properties":{"stop_id":"11930","stop_code":"11930","stop_name":"LEBANON @ ANDERSON WB","stop_desc":"NEAR SIDE LEBANON @ ANDERSON WB","wheelchair_boarding":2,"routes":[{"route_id":"19647","agency_id":"70006","route_short_name":"15","route_long_name":"Belleville-O'Fallon","route_type":3,"route_color":"#FFFFFF","route_text_color":"#000000"}],"agency_name":"Metro St. Louis"},"geometry":{"type":"Point","coordinates":[-89.94563,38.54169]}},{"type":"Feature","properties":{"stop_id":"11931","stop_code":"11931","stop_name":"LEBANON @ HARTMAN WB TP ONLY","stop_desc":"FAR SIDE LEBANON @ HARTMAN WB TP ONLY","wheelchair_boarding":2,"routes":[{"route_id":"19647","agency_id":"70006","route_short_name":"15","route_long_name":"Belleville-O'Fallon","route_type":3,"route_color":"#FFFFFF","route_text_color":"#000000"}],"agency_name":"Metro St. Louis"},"geometry":{"type":"Point","coordinates":[-89.94736,38.54126]}},{"type":"Feature","properties":{"stop_id":"11932","stop_code":"11932","stop_name":"LEBANON @ SAN MATEO WB","stop_desc":"NEAR SIDE LEBANON @ SAN MATEO WB","wheelchair_boarding":2,"routes":[{"route_id":"19647","agency_id":"70006","route_short_name":"15","route_long_name":"Belleville-O'Fallon","route_type":3,"route_color":"#FFFFFF","route_text_color":"#000000"}],"agency_name":"Metro St. Louis"},"geometry":{"type":"Point","coordinates":[-89.94985,38.54059]}},{"type":"Feature","properties":{"stop_id":"11933","stop_code":"11933","stop_name":"LEBANON @ WHITESIDE WB","stop_desc":"NEAR SIDE LEBANON @ WHITESIDE WB","wheelchair_boarding":2,"routes":[{"route_id":"19647","agency_id":"70006","route_short_name":"15","route_long_name":"Belleville-O'Fallon","route_type":3,"route_color":"#FFFFFF","route_text_color":"#000000"}],"agency_name":"Metro St. Louis"},"geometry":{"type":"Point","coordinates":[-89.95231,38.53998]}},{"type":"Feature","properties":{"stop_id":"11934","stop_code":"11934","stop_name":"LEBANON @ SOUTHWIND WB","stop_desc":"FAR SIDE LEBANON @ SOUTHWIND WB","wheelchair_boarding":2,"routes":[{"route_id":"19647","agency_id":"70006","route_short_name":"15","route_long_name":"Belleville-O'Fallon","route_type":3,"route_color":"#FFFFFF","route_text_color":"#000000"}],"agency_name":"Metro St. Louis"},"geometry":{"type":"Point","coordinates":[-89.95673,38.53881]}},{"type":"Feature","properties":{"stop_id":"11935","stop_code":"11935","stop_name":"LEBANON @ DUBLIN WB","stop_desc":"NEAR SIDE LEBANON @ DUBLIN WB","wheelchair_boarding":2,"routes":[{"route_id":"19647","agency_id":"70006","route_short_name":"15","route_long_name":"Belleville-O'Fallon","route_type":3,"route_color":"#FFFFFF","route_text_color":"#000000"}],"agency_name":"Metro St. Louis"},"geometry":{"type":"Point","coordinates":[-89.95797,38.53841]}},{"type":"Feature","properties":{"stop_id":"11936","stop_code":"11936","stop_name":"LEBANON @ LAKE CHRISTINE WB","stop_desc":"FAR SIDE LEBANON @ LAKE CHRISTINE WB","wheelchair_boarding":2,"routes":[{"route_id":"19647","agency_id":"70006","route_short_name":"15","route_long_name":"Belleville-O'Fallon","route_type":3,"route_color":"#FFFFFF","route_text_color":"#000000"}],"agency_name":"Metro St. Louis"},"geometry":{"type":"Point","coordinates":[-89.95974,38.53758]}},{"type":"Feature","properties":{"stop_id":"11937","stop_code":"11937","stop_name":"LEBANON @ OLD COLINSVILLE WB","stop_desc":"NEAR SIDE LEBANON @ OLD COLINSVILLE WB","wheelchair_boarding":2,"routes":[{"route_id":"19647","agency_id":"70006","route_short_name":"15","route_long_name":"Belleville-O'Fallon","route_type":3,"route_color":"#FFFFFF","route_text_color":"#000000"}],"agency_name":"Metro St. Louis"},"geometry":{"type":"Point","coordinates":[-89.96195,38.5366]}},{"type":"Feature","properties":{"stop_id":"11938","stop_code":"11938","stop_name":"LEBANON @ GROVE WB","stop_desc":"FAR SIDE LEBANON @ GROVE WB","wheelchair_boarding":2,"routes":[{"route_id":"19647","agency_id":"70006","route_short_name":"15","route_long_name":"Belleville-O'Fallon","route_type":3,"route_color":"#FFFFFF","route_text_color":"#000000"}],"agency_name":"Metro St. Louis"},"geometry":{"type":"Point","coordinates":[-89.96364,38.53469]}},{"type":"Feature","properties":{"stop_id":"11939","stop_code":"11939","stop_name":"LEBANON @ CART WB","stop_desc":"FAR SIDE LEBANON @ CART WB","wheelchair_boarding":2,"routes":[{"route_id":"19647","agency_id":"70006","route_short_name":"15","route_long_name":"Belleville-O'Fallon","route_type":3,"route_color":"#FFFFFF","route_text_color":"#000000"},{"route_id":"19649","agency_id":"70006","route_short_name":"23","route_long_name":"Belleville-College","route_type":3,"route_color":"#FFFFFF","route_text_color":"#000000"}],"agency_name":"Metro St. Louis"},"geometry":{"type":"Point","coordinates":[-89.96568,38.53273]}},{"type":"Feature","properties":{"stop_id":"11940","stop_code":"11940","stop_name":"LEBANON @ DEWEY WB","stop_desc":"FAR SIDE LEBANON @ DEWEY WB","wheelchair_boarding":2,"routes":[{"route_id":"19647","agency_id":"70006","route_short_name":"15","route_long_name":"Belleville-O'Fallon","route_type":3,"route_color":"#FFFFFF","route_text_color":"#000000"},{"route_id":"19649","agency_id":"70006","route_short_name":"23","route_long_name":"Belleville-College","route_type":3,"route_color":"#FFFFFF","route_text_color":"#000000"}],"agency_name":"Metro St. Louis"},"geometry":{"type":"Point","coordinates":[-89.96759,38.53148]}},{"type":"Feature","properties":{"stop_id":"11941","stop_code":"11941","stop_name":"LEBANON @ WADE SQUARE WB","stop_desc":"MID-BLOCK LEBANON @ WADE SQUARE WB","wheelchair_boarding":2,"routes":[{"route_id":"19647","agency_id":"70006","route_short_name":"15","route_long_name":"Belleville-O'Fallon","route_type":3,"route_color":"#FFFFFF","route_text_color":"#000000"}],"agency_name":"Metro St. Louis"},"geometry":{"type":"Point","coordinates":[-89.96977,38.53006]}},{"type":"Feature","properties":{"stop_id":"11942","stop_code":"11942","stop_name":"LEBANON @ FOREST HILL WB","stop_desc":"NEAR SIDE LEBANON @ FOREST HILL WB","wheelchair_boarding":2,"routes":[{"route_id":"19647","agency_id":"70006","route_short_name":"15","route_long_name":"Belleville-O'Fallon","route_type":3,"route_color":"#FFFFFF","route_text_color":"#000000"}],"agency_name":"Metro St. Louis"},"geometry":{"type":"Point","coordinates":[-89.97159,38.52894]}},{"type":"Feature","properties":{"stop_id":"11943","stop_code":"11943","stop_name":"LEBANON @ KOERNER WB","stop_desc":"FAR SIDE LEBANON @ KOERNER WB","wheelchair_boarding":2,"routes":[{"route_id":"19647","agency_id":"70006","route_short_name":"15","route_long_name":"Belleville-O'Fallon","route_type":3,"route_color":"#FFFFFF","route_text_color":"#000000"}],"agency_name":"Metro St. Louis"},"geometry":{"type":"Point","coordinates":[-89.97328,38.52782]}},{"type":"Feature","properties":{"stop_id":"11944","stop_code":"11944","stop_name":"LEBANON @ LUCINDA WB","stop_desc":"NEAR SIDE LEBANON @ LUCINDA WB","wheelchair_boarding":2,"routes":[{"route_id":"19647","agency_id":"70006","route_short_name":"15","route_long_name":"Belleville-O'Fallon","route_type":3,"route_color":"#FFFFFF","route_text_color":"#000000"}],"agency_name":"Metro St. Louis"},"geometry":{"type":"Point","coordinates":[-89.97402,38.5273]}},{"type":"Feature","properties":{"stop_id":"11945","stop_code":"11945","stop_name":"LEBANON @ ARTHUR WB","stop_desc":"FAR SIDE LEBANON @ ARTHUR WB","wheelchair_boarding":2,"routes":[{"route_id":"19647","agency_id":"70006","route_short_name":"15","route_long_name":"Belleville-O'Fallon","route_type":3,"route_color":"#FFFFFF","route_text_color":"#000000"}],"agency_name":"Metro St. Louis"},"geometry":{"type":"Point","coordinates":[-89.9747,38.5268]}},{"type":"Feature","properties":{"stop_id":"11947","stop_code":"11947","stop_name":"LEBANON @ HECKER WB","stop_desc":"NEAR SIDE LEBANON @ HECKER WB","wheelchair_boarding":2,"routes":[{"route_id":"19647","agency_id":"70006","route_short_name":"15","route_long_name":"Belleville-O'Fallon","route_type":3,"route_color":"#FFFFFF","route_text_color":"#000000"}],"agency_name":"Metro St. Louis"},"geometry":{"type":"Point","coordinates":[-89.97613,38.52573]}},{"type":"Feature","properties":{"stop_id":"11948","stop_code":"11948","stop_name":"LEBANON @ BRISTOW WB","stop_desc":"NEAR SIDE LEBANON @ BRISTOW WB","wheelchair_boarding":2,"routes":[{"route_id":"19647","agency_id":"70006","route_short_name":"15","route_long_name":"Belleville-O'Fallon","route_type":3,"route_color":"#FFFFFF","route_text_color":"#000000"}],"agency_name":"Metro St. Louis"},"geometry":{"type":"Point","coordinates":[-89.97706,38.52504]}},{"type":"Feature","properties":{"stop_id":"11949","stop_code":"11949","stop_name":"LEBANON @ ELMWOOD WB","stop_desc":"FAR SIDE LEBANON @ ELMWOOD WB","wheelchair_boarding":2,"routes":[{"route_id":"19647","agency_id":"70006","route_short_name":"15","route_long_name":"Belleville-O'Fallon","route_type":3,"route_color":"#FFFFFF","route_text_color":"#000000"}],"agency_name":"Metro St. Louis"},"geometry":{"type":"Point","coordinates":[-89.97893,38.52332]}},{"type":"Feature","properties":{"stop_id":"11950","stop_code":"11950","stop_name":"LEBANON @ BENTON WB","stop_desc":"FAR SIDE LEBANON @ BENTON WB","wheelchair_boarding":2,"routes":[{"route_id":"19647","agency_id":"70006","route_short_name":"15","route_long_name":"Belleville-O'Fallon","route_type":3,"route_color":"#FFFFFF","route_text_color":"#000000"}],"agency_name":"Metro St. Louis"},"geometry":{"type":"Point","coordinates":[-89.97972,38.52258]}},{"type":"Feature","properties":{"stop_id":"11951","stop_code":"11951","stop_name":"DOUGLAS @ CHURCH SB","stop_desc":"FAR SIDE DOUGLAS @ CHURCH SB","wheelchair_boarding":2,"routes":[{"route_id":"19647","agency_id":"70006","route_short_name":"15","route_long_name":"Belleville-O'Fallon","route_type":3,"route_color":"#FFFFFF","route_text_color":"#000000"}],"agency_name":"Metro St. Louis"},"geometry":{"type":"Point","coordinates":[-89.97919,38.5211]}},{"type":"Feature","properties":{"stop_id":"11952","stop_code":"11952","stop_name":"DOUGLAS @ CHARLES SB","stop_desc":"NEAR SIDE DOUGLAS @ CHARLES SB","wheelchair_boarding":2,"routes":[{"route_id":"19647","agency_id":"70006","route_short_name":"15","route_long_name":"Belleville-O'Fallon","route_type":3,"route_color":"#FFFFFF","route_text_color":"#000000"}],"agency_name":"Metro St. Louis"},"geometry":{"type":"Point","coordinates":[-89.97805,38.52035]}},{"type":"Feature","properties":{"stop_id":"14222","stop_code":"14222","stop_name":"SCHEEL @ DOUGLAS EB","stop_desc":"FAR SIDE SCHEEL @ DOUGLAS EB","wheelchair_boarding":2,"routes":[{"route_id":"19636","agency_id":"70006","route_short_name":"1","route_long_name":"Main Street - State Street","route_type":3,"route_color":"#FFFFFF","route_text_color":"#000000"},{"route_id":"19647","agency_id":"70006","route_short_name":"15","route_long_name":"Belleville-O'Fallon","route_type":3,"route_color":"#FFFFFF","route_text_color":"#000000"},{"route_id":"19648","agency_id":"70006","route_short_name":"16","route_long_name":"St. Clair Square","route_type":3,"route_color":"#FFFFFF","route_text_color":"#000000"},{"route_id":"19649","agency_id":"70006","route_short_name":"23","route_long_name":"Belleville-College","route_type":3,"route_color":"#FFFFFF","route_text_color":"#000000"}],"agency_name":"Metro St. Louis"},"geometry":{"type":"Point","coordinates":[-89.97712,38.51965]}},{"type":"Feature","properties":{"stop_id":"14223","stop_code":"14223","stop_name":"SCHEEL @ BENTON EB","stop_desc":"NEAR SIDE SCHEEL @ BENTON EB","wheelchair_boarding":2,"routes":[{"route_id":"19636","agency_id":"70006","route_short_name":"1","route_long_name":"Main Street - State Street","route_type":3,"route_color":"#FFFFFF","route_text_color":"#000000"},{"route_id":"19647","agency_id":"70006","route_short_name":"15","route_long_name":"Belleville-O'Fallon","route_type":3,"route_color":"#FFFFFF","route_text_color":"#000000"},{"route_id":"19648","agency_id":"70006","route_short_name":"16","route_long_name":"St. Clair Square","route_type":3,"route_color":"#FFFFFF","route_text_color":"#000000"},{"route_id":"19649","agency_id":"70006","route_short_name":"23","route_long_name":"Belleville-College","route_type":3,"route_color":"#FFFFFF","route_text_color":"#000000"}],"agency_name":"Metro St. Louis"},"geometry":{"type":"Point","coordinates":[-89.9761,38.52037]}},{"type":"Feature","properties":{"stop_id":"14263","stop_code":"14263","stop_name":"LINCOLN @ 2ND STREET NB","stop_desc":"NEAR SIDE LINCOLN @ 2ND STREET NB","wheelchair_boarding":2,"routes":[{"route_id":"19644","agency_id":"70006","route_short_name":"12","route_long_name":"OFallon-Fairview Heights","route_type":3,"route_color":"#FFFFFF","route_text_color":"#000000"},{"route_id":"19647","agency_id":"70006","route_short_name":"15","route_long_name":"Belleville-O'Fallon","route_type":3,"route_color":"#FFFFFF","route_text_color":"#000000"}],"agency_name":"Metro St. Louis"},"geometry":{"type":"Point","coordinates":[-89.91076,38.59096]}},{"type":"Feature","properties":{"stop_id":"15371","stop_code":"15371","stop_name":"LEBANON @ SHILOH STATION ROAD WB","stop_desc":"FAR SIDE LEBANON @ SHILOH STATION ROAD WB","wheelchair_boarding":2,"routes":[{"route_id":"19647","agency_id":"70006","route_short_name":"15","route_long_name":"Belleville-O'Fallon","route_type":3,"route_color":"#FFFFFF","route_text_color":"#000000"}],"agency_name":"Metro St. Louis"},"geometry":{"type":"Point","coordinates":[-89.90214,38.55573]}},{"type":"Feature","properties":{"stop_id":"15372","stop_code":"15372","stop_name":"LEBANON @ RAMONA WB","stop_desc":"FAR SIDE LEBANON @ RAMONA WB","wheelchair_boarding":2,"routes":[{"route_id":"19647","agency_id":"70006","route_short_name":"15","route_long_name":"Belleville-O'Fallon","route_type":3,"route_color":"#FFFFFF","route_text_color":"#000000"}],"agency_name":"Metro St. Louis"},"geometry":{"type":"Point","coordinates":[-89.92451,38.54778]}},{"type":"Feature","properties":{"stop_id":"15905","stop_code":"15905","stop_name":"CENTRAL PARK @ MERCHANTS WAY EB","stop_desc":"FAR SIDE CENTRAL PARK @ MERCHANTS WAY EB","wheelchair_boarding":2,"routes":[{"route_id":"19644","agency_id":"70006","route_short_name":"12","route_long_name":"OFallon-Fairview Heights","route_type":3,"route_color":"#FFFFFF","route_text_color":"#000000"},{"route_id":"19647","agency_id":"70006","route_short_name":"15","route_long_name":"Belleville-O'Fallon","route_type":3,"route_color":"#FFFFFF","route_text_color":"#000000"}],"agency_name":"Metro St. Louis"},"geometry":{"type":"Point","coordinates":[-89.93076,38.5728]}},{"type":"Feature","properties":{"stop_id":"16248","stop_code":"16248","stop_name":"MEMORIAL HOSPITAL EAST","stop_desc":"FAR SIDE MEMORIAL HOSPITAL EAST","wheelchair_boarding":2,"routes":[{"route_id":"19647","agency_id":"70006","route_short_name":"15","route_long_name":"Belleville-O'Fallon","route_type":3,"route_color":"#FFFFFF","route_text_color":"#000000"}],"agency_name":"Metro St. Louis"},"geometry":{"type":"Point","coordinates":[-89.90587,38.57315]}},{"type":"Feature","properties":{"stop_id":"16360","stop_code":"16360","stop_name":"FORTUNE @  VETERANS CLINIC","stop_desc":"MID-BLOCK FORTUNE @  VETERANS CLINIC","wheelchair_boarding":2,"routes":[{"route_id":"19647","agency_id":"70006","route_short_name":"15","route_long_name":"Belleville-O'Fallon","route_type":3,"route_color":"#FFFFFF","route_text_color":"#000000"}],"agency_name":"Metro St. Louis"},"geometry":{"type":"Point","coordinates":[-89.92139,38.57274]}},{"type":"Feature","properties":{"stop_id":"16420","stop_code":"16420","stop_name":"FORTUNE @ FRANK SCOTT PKWY E NB","stop_desc":"FAR SIDE FORTUNE @ FRANK SCOTT PKWY E NB","wheelchair_boarding":2,"routes":[{"route_id":"19647","agency_id":"70006","route_short_name":"15","route_long_name":"Belleville-O'Fallon","route_type":3,"route_color":"#FFFFFF","route_text_color":"#000000"}],"agency_name":"Metro St. Louis"},"geometry":{"type":"Point","coordinates":[-89.92149,38.57101]}},{"type":"Feature","properties":{"stop_id":"16474","stop_code":"16474","stop_name":"FRANK SCOTT PKWY E @ CARE WB","stop_desc":"FAR SIDE FRANK SCOTT PKWY E @ CARE WB","wheelchair_boarding":1,"routes":[{"route_id":"19647","agency_id":"70006","route_short_name":"15","route_long_name":"Belleville-O'Fallon","route_type":3,"route_color":"#FFFFFF","route_text_color":"#000000"}],"agency_name":"Metro St. Louis"},"geometry":{"type":"Point","coordinates":[-89.90596,38.56838]}},{"type":"Feature","properties":{"stop_id":"16475","stop_code":"16475","stop_name":"FRANK SCOTT PKWY E @ PARKLAND EB","stop_desc":"NEAR SIDE FRANK SCOTT PKWY E @ PARKLAND EB","wheelchair_boarding":1,"routes":[{"route_id":"19647","agency_id":"70006","route_short_name":"15","route_long_name":"Belleville-O'Fallon","route_type":3,"route_color":"#FFFFFF","route_text_color":"#000000"}],"agency_name":"Metro St. Louis"},"geometry":{"type":"Point","coordinates":[-89.9059,38.56823]}},{"type":"Feature","properties":{"stop_id":"16487","stop_code":"16487","stop_name":"AUFFENBERG @ BERG EB","stop_desc":"NEAR SIDE AUFFENBERG @ BERG EB","wheelchair_boarding":2,"routes":[{"route_id":"19647","agency_id":"70006","route_short_name":"15","route_long_name":"Belleville-O'Fallon","route_type":3,"route_color":"#FFFFFF","route_text_color":"#000000"}],"agency_name":"Metro St. Louis"},"geometry":{"type":"Point","coordinates":[-89.91892,38.57278]}},{"type":"Feature","properties":{"stop_id":"16495","stop_code":"16495","stop_name":"FRANK SCOTT PKWY @ FORTUNE WB","stop_desc":"MID-BLOCK FRANK SCOTT PKWY @ FORTUNE WB","wheelchair_boarding":2,"routes":[{"route_id":"19647","agency_id":"70006","route_short_name":"15","route_long_name":"Belleville-O'Fallon","route_type":3,"route_color":"#FFFFFF","route_text_color":"#000000"}],"agency_name":"Metro St. Louis"},"geometry":{"type":"Point","coordinates":[-89.92046,38.57039]}},{"type":"Feature","properties":{"stop_id":"16498","stop_code":"16498","stop_name":"FRANK SCOTT PKWY @ 4200 FRANK SCOTT PKWY","stop_desc":"NEAR SIDE FRANK SCOTT PKWY @ 4200 FRANK SCOTT PKWY","wheelchair_boarding":1,"routes":[{"route_id":"19647","agency_id":"70006","route_short_name":"15","route_long_name":"Belleville-O'Fallon","route_type":3,"route_color":"#FFFFFF","route_text_color":"#000000"}],"agency_name":"Metro St. Louis"},"geometry":{"type":"Point","coordinates":[-89.92767,38.57061]}}]}