{"type":"FeatureCollection","features":[{"type":"Feature","properties":{"agency_name":"Metro St. Louis","route_id":"19612","agency_id":"70006","route_short_name":"41","route_long_name":"Lee","route_type":3,"route_color":"#FFFFFF","route_text_color":"#000000"},"geometry":{"type":"MultiLineString","coordinates":[[[-90.2027,38.62541],[-90.20271,38.62522],[-90.20267,38.62563],[-90.20264,38.62566],[-90.20259,38.62568],[-90.20253,38.62568],[-90.20249,38.62565],[-90.20246,38.62559],[-90.20257,38.62504],[-90.20253,38.62498],[-90.20231,38.62495],[-90.20188,38.62591],[-90.20104,38.62808],[-90.20056,38.62954],[-90.20027,38.63028],[-90.2,38.63124],[-90.19959,38.63235],[-90.1995,38.6325],[-90.19938,38.63265],[-90.1992,38.63284],[-90.19895,38.63303],[-90.1987,38.63325],[-90.19851,38.63346],[-90.19841,38.63363],[-90.19819,38.63423],[-90.19778,38.63549],[-90.19733,38.63676],[-90.19879,38.63707],[-90.19949,38.6372],[-90.2032,38.638],[-90.20614,38.63861],[-90.2057,38.63986],[-90.20568,38.64],[-90.2057,38.64015],[-90.20594,38.64081],[-90.20597,38.64099],[-90.20594,38.64119],[-90.2057,38.64194],[-90.20516,38.64347],[-90.20512,38.64364],[-90.20518,38.64407],[-90.2045,38.64602],[-90.20444,38.64623],[-90.20446,38.64646],[-90.20439,38.6467],[-90.20359,38.64895],[-90.20284,38.65124],[-90.20904,38.65255],[-90.20874,38.65344],[-90.20873,38.65356],[-90.20818,38.65508],[-90.20779,38.6561],[-90.2078,38.65621],[-90.20799,38.65696],[-90.20799,38.65711],[-90.20797,38.6572],[-90.2079,38.65727],[-90.20786,38.65736],[-90.20787,38.65742],[-90.20792,38.65753],[-90.20834,38.65834],[-90.20885,38.65941],[-90.21002,38.66178],[-90.21054,38.66289],[-90.21069,38.66312],[-90.21092,38.66331],[-90.21129,38.66352],[-90.21077,38.66425],[-90.21266,38.66506],[-90.21367,38.66554],[-90.21335,38.66597],[-90.21752,38.6678],[-90.22321,38.67026],[-90.22437,38.67078],[-90.22546,38.67122],[-90.2271,38.67197],[-90.22846,38.67257],[-90.23296,38.67452],[-90.23674,38.67618],[-90.23717,38.67636],[-90.23773,38.67636],[-90.23791,38.67639],[-90.23809,38.67645],[-90.24557,38.67976],[-90.24567,38.67979],[-90.24593,38.6798],[-90.24631,38.67975],[-90.24653,38.67978],[-90.24864,38.6807],[-90.24826,38.68128],[-90.24811,38.68157],[-90.2481,38.6818],[-90.2479,38.68235],[-90.24723,38.68486],[-90.24715,38.68512],[-90.24708,38.68529],[-90.247,38.68542],[-90.24628,38.68584],[-90.24544,38.68629],[-90.24512,38.68649],[-90.24468,38.68672],[-90.24537,38.68746],[-90.24716,38.68945],[-90.24782,38.69021],[-90.24977,38.69238],[-90.24539,38.69476],[-90.24796,38.69769],[-90.24859,38.69844],[-90.2493,38.69923],[-90.24999,38.70004],[-90.25209,38.70243],[-90.25282,38.70329],[-90.25251,38.70355],[-90.25091,38.70519],[-90.25022,38.70588],[-90.24981,38.70626],[-90.24841,38.70772],[-90.24324,38.71297],[-90.24257,38.71364],[-90.24189,38.71428],[-90.24172,38.71447],[-90.2416,38.71464],[-90.24151,38.71483],[-90.24144,38.71504],[-90.2414,38.71527],[-90.24088,38.71603],[-90.23372,38.71531],[-90.23663,38.71736],[-90.23687,38.71755],[-90.2372,38.71785],[-90.23748,38.71816],[-90.2376,38.71832],[-90.23955,38.72151],[-90.23995,38.72221],[-90.23983,38.72227],[-90.23978,38.72232],[-90.23972,38.72247],[-90.23634,38.72272],[-90.23601,38.72276],[-90.2353,38.72293],[-90.23467,38.72317],[-90.23433,38.72334],[-90.2307,38.72531],[-90.22974,38.72581],[-90.22947,38.72592],[-90.2285,38.7262],[-90.22794,38.72633],[-90.22736,38.72649],[-90.22586,38.72692],[-90.22471,38.72717],[-90.22461,38.72711]]]}},{"type":"Feature","properties":{"stop_id":"13241","stop_code":"13241","stop_name":"EMERSON @ THEKLA NB","stop_desc":"NEAR SIDE EMERSON @ THEKLA NB","wheelchair_boarding":2,"routes":[{"route_id":"19612","agency_id":"70006","route_short_name":"41","route_long_name":"Lee","route_type":3,"route_color":"#FFFFFF","route_text_color":"#000000"}],"agency_name":"Metro St. Louis"},"geometry":{"type":"Point","coordinates":[-90.24676,38.69403]}},{"type":"Feature","properties":{"stop_id":"14739","stop_code":"14739","stop_name":"20TH STREET @ CASS NB","stop_desc":"FAR SIDE 20TH STREET @ CASS NB","wheelchair_boarding":1,"routes":[{"route_id":"19612","agency_id":"70006","route_short_name":"41","route_long_name":"Lee","route_type":3,"route_color":"#FFFFFF","route_text_color":"#000000"}],"agency_name":"Metro St. Louis"},"geometry":{"type":"Point","coordinates":[-90.20512,38.64375]}},{"type":"Feature","properties":{"stop_id":"14740","stop_code":"14740","stop_name":"20TH STREET @ BENTON NB","stop_desc":"NEAR SIDE 20TH STREET @ BENTON NB","wheelchair_boarding":2,"routes":[{"route_id":"19612","agency_id":"70006","route_short_name":"41","route_long_name":"Lee","route_type":3,"route_color":"#FFFFFF","route_text_color":"#000000"}],"agency_name":"Metro St. Louis"},"geometry":{"type":"Point","coordinates":[-90.20384,38.6483]}},{"type":"Feature","properties":{"stop_id":"14741","stop_code":"14741","stop_name":"EMERSON @ THEODORE NB","stop_desc":"NEAR SIDE EMERSON @ THEODORE NB","wheelchair_boarding":2,"routes":[{"route_id":"19612","agency_id":"70006","route_short_name":"41","route_long_name":"Lee","route_type":3,"route_color":"#FFFFFF","route_text_color":"#000000"}],"agency_name":"Metro St. Louis"},"geometry":{"type":"Point","coordinates":[-90.24797,38.69333]}},{"type":"Feature","properties":{"stop_id":"14742","stop_code":"14742","stop_name":"THEKLA @ EMERSON NB","stop_desc":"FAR SIDE THEKLA @ EMERSON NB","wheelchair_boarding":2,"routes":[{"route_id":"19612","agency_id":"70006","route_short_name":"41","route_long_name":"Lee","route_type":3,"route_color":"#FFFFFF","route_text_color":"#000000"}],"agency_name":"Metro St. Louis"},"geometry":{"type":"Point","coordinates":[-90.2457,38.6951]}},{"type":"Feature","properties":{"stop_id":"14743","stop_code":"14743","stop_name":"THEKLA @ DAVISON NB","stop_desc":"FAR SIDE THEKLA @ DAVISON NB","wheelchair_boarding":2,"routes":[{"route_id":"19612","agency_id":"70006","route_short_name":"41","route_long_name":"Lee","route_type":3,"route_color":"#FFFFFF","route_text_color":"#000000"}],"agency_name":"Metro St. Louis"},"geometry":{"type":"Point","coordinates":[-90.24686,38.6965]}},{"type":"Feature","properties":{"stop_id":"14744","stop_code":"14744","stop_name":"THEKLA @ GENEVIEVE NB","stop_desc":"NEAR SIDE THEKLA @ GENEVIEVE NB","wheelchair_boarding":2,"routes":[{"route_id":"19612","agency_id":"70006","route_short_name":"41","route_long_name":"Lee","route_type":3,"route_color":"#FFFFFF","route_text_color":"#000000"}],"agency_name":"Metro St. Louis"},"geometry":{"type":"Point","coordinates":[-90.24787,38.69758]}},{"type":"Feature","properties":{"stop_id":"14823","stop_code":"14823","stop_name":"14TH STREET @ WASHINGTON NB","stop_desc":"FAR SIDE 14TH STREET @ WASHINGTON NB","wheelchair_boarding":1,"routes":[{"route_id":"19612","agency_id":"70006","route_short_name":"41","route_long_name":"Lee","route_type":3,"route_color":"#FFFFFF","route_text_color":"#000000"},{"route_id":"19624","agency_id":"70006","route_short_name":"74","route_long_name":"Florissant","route_type":3,"route_color":"#FFFFFF","route_text_color":"#000000"},{"route_id":"19633","agency_id":"70006","route_short_name":"97","route_long_name":"Delmar","route_type":3,"route_color":"#FFFFFF","route_text_color":"#000000"}],"agency_name":"Metro St. Louis"},"geometry":{"type":"Point","coordinates":[-90.1994,38.63246]}},{"type":"Feature","properties":{"stop_id":"14824","stop_code":"14824","stop_name":"14TH STREET @ DR ML KING NB","stop_desc":"NEAR SIDE 14TH STREET @ DR ML KING NB","wheelchair_boarding":1,"routes":[{"route_id":"19612","agency_id":"70006","route_short_name":"41","route_long_name":"Lee","route_type":3,"route_color":"#FFFFFF","route_text_color":"#000000"},{"route_id":"19624","agency_id":"70006","route_short_name":"74","route_long_name":"Florissant","route_type":3,"route_color":"#FFFFFF","route_text_color":"#000000"}],"agency_name":"Metro St. Louis"},"geometry":{"type":"Point","coordinates":[-90.1981,38.63436]}},{"type":"Feature","properties":{"stop_id":"15073","stop_code":"15073","stop_name":"RIVERVIEW @ BROADWAY EB","stop_desc":"FAR SIDE RIVERVIEW @ BROADWAY EB","wheelchair_boarding":2,"routes":[{"route_id":"19601","agency_id":"70006","route_short_name":"16","route_long_name":"City Limits","route_type":3,"route_color":"#FFFFFF","route_text_color":"#000000"},{"route_id":"19611","agency_id":"70006","route_short_name":"40","route_long_name":"Broadway-Halls Ferry","route_type":3,"route_color":"#FFFFFF","route_text_color":"#000000"},{"route_id":"19612","agency_id":"70006","route_short_name":"41","route_long_name":"Lee","route_type":3,"route_color":"#FFFFFF","route_text_color":"#000000"},{"route_id":"19619","agency_id":"70006","route_short_name":"60","route_long_name":"Shepley-Lilac","route_type":3,"route_color":"#FFFFFF","route_text_color":"#000000"},{"route_id":"19620","agency_id":"70006","route_short_name":"61","route_long_name":"Chambers Rd","route_type":3,"route_color":"#FFFFFF","route_text_color":"#000000"},{"route_id":"19621","agency_id":"70006","route_short_name":"64","route_long_name":"Lucas-Hunt","route_type":3,"route_color":"#FFFFFF","route_text_color":"#000000"},{"route_id":"19627","agency_id":"70006","route_short_name":"78","route_long_name":"Bellefontaine","route_type":3,"route_color":"#FFFFFF","route_text_color":"#000000"},{"route_id":"19629","agency_id":"70006","route_short_name":"90","route_long_name":"Hampton","route_type":3,"route_color":"#FFFFFF","route_text_color":"#000000"}],"agency_name":"Metro St. Louis"},"geometry":{"type":"Point","coordinates":[-90.22708,38.72658]}},{"type":"Feature","properties":{"stop_id":"15138","stop_code":"15138","stop_name":"LILLIAN @ EMERSON NB","stop_desc":"NEAR SIDE LILLIAN @ EMERSON NB","wheelchair_boarding":1,"routes":[{"route_id":"19612","agency_id":"70006","route_short_name":"41","route_long_name":"Lee","route_type":3,"route_color":"#FFFFFF","route_text_color":"#000000"}],"agency_name":"Metro St. Louis"},"geometry":{"type":"Point","coordinates":[-90.24942,38.69199]}},{"type":"Feature","properties":{"stop_id":"15943","stop_code":"15943","stop_name":"MCLARAN @ SELLS EB","stop_desc":"NEAR SIDE MCLARAN @ SELLS EB","wheelchair_boarding":2,"routes":[{"route_id":"19612","agency_id":"70006","route_short_name":"41","route_long_name":"Lee","route_type":3,"route_color":"#FFFFFF","route_text_color":"#000000"}],"agency_name":"Metro St. Louis"},"geometry":{"type":"Point","coordinates":[-90.23826,38.71565]}},{"type":"Feature","properties":{"stop_id":"15944","stop_code":"15944","stop_name":"MCLARAN @ NEWBY EB","stop_desc":"NEAR SIDE MCLARAN @ NEWBY EB","wheelchair_boarding":2,"routes":[{"route_id":"19612","agency_id":"70006","route_short_name":"41","route_long_name":"Lee","route_type":3,"route_color":"#FFFFFF","route_text_color":"#000000"}],"agency_name":"Metro St. Louis"},"geometry":{"type":"Point","coordinates":[-90.23511,38.71534]}},{"type":"Feature","properties":{"stop_id":"15949","stop_code":"15949","stop_name":"CARR @ 14TH STREET WB","stop_desc":"FAR SIDE CARR @ 14TH STREET WB","wheelchair_boarding":1,"routes":[{"route_id":"19612","agency_id":"70006","route_short_name":"41","route_long_name":"Lee","route_type":3,"route_color":"#FFFFFF","route_text_color":"#000000"}],"agency_name":"Metro St. Louis"},"geometry":{"type":"Point","coordinates":[-90.19786,38.63694]}},{"type":"Feature","properties":{"stop_id":"15950","stop_code":"15950","stop_name":"GROVE @ LEE NB","stop_desc":"NEAR SIDE GROVE @ LEE NB","wheelchair_boarding":2,"routes":[{"route_id":"19612","agency_id":"70006","route_short_name":"41","route_long_name":"Lee","route_type":3,"route_color":"#FFFFFF","route_text_color":"#000000"}],"agency_name":"Metro St. Louis"},"geometry":{"type":"Point","coordinates":[-90.21107,38.66383]}},{"type":"Feature","properties":{"stop_id":"1609","stop_code":"1609","stop_name":"CARR @ SELBY PLACE WB","stop_desc":"NEAR SIDE CARR @ SELBY PLACE WB","wheelchair_boarding":2,"routes":[{"route_id":"19612","agency_id":"70006","route_short_name":"41","route_long_name":"Lee","route_type":3,"route_color":"#FFFFFF","route_text_color":"#000000"}],"agency_name":"Metro St. Louis"},"geometry":{"type":"Point","coordinates":[-90.19937,38.63724]}},{"type":"Feature","properties":{"stop_id":"2377","stop_code":"2377","stop_name":"KINGSHIGHWAY @ PENROSE NB","stop_desc":"FAR SIDE KINGSHIGHWAY @ PENROSE NB","wheelchair_boarding":1,"routes":[{"route_id":"19612","agency_id":"70006","route_short_name":"41","route_long_name":"Lee","route_type":3,"route_color":"#FFFFFF","route_text_color":"#000000"},{"route_id":"19632","agency_id":"70006","route_short_name":"95","route_long_name":"Kingshighway","route_type":3,"route_color":"#FFFFFF","route_text_color":"#000000"}],"agency_name":"Metro St. Louis"},"geometry":{"type":"Point","coordinates":[-90.24752,38.68334]}},{"type":"Feature","properties":{"stop_id":"3224","stop_code":"3224","stop_name":"MCLARAN @ RIVERVIEW EB","stop_desc":"FAR SIDE MCLARAN @ RIVERVIEW EB","wheelchair_boarding":2,"routes":[{"route_id":"19612","agency_id":"70006","route_short_name":"41","route_long_name":"Lee","route_type":3,"route_color":"#FFFFFF","route_text_color":"#000000"}],"agency_name":"Metro St. Louis"},"geometry":{"type":"Point","coordinates":[-90.2409,38.71595]}},{"type":"Feature","properties":{"stop_id":"6222","stop_code":"6222","stop_name":"CARR @ 20TH STREET WB","stop_desc":"NEAR SIDE CARR @ 20TH STREET WB","wheelchair_boarding":2,"routes":[{"route_id":"19612","agency_id":"70006","route_short_name":"41","route_long_name":"Lee","route_type":3,"route_color":"#FFFFFF","route_text_color":"#000000"}],"agency_name":"Metro St. Louis"},"geometry":{"type":"Point","coordinates":[-90.20566,38.63855]}},{"type":"Feature","properties":{"stop_id":"6224","stop_code":"6224","stop_name":"20TH STREET @ OFALLON NB","stop_desc":"NEAR SIDE 20TH STREET @ OFALLON NB","wheelchair_boarding":2,"routes":[{"route_id":"19612","agency_id":"70006","route_short_name":"41","route_long_name":"Lee","route_type":3,"route_color":"#FFFFFF","route_text_color":"#000000"}],"agency_name":"Metro St. Louis"},"geometry":{"type":"Point","coordinates":[-90.20589,38.64075]}},{"type":"Feature","properties":{"stop_id":"6226","stop_code":"6226","stop_name":"20TH STREET @ MADISON NB","stop_desc":"FAR SIDE 20TH STREET @ MADISON NB","wheelchair_boarding":2,"routes":[{"route_id":"19612","agency_id":"70006","route_short_name":"41","route_long_name":"Lee","route_type":3,"route_color":"#FFFFFF","route_text_color":"#000000"}],"agency_name":"Metro St. Louis"},"geometry":{"type":"Point","coordinates":[-90.20442,38.64611]}},{"type":"Feature","properties":{"stop_id":"6233","stop_code":"6233","stop_name":"ST. LOUIS @ 23RD STREET WB","stop_desc":"FAR SIDE ST. LOUIS @ 23RD STREET WB","wheelchair_boarding":1,"routes":[{"route_id":"19603","agency_id":"70006","route_short_name":"19","route_long_name":"St Louis Ave","route_type":3,"route_color":"#FFFFFF","route_text_color":"#000000"},{"route_id":"19612","agency_id":"70006","route_short_name":"41","route_long_name":"Lee","route_type":3,"route_color":"#FFFFFF","route_text_color":"#000000"}],"agency_name":"Metro St. Louis"},"geometry":{"type":"Point","coordinates":[-90.20737,38.65228]}},{"type":"Feature","properties":{"stop_id":"6234","stop_code":"6234","stop_name":"25TH STREET @ ST. LOUIS NB","stop_desc":"FAR SIDE 25TH STREET @ ST. LOUIS NB","wheelchair_boarding":2,"routes":[{"route_id":"19612","agency_id":"70006","route_short_name":"41","route_long_name":"Lee","route_type":3,"route_color":"#FFFFFF","route_text_color":"#000000"}],"agency_name":"Metro St. Louis"},"geometry":{"type":"Point","coordinates":[-90.20891,38.65294]}},{"type":"Feature","properties":{"stop_id":"6239","stop_code":"6239","stop_name":"25TH STREET @ SALISBURY NB","stop_desc":"NEAR SIDE 25TH STREET @ SALISBURY NB","wheelchair_boarding":2,"routes":[{"route_id":"19612","agency_id":"70006","route_short_name":"41","route_long_name":"Lee","route_type":3,"route_color":"#FFFFFF","route_text_color":"#000000"}],"agency_name":"Metro St. Louis"},"geometry":{"type":"Point","coordinates":[-90.20822,38.65818]}},{"type":"Feature","properties":{"stop_id":"6240","stop_code":"6240","stop_name":"25TH STREET @ FARRAR NB","stop_desc":"NEAR SIDE 25TH STREET @ FARRAR NB","wheelchair_boarding":2,"routes":[{"route_id":"19612","agency_id":"70006","route_short_name":"41","route_long_name":"Lee","route_type":3,"route_color":"#FFFFFF","route_text_color":"#000000"}],"agency_name":"Metro St. Louis"},"geometry":{"type":"Point","coordinates":[-90.20891,38.6596]}},{"type":"Feature","properties":{"stop_id":"6242","stop_code":"6242","stop_name":"25TH STREET @ NEWHOUSE NB","stop_desc":"NEAR SIDE 25TH STREET @ NEWHOUSE NB","wheelchair_boarding":2,"routes":[{"route_id":"19612","agency_id":"70006","route_short_name":"41","route_long_name":"Lee","route_type":3,"route_color":"#FFFFFF","route_text_color":"#000000"}],"agency_name":"Metro St. Louis"},"geometry":{"type":"Point","coordinates":[-90.20995,38.66172]}},{"type":"Feature","properties":{"stop_id":"6243","stop_code":"6243","stop_name":"KOSSUTH @ GLASGOW NB","stop_desc":"FAR SIDE KOSSUTH @ GLASGOW NB","wheelchair_boarding":2,"routes":[{"route_id":"19612","agency_id":"70006","route_short_name":"41","route_long_name":"Lee","route_type":3,"route_color":"#FFFFFF","route_text_color":"#000000"}],"agency_name":"Metro St. Louis"},"geometry":{"type":"Point","coordinates":[-90.21066,38.66316]}},{"type":"Feature","properties":{"stop_id":"6245","stop_code":"6245","stop_name":"LEE AVE @ PLEASANT WB","stop_desc":"NEAR SIDE LEE AVE @ PLEASANT WB","wheelchair_boarding":2,"routes":[{"route_id":"19612","agency_id":"70006","route_short_name":"41","route_long_name":"Lee","route_type":3,"route_color":"#FFFFFF","route_text_color":"#000000"}],"agency_name":"Metro St. Louis"},"geometry":{"type":"Point","coordinates":[-90.21136,38.66453]}},{"type":"Feature","properties":{"stop_id":"6246","stop_code":"6246","stop_name":"LEE AVE @ N GRAND BLVD WB","stop_desc":"NEAR SIDE LEE AVE @ N GRAND BLVD WB","wheelchair_boarding":1,"routes":[{"route_id":"19612","agency_id":"70006","route_short_name":"41","route_long_name":"Lee","route_type":3,"route_color":"#FFFFFF","route_text_color":"#000000"}],"agency_name":"Metro St. Louis"},"geometry":{"type":"Point","coordinates":[-90.21327,38.66536]}},{"type":"Feature","properties":{"stop_id":"6247","stop_code":"6247","stop_name":"LEE AVE @ N GRAND BLVD WB","stop_desc":"FAR SIDE LEE AVE @ N GRAND BLVD WB","wheelchair_boarding":1,"routes":[{"route_id":"19612","agency_id":"70006","route_short_name":"41","route_long_name":"Lee","route_type":3,"route_color":"#FFFFFF","route_text_color":"#000000"}],"agency_name":"Metro St. Louis"},"geometry":{"type":"Point","coordinates":[-90.21368,38.66615]}},{"type":"Feature","properties":{"stop_id":"6248","stop_code":"6248","stop_name":"LEE @ OBEAR WB","stop_desc":"FAR SIDE LEE @ OBEAR WB","wheelchair_boarding":2,"routes":[{"route_id":"19612","agency_id":"70006","route_short_name":"41","route_long_name":"Lee","route_type":3,"route_color":"#FFFFFF","route_text_color":"#000000"}],"agency_name":"Metro St. Louis"},"geometry":{"type":"Point","coordinates":[-90.21527,38.66688]}},{"type":"Feature","properties":{"stop_id":"6250","stop_code":"6250","stop_name":"LEE @ PRAIRIE WB","stop_desc":"NEAR SIDE LEE @ PRAIRIE WB","wheelchair_boarding":2,"routes":[{"route_id":"19612","agency_id":"70006","route_short_name":"41","route_long_name":"Lee","route_type":3,"route_color":"#FFFFFF","route_text_color":"#000000"}],"agency_name":"Metro St. Louis"},"geometry":{"type":"Point","coordinates":[-90.21728,38.66771]}},{"type":"Feature","properties":{"stop_id":"6251","stop_code":"6251","stop_name":"LEE @ WARNE WB","stop_desc":"NEAR SIDE LEE @ WARNE WB","wheelchair_boarding":2,"routes":[{"route_id":"19612","agency_id":"70006","route_short_name":"41","route_long_name":"Lee","route_type":3,"route_color":"#FFFFFF","route_text_color":"#000000"}],"agency_name":"Metro St. Louis"},"geometry":{"type":"Point","coordinates":[-90.22096,38.66931]}},{"type":"Feature","properties":{"stop_id":"6252","stop_code":"6252","stop_name":"LEE @ CLAY WB","stop_desc":"NEAR SIDE LEE @ CLAY WB","wheelchair_boarding":2,"routes":[{"route_id":"19612","agency_id":"70006","route_short_name":"41","route_long_name":"Lee","route_type":3,"route_color":"#FFFFFF","route_text_color":"#000000"}],"agency_name":"Metro St. Louis"},"geometry":{"type":"Point","coordinates":[-90.223,38.67021]}},{"type":"Feature","properties":{"stop_id":"6253","stop_code":"6253","stop_name":"LEE @ FAIR WB","stop_desc":"FAR SIDE LEE @ FAIR WB","wheelchair_boarding":1,"routes":[{"route_id":"19612","agency_id":"70006","route_short_name":"41","route_long_name":"Lee","route_type":3,"route_color":"#FFFFFF","route_text_color":"#000000"}],"agency_name":"Metro St. Louis"},"geometry":{"type":"Point","coordinates":[-90.22563,38.67136]}},{"type":"Feature","properties":{"stop_id":"6254","stop_code":"6254","stop_name":"LEE @ RED BUD WB","stop_desc":"NEAR SIDE LEE @ RED BUD WB","wheelchair_boarding":2,"routes":[{"route_id":"19612","agency_id":"70006","route_short_name":"41","route_long_name":"Lee","route_type":3,"route_color":"#FFFFFF","route_text_color":"#000000"}],"agency_name":"Metro St. Louis"},"geometry":{"type":"Point","coordinates":[-90.22832,38.67254]}},{"type":"Feature","properties":{"stop_id":"6255","stop_code":"6255","stop_name":"LEE @ ATHLONE WB","stop_desc":"FAR SIDE LEE @ ATHLONE WB","wheelchair_boarding":1,"routes":[{"route_id":"19612","agency_id":"70006","route_short_name":"41","route_long_name":"Lee","route_type":3,"route_color":"#FFFFFF","route_text_color":"#000000"}],"agency_name":"Metro St. Louis"},"geometry":{"type":"Point","coordinates":[-90.2301,38.67336]}},{"type":"Feature","properties":{"stop_id":"6257","stop_code":"6257","stop_name":"LEE @ NEWSTEAD WB","stop_desc":"NEAR SIDE LEE @ NEWSTEAD WB","wheelchair_boarding":1,"routes":[{"route_id":"19612","agency_id":"70006","route_short_name":"41","route_long_name":"Lee","route_type":3,"route_color":"#FFFFFF","route_text_color":"#000000"}],"agency_name":"Metro St. Louis"},"geometry":{"type":"Point","coordinates":[-90.2327,38.6745]}},{"type":"Feature","properties":{"stop_id":"6258","stop_code":"6258","stop_name":"LEE @ CAMELLIA WB","stop_desc":"NEAR SIDE LEE @ CAMELLIA WB","wheelchair_boarding":2,"routes":[{"route_id":"19612","agency_id":"70006","route_short_name":"41","route_long_name":"Lee","route_type":3,"route_color":"#FFFFFF","route_text_color":"#000000"}],"agency_name":"Metro St. Louis"},"geometry":{"type":"Point","coordinates":[-90.23513,38.67553]}},{"type":"Feature","properties":{"stop_id":"6260","stop_code":"6260","stop_name":"LEE @ DRYDEN WB","stop_desc":"FAR SIDE LEE @ DRYDEN WB","wheelchair_boarding":2,"routes":[{"route_id":"19612","agency_id":"70006","route_short_name":"41","route_long_name":"Lee","route_type":3,"route_color":"#FFFFFF","route_text_color":"#000000"}],"agency_name":"Metro St. Louis"},"geometry":{"type":"Point","coordinates":[-90.23732,38.67643]}},{"type":"Feature","properties":{"stop_id":"6261","stop_code":"6261","stop_name":"LEE @ MARCUS WB","stop_desc":"NEAR SIDE LEE @ MARCUS WB","wheelchair_boarding":2,"routes":[{"route_id":"19612","agency_id":"70006","route_short_name":"41","route_long_name":"Lee","route_type":3,"route_color":"#FFFFFF","route_text_color":"#000000"}],"agency_name":"Metro St. Louis"},"geometry":{"type":"Point","coordinates":[-90.23993,38.67724]}},{"type":"Feature","properties":{"stop_id":"6262","stop_code":"6262","stop_name":"LEE @ SHREVE WB","stop_desc":"FAR SIDE LEE @ SHREVE WB","wheelchair_boarding":2,"routes":[{"route_id":"19612","agency_id":"70006","route_short_name":"41","route_long_name":"Lee","route_type":3,"route_color":"#FFFFFF","route_text_color":"#000000"}],"agency_name":"Metro St. Louis"},"geometry":{"type":"Point","coordinates":[-90.24271,38.67851]}},{"type":"Feature","properties":{"stop_id":"6263","stop_code":"6263","stop_name":"LEE @ EUCLID WB","stop_desc":"NEAR SIDE LEE @ EUCLID WB","wheelchair_boarding":2,"routes":[{"route_id":"19612","agency_id":"70006","route_short_name":"41","route_long_name":"Lee","route_type":3,"route_color":"#FFFFFF","route_text_color":"#000000"}],"agency_name":"Metro St. Louis"},"geometry":{"type":"Point","coordinates":[-90.24556,38.67974]}},{"type":"Feature","properties":{"stop_id":"6265","stop_code":"6265","stop_name":"LEE @ KINGSHIGHWAY WB","stop_desc":"NEAR SIDE LEE @ KINGSHIGHWAY WB","wheelchair_boarding":2,"routes":[{"route_id":"19612","agency_id":"70006","route_short_name":"41","route_long_name":"Lee","route_type":3,"route_color":"#FFFFFF","route_text_color":"#000000"}],"agency_name":"Metro St. Louis"},"geometry":{"type":"Point","coordinates":[-90.24839,38.68062]}},{"type":"Feature","properties":{"stop_id":"6266","stop_code":"6266","stop_name":"LILLIAN @ KINGSHIGHWAY NB","stop_desc":"FAR SIDE LILLIAN @ KINGSHIGHWAY NB","wheelchair_boarding":1,"routes":[{"route_id":"19612","agency_id":"70006","route_short_name":"41","route_long_name":"Lee","route_type":3,"route_color":"#FFFFFF","route_text_color":"#000000"}],"agency_name":"Metro St. Louis"},"geometry":{"type":"Point","coordinates":[-90.24498,38.68704]}},{"type":"Feature","properties":{"stop_id":"6268","stop_code":"6268","stop_name":"LILLIAN @ RUSKIN NB","stop_desc":"NEAR SIDE LILLIAN @ RUSKIN NB","wheelchair_boarding":2,"routes":[{"route_id":"19612","agency_id":"70006","route_short_name":"41","route_long_name":"Lee","route_type":3,"route_color":"#FFFFFF","route_text_color":"#000000"}],"agency_name":"Metro St. Louis"},"geometry":{"type":"Point","coordinates":[-90.24635,38.68856]}},{"type":"Feature","properties":{"stop_id":"6270","stop_code":"6270","stop_name":"LILLIAN @ UNION NB","stop_desc":"FAR SIDE LILLIAN @ UNION NB","wheelchair_boarding":1,"routes":[{"route_id":"19612","agency_id":"70006","route_short_name":"41","route_long_name":"Lee","route_type":3,"route_color":"#FFFFFF","route_text_color":"#000000"}],"agency_name":"Metro St. Louis"},"geometry":{"type":"Point","coordinates":[-90.24803,38.69048]}},{"type":"Feature","properties":{"stop_id":"6279","stop_code":"6279","stop_name":"THEKLA @ PLOVER NB","stop_desc":"NEAR SIDE THEKLA @ PLOVER NB","wheelchair_boarding":2,"routes":[{"route_id":"19612","agency_id":"70006","route_short_name":"41","route_long_name":"Lee","route_type":3,"route_color":"#FFFFFF","route_text_color":"#000000"}],"agency_name":"Metro St. Louis"},"geometry":{"type":"Point","coordinates":[-90.24919,38.6991]}},{"type":"Feature","properties":{"stop_id":"6282","stop_code":"6282","stop_name":"THEKLA @ GILMORE NB","stop_desc":"FAR SIDE THEKLA @ GILMORE NB","wheelchair_boarding":2,"routes":[{"route_id":"19612","agency_id":"70006","route_short_name":"41","route_long_name":"Lee","route_type":3,"route_color":"#FFFFFF","route_text_color":"#000000"}],"agency_name":"Metro St. Louis"},"geometry":{"type":"Point","coordinates":[-90.25151,38.70176]}},{"type":"Feature","properties":{"stop_id":"6283","stop_code":"6283","stop_name":"THEKLA @ RIVERVIEW NB","stop_desc":"NEAR SIDE THEKLA @ RIVERVIEW NB","wheelchair_boarding":1,"routes":[{"route_id":"19612","agency_id":"70006","route_short_name":"41","route_long_name":"Lee","route_type":3,"route_color":"#FFFFFF","route_text_color":"#000000"}],"agency_name":"Metro St. Louis"},"geometry":{"type":"Point","coordinates":[-90.2527,38.70313]}},{"type":"Feature","properties":{"stop_id":"6284","stop_code":"6284","stop_name":"RIVERVIEW @ EMMA NB","stop_desc":"FAR SIDE RIVERVIEW @ EMMA NB","wheelchair_boarding":2,"routes":[{"route_id":"19612","agency_id":"70006","route_short_name":"41","route_long_name":"Lee","route_type":3,"route_color":"#FFFFFF","route_text_color":"#000000"}],"agency_name":"Metro St. Louis"},"geometry":{"type":"Point","coordinates":[-90.25149,38.70455]}},{"type":"Feature","properties":{"stop_id":"6286","stop_code":"6286","stop_name":"RIVERVIEW @ WEST FLORISSANT NB","stop_desc":"NEAR SIDE RIVERVIEW @ WEST FLORISSANT NB","wheelchair_boarding":1,"routes":[{"route_id":"19612","agency_id":"70006","route_short_name":"41","route_long_name":"Lee","route_type":3,"route_color":"#FFFFFF","route_text_color":"#000000"}],"agency_name":"Metro St. Louis"},"geometry":{"type":"Point","coordinates":[-90.24954,38.70651]}},{"type":"Feature","properties":{"stop_id":"6287","stop_code":"6287","stop_name":"RIVERVIEW @ POINTE NB","stop_desc":"NEAR SIDE RIVERVIEW @ POINTE NB","wheelchair_boarding":2,"routes":[{"route_id":"19612","agency_id":"70006","route_short_name":"41","route_long_name":"Lee","route_type":3,"route_color":"#FFFFFF","route_text_color":"#000000"}],"agency_name":"Metro St. Louis"},"geometry":{"type":"Point","coordinates":[-90.24635,38.70974]}},{"type":"Feature","properties":{"stop_id":"6288","stop_code":"6288","stop_name":"RIVERVIEW @ VIVIAN NB","stop_desc":"NEAR SIDE RIVERVIEW @ VIVIAN NB","wheelchair_boarding":2,"routes":[{"route_id":"19612","agency_id":"70006","route_short_name":"41","route_long_name":"Lee","route_type":3,"route_color":"#FFFFFF","route_text_color":"#000000"}],"agency_name":"Metro St. Louis"},"geometry":{"type":"Point","coordinates":[-90.24503,38.71107]}},{"type":"Feature","properties":{"stop_id":"6290","stop_code":"6290","stop_name":"RIVERVIEW @ ETON NB","stop_desc":"NEAR SIDE RIVERVIEW @ ETON NB","wheelchair_boarding":2,"routes":[{"route_id":"19612","agency_id":"70006","route_short_name":"41","route_long_name":"Lee","route_type":3,"route_color":"#FFFFFF","route_text_color":"#000000"}],"agency_name":"Metro St. Louis"},"geometry":{"type":"Point","coordinates":[-90.24331,38.71282]}},{"type":"Feature","properties":{"stop_id":"6291","stop_code":"6291","stop_name":"RIVERVIEW @ SWITZER NB","stop_desc":"FAR SIDE RIVERVIEW @ SWITZER NB","wheelchair_boarding":2,"routes":[{"route_id":"19612","agency_id":"70006","route_short_name":"41","route_long_name":"Lee","route_type":3,"route_color":"#FFFFFF","route_text_color":"#000000"}],"agency_name":"Metro St. Louis"},"geometry":{"type":"Point","coordinates":[-90.24154,38.71465]}},{"type":"Feature","properties":{"stop_id":"6358","stop_code":"6358","stop_name":"25TH STREET @ NATURAL BRIDGE NB","stop_desc":"NEAR SIDE 25TH STREET @ NATURAL BRIDGE NB","wheelchair_boarding":2,"routes":[{"route_id":"19612","agency_id":"70006","route_short_name":"41","route_long_name":"Lee","route_type":3,"route_color":"#FFFFFF","route_text_color":"#000000"}],"agency_name":"Metro St. Louis"},"geometry":{"type":"Point","coordinates":[-90.20786,38.65671]}},{"type":"Feature","properties":{"stop_id":"6359","stop_code":"6359","stop_name":"25TH STREET @ DODIER NB","stop_desc":"FAR SIDE 25TH STREET @ DODIER NB","wheelchair_boarding":2,"routes":[{"route_id":"19612","agency_id":"70006","route_short_name":"41","route_long_name":"Lee","route_type":3,"route_color":"#FFFFFF","route_text_color":"#000000"}],"agency_name":"Metro St. Louis"},"geometry":{"type":"Point","coordinates":[-90.20827,38.65466]}},{"type":"Feature","properties":{"stop_id":"6388","stop_code":"6388","stop_name":"RIVERVIEW @ HALLS FERRY CIRCLE EB","stop_desc":"FAR SIDE RIVERVIEW @ HALLS FERRY CIRCLE EB","wheelchair_boarding":1,"routes":[{"route_id":"19611","agency_id":"70006","route_short_name":"40","route_long_name":"Broadway-Halls Ferry","route_type":3,"route_color":"#FFFFFF","route_text_color":"#000000"},{"route_id":"19612","agency_id":"70006","route_short_name":"41","route_long_name":"Lee","route_type":3,"route_color":"#FFFFFF","route_text_color":"#000000"},{"route_id":"19621","agency_id":"70006","route_short_name":"64","route_long_name":"Lucas-Hunt","route_type":3,"route_color":"#FFFFFF","route_text_color":"#000000"},{"route_id":"19629","agency_id":"70006","route_short_name":"90","route_long_name":"Hampton","route_type":3,"route_color":"#FFFFFF","route_text_color":"#000000"}],"agency_name":"Metro St. Louis"},"geometry":{"type":"Point","coordinates":[-90.2393,38.72248]}},{"type":"Feature","properties":{"stop_id":"6390","stop_code":"6390","stop_name":"RIVERVIEW @ NEWBY EB","stop_desc":"NEAR SIDE RIVERVIEW @ NEWBY EB","wheelchair_boarding":2,"routes":[{"route_id":"19611","agency_id":"70006","route_short_name":"40","route_long_name":"Broadway-Halls Ferry","route_type":3,"route_color":"#FFFFFF","route_text_color":"#000000"},{"route_id":"19612","agency_id":"70006","route_short_name":"41","route_long_name":"Lee","route_type":3,"route_color":"#FFFFFF","route_text_color":"#000000"},{"route_id":"19621","agency_id":"70006","route_short_name":"64","route_long_name":"Lucas-Hunt","route_type":3,"route_color":"#FFFFFF","route_text_color":"#000000"},{"route_id":"19629","agency_id":"70006","route_short_name":"90","route_long_name":"Hampton","route_type":3,"route_color":"#FFFFFF","route_text_color":"#000000"}],"agency_name":"Metro St. Louis"},"geometry":{"type":"Point","coordinates":[-90.2349,38.72302]}},{"type":"Feature","properties":{"stop_id":"6392","stop_code":"6392","stop_name":"RIVERVIEW @ JORDAN EB","stop_desc":"NEAR SIDE RIVERVIEW @ JORDAN EB","wheelchair_boarding":2,"routes":[{"route_id":"19611","agency_id":"70006","route_short_name":"40","route_long_name":"Broadway-Halls Ferry","route_type":3,"route_color":"#FFFFFF","route_text_color":"#000000"},{"route_id":"19612","agency_id":"70006","route_short_name":"41","route_long_name":"Lee","route_type":3,"route_color":"#FFFFFF","route_text_color":"#000000"},{"route_id":"19621","agency_id":"70006","route_short_name":"64","route_long_name":"Lucas-Hunt","route_type":3,"route_color":"#FFFFFF","route_text_color":"#000000"},{"route_id":"19629","agency_id":"70006","route_short_name":"90","route_long_name":"Hampton","route_type":3,"route_color":"#FFFFFF","route_text_color":"#000000"}],"agency_name":"Metro St. Louis"},"geometry":{"type":"Point","coordinates":[-90.23086,38.72518]}},{"type":"Feature","properties":{"stop_id":"6393","stop_code":"6393","stop_name":"RIVERVIEW @ BROADWAY EB","stop_desc":"NEAR SIDE RIVERVIEW @ BROADWAY EB","wheelchair_boarding":2,"routes":[{"route_id":"19611","agency_id":"70006","route_short_name":"40","route_long_name":"Broadway-Halls Ferry","route_type":3,"route_color":"#FFFFFF","route_text_color":"#000000"},{"route_id":"19612","agency_id":"70006","route_short_name":"41","route_long_name":"Lee","route_type":3,"route_color":"#FFFFFF","route_text_color":"#000000"},{"route_id":"19621","agency_id":"70006","route_short_name":"64","route_long_name":"Lucas-Hunt","route_type":3,"route_color":"#FFFFFF","route_text_color":"#000000"},{"route_id":"19629","agency_id":"70006","route_short_name":"90","route_long_name":"Hampton","route_type":3,"route_color":"#FFFFFF","route_text_color":"#000000"}],"agency_name":"Metro St. Louis"},"geometry":{"type":"Point","coordinates":[-90.22857,38.72615]}},{"type":"Feature","properties":{"stop_id":"6649","stop_code":"6649","stop_name":"RIVERVIEW TRANSIT CENTER","wheelchair_boarding":1,"routes":[{"route_id":"19601","agency_id":"70006","route_short_name":"16","route_long_name":"City Limits","route_type":3,"route_color":"#FFFFFF","route_text_color":"#000000"},{"route_id":"19611","agency_id":"70006","route_short_name":"40","route_long_name":"Broadway-Halls Ferry","route_type":3,"route_color":"#FFFFFF","route_text_color":"#000000"},{"route_id":"19612","agency_id":"70006","route_short_name":"41","route_long_name":"Lee","route_type":3,"route_color":"#FFFFFF","route_text_color":"#000000"},{"route_id":"19619","agency_id":"70006","route_short_name":"60","route_long_name":"Shepley-Lilac","route_type":3,"route_color":"#FFFFFF","route_text_color":"#000000"}],"agency_name":"Metro St. Louis"},"geometry":{"type":"Point","coordinates":[-90.22406,38.7273]}},{"type":"Feature","properties":{"stop_id":"6785","stop_code":"6785","stop_name":"HALLS FERRY @ NEWBY NB","stop_desc":"FAR SIDE HALLS FERRY @ NEWBY NB","wheelchair_boarding":1,"routes":[{"route_id":"19612","agency_id":"70006","route_short_name":"41","route_long_name":"Lee","route_type":3,"route_color":"#FFFFFF","route_text_color":"#000000"}],"agency_name":"Metro St. Louis"},"geometry":{"type":"Point","coordinates":[-90.23604,38.71699]}},{"type":"Feature","properties":{"stop_id":"6786","stop_code":"6786","stop_name":"HALLS FERRY @ VERONICA NB","stop_desc":"NEAR SIDE HALLS FERRY @ VERONICA NB","wheelchair_boarding":1,"routes":[{"route_id":"19612","agency_id":"70006","route_short_name":"41","route_long_name":"Lee","route_type":3,"route_color":"#FFFFFF","route_text_color":"#000000"}],"agency_name":"Metro St. Louis"},"geometry":{"type":"Point","coordinates":[-90.23728,38.71799]}},{"type":"Feature","properties":{"stop_id":"6787","stop_code":"6787","stop_name":"HALLS FERRY @ HORNSBY NB","stop_desc":"FAR SIDE HALLS FERRY @ HORNSBY NB","wheelchair_boarding":2,"routes":[{"route_id":"19612","agency_id":"70006","route_short_name":"41","route_long_name":"Lee","route_type":3,"route_color":"#FFFFFF","route_text_color":"#000000"}],"agency_name":"Metro St. Louis"},"geometry":{"type":"Point","coordinates":[-90.23824,38.71949]}},{"type":"Feature","properties":{"stop_id":"6789","stop_code":"6789","stop_name":"HALLS FERRY @ HALLS FERRY CIRCLE NB","stop_desc":"NEAR SIDE HALLS FERRY @ HALLS FERRY CIRCLE NB","wheelchair_boarding":1,"routes":[{"route_id":"19612","agency_id":"70006","route_short_name":"41","route_long_name":"Lee","route_type":3,"route_color":"#FFFFFF","route_text_color":"#000000"}],"agency_name":"Metro St. Louis"},"geometry":{"type":"Point","coordinates":[-90.23969,38.72186]}},{"type":"Feature","properties":{"stop_id":"7010","stop_code":"7010","stop_name":"14TH STREET @ COLE NB","stop_desc":"NEAR SIDE 14TH STREET @ COLE NB","wheelchair_boarding":1,"routes":[{"route_id":"19612","agency_id":"70006","route_short_name":"41","route_long_name":"Lee","route_type":3,"route_color":"#FFFFFF","route_text_color":"#000000"},{"route_id":"19624","agency_id":"70006","route_short_name":"74","route_long_name":"Florissant","route_type":3,"route_color":"#FFFFFF","route_text_color":"#000000"}],"agency_name":"Metro St. Louis"},"geometry":{"type":"Point","coordinates":[-90.19766,38.63565]}},{"type":"Feature","properties":{"stop_id":"7651","stop_code":"7651","stop_name":"14TH STREET @ CHESTNUT NB","stop_desc":"NEAR SIDE 14TH STREET @ CHESTNUT NB","wheelchair_boarding":1,"routes":[{"route_id":"19598","agency_id":"70006","route_short_name":"10","route_long_name":"Gravois-Lindell","route_type":3,"route_color":"#FFFFFF","route_text_color":"#000000"},{"route_id":"19607","agency_id":"70006","route_short_name":"32","route_long_name":"Dr ML King","route_type":3,"route_color":"#FFFFFF","route_text_color":"#000000"},{"route_id":"19611","agency_id":"70006","route_short_name":"40","route_long_name":"Broadway-Halls Ferry","route_type":3,"route_color":"#FFFFFF","route_text_color":"#000000"},{"route_id":"19612","agency_id":"70006","route_short_name":"41","route_long_name":"Lee","route_type":3,"route_color":"#FFFFFF","route_text_color":"#000000"},{"route_id":"19624","agency_id":"70006","route_short_name":"74","route_long_name":"Florissant","route_type":3,"route_color":"#FFFFFF","route_text_color":"#000000"},{"route_id":"19633","agency_id":"70006","route_short_name":"97","route_long_name":"Delmar","route_type":3,"route_color":"#FFFFFF","route_text_color":"#000000"}],"agency_name":"Metro St. Louis"},"geometry":{"type":"Point","coordinates":[-90.20077,38.62859]}},{"type":"Feature","properties":{"stop_id":"7852","stop_code":"7852","stop_name":"CIVIC CENTER TRANSIT CENTER","wheelchair_boarding":1,"routes":[{"route_id":"19611","agency_id":"70006","route_short_name":"40","route_long_name":"Broadway-Halls Ferry","route_type":3,"route_color":"#FFFFFF","route_text_color":"#000000"},{"route_id":"19612","agency_id":"70006","route_short_name":"41","route_long_name":"Lee","route_type":3,"route_color":"#FFFFFF","route_text_color":"#000000"},{"route_id":"19624","agency_id":"70006","route_short_name":"74","route_long_name":"Florissant","route_type":3,"route_color":"#FFFFFF","route_text_color":"#000000"}],"agency_name":"Metro St. Louis"},"geometry":{"type":"Point","coordinates":[-90.20277,38.62528]}},{"type":"Feature","properties":{"stop_id":"7901","stop_code":"7901","stop_name":"ST. LOUIS @ 21ST STREET WB","stop_desc":"FAR SIDE ST. LOUIS @ 21ST STREET WB","wheelchair_boarding":2,"routes":[{"route_id":"19603","agency_id":"70006","route_short_name":"19","route_long_name":"St Louis Ave","route_type":3,"route_color":"#FFFFFF","route_text_color":"#000000"},{"route_id":"19612","agency_id":"70006","route_short_name":"41","route_long_name":"Lee","route_type":3,"route_color":"#FFFFFF","route_text_color":"#000000"}],"agency_name":"Metro St. Louis"},"geometry":{"type":"Point","coordinates":[-90.20372,38.65153]}},{"type":"Feature","properties":{"stop_id":"8521","stop_code":"8521","stop_name":"CARR @ 18TH STREET WB","stop_desc":"NEAR SIDE CARR @ 18TH STREET WB","wheelchair_boarding":1,"routes":[{"route_id":"19612","agency_id":"70006","route_short_name":"41","route_long_name":"Lee","route_type":3,"route_color":"#FFFFFF","route_text_color":"#000000"}],"agency_name":"Metro St. Louis"},"geometry":{"type":"Point","coordinates":[-90.20294,38.63797]}}]}