{"type":"FeatureCollection","features":[{"type":"Feature","properties":{"agency_name":"Metro St. Louis","route_id":"19625","agency_id":"70006","route_short_name":"76","route_long_name":"N Hanley Shuttle","route_type":3,"route_color":"#FFFFFF","route_text_color":"#000000"},"geometry":{"type":"MultiLineString","coordinates":[[[-90.37223,38.76204],[-90.37223,38.76196],[-90.37224,38.76208],[-90.37129,38.76309],[-90.36846,38.76646],[-90.36787,38.7672],[-90.36744,38.76767],[-90.3662,38.76912],[-90.36597,38.76931],[-90.36577,38.76944],[-90.36535,38.76984],[-90.36481,38.77028],[-90.36427,38.77079],[-90.36394,38.77117],[-90.36349,38.77175],[-90.36264,38.77291],[-90.36238,38.77321],[-90.36174,38.77424],[-90.36142,38.77469],[-90.35928,38.77726],[-90.35915,38.77749],[-90.35907,38.77773],[-90.35865,38.77967],[-90.35869,38.78059],[-90.35632,38.78161],[-90.35603,38.78147],[-90.35572,38.78129],[-90.35206,38.77912],[-90.35131,38.77865],[-90.35104,38.77844],[-90.35078,38.77809],[-90.34754,38.77718],[-90.34566,38.77703],[-90.33892,38.77633],[-90.33783,38.77623],[-90.33766,38.7762],[-90.33591,38.77602],[-90.33493,38.77594],[-90.33498,38.77509],[-90.33505,38.7743],[-90.33553,38.77428],[-90.33624,38.77449],[-90.33698,38.77478],[-90.33733,38.77489],[-90.3381,38.77492],[-90.33852,38.77481],[-90.33966,38.77431],[-90.33999,38.77422],[-90.34047,38.77417],[-90.34076,38.77417],[-90.34101,38.77421],[-90.34163,38.77444],[-90.34195,38.77466],[-90.34347,38.77534],[-90.34357,38.77518],[-90.34373,38.77455],[-90.34385,38.77396],[-90.34387,38.77362],[-90.34384,38.77319],[-90.34367,38.77242],[-90.34355,38.7721],[-90.34317,38.77127],[-90.34195,38.76884],[-90.34158,38.76805],[-90.34012,38.76518],[-90.33958,38.76406],[-90.3395,38.76383],[-90.33949,38.76365],[-90.33959,38.76292],[-90.33877,38.76282],[-90.33694,38.76264],[-90.33726,38.76109],[-90.33749,38.7601],[-90.33758,38.75961],[-90.33761,38.75935],[-90.33758,38.75913],[-90.3375,38.75886],[-90.33742,38.75868],[-90.33719,38.75837],[-90.33701,38.75822],[-90.33682,38.75809],[-90.33666,38.75801],[-90.33537,38.75752],[-90.33507,38.75736],[-90.3349,38.75723],[-90.33475,38.75709],[-90.33462,38.75693],[-90.33451,38.75675],[-90.33443,38.75655],[-90.33439,38.75634],[-90.33438,38.75601],[-90.33443,38.75572],[-90.3345,38.75547],[-90.33456,38.75506],[-90.33488,38.75347],[-90.33529,38.75167],[-90.33533,38.75141],[-90.33535,38.75109],[-90.33532,38.75078],[-90.33516,38.75003],[-90.33508,38.74955],[-90.335,38.7489],[-90.33491,38.74773],[-90.33471,38.74461],[-90.33469,38.7432],[-90.3347,38.74116],[-90.33368,38.74105],[-90.33329,38.74097],[-90.33288,38.74075],[-90.3326,38.74039],[-90.33258,38.7384],[-90.33232,38.73789],[-90.3318,38.73748],[-90.32974,38.73676]],[[-90.33469,38.74089],[-90.33417,38.7411],[-90.33469,38.74089],[-90.33465,38.74067],[-90.33456,38.74036],[-90.33447,38.74017],[-90.33162,38.73574],[-90.33123,38.73519],[-90.33102,38.73493],[-90.33078,38.73469],[-90.32729,38.73206],[-90.32658,38.73149],[-90.32519,38.73046],[-90.32439,38.72978],[-90.32411,38.72958],[-90.32373,38.72935],[-90.32011,38.7275],[-90.3198,38.72732],[-90.31953,38.72712],[-90.31928,38.72689],[-90.31906,38.72665],[-90.31723,38.72455],[-90.31696,38.72414],[-90.31687,38.72395],[-90.31679,38.72365],[-90.31677,38.72334],[-90.31685,38.7229],[-90.31708,38.7221],[-90.31718,38.72166],[-90.31719,38.72146],[-90.31713,38.72098],[-90.3171,38.72013],[-90.31716,38.71967],[-90.31721,38.71952],[-90.31762,38.71869],[-90.31782,38.71823],[-90.31624,38.71782],[-90.31581,38.71782],[-90.31494,38.71791],[-90.31441,38.71785],[-90.31392,38.71763],[-90.31372,38.71823],[-90.31376,38.7184],[-90.31429,38.71978],[-90.3144,38.71981]],[[-90.33469,38.74089],[-90.3347,38.74116]],[[-90.32464,38.79233],[-90.32355,38.79179],[-90.32898,38.79447],[-90.3301,38.795],[-90.33188,38.7947],[-90.33254,38.79389],[-90.33298,38.79331],[-90.33474,38.79112],[-90.33493,38.79081],[-90.33497,38.79067],[-90.335,38.79022],[-90.33499,38.78242],[-90.33497,38.78045],[-90.33498,38.77874],[-90.33493,38.77624]]]}},{"type":"Feature","properties":{"stop_id":"13330","stop_code":"13330","stop_name":"NORTH HANLEY TRANSIT CENTER","wheelchair_boarding":1,"routes":[{"route_id":"19594","agency_id":"70006","route_short_name":"4","route_long_name":"Natural Bridge","route_type":3,"route_color":"#FFFFFF","route_text_color":"#000000"},{"route_id":"19609","agency_id":"70006","route_short_name":"34","route_long_name":"Earth City","route_type":3,"route_color":"#FFFFFF","route_text_color":"#000000"},{"route_id":"19614","agency_id":"70006","route_short_name":"49","route_long_name":"Lindbergh","route_type":3,"route_color":"#FFFFFF","route_text_color":"#000000"},{"route_id":"19620","agency_id":"70006","route_short_name":"61","route_long_name":"Chambers Rd","route_type":3,"route_color":"#FFFFFF","route_text_color":"#000000"},{"route_id":"19625","agency_id":"70006","route_short_name":"76","route_long_name":"N Hanley Shuttle","route_type":3,"route_color":"#FFFFFF","route_text_color":"#000000"},{"route_id":"19626","agency_id":"70006","route_short_name":"77","route_long_name":"Village Square","route_type":3,"route_color":"#FFFFFF","route_text_color":"#000000"},{"route_id":"19628","agency_id":"70006","route_short_name":"79","route_long_name":"Ferguson-Clayton","route_type":3,"route_color":"#FFFFFF","route_text_color":"#000000"}],"agency_name":"Metro St. Louis"},"geometry":{"type":"Point","coordinates":[-90.31495,38.71976]}},{"type":"Feature","properties":{"stop_id":"16113","stop_code":"16113","stop_name":"GRAHAM @ DUNN SB","stop_desc":"NEAR SIDE GRAHAM @ DUNN SB","wheelchair_boarding":1,"routes":[{"route_id":"19625","agency_id":"70006","route_short_name":"76","route_long_name":"N Hanley Shuttle","route_type":3,"route_color":"#FFFFFF","route_text_color":"#000000"}],"agency_name":"Metro St. Louis"},"geometry":{"type":"Point","coordinates":[-90.33507,38.77768]}},{"type":"Feature","properties":{"stop_id":"16269","stop_code":"16269","stop_name":"HAZELWOOD @ HAZELWOOD TECH SB","stop_desc":"FAR SIDE HAZELWOOD @ HAZELWOOD TECH SB","wheelchair_boarding":2,"routes":[{"route_id":"19625","agency_id":"70006","route_short_name":"76","route_long_name":"N Hanley Shuttle","route_type":3,"route_color":"#FFFFFF","route_text_color":"#000000"}],"agency_name":"Metro St. Louis"},"geometry":{"type":"Point","coordinates":[-90.34398,38.77369]}},{"type":"Feature","properties":{"stop_id":"16270","stop_code":"16270","stop_name":"HAZELWOOD @ SEEGER INDUSTRIAL SB","stop_desc":"NEAR SIDE HAZELWOOD @ SEEGER INDUSTRIAL SB","wheelchair_boarding":2,"routes":[{"route_id":"19625","agency_id":"70006","route_short_name":"76","route_long_name":"N Hanley Shuttle","route_type":3,"route_color":"#FFFFFF","route_text_color":"#000000"}],"agency_name":"Metro St. Louis"},"geometry":{"type":"Point","coordinates":[-90.33978,38.76423]}},{"type":"Feature","properties":{"stop_id":"16311","stop_code":"16311","stop_name":"HAZELWOOD @ LATTY SB","stop_desc":"NEAR SIDE HAZELWOOD @ LATTY SB","wheelchair_boarding":2,"routes":[{"route_id":"19625","agency_id":"70006","route_short_name":"76","route_long_name":"N Hanley Shuttle","route_type":3,"route_color":"#FFFFFF","route_text_color":"#000000"}],"agency_name":"Metro St. Louis"},"geometry":{"type":"Point","coordinates":[-90.34186,38.76838]}},{"type":"Feature","properties":{"stop_id":"16390","stop_code":"16390","stop_name":"TAYLOR @ LINDBERGH EB","stop_desc":"FAR SIDE TAYLOR @ LINDBERGH EB","wheelchair_boarding":2,"routes":[{"route_id":"19625","agency_id":"70006","route_short_name":"76","route_long_name":"N Hanley Shuttle","route_type":3,"route_color":"#FFFFFF","route_text_color":"#000000"}],"agency_name":"Metro St. Louis"},"geometry":{"type":"Point","coordinates":[-90.35623,38.7815]}},{"type":"Feature","properties":{"stop_id":"16391","stop_code":"16391","stop_name":"DUNN @ NORMANDIE EB","stop_desc":"FAR SIDE DUNN @ NORMANDIE EB","wheelchair_boarding":2,"routes":[{"route_id":"19625","agency_id":"70006","route_short_name":"76","route_long_name":"N Hanley Shuttle","route_type":3,"route_color":"#FFFFFF","route_text_color":"#000000"}],"agency_name":"Metro St. Louis"},"geometry":{"type":"Point","coordinates":[-90.34583,38.77698]}},{"type":"Feature","properties":{"stop_id":"16392","stop_code":"16392","stop_name":"DUNN @ HAZELCREST EB","stop_desc":"NEAR SIDE DUNN @ HAZELCREST EB","wheelchair_boarding":2,"routes":[{"route_id":"19625","agency_id":"70006","route_short_name":"76","route_long_name":"N Hanley Shuttle","route_type":3,"route_color":"#FFFFFF","route_text_color":"#000000"}],"agency_name":"Metro St. Louis"},"geometry":{"type":"Point","coordinates":[-90.34133,38.77653]}},{"type":"Feature","properties":{"stop_id":"16405","stop_code":"16405","stop_name":"NORTH HANLEY @ IRVINGTON SB","stop_desc":"NEAR SIDE NORTH HANLEY @ IRVINGTON SB","wheelchair_boarding":2,"routes":[{"route_id":"19620","agency_id":"70006","route_short_name":"61","route_long_name":"Chambers Rd","route_type":3,"route_color":"#FFFFFF","route_text_color":"#000000"},{"route_id":"19625","agency_id":"70006","route_short_name":"76","route_long_name":"N Hanley Shuttle","route_type":3,"route_color":"#FFFFFF","route_text_color":"#000000"},{"route_id":"19626","agency_id":"70006","route_short_name":"77","route_long_name":"Village Square","route_type":3,"route_color":"#FFFFFF","route_text_color":"#000000"},{"route_id":"19635","agency_id":"70006","route_short_name":"100","route_long_name":"Hazelwood","route_type":3,"route_color":"#FFFFFF","route_text_color":"#000000"}],"agency_name":"Metro St. Louis"},"geometry":{"type":"Point","coordinates":[-90.33056,38.73442]}},{"type":"Feature","properties":{"stop_id":"16410","stop_code":"16410","stop_name":"SCHNUCKS DISTRIBUTION LOOP","stop_desc":"FAR SIDE SCHNUCKS DISTRIBUTION LOOP","wheelchair_boarding":1,"routes":[{"route_id":"19625","agency_id":"70006","route_short_name":"76","route_long_name":"N Hanley Shuttle","route_type":3,"route_color":"#FFFFFF","route_text_color":"#000000"}],"agency_name":"Metro St. Louis"},"geometry":{"type":"Point","coordinates":[-90.33264,38.73858]}},{"type":"Feature","properties":{"stop_id":"16419","stop_code":"16419","stop_name":"PERSHALL @ NORTH HANLEY WB","stop_desc":"FAR SIDE PERSHALL @ NORTH HANLEY WB","wheelchair_boarding":2,"routes":[{"route_id":"19625","agency_id":"70006","route_short_name":"76","route_long_name":"N Hanley Shuttle","route_type":3,"route_color":"#FFFFFF","route_text_color":"#000000"},{"route_id":"19626","agency_id":"70006","route_short_name":"77","route_long_name":"Village Square","route_type":3,"route_color":"#FFFFFF","route_text_color":"#000000"}],"agency_name":"Metro St. Louis"},"geometry":{"type":"Point","coordinates":[-90.33714,38.77485]}},{"type":"Feature","properties":{"stop_id":"16501","stop_code":"16501","stop_name":"LINDBERGH @ AVIATOR NB","stop_desc":"FAR SIDE LINDBERGH @ AVIATOR NB","wheelchair_boarding":2,"routes":[{"route_id":"19625","agency_id":"70006","route_short_name":"76","route_long_name":"N Hanley Shuttle","route_type":3,"route_color":"#FFFFFF","route_text_color":"#000000"},{"route_id":"19626","agency_id":"70006","route_short_name":"77","route_long_name":"Village Square","route_type":3,"route_color":"#FFFFFF","route_text_color":"#000000"}],"agency_name":"Metro St. Louis"},"geometry":{"type":"Point","coordinates":[-90.3636,38.77144]}},{"type":"Feature","properties":{"stop_id":"16549","stop_code":"16549","stop_name":"OPPOSITE 55 DUNN","stop_desc":"MID-BLOCK OPPOSITE 55 DUNN","wheelchair_boarding":2,"routes":[{"route_id":"19625","agency_id":"70006","route_short_name":"76","route_long_name":"N Hanley Shuttle","route_type":3,"route_color":"#FFFFFF","route_text_color":"#000000"}],"agency_name":"Metro St. Louis"},"geometry":{"type":"Point","coordinates":[-90.3364,38.77598]}},{"type":"Feature","properties":{"stop_id":"5733","stop_code":"5733","stop_name":"LINDBERGH @ HAZELWOOD LOGISTICS NB","stop_desc":"MID-BLOCK LINDBERGH @ HAZELWOOD LOGISTICS NB","wheelchair_boarding":1,"routes":[{"route_id":"19625","agency_id":"70006","route_short_name":"76","route_long_name":"N Hanley Shuttle","route_type":3,"route_color":"#FFFFFF","route_text_color":"#000000"}],"agency_name":"Metro St. Louis"},"geometry":{"type":"Point","coordinates":[-90.37212,38.76207]}},{"type":"Feature","properties":{"stop_id":"5734","stop_code":"5734","stop_name":"LINDBERGH @ MCDONNELL NB","stop_desc":"FAR SIDE LINDBERGH @ MCDONNELL NB","wheelchair_boarding":2,"routes":[{"route_id":"19625","agency_id":"70006","route_short_name":"76","route_long_name":"N Hanley Shuttle","route_type":3,"route_color":"#FFFFFF","route_text_color":"#000000"}],"agency_name":"Metro St. Louis"},"geometry":{"type":"Point","coordinates":[-90.36897,38.76565]}},{"type":"Feature","properties":{"stop_id":"5735","stop_code":"5735","stop_name":"LINDBERGH @ CHAPEL RIDGE NB","stop_desc":"FAR SIDE LINDBERGH @ CHAPEL RIDGE NB","wheelchair_boarding":1,"routes":[{"route_id":"19625","agency_id":"70006","route_short_name":"76","route_long_name":"N Hanley Shuttle","route_type":3,"route_color":"#FFFFFF","route_text_color":"#000000"}],"agency_name":"Metro St. Louis"},"geometry":{"type":"Point","coordinates":[-90.36604,38.76911]}},{"type":"Feature","properties":{"stop_id":"5858","stop_code":"5858","stop_name":"SAINT FERDINAND @ SAINT CATHERINE SB","stop_desc":"NEAR SIDE SAINT FERDINAND @ SAINT CATHERINE SB","wheelchair_boarding":1,"routes":[{"route_id":"19625","agency_id":"70006","route_short_name":"76","route_long_name":"N Hanley Shuttle","route_type":3,"route_color":"#FFFFFF","route_text_color":"#000000"}],"agency_name":"Metro St. Louis"},"geometry":{"type":"Point","coordinates":[-90.33186,38.79481]}},{"type":"Feature","properties":{"stop_id":"5859","stop_code":"5859","stop_name":"SAINT FERDINAND @ HARRISON SB","stop_desc":"NEAR SIDE SAINT FERDINAND @ HARRISON SB","wheelchair_boarding":1,"routes":[{"route_id":"19625","agency_id":"70006","route_short_name":"76","route_long_name":"N Hanley Shuttle","route_type":3,"route_color":"#FFFFFF","route_text_color":"#000000"}],"agency_name":"Metro St. Louis"},"geometry":{"type":"Point","coordinates":[-90.33322,38.79317]}},{"type":"Feature","properties":{"stop_id":"5860","stop_code":"5860","stop_name":"GRAHAM @ WESCOTT SB","stop_desc":"NEAR SIDE GRAHAM @ WESCOTT SB","wheelchair_boarding":1,"routes":[{"route_id":"19625","agency_id":"70006","route_short_name":"76","route_long_name":"N Hanley Shuttle","route_type":3,"route_color":"#FFFFFF","route_text_color":"#000000"}],"agency_name":"Metro St. Louis"},"geometry":{"type":"Point","coordinates":[-90.33508,38.78978]}},{"type":"Feature","properties":{"stop_id":"5861","stop_code":"5861","stop_name":"GRAHAM @ MANION PARK SB","stop_desc":"FAR SIDE GRAHAM @ MANION PARK SB","wheelchair_boarding":2,"routes":[{"route_id":"19625","agency_id":"70006","route_short_name":"76","route_long_name":"N Hanley Shuttle","route_type":3,"route_color":"#FFFFFF","route_text_color":"#000000"}],"agency_name":"Metro St. Louis"},"geometry":{"type":"Point","coordinates":[-90.33505,38.78482]}},{"type":"Feature","properties":{"stop_id":"5863","stop_code":"5863","stop_name":"GRAHAM @ 315 GRAHAM SB","stop_desc":"MID-BLOCK GRAHAM @ 315 GRAHAM SB","wheelchair_boarding":1,"routes":[{"route_id":"19625","agency_id":"70006","route_short_name":"76","route_long_name":"N Hanley Shuttle","route_type":3,"route_color":"#FFFFFF","route_text_color":"#000000"}],"agency_name":"Metro St. Louis"},"geometry":{"type":"Point","coordinates":[-90.33507,38.78817]}},{"type":"Feature","properties":{"stop_id":"5864","stop_code":"5864","stop_name":"GRAHAM @ TRINITY SB","stop_desc":"FAR SIDE GRAHAM @ TRINITY SB","wheelchair_boarding":1,"routes":[{"route_id":"19625","agency_id":"70006","route_short_name":"76","route_long_name":"N Hanley Shuttle","route_type":3,"route_color":"#FFFFFF","route_text_color":"#000000"}],"agency_name":"Metro St. Louis"},"geometry":{"type":"Point","coordinates":[-90.33506,38.78306]}},{"type":"Feature","properties":{"stop_id":"5866","stop_code":"5866","stop_name":"1225 GRAHAM SB","stop_desc":"MID-BLOCK 1225 GRAHAM SB","wheelchair_boarding":1,"routes":[{"route_id":"19625","agency_id":"70006","route_short_name":"76","route_long_name":"N Hanley Shuttle","route_type":3,"route_color":"#FFFFFF","route_text_color":"#000000"}],"agency_name":"Metro St. Louis"},"geometry":{"type":"Point","coordinates":[-90.33506,38.77895]}},{"type":"Feature","properties":{"stop_id":"5875","stop_code":"5875","stop_name":"NORTH HANLEY @ FROST SB","stop_desc":"FAR SIDE NORTH HANLEY @ FROST SB","wheelchair_boarding":2,"routes":[{"route_id":"19625","agency_id":"70006","route_short_name":"76","route_long_name":"N Hanley Shuttle","route_type":3,"route_color":"#FFFFFF","route_text_color":"#000000"},{"route_id":"19626","agency_id":"70006","route_short_name":"77","route_long_name":"Village Square","route_type":3,"route_color":"#FFFFFF","route_text_color":"#000000"}],"agency_name":"Metro St. Louis"},"geometry":{"type":"Point","coordinates":[-90.33724,38.7616]}},{"type":"Feature","properties":{"stop_id":"5877","stop_code":"5877","stop_name":"NORTH HANLEY @ JO COURT SB","stop_desc":"NEAR SIDE NORTH HANLEY @ JO COURT SB","wheelchair_boarding":2,"routes":[{"route_id":"19625","agency_id":"70006","route_short_name":"76","route_long_name":"N Hanley Shuttle","route_type":3,"route_color":"#FFFFFF","route_text_color":"#000000"},{"route_id":"19626","agency_id":"70006","route_short_name":"77","route_long_name":"Village Square","route_type":3,"route_color":"#FFFFFF","route_text_color":"#000000"}],"agency_name":"Metro St. Louis"},"geometry":{"type":"Point","coordinates":[-90.33498,38.7533]}},{"type":"Feature","properties":{"stop_id":"5878","stop_code":"5878","stop_name":"NORTH HANLEY @ AIRPORT SB","stop_desc":"FAR SIDE NORTH HANLEY @ AIRPORT SB","wheelchair_boarding":1,"routes":[{"route_id":"19620","agency_id":"70006","route_short_name":"61","route_long_name":"Chambers Rd","route_type":3,"route_color":"#FFFFFF","route_text_color":"#000000"},{"route_id":"19625","agency_id":"70006","route_short_name":"76","route_long_name":"N Hanley Shuttle","route_type":3,"route_color":"#FFFFFF","route_text_color":"#000000"},{"route_id":"19626","agency_id":"70006","route_short_name":"77","route_long_name":"Village Square","route_type":3,"route_color":"#FFFFFF","route_text_color":"#000000"}],"agency_name":"Metro St. Louis"},"geometry":{"type":"Point","coordinates":[-90.33509,38.74922]}},{"type":"Feature","properties":{"stop_id":"5879","stop_code":"5879","stop_name":"NORTH HANLEY @ STELLA SB","stop_desc":"NEAR SIDE NORTH HANLEY @ STELLA SB","wheelchair_boarding":1,"routes":[{"route_id":"19620","agency_id":"70006","route_short_name":"61","route_long_name":"Chambers Rd","route_type":3,"route_color":"#FFFFFF","route_text_color":"#000000"},{"route_id":"19625","agency_id":"70006","route_short_name":"76","route_long_name":"N Hanley Shuttle","route_type":3,"route_color":"#FFFFFF","route_text_color":"#000000"},{"route_id":"19626","agency_id":"70006","route_short_name":"77","route_long_name":"Village Square","route_type":3,"route_color":"#FFFFFF","route_text_color":"#000000"},{"route_id":"19635","agency_id":"70006","route_short_name":"100","route_long_name":"Hazelwood","route_type":3,"route_color":"#FFFFFF","route_text_color":"#000000"}],"agency_name":"Metro St. Louis"},"geometry":{"type":"Point","coordinates":[-90.33491,38.74694]}},{"type":"Feature","properties":{"stop_id":"5880","stop_code":"5880","stop_name":"NORTH HANLEY @ MADISON SB","stop_desc":"NEAR SIDE NORTH HANLEY @ MADISON SB","wheelchair_boarding":1,"routes":[{"route_id":"19620","agency_id":"70006","route_short_name":"61","route_long_name":"Chambers Rd","route_type":3,"route_color":"#FFFFFF","route_text_color":"#000000"},{"route_id":"19625","agency_id":"70006","route_short_name":"76","route_long_name":"N Hanley Shuttle","route_type":3,"route_color":"#FFFFFF","route_text_color":"#000000"},{"route_id":"19626","agency_id":"70006","route_short_name":"77","route_long_name":"Village Square","route_type":3,"route_color":"#FFFFFF","route_text_color":"#000000"},{"route_id":"19635","agency_id":"70006","route_short_name":"100","route_long_name":"Hazelwood","route_type":3,"route_color":"#FFFFFF","route_text_color":"#000000"}],"agency_name":"Metro St. Louis"},"geometry":{"type":"Point","coordinates":[-90.33483,38.74555]}},{"type":"Feature","properties":{"stop_id":"5881","stop_code":"5881","stop_name":"5861 NORTH HANLEY SB","stop_desc":"NEAR SIDE 5861 NORTH HANLEY SB","wheelchair_boarding":1,"routes":[{"route_id":"19620","agency_id":"70006","route_short_name":"61","route_long_name":"Chambers Rd","route_type":3,"route_color":"#FFFFFF","route_text_color":"#000000"},{"route_id":"19625","agency_id":"70006","route_short_name":"76","route_long_name":"N Hanley Shuttle","route_type":3,"route_color":"#FFFFFF","route_text_color":"#000000"},{"route_id":"19626","agency_id":"70006","route_short_name":"77","route_long_name":"Village Square","route_type":3,"route_color":"#FFFFFF","route_text_color":"#000000"},{"route_id":"19635","agency_id":"70006","route_short_name":"100","route_long_name":"Hazelwood","route_type":3,"route_color":"#FFFFFF","route_text_color":"#000000"}],"agency_name":"Metro St. Louis"},"geometry":{"type":"Point","coordinates":[-90.33476,38.74327]}},{"type":"Feature","properties":{"stop_id":"5882","stop_code":"5882","stop_name":"NORTH HANLEY @ SCUDDER SB","stop_desc":"FAR SIDE NORTH HANLEY @ SCUDDER SB","wheelchair_boarding":1,"routes":[{"route_id":"19620","agency_id":"70006","route_short_name":"61","route_long_name":"Chambers Rd","route_type":3,"route_color":"#FFFFFF","route_text_color":"#000000"},{"route_id":"19625","agency_id":"70006","route_short_name":"76","route_long_name":"N Hanley Shuttle","route_type":3,"route_color":"#FFFFFF","route_text_color":"#000000"},{"route_id":"19626","agency_id":"70006","route_short_name":"77","route_long_name":"Village Square","route_type":3,"route_color":"#FFFFFF","route_text_color":"#000000"},{"route_id":"19635","agency_id":"70006","route_short_name":"100","route_long_name":"Hazelwood","route_type":3,"route_color":"#FFFFFF","route_text_color":"#000000"}],"agency_name":"Metro St. Louis"},"geometry":{"type":"Point","coordinates":[-90.3348,38.74089]}},{"type":"Feature","properties":{"stop_id":"5892","stop_code":"5892","stop_name":"NORTH HANLEY @ REV JOHN MITCHELL SB","stop_desc":"NEAR SIDE NORTH HANLEY @ REV JOHN MITCHELL SB","wheelchair_boarding":1,"routes":[{"route_id":"19620","agency_id":"70006","route_short_name":"61","route_long_name":"Chambers Rd","route_type":3,"route_color":"#FFFFFF","route_text_color":"#000000"},{"route_id":"19625","agency_id":"70006","route_short_name":"76","route_long_name":"N Hanley Shuttle","route_type":3,"route_color":"#FFFFFF","route_text_color":"#000000"},{"route_id":"19626","agency_id":"70006","route_short_name":"77","route_long_name":"Village Square","route_type":3,"route_color":"#FFFFFF","route_text_color":"#000000"},{"route_id":"19635","agency_id":"70006","route_short_name":"100","route_long_name":"Hazelwood","route_type":3,"route_color":"#FFFFFF","route_text_color":"#000000"}],"agency_name":"Metro St. Louis"},"geometry":{"type":"Point","coordinates":[-90.32554,38.73062]}},{"type":"Feature","properties":{"stop_id":"5894","stop_code":"5894","stop_name":"NORTH HANLEY @ ZEV SB","stop_desc":"FAR SIDE NORTH HANLEY @ ZEV SB","wheelchair_boarding":1,"routes":[{"route_id":"19620","agency_id":"70006","route_short_name":"61","route_long_name":"Chambers Rd","route_type":3,"route_color":"#FFFFFF","route_text_color":"#000000"},{"route_id":"19625","agency_id":"70006","route_short_name":"76","route_long_name":"N Hanley Shuttle","route_type":3,"route_color":"#FFFFFF","route_text_color":"#000000"},{"route_id":"19626","agency_id":"70006","route_short_name":"77","route_long_name":"Village Square","route_type":3,"route_color":"#FFFFFF","route_text_color":"#000000"},{"route_id":"19635","agency_id":"70006","route_short_name":"100","route_long_name":"Hazelwood","route_type":3,"route_color":"#FFFFFF","route_text_color":"#000000"}],"agency_name":"Metro St. Louis"},"geometry":{"type":"Point","coordinates":[-90.32152,38.72815]}},{"type":"Feature","properties":{"stop_id":"5898","stop_code":"5898","stop_name":"NORTH HANLEY @ EVANS SB","stop_desc":"NEAR SIDE NORTH HANLEY @ EVANS SB","wheelchair_boarding":1,"routes":[{"route_id":"19620","agency_id":"70006","route_short_name":"61","route_long_name":"Chambers Rd","route_type":3,"route_color":"#FFFFFF","route_text_color":"#000000"},{"route_id":"19625","agency_id":"70006","route_short_name":"76","route_long_name":"N Hanley Shuttle","route_type":3,"route_color":"#FFFFFF","route_text_color":"#000000"},{"route_id":"19626","agency_id":"70006","route_short_name":"77","route_long_name":"Village Square","route_type":3,"route_color":"#FFFFFF","route_text_color":"#000000"},{"route_id":"19635","agency_id":"70006","route_short_name":"100","route_long_name":"Hazelwood","route_type":3,"route_color":"#FFFFFF","route_text_color":"#000000"}],"agency_name":"Metro St. Louis"},"geometry":{"type":"Point","coordinates":[-90.31705,38.72412]}},{"type":"Feature","properties":{"stop_id":"6049","stop_code":"6049","stop_name":"SAINT FRANCOIS @ BOONE WB","stop_desc":"FAR SIDE SAINT FRANCOIS @ BOONE WB","wheelchair_boarding":2,"routes":[{"route_id":"19625","agency_id":"70006","route_short_name":"76","route_long_name":"N Hanley Shuttle","route_type":3,"route_color":"#FFFFFF","route_text_color":"#000000"}],"agency_name":"Metro St. Louis"},"geometry":{"type":"Point","coordinates":[-90.32343,38.79182]}},{"type":"Feature","properties":{"stop_id":"6052","stop_code":"6052","stop_name":"SAINT FRANCOIS @ JEFFERSON WB","stop_desc":"NEAR SIDE SAINT FRANCOIS @ JEFFERSON WB","wheelchair_boarding":2,"routes":[{"route_id":"19625","agency_id":"70006","route_short_name":"76","route_long_name":"N Hanley Shuttle","route_type":3,"route_color":"#FFFFFF","route_text_color":"#000000"}],"agency_name":"Metro St. Louis"},"geometry":{"type":"Point","coordinates":[-90.32663,38.79339]}},{"type":"Feature","properties":{"stop_id":"6053","stop_code":"6053","stop_name":"SAINT FRANCOIS @ SAINT JACQUES WB","stop_desc":"MID-BLOCK SAINT FRANCOIS @ SAINT JACQUES WB","wheelchair_boarding":2,"routes":[{"route_id":"19625","agency_id":"70006","route_short_name":"76","route_long_name":"N Hanley Shuttle","route_type":3,"route_color":"#FFFFFF","route_text_color":"#000000"}],"agency_name":"Metro St. Louis"},"geometry":{"type":"Point","coordinates":[-90.32834,38.79425]}}]}