{"type":"FeatureCollection","features":[{"type":"Feature","properties":{"agency_name":"Metro St. Louis","route_id":"19622","agency_id":"70006","route_short_name":"70","route_long_name":"Grand","route_type":3,"route_color":"#FFFFFF","route_text_color":"#000000"},"geometry":{"type":"MultiLineString","coordinates":[[[-90.22013,38.68603],[-90.22077,38.68623],[-90.22013,38.68603],[-90.21774,38.6842],[-90.21111,38.68044],[-90.2104,38.68002],[-90.20735,38.67763],[-90.20676,38.67713],[-90.20577,38.67608],[-90.20505,38.67523],[-90.20433,38.67424],[-90.20364,38.67334],[-90.20481,38.67271],[-90.20564,38.6721],[-90.20618,38.67176],[-90.20805,38.67076],[-90.20864,38.67061],[-90.20906,38.67022],[-90.21081,38.66928],[-90.21093,38.66921],[-90.21109,38.66907],[-90.21285,38.66663],[-90.21422,38.6648],[-90.21515,38.66342],[-90.21621,38.66194],[-90.21675,38.66114],[-90.21745,38.66015],[-90.21934,38.65751],[-90.21991,38.65669],[-90.22113,38.65507],[-90.22298,38.65247],[-90.22435,38.6505],[-90.22491,38.64975],[-90.22599,38.64818],[-90.22641,38.64742],[-90.22683,38.64671],[-90.22805,38.64456],[-90.22849,38.64383],[-90.23009,38.64105],[-90.23031,38.64078],[-90.23096,38.63989],[-90.23252,38.63772],[-90.23279,38.63725],[-90.23304,38.63652],[-90.23354,38.63521],[-90.23381,38.63445],[-90.23409,38.6336],[-90.23495,38.63117],[-90.23519,38.63041],[-90.2353,38.6303],[-90.23713,38.62501],[-90.23745,38.62412],[-90.23797,38.62282],[-90.23817,38.62227],[-90.23862,38.62092],[-90.23881,38.62012],[-90.23902,38.619],[-90.23941,38.61711],[-90.23953,38.61618],[-90.23995,38.61409],[-90.24058,38.61134],[-90.24125,38.6081],[-90.24152,38.60694],[-90.24186,38.60537],[-90.24225,38.60335],[-90.2422,38.60326],[-90.24225,38.60273],[-90.24242,38.6018],[-90.24327,38.59606],[-90.24364,38.59383],[-90.24403,38.59103],[-90.24494,38.58563],[-90.24497,38.58528],[-90.24496,38.58509],[-90.2442,38.58092],[-90.24419,38.58082],[-90.24423,38.58069],[-90.24444,38.58041],[-90.2459,38.57861],[-90.24877,38.57524],[-90.2493,38.57459],[-90.25276,38.57049],[-90.25404,38.56895],[-90.25472,38.5682],[-90.25595,38.56678],[-90.25737,38.56513],[-90.25864,38.56361],[-90.25962,38.5625],[-90.26063,38.56234],[-90.26091,38.56226],[-90.26111,38.56216],[-90.26132,38.56201],[-90.26164,38.56171],[-90.26183,38.56149],[-90.26227,38.56072],[-90.2623,38.56064],[-90.26231,38.56056],[-90.26229,38.56048],[-90.26224,38.5604],[-90.26215,38.56032],[-90.26146,38.55988],[-90.26135,38.55978],[-90.26127,38.55967],[-90.2612,38.55953],[-90.26117,38.55939],[-90.26117,38.55923],[-90.26126,38.55876],[-90.26122,38.55844],[-90.26122,38.5582],[-90.26125,38.55811],[-90.2613,38.55803],[-90.26143,38.55786],[-90.26169,38.55758],[-90.26192,38.5571],[-90.26215,38.55717],[-90.26255,38.5574]]]}},{"type":"Feature","properties":{"stop_id":"13487","stop_code":"13487","stop_name":"NORTH BROADWAY TRANSIT CENTER","wheelchair_boarding":1,"routes":[{"route_id":"19622","agency_id":"70006","route_short_name":"70","route_long_name":"Grand","route_type":3,"route_color":"#FFFFFF","route_text_color":"#000000"},{"route_id":"19632","agency_id":"70006","route_short_name":"95","route_long_name":"Kingshighway","route_type":3,"route_color":"#FFFFFF","route_text_color":"#000000"}],"agency_name":"Metro St. Louis"},"geometry":{"type":"Point","coordinates":[-90.22054,38.6861]}},{"type":"Feature","properties":{"stop_id":"15524","stop_code":"15524","stop_name":"GRAND @ ALBERTA SB","stop_desc":"NEAR SIDE GRAND @ ALBERTA SB","wheelchair_boarding":1,"routes":[{"route_id":"19622","agency_id":"70006","route_short_name":"70","route_long_name":"Grand","route_type":3,"route_color":"#FFFFFF","route_text_color":"#000000"}],"agency_name":"Metro St. Louis"},"geometry":{"type":"Point","coordinates":[-90.245,38.58582]}},{"type":"Feature","properties":{"stop_id":"15824","stop_code":"15824","stop_name":"LOUGHBOROUGH COMMONS","stop_desc":"MID-BLOCK LOUGHBOROUGH COMMONS","wheelchair_boarding":1,"routes":[{"route_id":"19622","agency_id":"70006","route_short_name":"70","route_long_name":"Grand","route_type":3,"route_color":"#FFFFFF","route_text_color":"#000000"}],"agency_name":"Metro St. Louis"},"geometry":{"type":"Point","coordinates":[-90.26238,38.55731]}},{"type":"Feature","properties":{"stop_id":"4045","stop_code":"4045","stop_name":"GRAND @ BLAIR SB","stop_desc":"FAR SIDE GRAND @ BLAIR SB","wheelchair_boarding":1,"routes":[{"route_id":"19622","agency_id":"70006","route_short_name":"70","route_long_name":"Grand","route_type":3,"route_color":"#FFFFFF","route_text_color":"#000000"}],"agency_name":"Metro St. Louis"},"geometry":{"type":"Point","coordinates":[-90.20708,38.67135]}},{"type":"Feature","properties":{"stop_id":"4047","stop_code":"4047","stop_name":"GRAND @ NORTH FLORISSANT SB","stop_desc":"NEAR SIDE GRAND @ NORTH FLORISSANT SB","wheelchair_boarding":1,"routes":[{"route_id":"19622","agency_id":"70006","route_short_name":"70","route_long_name":"Grand","route_type":3,"route_color":"#FFFFFF","route_text_color":"#000000"}],"agency_name":"Metro St. Louis"},"geometry":{"type":"Point","coordinates":[-90.21104,38.66924]}},{"type":"Feature","properties":{"stop_id":"4049","stop_code":"4049","stop_name":"GRAND @ PENROSE SB","stop_desc":"NEAR SIDE GRAND @ PENROSE SB","wheelchair_boarding":1,"routes":[{"route_id":"19622","agency_id":"70006","route_short_name":"70","route_long_name":"Grand","route_type":3,"route_color":"#FFFFFF","route_text_color":"#000000"}],"agency_name":"Metro St. Louis"},"geometry":{"type":"Point","coordinates":[-90.21288,38.66676]}},{"type":"Feature","properties":{"stop_id":"4050","stop_code":"4050","stop_name":"GRAND @ KOSSUTH SB","stop_desc":"NEAR SIDE GRAND @ KOSSUTH SB","wheelchair_boarding":1,"routes":[{"route_id":"19622","agency_id":"70006","route_short_name":"70","route_long_name":"Grand","route_type":3,"route_color":"#FFFFFF","route_text_color":"#000000"}],"agency_name":"Metro St. Louis"},"geometry":{"type":"Point","coordinates":[-90.21401,38.66525]}},{"type":"Feature","properties":{"stop_id":"4052","stop_code":"4052","stop_name":"GRAND @ BARRETT SB","stop_desc":"NEAR SIDE GRAND @ BARRETT SB","wheelchair_boarding":1,"routes":[{"route_id":"19622","agency_id":"70006","route_short_name":"70","route_long_name":"Grand","route_type":3,"route_color":"#FFFFFF","route_text_color":"#000000"}],"agency_name":"Metro St. Louis"},"geometry":{"type":"Point","coordinates":[-90.21563,38.66296]}},{"type":"Feature","properties":{"stop_id":"4053","stop_code":"4053","stop_name":"GRAND @ NATURAL BRIDGE SB","stop_desc":"NEAR SIDE GRAND @ NATURAL BRIDGE SB","wheelchair_boarding":1,"routes":[{"route_id":"19622","agency_id":"70006","route_short_name":"70","route_long_name":"Grand","route_type":3,"route_color":"#FFFFFF","route_text_color":"#000000"}],"agency_name":"Metro St. Louis"},"geometry":{"type":"Point","coordinates":[-90.21659,38.66161]}},{"type":"Feature","properties":{"stop_id":"4054","stop_code":"4054","stop_name":"GRAND @ HEBERT SB","stop_desc":"FAR SIDE GRAND @ HEBERT SB","wheelchair_boarding":2,"routes":[{"route_id":"19622","agency_id":"70006","route_short_name":"70","route_long_name":"Grand","route_type":3,"route_color":"#FFFFFF","route_text_color":"#000000"}],"agency_name":"Metro St. Louis"},"geometry":{"type":"Point","coordinates":[-90.21834,38.65913]}},{"type":"Feature","properties":{"stop_id":"4056","stop_code":"4056","stop_name":"GRAND @ DODIER SB","stop_desc":"NEAR SIDE GRAND @ DODIER SB","wheelchair_boarding":1,"routes":[{"route_id":"19622","agency_id":"70006","route_short_name":"70","route_long_name":"Grand","route_type":3,"route_color":"#FFFFFF","route_text_color":"#000000"}],"agency_name":"Metro St. Louis"},"geometry":{"type":"Point","coordinates":[-90.21994,38.65689]}},{"type":"Feature","properties":{"stop_id":"4057","stop_code":"4057","stop_name":"GRAND @ ST. LOUIS SB","stop_desc":"NEAR SIDE GRAND @ ST. LOUIS SB","wheelchair_boarding":1,"routes":[{"route_id":"19622","agency_id":"70006","route_short_name":"70","route_long_name":"Grand","route_type":3,"route_color":"#FFFFFF","route_text_color":"#000000"}],"agency_name":"Metro St. Louis"},"geometry":{"type":"Point","coordinates":[-90.22111,38.65524]}},{"type":"Feature","properties":{"stop_id":"4059","stop_code":"4059","stop_name":"GRAND @ GARFIELD SB","stop_desc":"NEAR SIDE GRAND @ GARFIELD SB","wheelchair_boarding":1,"routes":[{"route_id":"19622","agency_id":"70006","route_short_name":"70","route_long_name":"Grand","route_type":3,"route_color":"#FFFFFF","route_text_color":"#000000"}],"agency_name":"Metro St. Louis"},"geometry":{"type":"Point","coordinates":[-90.2243,38.6507]}},{"type":"Feature","properties":{"stop_id":"4061","stop_code":"4061","stop_name":"GRAND @ CASS SB","stop_desc":"NEAR SIDE GRAND @ CASS SB","wheelchair_boarding":1,"routes":[{"route_id":"19622","agency_id":"70006","route_short_name":"70","route_long_name":"Grand","route_type":3,"route_color":"#FFFFFF","route_text_color":"#000000"}],"agency_name":"Metro St. Louis"},"geometry":{"type":"Point","coordinates":[-90.22598,38.64837]}},{"type":"Feature","properties":{"stop_id":"4062","stop_code":"4062","stop_name":"GRAND @ PAGE SB","stop_desc":"FAR SIDE GRAND @ PAGE SB","wheelchair_boarding":1,"routes":[{"route_id":"19622","agency_id":"70006","route_short_name":"70","route_long_name":"Grand","route_type":3,"route_color":"#FFFFFF","route_text_color":"#000000"}],"agency_name":"Metro St. Louis"},"geometry":{"type":"Point","coordinates":[-90.22754,38.64568]}},{"type":"Feature","properties":{"stop_id":"4065","stop_code":"4065","stop_name":"GRAND @ WINDSOR SB","stop_desc":"NEAR SIDE GRAND @ WINDSOR SB","wheelchair_boarding":1,"routes":[{"route_id":"19622","agency_id":"70006","route_short_name":"70","route_long_name":"Grand","route_type":3,"route_color":"#FFFFFF","route_text_color":"#000000"}],"agency_name":"Metro St. Louis"},"geometry":{"type":"Point","coordinates":[-90.22895,38.64319]}},{"type":"Feature","properties":{"stop_id":"4066","stop_code":"4066","stop_name":"GRAND @ ENRIGHT SB","stop_desc":"MID-BLOCK GRAND @ ENRIGHT SB","wheelchair_boarding":1,"routes":[{"route_id":"19622","agency_id":"70006","route_short_name":"70","route_long_name":"Grand","route_type":3,"route_color":"#FFFFFF","route_text_color":"#000000"}],"agency_name":"Metro St. Louis"},"geometry":{"type":"Point","coordinates":[-90.2297,38.64179]}},{"type":"Feature","properties":{"stop_id":"4070","stop_code":"4070","stop_name":"GRAND @ LINDELL SB","stop_desc":"NEAR SIDE GRAND @ LINDELL SB","wheelchair_boarding":1,"routes":[{"route_id":"19622","agency_id":"70006","route_short_name":"70","route_long_name":"Grand","route_type":3,"route_color":"#FFFFFF","route_text_color":"#000000"}],"agency_name":"Metro St. Louis"},"geometry":{"type":"Point","coordinates":[-90.23255,38.63768]}},{"type":"Feature","properties":{"stop_id":"4072","stop_code":"4072","stop_name":"GRAND @ LACLEDE SB","stop_desc":"NEAR SIDE GRAND @ LACLEDE SB","wheelchair_boarding":1,"routes":[{"route_id":"19622","agency_id":"70006","route_short_name":"70","route_long_name":"Grand","route_type":3,"route_color":"#FFFFFF","route_text_color":"#000000"}],"agency_name":"Metro St. Louis"},"geometry":{"type":"Point","coordinates":[-90.23346,38.63542]}},{"type":"Feature","properties":{"stop_id":"4073","stop_code":"4073","stop_name":"GRAND @ COUNCIL PLAZA SB","stop_desc":"NEAR SIDE GRAND @ COUNCIL PLAZA SB","wheelchair_boarding":1,"routes":[{"route_id":"19622","agency_id":"70006","route_short_name":"70","route_long_name":"Grand","route_type":3,"route_color":"#FFFFFF","route_text_color":"#000000"}],"agency_name":"Metro St. Louis"},"geometry":{"type":"Point","coordinates":[-90.23455,38.6326]}},{"type":"Feature","properties":{"stop_id":"4074","stop_code":"4074","stop_name":"GRAND TRANSIT CENTER SB","stop_desc":"MID-BLOCK GRAND TRANSIT CENTER SB","wheelchair_boarding":1,"routes":[{"route_id":"19622","agency_id":"70006","route_short_name":"70","route_long_name":"Grand","route_type":3,"route_color":"#FFFFFF","route_text_color":"#000000"}],"agency_name":"Metro St. Louis"},"geometry":{"type":"Point","coordinates":[-90.23567,38.62952]}},{"type":"Feature","properties":{"stop_id":"4075","stop_code":"4075","stop_name":"GRAND @ SLU HOSPITAL SB","stop_desc":"MID-BLOCK GRAND @ SLU HOSPITAL SB","wheelchair_boarding":1,"routes":[{"route_id":"19622","agency_id":"70006","route_short_name":"70","route_long_name":"Grand","route_type":3,"route_color":"#FFFFFF","route_text_color":"#000000"}],"agency_name":"Metro St. Louis"},"geometry":{"type":"Point","coordinates":[-90.23729,38.62464]}},{"type":"Feature","properties":{"stop_id":"4077","stop_code":"4077","stop_name":"GRAND @ VISTA SB","stop_desc":"NEAR SIDE GRAND @ VISTA SB","wheelchair_boarding":1,"routes":[{"route_id":"19622","agency_id":"70006","route_short_name":"70","route_long_name":"Grand","route_type":3,"route_color":"#FFFFFF","route_text_color":"#000000"}],"agency_name":"Metro St. Louis"},"geometry":{"type":"Point","coordinates":[-90.23805,38.62258]}},{"type":"Feature","properties":{"stop_id":"4079","stop_code":"4079","stop_name":"GRAND @ PARK SB","stop_desc":"NEAR SIDE GRAND @ PARK SB","wheelchair_boarding":1,"routes":[{"route_id":"19622","agency_id":"70006","route_short_name":"70","route_long_name":"Grand","route_type":3,"route_color":"#FFFFFF","route_text_color":"#000000"}],"agency_name":"Metro St. Louis"},"geometry":{"type":"Point","coordinates":[-90.23891,38.61976]}},{"type":"Feature","properties":{"stop_id":"4080","stop_code":"4080","stop_name":"GRAND @ BLAINE SB","stop_desc":"FAR SIDE GRAND @ BLAINE SB","wheelchair_boarding":1,"routes":[{"route_id":"19622","agency_id":"70006","route_short_name":"70","route_long_name":"Grand","route_type":3,"route_color":"#FFFFFF","route_text_color":"#000000"}],"agency_name":"Metro St. Louis"},"geometry":{"type":"Point","coordinates":[-90.23913,38.61872]}},{"type":"Feature","properties":{"stop_id":"4082","stop_code":"4082","stop_name":"GRAND @ SHAW SB","stop_desc":"FAR SIDE GRAND @ SHAW SB","wheelchair_boarding":1,"routes":[{"route_id":"19622","agency_id":"70006","route_short_name":"70","route_long_name":"Grand","route_type":3,"route_color":"#FFFFFF","route_text_color":"#000000"}],"agency_name":"Metro St. Louis"},"geometry":{"type":"Point","coordinates":[-90.23985,38.61486]}},{"type":"Feature","properties":{"stop_id":"4083","stop_code":"4083","stop_name":"GRAND @ RUSSELL SB","stop_desc":"MID-BLOCK GRAND @ RUSSELL SB","wheelchair_boarding":2,"routes":[{"route_id":"19622","agency_id":"70006","route_short_name":"70","route_long_name":"Grand","route_type":3,"route_color":"#FFFFFF","route_text_color":"#000000"}],"agency_name":"Metro St. Louis"},"geometry":{"type":"Point","coordinates":[-90.24045,38.61228]}},{"type":"Feature","properties":{"stop_id":"4086","stop_code":"4086","stop_name":"GRAND @ SHENANDOAH SB","stop_desc":"FAR SIDE GRAND @ SHENANDOAH SB","wheelchair_boarding":1,"routes":[{"route_id":"19622","agency_id":"70006","route_short_name":"70","route_long_name":"Grand","route_type":3,"route_color":"#FFFFFF","route_text_color":"#000000"}],"agency_name":"Metro St. Louis"},"geometry":{"type":"Point","coordinates":[-90.24104,38.60933]}},{"type":"Feature","properties":{"stop_id":"4088","stop_code":"4088","stop_name":"GRAND @ MAGNOLIA SB","stop_desc":"FAR SIDE GRAND @ MAGNOLIA SB","wheelchair_boarding":1,"routes":[{"route_id":"19596","agency_id":"70006","route_short_name":"8","route_long_name":"Shaw-Cherokee","route_type":3,"route_color":"#FFFFFF","route_text_color":"#000000"},{"route_id":"19622","agency_id":"70006","route_short_name":"70","route_long_name":"Grand","route_type":3,"route_color":"#FFFFFF","route_text_color":"#000000"}],"agency_name":"Metro St. Louis"},"geometry":{"type":"Point","coordinates":[-90.24159,38.60686]}},{"type":"Feature","properties":{"stop_id":"4089","stop_code":"4089","stop_name":"GRAND @ ARSENAL SB","stop_desc":"NEAR SIDE GRAND @ ARSENAL SB","wheelchair_boarding":1,"routes":[{"route_id":"19596","agency_id":"70006","route_short_name":"8","route_long_name":"Shaw-Cherokee","route_type":3,"route_color":"#FFFFFF","route_text_color":"#000000"},{"route_id":"19622","agency_id":"70006","route_short_name":"70","route_long_name":"Grand","route_type":3,"route_color":"#FFFFFF","route_text_color":"#000000"}],"agency_name":"Metro St. Louis"},"geometry":{"type":"Point","coordinates":[-90.24219,38.60399]}},{"type":"Feature","properties":{"stop_id":"4090","stop_code":"4090","stop_name":"GRAND @ JUNIATA SB","stop_desc":"FAR SIDE GRAND @ JUNIATA SB","wheelchair_boarding":1,"routes":[{"route_id":"19596","agency_id":"70006","route_short_name":"8","route_long_name":"Shaw-Cherokee","route_type":3,"route_color":"#FFFFFF","route_text_color":"#000000"},{"route_id":"19622","agency_id":"70006","route_short_name":"70","route_long_name":"Grand","route_type":3,"route_color":"#FFFFFF","route_text_color":"#000000"}],"agency_name":"Metro St. Louis"},"geometry":{"type":"Point","coordinates":[-90.24267,38.6006]}},{"type":"Feature","properties":{"stop_id":"4093","stop_code":"4093","stop_name":"GRAND @ UTAH SB","stop_desc":"FAR SIDE GRAND @ UTAH SB","wheelchair_boarding":1,"routes":[{"route_id":"19596","agency_id":"70006","route_short_name":"8","route_long_name":"Shaw-Cherokee","route_type":3,"route_color":"#FFFFFF","route_text_color":"#000000"},{"route_id":"19622","agency_id":"70006","route_short_name":"70","route_long_name":"Grand","route_type":3,"route_color":"#FFFFFF","route_text_color":"#000000"}],"agency_name":"Metro St. Louis"},"geometry":{"type":"Point","coordinates":[-90.24324,38.59688]}},{"type":"Feature","properties":{"stop_id":"4094","stop_code":"4094","stop_name":"GRAND @ FAIRVIEW SB","stop_desc":"FAR SIDE GRAND @ FAIRVIEW SB","wheelchair_boarding":1,"routes":[{"route_id":"19622","agency_id":"70006","route_short_name":"70","route_long_name":"Grand","route_type":3,"route_color":"#FFFFFF","route_text_color":"#000000"}],"agency_name":"Metro St. Louis"},"geometry":{"type":"Point","coordinates":[-90.24359,38.59456]}},{"type":"Feature","properties":{"stop_id":"4096","stop_code":"4096","stop_name":"GRAND @ GRAVOIS SB","stop_desc":"NEAR SIDE GRAND @ GRAVOIS SB","wheelchair_boarding":1,"routes":[{"route_id":"19622","agency_id":"70006","route_short_name":"70","route_long_name":"Grand","route_type":3,"route_color":"#FFFFFF","route_text_color":"#000000"}],"agency_name":"Metro St. Louis"},"geometry":{"type":"Point","coordinates":[-90.24384,38.5931]}},{"type":"Feature","properties":{"stop_id":"4097","stop_code":"4097","stop_name":"GRAND @ MERAMEC SB","stop_desc":"FAR SIDE GRAND @ MERAMEC SB","wheelchair_boarding":1,"routes":[{"route_id":"19622","agency_id":"70006","route_short_name":"70","route_long_name":"Grand","route_type":3,"route_color":"#FFFFFF","route_text_color":"#000000"}],"agency_name":"Metro St. Louis"},"geometry":{"type":"Point","coordinates":[-90.24442,38.5806]}},{"type":"Feature","properties":{"stop_id":"523","stop_code":"523","stop_name":"GRAND @ CHOUTEAU SB","stop_desc":"NEAR SIDE GRAND @ CHOUTEAU SB","wheelchair_boarding":1,"routes":[{"route_id":"19622","agency_id":"70006","route_short_name":"70","route_long_name":"Grand","route_type":3,"route_color":"#FFFFFF","route_text_color":"#000000"}],"agency_name":"Metro St. Louis"},"geometry":{"type":"Point","coordinates":[-90.23672,38.62627]}},{"type":"Feature","properties":{"stop_id":"6414","stop_code":"6414","stop_name":"BROADWAY @ CLARENCE SB","stop_desc":"FAR SIDE BROADWAY @ CLARENCE SB","wheelchair_boarding":2,"routes":[{"route_id":"19611","agency_id":"70006","route_short_name":"40","route_long_name":"Broadway-Halls Ferry","route_type":3,"route_color":"#FFFFFF","route_text_color":"#000000"},{"route_id":"19622","agency_id":"70006","route_short_name":"70","route_long_name":"Grand","route_type":3,"route_color":"#FFFFFF","route_text_color":"#000000"}],"agency_name":"Metro St. Louis"},"geometry":{"type":"Point","coordinates":[-90.21687,38.68364]}},{"type":"Feature","properties":{"stop_id":"6416","stop_code":"6416","stop_name":"BROADWAY @ RED BUD SB","stop_desc":"NEAR SIDE BROADWAY @ RED BUD SB","wheelchair_boarding":2,"routes":[{"route_id":"19611","agency_id":"70006","route_short_name":"40","route_long_name":"Broadway-Halls Ferry","route_type":3,"route_color":"#FFFFFF","route_text_color":"#000000"},{"route_id":"19622","agency_id":"70006","route_short_name":"70","route_long_name":"Grand","route_type":3,"route_color":"#FFFFFF","route_text_color":"#000000"}],"agency_name":"Metro St. Louis"},"geometry":{"type":"Point","coordinates":[-90.21382,38.6819]}},{"type":"Feature","properties":{"stop_id":"6418","stop_code":"6418","stop_name":"BROADWAY @ ADELAIDE SB","stop_desc":"NEAR SIDE BROADWAY @ ADELAIDE SB","wheelchair_boarding":1,"routes":[{"route_id":"19611","agency_id":"70006","route_short_name":"40","route_long_name":"Broadway-Halls Ferry","route_type":3,"route_color":"#FFFFFF","route_text_color":"#000000"},{"route_id":"19622","agency_id":"70006","route_short_name":"70","route_long_name":"Grand","route_type":3,"route_color":"#FFFFFF","route_text_color":"#000000"}],"agency_name":"Metro St. Louis"},"geometry":{"type":"Point","coordinates":[-90.21108,38.68036]}},{"type":"Feature","properties":{"stop_id":"6420","stop_code":"6420","stop_name":"BROADWAY @ TALCOTT SB","stop_desc":"NEAR SIDE BROADWAY @ TALCOTT SB","wheelchair_boarding":2,"routes":[{"route_id":"19611","agency_id":"70006","route_short_name":"40","route_long_name":"Broadway-Halls Ferry","route_type":3,"route_color":"#FFFFFF","route_text_color":"#000000"},{"route_id":"19622","agency_id":"70006","route_short_name":"70","route_long_name":"Grand","route_type":3,"route_color":"#FFFFFF","route_text_color":"#000000"}],"agency_name":"Metro St. Louis"},"geometry":{"type":"Point","coordinates":[-90.20815,38.67816]}},{"type":"Feature","properties":{"stop_id":"6422","stop_code":"6422","stop_name":"BROADWAY @ PRAIRIE SB","stop_desc":"NEAR SIDE BROADWAY @ PRAIRIE SB","wheelchair_boarding":2,"routes":[{"route_id":"19611","agency_id":"70006","route_short_name":"40","route_long_name":"Broadway-Halls Ferry","route_type":3,"route_color":"#FFFFFF","route_text_color":"#000000"},{"route_id":"19622","agency_id":"70006","route_short_name":"70","route_long_name":"Grand","route_type":3,"route_color":"#FFFFFF","route_text_color":"#000000"}],"agency_name":"Metro St. Louis"},"geometry":{"type":"Point","coordinates":[-90.20608,38.67634]}},{"type":"Feature","properties":{"stop_id":"6424","stop_code":"6424","stop_name":"BROADWAY @ GRAND SB","stop_desc":"NEAR SIDE BROADWAY @ GRAND SB","wheelchair_boarding":2,"routes":[{"route_id":"19611","agency_id":"70006","route_short_name":"40","route_long_name":"Broadway-Halls Ferry","route_type":3,"route_color":"#FFFFFF","route_text_color":"#000000"},{"route_id":"19622","agency_id":"70006","route_short_name":"70","route_long_name":"Grand","route_type":3,"route_color":"#FFFFFF","route_text_color":"#000000"}],"agency_name":"Metro St. Louis"},"geometry":{"type":"Point","coordinates":[-90.20409,38.6738]}},{"type":"Feature","properties":{"stop_id":"8871","stop_code":"8871","stop_name":"GRAND @ WINNEBAGO SB","stop_desc":"FAR SIDE GRAND @ WINNEBAGO SB","wheelchair_boarding":1,"routes":[{"route_id":"19622","agency_id":"70006","route_short_name":"70","route_long_name":"Grand","route_type":3,"route_color":"#FFFFFF","route_text_color":"#000000"}],"agency_name":"Metro St. Louis"},"geometry":{"type":"Point","coordinates":[-90.24433,38.58985]}},{"type":"Feature","properties":{"stop_id":"8874","stop_code":"8874","stop_name":"GRAND @ MONTANA SB","stop_desc":"NEAR SIDE GRAND @ MONTANA SB","wheelchair_boarding":1,"routes":[{"route_id":"19622","agency_id":"70006","route_short_name":"70","route_long_name":"Grand","route_type":3,"route_color":"#FFFFFF","route_text_color":"#000000"}],"agency_name":"Metro St. Louis"},"geometry":{"type":"Point","coordinates":[-90.24477,38.58357]}},{"type":"Feature","properties":{"stop_id":"8879","stop_code":"8879","stop_name":"GRAND @ TAFT SB","stop_desc":"FAR SIDE GRAND @ TAFT SB","wheelchair_boarding":1,"routes":[{"route_id":"19622","agency_id":"70006","route_short_name":"70","route_long_name":"Grand","route_type":3,"route_color":"#FFFFFF","route_text_color":"#000000"}],"agency_name":"Metro St. Louis"},"geometry":{"type":"Point","coordinates":[-90.24775,38.57656]}},{"type":"Feature","properties":{"stop_id":"8880","stop_code":"8880","stop_name":"GRAND @ ITASKA SB","stop_desc":"NEAR SIDE GRAND @ ITASKA SB","wheelchair_boarding":1,"routes":[{"route_id":"19622","agency_id":"70006","route_short_name":"70","route_long_name":"Grand","route_type":3,"route_color":"#FFFFFF","route_text_color":"#000000"}],"agency_name":"Metro St. Louis"},"geometry":{"type":"Point","coordinates":[-90.24928,38.57475]}},{"type":"Feature","properties":{"stop_id":"8881","stop_code":"8881","stop_name":"GRAND @ DELOR SB","stop_desc":"NEAR SIDE GRAND @ DELOR SB","wheelchair_boarding":1,"routes":[{"route_id":"19622","agency_id":"70006","route_short_name":"70","route_long_name":"Grand","route_type":3,"route_color":"#FFFFFF","route_text_color":"#000000"}],"agency_name":"Metro St. Louis"},"geometry":{"type":"Point","coordinates":[-90.2506,38.57311]}},{"type":"Feature","properties":{"stop_id":"8883","stop_code":"8883","stop_name":"GRAND @ EICHELBERGER SB","stop_desc":"NEAR SIDE GRAND @ EICHELBERGER SB","wheelchair_boarding":1,"routes":[{"route_id":"19622","agency_id":"70006","route_short_name":"70","route_long_name":"Grand","route_type":3,"route_color":"#FFFFFF","route_text_color":"#000000"}],"agency_name":"Metro St. Louis"},"geometry":{"type":"Point","coordinates":[-90.25274,38.57064]}},{"type":"Feature","properties":{"stop_id":"8884","stop_code":"8884","stop_name":"GRAND @ BATES SB","stop_desc":"FAR SIDE GRAND @ BATES SB","wheelchair_boarding":1,"routes":[{"route_id":"19622","agency_id":"70006","route_short_name":"70","route_long_name":"Grand","route_type":3,"route_color":"#FFFFFF","route_text_color":"#000000"}],"agency_name":"Metro St. Louis"},"geometry":{"type":"Point","coordinates":[-90.25481,38.56822]}},{"type":"Feature","properties":{"stop_id":"8886","stop_code":"8886","stop_name":"GRAND @ WILMINGTON SB","stop_desc":"NEAR SIDE GRAND @ WILMINGTON SB","wheelchair_boarding":1,"routes":[{"route_id":"19622","agency_id":"70006","route_short_name":"70","route_long_name":"Grand","route_type":3,"route_color":"#FFFFFF","route_text_color":"#000000"}],"agency_name":"Metro St. Louis"},"geometry":{"type":"Point","coordinates":[-90.25652,38.56622]}},{"type":"Feature","properties":{"stop_id":"8888","stop_code":"8888","stop_name":"GRAND @ IRON SB","stop_desc":"MID-BLOCK GRAND @ IRON SB","wheelchair_boarding":1,"routes":[{"route_id":"19622","agency_id":"70006","route_short_name":"70","route_long_name":"Grand","route_type":3,"route_color":"#FFFFFF","route_text_color":"#000000"}],"agency_name":"Metro St. Louis"},"geometry":{"type":"Point","coordinates":[-90.25921,38.56305]}},{"type":"Feature","properties":{"stop_id":"8889","stop_code":"8889","stop_name":"GRAND @ HOLLY HILLS SB","stop_desc":"FAR SIDE GRAND @ HOLLY HILLS SB","wheelchair_boarding":1,"routes":[{"route_id":"19622","agency_id":"70006","route_short_name":"70","route_long_name":"Grand","route_type":3,"route_color":"#FFFFFF","route_text_color":"#000000"}],"agency_name":"Metro St. Louis"},"geometry":{"type":"Point","coordinates":[-90.26174,38.56171]}},{"type":"Feature","properties":{"stop_id":"9027","stop_code":"9027","stop_name":"GRAND @ CHIPPEWA SB","stop_desc":"FAR SIDE GRAND @ CHIPPEWA SB","wheelchair_boarding":1,"routes":[{"route_id":"19622","agency_id":"70006","route_short_name":"70","route_long_name":"Grand","route_type":3,"route_color":"#FFFFFF","route_text_color":"#000000"}],"agency_name":"Metro St. Louis"},"geometry":{"type":"Point","coordinates":[-90.24463,38.58818]}}]}