{"type":"FeatureCollection","features":[{"type":"Feature","properties":{"agency_name":"Metro St. Louis","route_id":"19642","agency_id":"70006","route_short_name":"8","route_long_name":"Alta Sita","route_type":3,"route_color":"#FFFFFF","route_text_color":"#000000"},"geometry":{"type":"MultiLineString","coordinates":[[[-90.17683,38.56305],[-90.17692,38.56312],[-90.17659,38.56283],[-90.17649,38.56272],[-90.17616,38.56284],[-90.1753,38.5621],[-90.17502,38.56165],[-90.17469,38.56129],[-90.17438,38.56101],[-90.17185,38.55884],[-90.17095,38.5581],[-90.16824,38.55581],[-90.16489,38.55286],[-90.16214,38.5505],[-90.16162,38.55008],[-90.1612,38.54977],[-90.16087,38.54957],[-90.16006,38.54914],[-90.15955,38.54895],[-90.15921,38.54886],[-90.15871,38.54878],[-90.15824,38.54874],[-90.15744,38.54878],[-90.15708,38.54885],[-90.15492,38.54935],[-90.15325,38.54963],[-90.1518,38.54985],[-90.14513,38.55092],[-90.14454,38.551],[-90.14382,38.55106],[-90.14292,38.55106],[-90.14202,38.55102],[-90.13902,38.55075],[-90.12793,38.54968],[-90.1266,38.54957],[-90.1261,38.54956],[-90.12569,38.54956],[-90.12532,38.54958],[-90.12228,38.54997],[-90.12106,38.55019],[-90.12022,38.5504],[-90.11954,38.55061],[-90.11849,38.551],[-90.11808,38.55117],[-90.11693,38.55174],[-90.11468,38.55308],[-90.11327,38.5539],[-90.11234,38.55451],[-90.11188,38.55486],[-90.11154,38.55513],[-90.11031,38.55627],[-90.10927,38.55736],[-90.10792,38.55887],[-90.10737,38.55946],[-90.10596,38.56084],[-90.10478,38.56196],[-90.10452,38.56223],[-90.10416,38.56271],[-90.10377,38.56331],[-90.10394,38.56335],[-90.10405,38.5634],[-90.10443,38.56362],[-90.106,38.56493],[-90.10574,38.56514],[-90.1057,38.5652],[-90.1057,38.56529],[-90.10572,38.56532],[-90.1068,38.56612],[-90.1074,38.56569],[-90.1074,38.56559],[-90.10644,38.56475],[-90.10632,38.56472]],[[-90.10377,38.56331],[-90.10358,38.56361],[-90.10336,38.56403],[-90.10327,38.56422],[-90.10317,38.56451],[-90.10304,38.5652],[-90.10298,38.56588],[-90.10297,38.56623],[-90.10299,38.56654],[-90.10311,38.56695],[-90.10323,38.56723],[-90.10352,38.56766],[-90.10374,38.56789],[-90.10399,38.56813],[-90.10437,38.56846],[-90.11323,38.57609],[-90.11385,38.57664],[-90.1144,38.57709],[-90.1148,38.57745],[-90.11659,38.57899],[-90.11804,38.58021],[-90.11914,38.58116],[-90.11963,38.5816],[-90.12024,38.58225],[-90.12047,38.58246],[-90.12073,38.58263],[-90.12132,38.58292],[-90.12154,38.58309],[-90.1249,38.58597],[-90.1254,38.58643],[-90.12569,38.58674],[-90.12587,38.58698],[-90.12601,38.58722],[-90.12632,38.58784],[-90.12651,38.58812],[-90.12664,38.58829],[-90.12733,38.58895],[-90.12774,38.58925],[-90.12812,38.58957],[-90.12851,38.58984],[-90.12945,38.5903],[-90.12968,38.59044],[-90.13005,38.59072],[-90.13189,38.59226],[-90.13392,38.594],[-90.13835,38.59773],[-90.13888,38.59824],[-90.1415,38.60044],[-90.1411,38.60075],[-90.13825,38.60282],[-90.13733,38.60347],[-90.13679,38.60389],[-90.13278,38.60682],[-90.13212,38.60732],[-90.13201,38.60746],[-90.1319,38.60817],[-90.13169,38.60861],[-90.1312,38.60941],[-90.13107,38.60965],[-90.1302,38.6111],[-90.12947,38.61228],[-90.12841,38.61414],[-90.1282,38.61446],[-90.12784,38.61509],[-90.1272,38.61607],[-90.12747,38.61625],[-90.12653,38.61792],[-90.12547,38.61968],[-90.12513,38.62015],[-90.12504,38.62025],[-90.12442,38.62128],[-90.12401,38.6219],[-90.12367,38.62252],[-90.1238,38.62257],[-90.12407,38.62262],[-90.12465,38.62283],[-90.12489,38.6229],[-90.12514,38.62294],[-90.12537,38.62295],[-90.12558,38.62294],[-90.1264,38.62286],[-90.12739,38.62295],[-90.13062,38.62372],[-90.13081,38.62382],[-90.13155,38.62405],[-90.13212,38.62431],[-90.13263,38.62461],[-90.13316,38.62499],[-90.13348,38.62515],[-90.13369,38.62522],[-90.13422,38.62532],[-90.13442,38.62544],[-90.13444,38.62548],[-90.13454,38.62552],[-90.13461,38.62551],[-90.13479,38.62553],[-90.13494,38.62557],[-90.1357,38.62595],[-90.13584,38.62604],[-90.13663,38.62677],[-90.13759,38.62761],[-90.13964,38.62938],[-90.13992,38.6296],[-90.14104,38.63059],[-90.14021,38.63077],[-90.14011,38.63062],[-90.13999,38.63004],[-90.13982,38.62981],[-90.13834,38.62851],[-90.13824,38.62846]]]}},{"type":"Feature","properties":{"stop_id":"12605","stop_code":"12605","stop_name":"CLARITA @ OLD MISSOURI NB","stop_desc":"FAR SIDE CLARITA @ OLD MISSOURI NB","wheelchair_boarding":2,"routes":[{"route_id":"19642","agency_id":"70006","route_short_name":"8","route_long_name":"Alta Sita","route_type":3,"route_color":"#FFFFFF","route_text_color":"#000000"}],"agency_name":"Metro St. Louis"},"geometry":{"type":"Point","coordinates":[-90.10409,38.56345]}},{"type":"Feature","properties":{"stop_id":"12606","stop_code":"12606","stop_name":"CARVER @ HINKLEY NB","stop_desc":"NEAR SIDE CARVER @ HINKLEY NB","wheelchair_boarding":2,"routes":[{"route_id":"19642","agency_id":"70006","route_short_name":"8","route_long_name":"Alta Sita","route_type":3,"route_color":"#FFFFFF","route_text_color":"#000000"}],"agency_name":"Metro St. Louis"},"geometry":{"type":"Point","coordinates":[-90.10576,38.56539]}},{"type":"Feature","properties":{"stop_id":"12629","stop_code":"12629","stop_name":"OLD MISSOURI @ TUSKEGEE NB","stop_desc":"FAR SIDE OLD MISSOURI @ TUSKEGEE NB","wheelchair_boarding":2,"routes":[{"route_id":"19642","agency_id":"70006","route_short_name":"8","route_long_name":"Alta Sita","route_type":3,"route_color":"#FFFFFF","route_text_color":"#000000"}],"agency_name":"Metro St. Louis"},"geometry":{"type":"Point","coordinates":[-90.10642,38.56032]}},{"type":"Feature","properties":{"stop_id":"12630","stop_code":"12630","stop_name":"66TH STREET @ CLARITA SB","stop_desc":"NEAR SIDE 66TH STREET @ CLARITA SB","wheelchair_boarding":1,"routes":[{"route_id":"19642","agency_id":"70006","route_short_name":"8","route_long_name":"Alta Sita","route_type":3,"route_color":"#FFFFFF","route_text_color":"#000000"}],"agency_name":"Metro St. Louis"},"geometry":{"type":"Point","coordinates":[-90.10704,38.566]}},{"type":"Feature","properties":{"stop_id":"12631","stop_code":"12631","stop_name":"HINCKLEY @ CLARITA SB","stop_desc":"NEAR SIDE HINCKLEY @ CLARITA SB","wheelchair_boarding":2,"routes":[{"route_id":"19642","agency_id":"70006","route_short_name":"8","route_long_name":"Alta Sita","route_type":3,"route_color":"#FFFFFF","route_text_color":"#000000"}],"agency_name":"Metro St. Louis"},"geometry":{"type":"Point","coordinates":[-90.10615,38.56481]}},{"type":"Feature","properties":{"stop_id":"12632","stop_code":"12632","stop_name":"CLARITA @ OLD MISSOURI SB","stop_desc":"NEAR SIDE CLARITA @ OLD MISSOURI SB","wheelchair_boarding":2,"routes":[{"route_id":"19642","agency_id":"70006","route_short_name":"8","route_long_name":"Alta Sita","route_type":3,"route_color":"#FFFFFF","route_text_color":"#000000"}],"agency_name":"Metro St. Louis"},"geometry":{"type":"Point","coordinates":[-90.10417,38.5634]}},{"type":"Feature","properties":{"stop_id":"12657","stop_code":"12657","stop_name":"BOND @ OLD MISSOURI NB","stop_desc":"FAR SIDE BOND @ OLD MISSOURI NB","wheelchair_boarding":2,"routes":[{"route_id":"19642","agency_id":"70006","route_short_name":"8","route_long_name":"Alta Sita","route_type":3,"route_color":"#FFFFFF","route_text_color":"#000000"}],"agency_name":"Metro St. Louis"},"geometry":{"type":"Point","coordinates":[-90.10359,38.56788]}},{"type":"Feature","properties":{"stop_id":"12658","stop_code":"12658","stop_name":"BOND @ 5851 BOND WB","stop_desc":"FAR SIDE BOND @ 5851 BOND WB","wheelchair_boarding":2,"routes":[{"route_id":"19642","agency_id":"70006","route_short_name":"8","route_long_name":"Alta Sita","route_type":3,"route_color":"#FFFFFF","route_text_color":"#000000"}],"agency_name":"Metro St. Louis"},"geometry":{"type":"Point","coordinates":[-90.10801,38.57169]}},{"type":"Feature","properties":{"stop_id":"12661","stop_code":"12661","stop_name":"BOND @ 57TH STREET WB","stop_desc":"NEAR SIDE BOND @ 57TH STREET WB","wheelchair_boarding":2,"routes":[{"route_id":"19642","agency_id":"70006","route_short_name":"8","route_long_name":"Alta Sita","route_type":3,"route_color":"#FFFFFF","route_text_color":"#000000"}],"agency_name":"Metro St. Louis"},"geometry":{"type":"Point","coordinates":[-90.10978,38.57324]}},{"type":"Feature","properties":{"stop_id":"12663","stop_code":"12663","stop_name":"BOND @ 55TH STREET WB","stop_desc":"FAR SIDE BOND @ 55TH STREET WB","wheelchair_boarding":2,"routes":[{"route_id":"19642","agency_id":"70006","route_short_name":"8","route_long_name":"Alta Sita","route_type":3,"route_color":"#FFFFFF","route_text_color":"#000000"}],"agency_name":"Metro St. Louis"},"geometry":{"type":"Point","coordinates":[-90.11249,38.57558]}},{"type":"Feature","properties":{"stop_id":"12665","stop_code":"12665","stop_name":"BOND @ 5OTH STREET WB","stop_desc":"FAR SIDE BOND @ 5OTH STREET WB","wheelchair_boarding":2,"routes":[{"route_id":"19642","agency_id":"70006","route_short_name":"8","route_long_name":"Alta Sita","route_type":3,"route_color":"#FFFFFF","route_text_color":"#000000"}],"agency_name":"Metro St. Louis"},"geometry":{"type":"Point","coordinates":[-90.11648,38.57895]}},{"type":"Feature","properties":{"stop_id":"12667","stop_code":"12667","stop_name":"BOND @ VILLAGE WB","stop_desc":"NEAR SIDE BOND @ VILLAGE WB","wheelchair_boarding":2,"routes":[{"route_id":"19642","agency_id":"70006","route_short_name":"8","route_long_name":"Alta Sita","route_type":3,"route_color":"#FFFFFF","route_text_color":"#000000"}],"agency_name":"Metro St. Louis"},"geometry":{"type":"Point","coordinates":[-90.11883,38.58099]}},{"type":"Feature","properties":{"stop_id":"12668","stop_code":"12668","stop_name":"BOND @ 48TH STREET WB","stop_desc":"NEAR SIDE BOND @ 48TH STREET WB","wheelchair_boarding":2,"routes":[{"route_id":"19642","agency_id":"70006","route_short_name":"8","route_long_name":"Alta Sita","route_type":3,"route_color":"#FFFFFF","route_text_color":"#000000"}],"agency_name":"Metro St. Louis"},"geometry":{"type":"Point","coordinates":[-90.12003,38.58213]}},{"type":"Feature","properties":{"stop_id":"12669","stop_code":"12669","stop_name":"BOND @ 47TH STREET WB","stop_desc":"FAR SIDE BOND @ 47TH STREET WB","wheelchair_boarding":1,"routes":[{"route_id":"19642","agency_id":"70006","route_short_name":"8","route_long_name":"Alta Sita","route_type":3,"route_color":"#FFFFFF","route_text_color":"#000000"}],"agency_name":"Metro St. Louis"},"geometry":{"type":"Point","coordinates":[-90.12117,38.58289]}},{"type":"Feature","properties":{"stop_id":"12670","stop_code":"12670","stop_name":"BOND @ 43RD STREET WB","stop_desc":"NEAR SIDE BOND @ 43RD STREET WB","wheelchair_boarding":2,"routes":[{"route_id":"19642","agency_id":"70006","route_short_name":"8","route_long_name":"Alta Sita","route_type":3,"route_color":"#FFFFFF","route_text_color":"#000000"}],"agency_name":"Metro St. Louis"},"geometry":{"type":"Point","coordinates":[-90.12269,38.58416]}},{"type":"Feature","properties":{"stop_id":"12671","stop_code":"12671","stop_name":"BOND @ 42ND STREET WB","stop_desc":"FAR SIDE BOND @ 42ND STREET WB","wheelchair_boarding":2,"routes":[{"route_id":"19642","agency_id":"70006","route_short_name":"8","route_long_name":"Alta Sita","route_type":3,"route_color":"#FFFFFF","route_text_color":"#000000"}],"agency_name":"Metro St. Louis"},"geometry":{"type":"Point","coordinates":[-90.12474,38.58595]}},{"type":"Feature","properties":{"stop_id":"12673","stop_code":"12673","stop_name":"BOND @ 37TH STREET WB","stop_desc":"FAR SIDE BOND @ 37TH STREET WB","wheelchair_boarding":2,"routes":[{"route_id":"19642","agency_id":"70006","route_short_name":"8","route_long_name":"Alta Sita","route_type":3,"route_color":"#FFFFFF","route_text_color":"#000000"}],"agency_name":"Metro St. Louis"},"geometry":{"type":"Point","coordinates":[-90.1302,38.59092]}},{"type":"Feature","properties":{"stop_id":"12674","stop_code":"12674","stop_name":"BOND @ 36TH STREET WB","stop_desc":"FAR SIDE BOND @ 36TH STREET WB","wheelchair_boarding":2,"routes":[{"route_id":"19642","agency_id":"70006","route_short_name":"8","route_long_name":"Alta Sita","route_type":3,"route_color":"#FFFFFF","route_text_color":"#000000"}],"agency_name":"Metro St. Louis"},"geometry":{"type":"Point","coordinates":[-90.13258,38.59292]}},{"type":"Feature","properties":{"stop_id":"12675","stop_code":"12675","stop_name":"BOND @ 35TH STREET WB","stop_desc":"NEAR SIDE BOND @ 35TH STREET WB","wheelchair_boarding":2,"routes":[{"route_id":"19642","agency_id":"70006","route_short_name":"8","route_long_name":"Alta Sita","route_type":3,"route_color":"#FFFFFF","route_text_color":"#000000"}],"agency_name":"Metro St. Louis"},"geometry":{"type":"Point","coordinates":[-90.13366,38.59382]}},{"type":"Feature","properties":{"stop_id":"12676","stop_code":"12676","stop_name":"BOND @ 33RD STREET WB","stop_desc":"NEAR SIDE BOND @ 33RD STREET WB","wheelchair_boarding":2,"routes":[{"route_id":"19642","agency_id":"70006","route_short_name":"8","route_long_name":"Alta Sita","route_type":3,"route_color":"#FFFFFF","route_text_color":"#000000"}],"agency_name":"Metro St. Louis"},"geometry":{"type":"Point","coordinates":[-90.13542,38.59531]}},{"type":"Feature","properties":{"stop_id":"12677","stop_code":"12677","stop_name":"3109 BOND WB","stop_desc":"MID-BLOCK 3109 BOND WB","wheelchair_boarding":2,"routes":[{"route_id":"19642","agency_id":"70006","route_short_name":"8","route_long_name":"Alta Sita","route_type":3,"route_color":"#FFFFFF","route_text_color":"#000000"}],"agency_name":"Metro St. Louis"},"geometry":{"type":"Point","coordinates":[-90.13672,38.5964]}},{"type":"Feature","properties":{"stop_id":"12678","stop_code":"12678","stop_name":"BOND @ 29TH STREET WB","stop_desc":"NEAR SIDE BOND @ 29TH STREET WB","wheelchair_boarding":2,"routes":[{"route_id":"19642","agency_id":"70006","route_short_name":"8","route_long_name":"Alta Sita","route_type":3,"route_color":"#FFFFFF","route_text_color":"#000000"}],"agency_name":"Metro St. Louis"},"geometry":{"type":"Point","coordinates":[-90.13817,38.59763]}},{"type":"Feature","properties":{"stop_id":"12679","stop_code":"12679","stop_name":"BOND @ 27TH STREET WB","stop_desc":"NEAR SIDE BOND @ 27TH STREET WB","wheelchair_boarding":2,"routes":[{"route_id":"19642","agency_id":"70006","route_short_name":"8","route_long_name":"Alta Sita","route_type":3,"route_color":"#FFFFFF","route_text_color":"#000000"}],"agency_name":"Metro St. Louis"},"geometry":{"type":"Point","coordinates":[-90.13989,38.59913]}},{"type":"Feature","properties":{"stop_id":"12702","stop_code":"12702","stop_name":"EMERSON PARK TRANSIT CENTER","wheelchair_boarding":1,"routes":[{"route_id":"19641","agency_id":"70006","route_short_name":"6","route_long_name":"Rosemont","route_type":3,"route_color":"#FFFFFF","route_text_color":"#000000"},{"route_id":"19642","agency_id":"70006","route_short_name":"8","route_long_name":"Alta Sita","route_type":3,"route_color":"#FFFFFF","route_text_color":"#000000"},{"route_id":"19643","agency_id":"70006","route_short_name":"9","route_long_name":"Washington Park","route_type":3,"route_color":"#FFFFFF","route_text_color":"#000000"}],"agency_name":"Metro St. Louis"},"geometry":{"type":"Point","coordinates":[-90.13787,38.6285]}},{"type":"Feature","properties":{"stop_id":"12818","stop_code":"12818","stop_name":"25TH STREET @ HENRIETTA NB","stop_desc":"NEAR SIDE 25TH STREET @ HENRIETTA NB","wheelchair_boarding":2,"routes":[{"route_id":"19642","agency_id":"70006","route_short_name":"8","route_long_name":"Alta Sita","route_type":3,"route_color":"#FFFFFF","route_text_color":"#000000"}],"agency_name":"Metro St. Louis"},"geometry":{"type":"Point","coordinates":[-90.12822,38.61431]}},{"type":"Feature","properties":{"stop_id":"12819","stop_code":"12819","stop_name":"25TH STREET @ STATE NB","stop_desc":"NEAR SIDE 25TH STREET @ STATE NB","wheelchair_boarding":1,"routes":[{"route_id":"19642","agency_id":"70006","route_short_name":"8","route_long_name":"Alta Sita","route_type":3,"route_color":"#FFFFFF","route_text_color":"#000000"}],"agency_name":"Metro St. Louis"},"geometry":{"type":"Point","coordinates":[-90.12741,38.6157]}},{"type":"Feature","properties":{"stop_id":"12820","stop_code":"12820","stop_name":"25TH STREET @ STATE NB","stop_desc":"FAR SIDE 25TH STREET @ STATE NB","wheelchair_boarding":2,"routes":[{"route_id":"19642","agency_id":"70006","route_short_name":"8","route_long_name":"Alta Sita","route_type":3,"route_color":"#FFFFFF","route_text_color":"#000000"}],"agency_name":"Metro St. Louis"},"geometry":{"type":"Point","coordinates":[-90.12712,38.61682]}},{"type":"Feature","properties":{"stop_id":"12821","stop_code":"12821","stop_name":"25TH STREET @ OHIO NB","stop_desc":"FAR SIDE 25TH STREET @ OHIO NB","wheelchair_boarding":2,"routes":[{"route_id":"19642","agency_id":"70006","route_short_name":"8","route_long_name":"Alta Sita","route_type":3,"route_color":"#FFFFFF","route_text_color":"#000000"}],"agency_name":"Metro St. Louis"},"geometry":{"type":"Point","coordinates":[-90.12639,38.61803]}},{"type":"Feature","properties":{"stop_id":"12822","stop_code":"12822","stop_name":"25TH STREET @ SUMMIT NB","stop_desc":"NEAR SIDE 25TH STREET @ SUMMIT NB","wheelchair_boarding":2,"routes":[{"route_id":"19642","agency_id":"70006","route_short_name":"8","route_long_name":"Alta Sita","route_type":3,"route_color":"#FFFFFF","route_text_color":"#000000"}],"agency_name":"Metro St. Louis"},"geometry":{"type":"Point","coordinates":[-90.12547,38.61947]}},{"type":"Feature","properties":{"stop_id":"12823","stop_code":"12823","stop_name":"25TH STREET @ ST. CLAIR NB","stop_desc":"NEAR SIDE 25TH STREET @ ST. CLAIR NB","wheelchair_boarding":2,"routes":[{"route_id":"19641","agency_id":"70006","route_short_name":"6","route_long_name":"Rosemont","route_type":3,"route_color":"#FFFFFF","route_text_color":"#000000"},{"route_id":"19642","agency_id":"70006","route_short_name":"8","route_long_name":"Alta Sita","route_type":3,"route_color":"#FFFFFF","route_text_color":"#000000"},{"route_id":"19643","agency_id":"70006","route_short_name":"9","route_long_name":"Washington Park","route_type":3,"route_color":"#FFFFFF","route_text_color":"#000000"}],"agency_name":"Metro St. Louis"},"geometry":{"type":"Point","coordinates":[-90.1247,38.62071]}},{"type":"Feature","properties":{"stop_id":"12830","stop_code":"12830","stop_name":"510 25TH STREET NB","stop_desc":"MID-BLOCK 510 25TH STREET NB","wheelchair_boarding":2,"routes":[{"route_id":"19642","agency_id":"70006","route_short_name":"8","route_long_name":"Alta Sita","route_type":3,"route_color":"#FFFFFF","route_text_color":"#000000"}],"agency_name":"Metro St. Louis"},"geometry":{"type":"Point","coordinates":[-90.1288,38.61339]}},{"type":"Feature","properties":{"stop_id":"12831","stop_code":"12831","stop_name":"25TH STREET @ BELLEVIEW NB","stop_desc":"NEAR SIDE 25TH STREET @ BELLEVIEW NB","wheelchair_boarding":2,"routes":[{"route_id":"19642","agency_id":"70006","route_short_name":"8","route_long_name":"Alta Sita","route_type":3,"route_color":"#FFFFFF","route_text_color":"#000000"}],"agency_name":"Metro St. Louis"},"geometry":{"type":"Point","coordinates":[-90.13023,38.61095]}},{"type":"Feature","properties":{"stop_id":"12832","stop_code":"12832","stop_name":"25TH STREET @ LOUISIANA NB","stop_desc":"NEAR SIDE 25TH STREET @ LOUISIANA NB","wheelchair_boarding":2,"routes":[{"route_id":"19642","agency_id":"70006","route_short_name":"8","route_long_name":"Alta Sita","route_type":3,"route_color":"#FFFFFF","route_text_color":"#000000"}],"agency_name":"Metro St. Louis"},"geometry":{"type":"Point","coordinates":[-90.13126,38.60923]}},{"type":"Feature","properties":{"stop_id":"12833","stop_code":"12833","stop_name":"25TH STREET @ ILLINOIS NB","stop_desc":"NEAR SIDE 25TH STREET @ ILLINOIS NB","wheelchair_boarding":2,"routes":[{"route_id":"19642","agency_id":"70006","route_short_name":"8","route_long_name":"Alta Sita","route_type":3,"route_color":"#FFFFFF","route_text_color":"#000000"}],"agency_name":"Metro St. Louis"},"geometry":{"type":"Point","coordinates":[-90.13178,38.60837]}},{"type":"Feature","properties":{"stop_id":"12834","stop_code":"12834","stop_name":"26TH STREET @ ST. LOUIS NB","stop_desc":"FAR SIDE 26TH STREET @ ST. LOUIS NB","wheelchair_boarding":2,"routes":[{"route_id":"19642","agency_id":"70006","route_short_name":"8","route_long_name":"Alta Sita","route_type":3,"route_color":"#FFFFFF","route_text_color":"#000000"}],"agency_name":"Metro St. Louis"},"geometry":{"type":"Point","coordinates":[-90.13261,38.60691]}},{"type":"Feature","properties":{"stop_id":"12900","stop_code":"12900","stop_name":"26TH STREET @ MISSOURI NB","stop_desc":"NEAR SIDE 26TH STREET @ MISSOURI NB","wheelchair_boarding":2,"routes":[{"route_id":"19642","agency_id":"70006","route_short_name":"8","route_long_name":"Alta Sita","route_type":3,"route_color":"#FFFFFF","route_text_color":"#000000"}],"agency_name":"Metro St. Louis"},"geometry":{"type":"Point","coordinates":[-90.13468,38.60541]}},{"type":"Feature","properties":{"stop_id":"12985","stop_code":"12985","stop_name":"OLD CAMP JACKSON @ RANGE EB","stop_desc":"NEAR SIDE OLD CAMP JACKSON @ RANGE EB","wheelchair_boarding":2,"routes":[{"route_id":"19642","agency_id":"70006","route_short_name":"8","route_long_name":"Alta Sita","route_type":3,"route_color":"#FFFFFF","route_text_color":"#000000"}],"agency_name":"Metro St. Louis"},"geometry":{"type":"Point","coordinates":[-90.17715,38.5632]}},{"type":"Feature","properties":{"stop_id":"12986","stop_code":"12986","stop_name":"CAMP JACKSON @ MISKELL SB","stop_desc":"FAR SIDE CAMP JACKSON @ MISKELL SB","wheelchair_boarding":2,"routes":[{"route_id":"19642","agency_id":"70006","route_short_name":"8","route_long_name":"Alta Sita","route_type":3,"route_color":"#FFFFFF","route_text_color":"#000000"}],"agency_name":"Metro St. Louis"},"geometry":{"type":"Point","coordinates":[-90.17496,38.56139]}},{"type":"Feature","properties":{"stop_id":"12987","stop_code":"12987","stop_name":"CAMP JACKSON @ KAZILEK SB","stop_desc":"NEAR SIDE CAMP JACKSON @ KAZILEK SB","wheelchair_boarding":2,"routes":[{"route_id":"19642","agency_id":"70006","route_short_name":"8","route_long_name":"Alta Sita","route_type":3,"route_color":"#FFFFFF","route_text_color":"#000000"}],"agency_name":"Metro St. Louis"},"geometry":{"type":"Point","coordinates":[-90.17202,38.55886]}},{"type":"Feature","properties":{"stop_id":"12988","stop_code":"12988","stop_name":"CAMP JACKSON @ CAHOKIA PARK SB","stop_desc":"NEAR SIDE CAMP JACKSON @ CAHOKIA PARK SB","wheelchair_boarding":2,"routes":[{"route_id":"19642","agency_id":"70006","route_short_name":"8","route_long_name":"Alta Sita","route_type":3,"route_color":"#FFFFFF","route_text_color":"#000000"}],"agency_name":"Metro St. Louis"},"geometry":{"type":"Point","coordinates":[-90.16979,38.55698]}},{"type":"Feature","properties":{"stop_id":"12989","stop_code":"12989","stop_name":"CAMP JACKSON @ CHRISTOPHER SB","stop_desc":"NEAR SIDE CAMP JACKSON @ CHRISTOPHER SB","wheelchair_boarding":2,"routes":[{"route_id":"19642","agency_id":"70006","route_short_name":"8","route_long_name":"Alta Sita","route_type":3,"route_color":"#FFFFFF","route_text_color":"#000000"}],"agency_name":"Metro St. Louis"},"geometry":{"type":"Point","coordinates":[-90.16844,38.55587]}},{"type":"Feature","properties":{"stop_id":"12990","stop_code":"12990","stop_name":"CAMP JACKSON @ KENNETH SB","stop_desc":"NEAR SIDE CAMP JACKSON @ KENNETH SB","wheelchair_boarding":2,"routes":[{"route_id":"19642","agency_id":"70006","route_short_name":"8","route_long_name":"Alta Sita","route_type":3,"route_color":"#FFFFFF","route_text_color":"#000000"}],"agency_name":"Metro St. Louis"},"geometry":{"type":"Point","coordinates":[-90.16692,38.55451]}},{"type":"Feature","properties":{"stop_id":"12991","stop_code":"12991","stop_name":"CAMP JACKSON @ LAZARCHEFF SB","stop_desc":"NEAR SIDE CAMP JACKSON @ LAZARCHEFF SB","wheelchair_boarding":2,"routes":[{"route_id":"19642","agency_id":"70006","route_short_name":"8","route_long_name":"Alta Sita","route_type":3,"route_color":"#FFFFFF","route_text_color":"#000000"}],"agency_name":"Metro St. Louis"},"geometry":{"type":"Point","coordinates":[-90.1651,38.5529]}},{"type":"Feature","properties":{"stop_id":"12992","stop_code":"12992","stop_name":"CAMP JACKSON @ POPLAR EB","stop_desc":"NEAR SIDE CAMP JACKSON @ POPLAR EB","wheelchair_boarding":2,"routes":[{"route_id":"19642","agency_id":"70006","route_short_name":"8","route_long_name":"Alta Sita","route_type":3,"route_color":"#FFFFFF","route_text_color":"#000000"}],"agency_name":"Metro St. Louis"},"geometry":{"type":"Point","coordinates":[-90.15695,38.54875]}},{"type":"Feature","properties":{"stop_id":"12993","stop_code":"12993","stop_name":"CAMP JACKSON @ LOUISE EB","stop_desc":"NEAR SIDE CAMP JACKSON @ LOUISE EB","wheelchair_boarding":2,"routes":[{"route_id":"19642","agency_id":"70006","route_short_name":"8","route_long_name":"Alta Sita","route_type":3,"route_color":"#FFFFFF","route_text_color":"#000000"}],"agency_name":"Metro St. Louis"},"geometry":{"type":"Point","coordinates":[-90.15506,38.54926]}},{"type":"Feature","properties":{"stop_id":"12994","stop_code":"12994","stop_name":"CAMP JACKSON @ JEROME EB","stop_desc":"NEAR SIDE CAMP JACKSON @ JEROME EB","wheelchair_boarding":2,"routes":[{"route_id":"19642","agency_id":"70006","route_short_name":"8","route_long_name":"Alta Sita","route_type":3,"route_color":"#FFFFFF","route_text_color":"#000000"}],"agency_name":"Metro St. Louis"},"geometry":{"type":"Point","coordinates":[-90.15177,38.54981]}},{"type":"Feature","properties":{"stop_id":"12996","stop_code":"12996","stop_name":"CAMP JACKSON @ LLOYD EB","stop_desc":"NEAR SIDE CAMP JACKSON @ LLOYD EB","wheelchair_boarding":2,"routes":[{"route_id":"19642","agency_id":"70006","route_short_name":"8","route_long_name":"Alta Sita","route_type":3,"route_color":"#FFFFFF","route_text_color":"#000000"}],"agency_name":"Metro St. Louis"},"geometry":{"type":"Point","coordinates":[-90.14529,38.55082]}},{"type":"Feature","properties":{"stop_id":"12997","stop_code":"12997","stop_name":"CAMP JACKSON @ DELANO EB","stop_desc":"NEAR SIDE CAMP JACKSON @ DELANO EB","wheelchair_boarding":2,"routes":[{"route_id":"19642","agency_id":"70006","route_short_name":"8","route_long_name":"Alta Sita","route_type":3,"route_color":"#FFFFFF","route_text_color":"#000000"}],"agency_name":"Metro St. Louis"},"geometry":{"type":"Point","coordinates":[-90.13917,38.55073]}},{"type":"Feature","properties":{"stop_id":"12998","stop_code":"12998","stop_name":"CAMP JACKSON @ HELEN COURT EB","stop_desc":"FAR SIDE CAMP JACKSON @ HELEN COURT EB","wheelchair_boarding":2,"routes":[{"route_id":"19642","agency_id":"70006","route_short_name":"8","route_long_name":"Alta Sita","route_type":3,"route_color":"#FFFFFF","route_text_color":"#000000"}],"agency_name":"Metro St. Louis"},"geometry":{"type":"Point","coordinates":[-90.13727,38.55055]}},{"type":"Feature","properties":{"stop_id":"12999","stop_code":"12999","stop_name":"CAMP JACKSON @ DELORES EB","stop_desc":"NEAR SIDE CAMP JACKSON @ DELORES EB","wheelchair_boarding":2,"routes":[{"route_id":"19642","agency_id":"70006","route_short_name":"8","route_long_name":"Alta Sita","route_type":3,"route_color":"#FFFFFF","route_text_color":"#000000"}],"agency_name":"Metro St. Louis"},"geometry":{"type":"Point","coordinates":[-90.1346,38.5503]}},{"type":"Feature","properties":{"stop_id":"13000","stop_code":"13000","stop_name":"CAMP JACKSON @ LENORA EB","stop_desc":"NEAR SIDE CAMP JACKSON @ LENORA EB","wheelchair_boarding":2,"routes":[{"route_id":"19642","agency_id":"70006","route_short_name":"8","route_long_name":"Alta Sita","route_type":3,"route_color":"#FFFFFF","route_text_color":"#000000"}],"agency_name":"Metro St. Louis"},"geometry":{"type":"Point","coordinates":[-90.13274,38.55011]}},{"type":"Feature","properties":{"stop_id":"13001","stop_code":"13001","stop_name":"CAMP JACKSON @ CALVIN EB","stop_desc":"NEAR SIDE CAMP JACKSON @ CALVIN EB","wheelchair_boarding":2,"routes":[{"route_id":"19642","agency_id":"70006","route_short_name":"8","route_long_name":"Alta Sita","route_type":3,"route_color":"#FFFFFF","route_text_color":"#000000"}],"agency_name":"Metro St. Louis"},"geometry":{"type":"Point","coordinates":[-90.12961,38.54982]}},{"type":"Feature","properties":{"stop_id":"14193","stop_code":"14193","stop_name":"26TH STREET @ GATY NB","stop_desc":"NEAR SIDE 26TH STREET @ GATY NB","wheelchair_boarding":2,"routes":[{"route_id":"19642","agency_id":"70006","route_short_name":"8","route_long_name":"Alta Sita","route_type":3,"route_color":"#FFFFFF","route_text_color":"#000000"}],"agency_name":"Metro St. Louis"},"geometry":{"type":"Point","coordinates":[-90.1338,38.60604]}},{"type":"Feature","properties":{"stop_id":"14319","stop_code":"14319","stop_name":"BOND @ 26TH STREET WB","stop_desc":"NEAR SIDE BOND @ 26TH STREET WB","wheelchair_boarding":2,"routes":[{"route_id":"19642","agency_id":"70006","route_short_name":"8","route_long_name":"Alta Sita","route_type":3,"route_color":"#FFFFFF","route_text_color":"#000000"}],"agency_name":"Metro St. Louis"},"geometry":{"type":"Point","coordinates":[-90.14108,38.60014]}},{"type":"Feature","properties":{"stop_id":"14460","stop_code":"14460","stop_name":"26TH STREET @ DR JOHN H ROUSE NB","stop_desc":"NEAR SIDE 26TH STREET @ DR JOHN H ROUSE NB","wheelchair_boarding":2,"routes":[{"route_id":"19642","agency_id":"70006","route_short_name":"8","route_long_name":"Alta Sita","route_type":3,"route_color":"#FFFFFF","route_text_color":"#000000"}],"agency_name":"Metro St. Louis"},"geometry":{"type":"Point","coordinates":[-90.14076,38.60093]}},{"type":"Feature","properties":{"stop_id":"14883","stop_code":"14883","stop_name":"CAMP JACKSON @ DORIS EB","stop_desc":"NEAR SIDE CAMP JACKSON @ DORIS EB","wheelchair_boarding":2,"routes":[{"route_id":"19642","agency_id":"70006","route_short_name":"8","route_long_name":"Alta Sita","route_type":3,"route_color":"#FFFFFF","route_text_color":"#000000"}],"agency_name":"Metro St. Louis"},"geometry":{"type":"Point","coordinates":[-90.1495,38.55017]}},{"type":"Feature","properties":{"stop_id":"15263","stop_code":"15263","stop_name":"6610 FUTURE EB","stop_desc":"MID-BLOCK 6610 FUTURE EB","wheelchair_boarding":2,"routes":[{"route_id":"19642","agency_id":"70006","route_short_name":"8","route_long_name":"Alta Sita","route_type":3,"route_color":"#FFFFFF","route_text_color":"#000000"}],"agency_name":"Metro St. Louis"},"geometry":{"type":"Point","coordinates":[-90.1069,38.5651]}},{"type":"Feature","properties":{"stop_id":"15269","stop_code":"15269","stop_name":"26TH STREET @ KANSAS NB","stop_desc":"FAR SIDE 26TH STREET @ KANSAS NB","wheelchair_boarding":2,"routes":[{"route_id":"19642","agency_id":"70006","route_short_name":"8","route_long_name":"Alta Sita","route_type":3,"route_color":"#FFFFFF","route_text_color":"#000000"}],"agency_name":"Metro St. Louis"},"geometry":{"type":"Point","coordinates":[-90.13544,38.60483]}},{"type":"Feature","properties":{"stop_id":"15558","stop_code":"15558","stop_name":"BAUGH @ 18TH STREET WB","stop_desc":"FAR SIDE BAUGH @ 18TH STREET WB","wheelchair_boarding":2,"routes":[{"route_id":"19642","agency_id":"70006","route_short_name":"8","route_long_name":"Alta Sita","route_type":3,"route_color":"#FFFFFF","route_text_color":"#000000"}],"agency_name":"Metro St. Louis"},"geometry":{"type":"Point","coordinates":[-90.13473,38.62562]}},{"type":"Feature","properties":{"stop_id":"15559","stop_code":"15559","stop_name":"BAUGH @ 13TH STREET WB","stop_desc":"NEAR SIDE BAUGH @ 13TH STREET WB","wheelchair_boarding":2,"routes":[{"route_id":"19642","agency_id":"70006","route_short_name":"8","route_long_name":"Alta Sita","route_type":3,"route_color":"#FFFFFF","route_text_color":"#000000"}],"agency_name":"Metro St. Louis"},"geometry":{"type":"Point","coordinates":[-90.13736,38.62751]}},{"type":"Feature","properties":{"stop_id":"15560","stop_code":"15560","stop_name":"BAUGH @ 11TH STREET WB","stop_desc":"NEAR SIDE BAUGH @ 11TH STREET WB","wheelchair_boarding":2,"routes":[{"route_id":"19642","agency_id":"70006","route_short_name":"8","route_long_name":"Alta Sita","route_type":3,"route_color":"#FFFFFF","route_text_color":"#000000"}],"agency_name":"Metro St. Louis"},"geometry":{"type":"Point","coordinates":[-90.1409,38.63051]}},{"type":"Feature","properties":{"stop_id":"16434","stop_code":"16434","stop_name":"CAMP JACKSON @ LORRAINE EB","stop_desc":"FAR SIDE CAMP JACKSON @ LORRAINE EB","wheelchair_boarding":2,"routes":[{"route_id":"19642","agency_id":"70006","route_short_name":"8","route_long_name":"Alta Sita","route_type":3,"route_color":"#FFFFFF","route_text_color":"#000000"}],"agency_name":"Metro St. Louis"},"geometry":{"type":"Point","coordinates":[-90.11935,38.55064]}},{"type":"Feature","properties":{"stop_id":"16436","stop_code":"16436","stop_name":"OLD MISSOURI @ CHURCH NB","stop_desc":"FAR SIDE OLD MISSOURI @ CHURCH NB","wheelchair_boarding":2,"routes":[{"route_id":"19642","agency_id":"70006","route_short_name":"8","route_long_name":"Alta Sita","route_type":3,"route_color":"#FFFFFF","route_text_color":"#000000"}],"agency_name":"Metro St. Louis"},"geometry":{"type":"Point","coordinates":[-90.10852,38.55806]}},{"type":"Feature","properties":{"stop_id":"16438","stop_code":"16438","stop_name":"OLD MISSOURI @ CLARITA NB","stop_desc":"FAR SIDE OLD MISSOURI @ CLARITA NB","wheelchair_boarding":2,"routes":[{"route_id":"19642","agency_id":"70006","route_short_name":"8","route_long_name":"Alta Sita","route_type":3,"route_color":"#FFFFFF","route_text_color":"#000000"}],"agency_name":"Metro St. Louis"},"geometry":{"type":"Point","coordinates":[-90.10357,38.56345]}},{"type":"Feature","properties":{"stop_id":"16450","stop_code":"16450","stop_name":"CAMP JACKSON @ RENOIS EB","stop_desc":"FAR SIDE CAMP JACKSON @ RENOIS EB","wheelchair_boarding":2,"routes":[{"route_id":"19642","agency_id":"70006","route_short_name":"8","route_long_name":"Alta Sita","route_type":3,"route_color":"#FFFFFF","route_text_color":"#000000"}],"agency_name":"Metro St. Louis"},"geometry":{"type":"Point","coordinates":[-90.11413,38.55331]}}]}