{"type":"FeatureCollection","features":[{"type":"Feature","properties":{"agency_name":"Metro St. Louis","route_id":"19594","agency_id":"70006","route_short_name":"4","route_long_name":"Natural Bridge","route_type":3,"route_color":"#FFFFFF","route_text_color":"#000000"},"geometry":{"type":"MultiLineString","coordinates":[[[-90.31561,38.71975],[-90.315,38.71977],[-90.31561,38.71975],[-90.31577,38.71967],[-90.31586,38.7195],[-90.31606,38.71875],[-90.3161,38.71825],[-90.31606,38.71782],[-90.31624,38.71782],[-90.31809,38.71757],[-90.31825,38.71727],[-90.31845,38.71701],[-90.31892,38.71648],[-90.31911,38.71621],[-90.31921,38.71601],[-90.31929,38.71579],[-90.31933,38.71558],[-90.31935,38.71535],[-90.31936,38.71432],[-90.31935,38.7138],[-90.31938,38.71298],[-90.31938,38.71134],[-90.31939,38.71115],[-90.3195,38.71071],[-90.31868,38.71001],[-90.31656,38.70827],[-90.31593,38.70778],[-90.31541,38.70748],[-90.31456,38.7071],[-90.31424,38.70699],[-90.3137,38.70688],[-90.31327,38.70684],[-90.31283,38.70684],[-90.30883,38.70736],[-90.30814,38.70738],[-90.30741,38.70734],[-90.30686,38.70727],[-90.30573,38.70705],[-90.30587,38.70664],[-90.30611,38.70602],[-90.30617,38.70581],[-90.30617,38.70564],[-90.30614,38.70542],[-90.30608,38.70523],[-90.30598,38.70505],[-90.30576,38.70481],[-90.30542,38.70446],[-90.30527,38.70449],[-90.30523,38.70453],[-90.30522,38.70459],[-90.30546,38.70573],[-90.3055,38.70578],[-90.30559,38.70581],[-90.30617,38.70581]],[[-90.3054,38.70697],[-90.30587,38.70664],[-90.3054,38.70697],[-90.30478,38.70682],[-90.30436,38.7067],[-90.29724,38.70432],[-90.29705,38.70427],[-90.29696,38.70422],[-90.29677,38.70405],[-90.29666,38.70403],[-90.29655,38.70405],[-90.29645,38.70403],[-90.29605,38.70384],[-90.29203,38.70107],[-90.29179,38.70092],[-90.28968,38.69947],[-90.28833,38.6983],[-90.28809,38.69807],[-90.28735,38.69729],[-90.28618,38.69611],[-90.28581,38.6958],[-90.28547,38.69557],[-90.28509,38.69536],[-90.28449,38.69509],[-90.2835,38.69472],[-90.28127,38.69382],[-90.28033,38.69346],[-90.27986,38.69323],[-90.27931,38.69281],[-90.27906,38.6926],[-90.27642,38.69024],[-90.27562,38.68956],[-90.27506,38.68912],[-90.27256,38.68691],[-90.27213,38.68656],[-90.27125,38.686],[-90.26994,38.68521],[-90.2683,38.68408],[-90.26639,38.68289],[-90.26592,38.68262],[-90.26522,38.68228],[-90.2612,38.68054],[-90.25827,38.67924],[-90.25616,38.67824],[-90.25244,38.67661],[-90.25172,38.67631],[-90.24913,38.67519],[-90.2485,38.6749],[-90.24427,38.67308],[-90.24166,38.67205],[-90.24082,38.6717],[-90.23736,38.67016],[-90.23648,38.66979],[-90.22887,38.66643],[-90.22502,38.66476],[-90.22303,38.66387],[-90.22034,38.6627],[-90.21873,38.66202],[-90.21675,38.66114],[-90.21319,38.65959],[-90.21197,38.65894],[-90.21134,38.65866],[-90.21088,38.65848],[-90.20942,38.65782],[-90.2098,38.65652],[-90.21041,38.65475],[-90.21069,38.65401],[-90.21103,38.65297],[-90.21201,38.65016],[-90.21217,38.64977],[-90.21239,38.64941],[-90.21257,38.6492],[-90.21271,38.649],[-90.21287,38.64866],[-90.21291,38.64852],[-90.21293,38.64832],[-90.21291,38.64705],[-90.21293,38.64611],[-90.2129,38.64551],[-90.21278,38.64455],[-90.21274,38.64385],[-90.21272,38.64239],[-90.21272,38.64215],[-90.21279,38.6413],[-90.21283,38.64043],[-90.21282,38.63787],[-90.2128,38.63647],[-90.2128,38.63619],[-90.21282,38.63602],[-90.21289,38.63573],[-90.213,38.63541],[-90.21374,38.63413],[-90.21423,38.6332],[-90.21462,38.6325],[-90.21548,38.63109],[-90.21479,38.631],[-90.21406,38.63086],[-90.21229,38.63049],[-90.21136,38.63032],[-90.21045,38.63013],[-90.20694,38.62945],[-90.20459,38.62887],[-90.20239,38.62842],[-90.20104,38.62808],[-90.20188,38.62591],[-90.20235,38.62487],[-90.20249,38.62485],[-90.20257,38.62481]]]}},{"type":"Feature","properties":{"stop_id":"13330","stop_code":"13330","stop_name":"NORTH HANLEY TRANSIT CENTER","wheelchair_boarding":1,"routes":[{"route_id":"19594","agency_id":"70006","route_short_name":"4","route_long_name":"Natural Bridge","route_type":3,"route_color":"#FFFFFF","route_text_color":"#000000"},{"route_id":"19609","agency_id":"70006","route_short_name":"34","route_long_name":"Earth City","route_type":3,"route_color":"#FFFFFF","route_text_color":"#000000"},{"route_id":"19614","agency_id":"70006","route_short_name":"49","route_long_name":"Lindbergh","route_type":3,"route_color":"#FFFFFF","route_text_color":"#000000"},{"route_id":"19620","agency_id":"70006","route_short_name":"61","route_long_name":"Chambers Rd","route_type":3,"route_color":"#FFFFFF","route_text_color":"#000000"},{"route_id":"19625","agency_id":"70006","route_short_name":"76","route_long_name":"N Hanley Shuttle","route_type":3,"route_color":"#FFFFFF","route_text_color":"#000000"},{"route_id":"19626","agency_id":"70006","route_short_name":"77","route_long_name":"Village Square","route_type":3,"route_color":"#FFFFFF","route_text_color":"#000000"},{"route_id":"19628","agency_id":"70006","route_short_name":"79","route_long_name":"Ferguson-Clayton","route_type":3,"route_color":"#FFFFFF","route_text_color":"#000000"}],"agency_name":"Metro St. Louis"},"geometry":{"type":"Point","coordinates":[-90.31495,38.71976]}},{"type":"Feature","properties":{"stop_id":"1589","stop_code":"1589","stop_name":"MARKET @ 20TH STREET EB","stop_desc":"FAR SIDE MARKET @ 20TH STREET EB","wheelchair_boarding":1,"routes":[{"route_id":"19594","agency_id":"70006","route_short_name":"4","route_long_name":"Natural Bridge","route_type":3,"route_color":"#FFFFFF","route_text_color":"#000000"},{"route_id":"19631","agency_id":"70006","route_short_name":"94","route_long_name":"Page","route_type":3,"route_color":"#FFFFFF","route_text_color":"#000000"}],"agency_name":"Metro St. Louis"},"geometry":{"type":"Point","coordinates":[-90.20867,38.62971]}},{"type":"Feature","properties":{"stop_id":"1591","stop_code":"1591","stop_name":"MARKET @ 16TH STREET EB","stop_desc":"FAR SIDE MARKET @ 16TH STREET EB","wheelchair_boarding":1,"routes":[{"route_id":"19594","agency_id":"70006","route_short_name":"4","route_long_name":"Natural Bridge","route_type":3,"route_color":"#FFFFFF","route_text_color":"#000000"},{"route_id":"19631","agency_id":"70006","route_short_name":"94","route_long_name":"Page","route_type":3,"route_color":"#FFFFFF","route_text_color":"#000000"}],"agency_name":"Metro St. Louis"},"geometry":{"type":"Point","coordinates":[-90.20362,38.62859]}},{"type":"Feature","properties":{"stop_id":"15969","stop_code":"15969","stop_name":"NATURAL BRIDGE @ CLARA EB","stop_desc":"FAR SIDE NATURAL BRIDGE @ CLARA EB","wheelchair_boarding":1,"routes":[{"route_id":"19594","agency_id":"70006","route_short_name":"4","route_long_name":"Natural Bridge","route_type":3,"route_color":"#FFFFFF","route_text_color":"#000000"}],"agency_name":"Metro St. Louis"},"geometry":{"type":"Point","coordinates":[-90.26593,38.68251]}},{"type":"Feature","properties":{"stop_id":"16499","stop_code":"16499","stop_name":"JEFFERSON @ OLIVE SB","stop_desc":"FAR SIDE JEFFERSON @ OLIVE SB","wheelchair_boarding":2,"routes":[{"route_id":"19594","agency_id":"70006","route_short_name":"4","route_long_name":"Natural Bridge","route_type":3,"route_color":"#FFFFFF","route_text_color":"#000000"}],"agency_name":"Metro St. Louis"},"geometry":{"type":"Point","coordinates":[-90.21442,38.63307]}},{"type":"Feature","properties":{"stop_id":"5902","stop_code":"5902","stop_name":"4215 NORTH HANLEY SB","stop_desc":"MID-BLOCK 4215 NORTH HANLEY SB","wheelchair_boarding":2,"routes":[{"route_id":"19594","agency_id":"70006","route_short_name":"4","route_long_name":"Natural Bridge","route_type":3,"route_color":"#FFFFFF","route_text_color":"#000000"},{"route_id":"19614","agency_id":"70006","route_short_name":"49","route_long_name":"Lindbergh","route_type":3,"route_color":"#FFFFFF","route_text_color":"#000000"},{"route_id":"19628","agency_id":"70006","route_short_name":"79","route_long_name":"Ferguson-Clayton","route_type":3,"route_color":"#FFFFFF","route_text_color":"#000000"}],"agency_name":"Metro St. Louis"},"geometry":{"type":"Point","coordinates":[-90.319,38.71649]}},{"type":"Feature","properties":{"stop_id":"5904","stop_code":"5904","stop_name":"NORTH HANLEY @ NATURAL BRIDGE SB","stop_desc":"NEAR SIDE NORTH HANLEY @ NATURAL BRIDGE SB","wheelchair_boarding":2,"routes":[{"route_id":"19594","agency_id":"70006","route_short_name":"4","route_long_name":"Natural Bridge","route_type":3,"route_color":"#FFFFFF","route_text_color":"#000000"},{"route_id":"19614","agency_id":"70006","route_short_name":"49","route_long_name":"Lindbergh","route_type":3,"route_color":"#FFFFFF","route_text_color":"#000000"},{"route_id":"19628","agency_id":"70006","route_short_name":"79","route_long_name":"Ferguson-Clayton","route_type":3,"route_color":"#FFFFFF","route_text_color":"#000000"}],"agency_name":"Metro St. Louis"},"geometry":{"type":"Point","coordinates":[-90.31942,38.71222]}},{"type":"Feature","properties":{"stop_id":"7653","stop_code":"7653","stop_name":"CIVIC CENTER TRANSIT CENTER","wheelchair_boarding":1,"routes":[{"route_id":"19594","agency_id":"70006","route_short_name":"4","route_long_name":"Natural Bridge","route_type":3,"route_color":"#FFFFFF","route_text_color":"#000000"},{"route_id":"19598","agency_id":"70006","route_short_name":"10","route_long_name":"Gravois-Lindell","route_type":3,"route_color":"#FFFFFF","route_text_color":"#000000"},{"route_id":"19599","agency_id":"70006","route_short_name":"11","route_long_name":"Chippewa","route_type":3,"route_color":"#FFFFFF","route_text_color":"#000000"},{"route_id":"19603","agency_id":"70006","route_short_name":"19","route_long_name":"St Louis Ave","route_type":3,"route_color":"#FFFFFF","route_text_color":"#000000"}],"agency_name":"Metro St. Louis"},"geometry":{"type":"Point","coordinates":[-90.20281,38.62428]}},{"type":"Feature","properties":{"stop_id":"7855","stop_code":"7855","stop_name":"14TH STREET @ MARKET SB","stop_desc":"MID-BLOCK 14TH STREET @ MARKET SB","wheelchair_boarding":1,"routes":[{"route_id":"19594","agency_id":"70006","route_short_name":"4","route_long_name":"Natural Bridge","route_type":3,"route_color":"#FFFFFF","route_text_color":"#000000"},{"route_id":"19598","agency_id":"70006","route_short_name":"10","route_long_name":"Gravois-Lindell","route_type":3,"route_color":"#FFFFFF","route_text_color":"#000000"},{"route_id":"19607","agency_id":"70006","route_short_name":"32","route_long_name":"Dr ML King","route_type":3,"route_color":"#FFFFFF","route_text_color":"#000000"},{"route_id":"19611","agency_id":"70006","route_short_name":"40","route_long_name":"Broadway-Halls Ferry","route_type":3,"route_color":"#FFFFFF","route_text_color":"#000000"},{"route_id":"19612","agency_id":"70006","route_short_name":"41","route_long_name":"Lee","route_type":3,"route_color":"#FFFFFF","route_text_color":"#000000"},{"route_id":"19624","agency_id":"70006","route_short_name":"74","route_long_name":"Florissant","route_type":3,"route_color":"#FFFFFF","route_text_color":"#000000"},{"route_id":"19631","agency_id":"70006","route_short_name":"94","route_long_name":"Page","route_type":3,"route_color":"#FFFFFF","route_text_color":"#000000"},{"route_id":"19633","agency_id":"70006","route_short_name":"97","route_long_name":"Delmar","route_type":3,"route_color":"#FFFFFF","route_text_color":"#000000"}],"agency_name":"Metro St. Louis"},"geometry":{"type":"Point","coordinates":[-90.20127,38.62775]}},{"type":"Feature","properties":{"stop_id":"8839","stop_code":"8839","stop_name":"MARKET @ 23RD STREET EB","stop_desc":"NEAR SIDE MARKET @ 23RD STREET EB","wheelchair_boarding":1,"routes":[{"route_id":"19594","agency_id":"70006","route_short_name":"4","route_long_name":"Natural Bridge","route_type":3,"route_color":"#FFFFFF","route_text_color":"#000000"},{"route_id":"19631","agency_id":"70006","route_short_name":"94","route_long_name":"Page","route_type":3,"route_color":"#FFFFFF","route_text_color":"#000000"}],"agency_name":"Metro St. Louis"},"geometry":{"type":"Point","coordinates":[-90.21427,38.63079]}},{"type":"Feature","properties":{"stop_id":"8840","stop_code":"8840","stop_name":"MARKET @ 22ND STREET EB","stop_desc":"NEAR SIDE MARKET @ 22ND STREET EB","wheelchair_boarding":1,"routes":[{"route_id":"19594","agency_id":"70006","route_short_name":"4","route_long_name":"Natural Bridge","route_type":3,"route_color":"#FFFFFF","route_text_color":"#000000"},{"route_id":"19631","agency_id":"70006","route_short_name":"94","route_long_name":"Page","route_type":3,"route_color":"#FFFFFF","route_text_color":"#000000"}],"agency_name":"Metro St. Louis"},"geometry":{"type":"Point","coordinates":[-90.21278,38.6305]}},{"type":"Feature","properties":{"stop_id":"8842","stop_code":"8842","stop_name":"MARKET @ 18TH STREET EB","stop_desc":"FAR SIDE MARKET @ 18TH STREET EB","wheelchair_boarding":1,"routes":[{"route_id":"19594","agency_id":"70006","route_short_name":"4","route_long_name":"Natural Bridge","route_type":3,"route_color":"#FFFFFF","route_text_color":"#000000"},{"route_id":"19631","agency_id":"70006","route_short_name":"94","route_long_name":"Page","route_type":3,"route_color":"#FFFFFF","route_text_color":"#000000"}],"agency_name":"Metro St. Louis"},"geometry":{"type":"Point","coordinates":[-90.20609,38.62909]}},{"type":"Feature","properties":{"stop_id":"9157","stop_code":"9157","stop_name":"UMSL SOUTH TRANSIT CENTER","wheelchair_boarding":1,"routes":[{"route_id":"19594","agency_id":"70006","route_short_name":"4","route_long_name":"Natural Bridge","route_type":3,"route_color":"#FFFFFF","route_text_color":"#000000"}],"agency_name":"Metro St. Louis"},"geometry":{"type":"Point","coordinates":[-90.3053,38.70528]}},{"type":"Feature","properties":{"stop_id":"9222","stop_code":"9222","stop_name":"8324 NATURAL BRIDGE EB","stop_desc":"MID-BLOCK 8324 NATURAL BRIDGE EB","wheelchair_boarding":1,"routes":[{"route_id":"19594","agency_id":"70006","route_short_name":"4","route_long_name":"Natural Bridge","route_type":3,"route_color":"#FFFFFF","route_text_color":"#000000"}],"agency_name":"Metro St. Louis"},"geometry":{"type":"Point","coordinates":[-90.31653,38.70816]}},{"type":"Feature","properties":{"stop_id":"9224","stop_code":"9224","stop_name":"NATURAL BRIDGE @ CLEARVIEW EB","stop_desc":"FAR SIDE NATURAL BRIDGE @ CLEARVIEW EB","wheelchair_boarding":1,"routes":[{"route_id":"19594","agency_id":"70006","route_short_name":"4","route_long_name":"Natural Bridge","route_type":3,"route_color":"#FFFFFF","route_text_color":"#000000"}],"agency_name":"Metro St. Louis"},"geometry":{"type":"Point","coordinates":[-90.31438,38.70695]}},{"type":"Feature","properties":{"stop_id":"9225","stop_code":"9225","stop_name":"NATURAL BRIDGE @ UNIVERSITY EB","stop_desc":"FAR SIDE NATURAL BRIDGE @ UNIVERSITY EB","wheelchair_boarding":1,"routes":[{"route_id":"19594","agency_id":"70006","route_short_name":"4","route_long_name":"Natural Bridge","route_type":3,"route_color":"#FFFFFF","route_text_color":"#000000"}],"agency_name":"Metro St. Louis"},"geometry":{"type":"Point","coordinates":[-90.31098,38.70701]}},{"type":"Feature","properties":{"stop_id":"9226","stop_code":"9226","stop_name":"NATURAL BRIDGE @ NORMANDY MIDDLE SCHOOL EB","stop_desc":"NEAR SIDE NATURAL BRIDGE @ NORMANDY MIDDLE SCHOOL EB","wheelchair_boarding":1,"routes":[{"route_id":"19594","agency_id":"70006","route_short_name":"4","route_long_name":"Natural Bridge","route_type":3,"route_color":"#FFFFFF","route_text_color":"#000000"}],"agency_name":"Metro St. Louis"},"geometry":{"type":"Point","coordinates":[-90.30835,38.70731]}},{"type":"Feature","properties":{"stop_id":"9228","stop_code":"9228","stop_name":"NATURAL BRIDGE @ MARIETTA EB","stop_desc":"FAR SIDE NATURAL BRIDGE @ MARIETTA EB","wheelchair_boarding":1,"routes":[{"route_id":"19594","agency_id":"70006","route_short_name":"4","route_long_name":"Natural Bridge","route_type":3,"route_color":"#FFFFFF","route_text_color":"#000000"}],"agency_name":"Metro St. Louis"},"geometry":{"type":"Point","coordinates":[-90.30289,38.70615]}},{"type":"Feature","properties":{"stop_id":"9229","stop_code":"9229","stop_name":"NATURAL BRIDGE @ ST. ANNS EB","stop_desc":"FAR SIDE NATURAL BRIDGE @ ST. ANNS EB","wheelchair_boarding":1,"routes":[{"route_id":"19594","agency_id":"70006","route_short_name":"4","route_long_name":"Natural Bridge","route_type":3,"route_color":"#FFFFFF","route_text_color":"#000000"}],"agency_name":"Metro St. Louis"},"geometry":{"type":"Point","coordinates":[-90.30021,38.70524]}},{"type":"Feature","properties":{"stop_id":"9230","stop_code":"9230","stop_name":"NATURAL BRIDGE @ ST. MARYS EB","stop_desc":"NEAR SIDE NATURAL BRIDGE @ ST. MARYS EB","wheelchair_boarding":1,"routes":[{"route_id":"19594","agency_id":"70006","route_short_name":"4","route_long_name":"Natural Bridge","route_type":3,"route_color":"#FFFFFF","route_text_color":"#000000"}],"agency_name":"Metro St. Louis"},"geometry":{"type":"Point","coordinates":[-90.29752,38.70435]}},{"type":"Feature","properties":{"stop_id":"9232","stop_code":"9232","stop_name":"7272 NATURAL BRIDGE EB","stop_desc":"NEAR SIDE 7272 NATURAL BRIDGE EB","wheelchair_boarding":1,"routes":[{"route_id":"19594","agency_id":"70006","route_short_name":"4","route_long_name":"Natural Bridge","route_type":3,"route_color":"#FFFFFF","route_text_color":"#000000"}],"agency_name":"Metro St. Louis"},"geometry":{"type":"Point","coordinates":[-90.29539,38.70331]}},{"type":"Feature","properties":{"stop_id":"9233","stop_code":"9233","stop_name":"NATURAL BRIDGE @ LUCAS-HUNT EB","stop_desc":"NEAR SIDE NATURAL BRIDGE @ LUCAS-HUNT EB","wheelchair_boarding":1,"routes":[{"route_id":"19594","agency_id":"70006","route_short_name":"4","route_long_name":"Natural Bridge","route_type":3,"route_color":"#FFFFFF","route_text_color":"#000000"}],"agency_name":"Metro St. Louis"},"geometry":{"type":"Point","coordinates":[-90.29213,38.70102]}},{"type":"Feature","properties":{"stop_id":"9234","stop_code":"9234","stop_name":"7060 NATURAL BRIDGE EB","stop_desc":"FAR SIDE 7060 NATURAL BRIDGE EB","wheelchair_boarding":1,"routes":[{"route_id":"19594","agency_id":"70006","route_short_name":"4","route_long_name":"Natural Bridge","route_type":3,"route_color":"#FFFFFF","route_text_color":"#000000"}],"agency_name":"Metro St. Louis"},"geometry":{"type":"Point","coordinates":[-90.29037,38.69985]}},{"type":"Feature","properties":{"stop_id":"9235","stop_code":"9235","stop_name":"NATURAL BRIDGE  @ COLONIAL EB","stop_desc":"NEAR SIDE NATURAL BRIDGE  @ COLONIAL EB","wheelchair_boarding":2,"routes":[{"route_id":"19594","agency_id":"70006","route_short_name":"4","route_long_name":"Natural Bridge","route_type":3,"route_color":"#FFFFFF","route_text_color":"#000000"}],"agency_name":"Metro St. Louis"},"geometry":{"type":"Point","coordinates":[-90.28897,38.69875]}},{"type":"Feature","properties":{"stop_id":"9236","stop_code":"9236","stop_name":"NATURAL BRIDGE @ MAYWOOD EB","stop_desc":"NEAR SIDE NATURAL BRIDGE @ MAYWOOD EB","wheelchair_boarding":2,"routes":[{"route_id":"19594","agency_id":"70006","route_short_name":"4","route_long_name":"Natural Bridge","route_type":3,"route_color":"#FFFFFF","route_text_color":"#000000"}],"agency_name":"Metro St. Louis"},"geometry":{"type":"Point","coordinates":[-90.28773,38.69758]}},{"type":"Feature","properties":{"stop_id":"9238","stop_code":"9238","stop_name":"NATURAL BRIDGE @ LAWLER EB","stop_desc":"NEAR SIDE NATURAL BRIDGE @ LAWLER EB","wheelchair_boarding":1,"routes":[{"route_id":"19594","agency_id":"70006","route_short_name":"4","route_long_name":"Natural Bridge","route_type":3,"route_color":"#FFFFFF","route_text_color":"#000000"}],"agency_name":"Metro St. Louis"},"geometry":{"type":"Point","coordinates":[-90.28584,38.69572]}},{"type":"Feature","properties":{"stop_id":"9240","stop_code":"9240","stop_name":"NATURAL BRIDGE @ PINE GROVE EB","stop_desc":"NEAR SIDE NATURAL BRIDGE @ PINE GROVE EB","wheelchair_boarding":1,"routes":[{"route_id":"19594","agency_id":"70006","route_short_name":"4","route_long_name":"Natural Bridge","route_type":3,"route_color":"#FFFFFF","route_text_color":"#000000"}],"agency_name":"Metro St. Louis"},"geometry":{"type":"Point","coordinates":[-90.28049,38.69346]}},{"type":"Feature","properties":{"stop_id":"9242","stop_code":"9242","stop_name":"NATURAL BRIDGE @ FRANCIS EB","stop_desc":"NEAR SIDE NATURAL BRIDGE @ FRANCIS EB","wheelchair_boarding":2,"routes":[{"route_id":"19594","agency_id":"70006","route_short_name":"4","route_long_name":"Natural Bridge","route_type":3,"route_color":"#FFFFFF","route_text_color":"#000000"}],"agency_name":"Metro St. Louis"},"geometry":{"type":"Point","coordinates":[-90.27836,38.69183]}},{"type":"Feature","properties":{"stop_id":"9244","stop_code":"9244","stop_name":"NATURAL BRIDGE @ DARBY EB","stop_desc":"NEAR SIDE NATURAL BRIDGE @ DARBY EB","wheelchair_boarding":2,"routes":[{"route_id":"19594","agency_id":"70006","route_short_name":"4","route_long_name":"Natural Bridge","route_type":3,"route_color":"#FFFFFF","route_text_color":"#000000"}],"agency_name":"Metro St. Louis"},"geometry":{"type":"Point","coordinates":[-90.27493,38.68889]}},{"type":"Feature","properties":{"stop_id":"9246","stop_code":"9246","stop_name":"NATURAL BRIDGE @ GOODFELLOW EB","stop_desc":"NEAR SIDE NATURAL BRIDGE @ GOODFELLOW EB","wheelchair_boarding":2,"routes":[{"route_id":"19594","agency_id":"70006","route_short_name":"4","route_long_name":"Natural Bridge","route_type":3,"route_color":"#FFFFFF","route_text_color":"#000000"}],"agency_name":"Metro St. Louis"},"geometry":{"type":"Point","coordinates":[-90.27073,38.68561]}},{"type":"Feature","properties":{"stop_id":"9248","stop_code":"9248","stop_name":"NATURAL BRIDGE @ BELT EB","stop_desc":"FAR SIDE NATURAL BRIDGE @ BELT EB","wheelchair_boarding":1,"routes":[{"route_id":"19594","agency_id":"70006","route_short_name":"4","route_long_name":"Natural Bridge","route_type":3,"route_color":"#FFFFFF","route_text_color":"#000000"}],"agency_name":"Metro St. Louis"},"geometry":{"type":"Point","coordinates":[-90.26346,38.68143]}},{"type":"Feature","properties":{"stop_id":"9250","stop_code":"9250","stop_name":"NATURAL BRIDGE @ ABNER PLACE EB","stop_desc":"FAR SIDE NATURAL BRIDGE @ ABNER PLACE EB","wheelchair_boarding":2,"routes":[{"route_id":"19594","agency_id":"70006","route_short_name":"4","route_long_name":"Natural Bridge","route_type":3,"route_color":"#FFFFFF","route_text_color":"#000000"}],"agency_name":"Metro St. Louis"},"geometry":{"type":"Point","coordinates":[-90.25959,38.67978]}},{"type":"Feature","properties":{"stop_id":"9251","stop_code":"9251","stop_name":"NATURAL BRIDGE @ UNION EB","stop_desc":"FAR SIDE NATURAL BRIDGE @ UNION EB","wheelchair_boarding":1,"routes":[{"route_id":"19594","agency_id":"70006","route_short_name":"4","route_long_name":"Natural Bridge","route_type":3,"route_color":"#FFFFFF","route_text_color":"#000000"}],"agency_name":"Metro St. Louis"},"geometry":{"type":"Point","coordinates":[-90.25794,38.67901]}},{"type":"Feature","properties":{"stop_id":"9252","stop_code":"9252","stop_name":"NATURAL BRIDGE @ GERALDINE EB","stop_desc":"FAR SIDE NATURAL BRIDGE @ GERALDINE EB","wheelchair_boarding":1,"routes":[{"route_id":"19594","agency_id":"70006","route_short_name":"4","route_long_name":"Natural Bridge","route_type":3,"route_color":"#FFFFFF","route_text_color":"#000000"}],"agency_name":"Metro St. Louis"},"geometry":{"type":"Point","coordinates":[-90.25539,38.67781]}},{"type":"Feature","properties":{"stop_id":"9254","stop_code":"9254","stop_name":"NATURAL BRIDGE @ KINGSHIGHWAY EB","stop_desc":"NEAR SIDE NATURAL BRIDGE @ KINGSHIGHWAY EB","wheelchair_boarding":1,"routes":[{"route_id":"19594","agency_id":"70006","route_short_name":"4","route_long_name":"Natural Bridge","route_type":3,"route_color":"#FFFFFF","route_text_color":"#000000"}],"agency_name":"Metro St. Louis"},"geometry":{"type":"Point","coordinates":[-90.25316,38.67682]}},{"type":"Feature","properties":{"stop_id":"9255","stop_code":"9255","stop_name":"NATURAL BRIDGE @ KINGSHIGHWAY EB","stop_desc":"FAR SIDE NATURAL BRIDGE @ KINGSHIGHWAY EB","wheelchair_boarding":1,"routes":[{"route_id":"19594","agency_id":"70006","route_short_name":"4","route_long_name":"Natural Bridge","route_type":3,"route_color":"#FFFFFF","route_text_color":"#000000"}],"agency_name":"Metro St. Louis"},"geometry":{"type":"Point","coordinates":[-90.25134,38.67604]}},{"type":"Feature","properties":{"stop_id":"9256","stop_code":"9256","stop_name":"NATURAL BRIDGE @ EUCLID EB","stop_desc":"NEAR SIDE NATURAL BRIDGE @ EUCLID EB","wheelchair_boarding":1,"routes":[{"route_id":"19594","agency_id":"70006","route_short_name":"4","route_long_name":"Natural Bridge","route_type":3,"route_color":"#FFFFFF","route_text_color":"#000000"}],"agency_name":"Metro St. Louis"},"geometry":{"type":"Point","coordinates":[-90.24938,38.6752]}},{"type":"Feature","properties":{"stop_id":"9257","stop_code":"9257","stop_name":"NATURAL BRIDGE @ SHREVE EB","stop_desc":"NEAR SIDE NATURAL BRIDGE @ SHREVE EB","wheelchair_boarding":1,"routes":[{"route_id":"19594","agency_id":"70006","route_short_name":"4","route_long_name":"Natural Bridge","route_type":3,"route_color":"#FFFFFF","route_text_color":"#000000"}],"agency_name":"Metro St. Louis"},"geometry":{"type":"Point","coordinates":[-90.24606,38.67374]}},{"type":"Feature","properties":{"stop_id":"9258","stop_code":"9258","stop_name":"NATURAL BRIDGE @ MARCUS EB","stop_desc":"FAR SIDE NATURAL BRIDGE @ MARCUS EB","wheelchair_boarding":1,"routes":[{"route_id":"19594","agency_id":"70006","route_short_name":"4","route_long_name":"Natural Bridge","route_type":3,"route_color":"#FFFFFF","route_text_color":"#000000"}],"agency_name":"Metro St. Louis"},"geometry":{"type":"Point","coordinates":[-90.24376,38.67278]}},{"type":"Feature","properties":{"stop_id":"9260","stop_code":"9260","stop_name":"NATURAL BRIDGE @ TAYLOR EB","stop_desc":"FAR SIDE NATURAL BRIDGE @ TAYLOR EB","wheelchair_boarding":2,"routes":[{"route_id":"19594","agency_id":"70006","route_short_name":"4","route_long_name":"Natural Bridge","route_type":3,"route_color":"#FFFFFF","route_text_color":"#000000"}],"agency_name":"Metro St. Louis"},"geometry":{"type":"Point","coordinates":[-90.23908,38.67085]}},{"type":"Feature","properties":{"stop_id":"9261","stop_code":"9261","stop_name":"NATURAL BRIDGE @ NEWSTEAD EB","stop_desc":"NEAR SIDE NATURAL BRIDGE @ NEWSTEAD EB","wheelchair_boarding":1,"routes":[{"route_id":"19594","agency_id":"70006","route_short_name":"4","route_long_name":"Natural Bridge","route_type":3,"route_color":"#FFFFFF","route_text_color":"#000000"}],"agency_name":"Metro St. Louis"},"geometry":{"type":"Point","coordinates":[-90.23673,38.66981]}},{"type":"Feature","properties":{"stop_id":"9262","stop_code":"9262","stop_name":"NATURAL BRIDGE @ CLARENCE EB","stop_desc":"FAR SIDE NATURAL BRIDGE @ CLARENCE EB","wheelchair_boarding":1,"routes":[{"route_id":"19594","agency_id":"70006","route_short_name":"4","route_long_name":"Natural Bridge","route_type":3,"route_color":"#FFFFFF","route_text_color":"#000000"}],"agency_name":"Metro St. Louis"},"geometry":{"type":"Point","coordinates":[-90.23449,38.66881]}},{"type":"Feature","properties":{"stop_id":"9263","stop_code":"9263","stop_name":"NATURAL BRIDGE @ LAMBDIN EB","stop_desc":"NEAR SIDE NATURAL BRIDGE @ LAMBDIN EB","wheelchair_boarding":1,"routes":[{"route_id":"19594","agency_id":"70006","route_short_name":"4","route_long_name":"Natural Bridge","route_type":3,"route_color":"#FFFFFF","route_text_color":"#000000"}],"agency_name":"Metro St. Louis"},"geometry":{"type":"Point","coordinates":[-90.23284,38.6681]}},{"type":"Feature","properties":{"stop_id":"9265","stop_code":"9265","stop_name":"NATURAL BRIDGE @ FAIR EB","stop_desc":"FAR SIDE NATURAL BRIDGE @ FAIR EB","wheelchair_boarding":1,"routes":[{"route_id":"19594","agency_id":"70006","route_short_name":"4","route_long_name":"Natural Bridge","route_type":3,"route_color":"#FFFFFF","route_text_color":"#000000"}],"agency_name":"Metro St. Louis"},"geometry":{"type":"Point","coordinates":[-90.22923,38.6665]}},{"type":"Feature","properties":{"stop_id":"9266","stop_code":"9266","stop_name":"NATURAL BRIDGE @ CLAY EB","stop_desc":"NEAR SIDE NATURAL BRIDGE @ CLAY EB","wheelchair_boarding":1,"routes":[{"route_id":"19594","agency_id":"70006","route_short_name":"4","route_long_name":"Natural Bridge","route_type":3,"route_color":"#FFFFFF","route_text_color":"#000000"}],"agency_name":"Metro St. Louis"},"geometry":{"type":"Point","coordinates":[-90.22696,38.66548]}},{"type":"Feature","properties":{"stop_id":"9267","stop_code":"9267","stop_name":"NATURAL BRIDGE @ WARNE EB","stop_desc":"NEAR SIDE NATURAL BRIDGE @ WARNE EB","wheelchair_boarding":1,"routes":[{"route_id":"19594","agency_id":"70006","route_short_name":"4","route_long_name":"Natural Bridge","route_type":3,"route_color":"#FFFFFF","route_text_color":"#000000"}],"agency_name":"Metro St. Louis"},"geometry":{"type":"Point","coordinates":[-90.22532,38.66483]}},{"type":"Feature","properties":{"stop_id":"9268","stop_code":"9268","stop_name":"NATURAL BRIDGE @ VANDEVENTER  EB","stop_desc":"FAR SIDE NATURAL BRIDGE @ VANDEVENTER  EB","wheelchair_boarding":1,"routes":[{"route_id":"19594","agency_id":"70006","route_short_name":"4","route_long_name":"Natural Bridge","route_type":3,"route_color":"#FFFFFF","route_text_color":"#000000"}],"agency_name":"Metro St. Louis"},"geometry":{"type":"Point","coordinates":[-90.22222,38.66342]}},{"type":"Feature","properties":{"stop_id":"9269","stop_code":"9269","stop_name":"NATURAL BRIDGE @ PRAIRIE EB","stop_desc":"FAR SIDE NATURAL BRIDGE @ PRAIRIE EB","wheelchair_boarding":1,"routes":[{"route_id":"19594","agency_id":"70006","route_short_name":"4","route_long_name":"Natural Bridge","route_type":3,"route_color":"#FFFFFF","route_text_color":"#000000"}],"agency_name":"Metro St. Louis"},"geometry":{"type":"Point","coordinates":[-90.21992,38.66242]}},{"type":"Feature","properties":{"stop_id":"9270","stop_code":"9270","stop_name":"NATURAL BRIDGE @ SPRING EB","stop_desc":"FAR SIDE NATURAL BRIDGE @ SPRING EB","wheelchair_boarding":1,"routes":[{"route_id":"19594","agency_id":"70006","route_short_name":"4","route_long_name":"Natural Bridge","route_type":3,"route_color":"#FFFFFF","route_text_color":"#000000"}],"agency_name":"Metro St. Louis"},"geometry":{"type":"Point","coordinates":[-90.21826,38.66173]}},{"type":"Feature","properties":{"stop_id":"9271","stop_code":"9271","stop_name":"NATURAL BRIDGE @ GRAND EB","stop_desc":"NEAR SIDE NATURAL BRIDGE @ GRAND EB","wheelchair_boarding":1,"routes":[{"route_id":"19594","agency_id":"70006","route_short_name":"4","route_long_name":"Natural Bridge","route_type":3,"route_color":"#FFFFFF","route_text_color":"#000000"}],"agency_name":"Metro St. Louis"},"geometry":{"type":"Point","coordinates":[-90.21733,38.66128]}},{"type":"Feature","properties":{"stop_id":"9272","stop_code":"9272","stop_name":"NATURAL BRIDGE @ GLASGOW EB","stop_desc":"FAR SIDE NATURAL BRIDGE @ GLASGOW EB","wheelchair_boarding":1,"routes":[{"route_id":"19594","agency_id":"70006","route_short_name":"4","route_long_name":"Natural Bridge","route_type":3,"route_color":"#FFFFFF","route_text_color":"#000000"}],"agency_name":"Metro St. Louis"},"geometry":{"type":"Point","coordinates":[-90.21302,38.65939]}},{"type":"Feature","properties":{"stop_id":"9275","stop_code":"9275","stop_name":"NATURAL BRIDGE @ PARNELL EB","stop_desc":"NEAR SIDE NATURAL BRIDGE @ PARNELL EB","wheelchair_boarding":1,"routes":[{"route_id":"19594","agency_id":"70006","route_short_name":"4","route_long_name":"Natural Bridge","route_type":3,"route_color":"#FFFFFF","route_text_color":"#000000"}],"agency_name":"Metro St. Louis"},"geometry":{"type":"Point","coordinates":[-90.21034,38.6581]}},{"type":"Feature","properties":{"stop_id":"9276","stop_code":"9276","stop_name":"PARNELL @ HEBERT SB","stop_desc":"FAR SIDE PARNELL @ HEBERT SB","wheelchair_boarding":2,"routes":[{"route_id":"19594","agency_id":"70006","route_short_name":"4","route_long_name":"Natural Bridge","route_type":3,"route_color":"#FFFFFF","route_text_color":"#000000"}],"agency_name":"Metro St. Louis"},"geometry":{"type":"Point","coordinates":[-90.21006,38.65609]}},{"type":"Feature","properties":{"stop_id":"9279","stop_code":"9279","stop_name":"PARNELL @ ST. LOUIS SB","stop_desc":"FAR SIDE PARNELL @ ST. LOUIS SB","wheelchair_boarding":2,"routes":[{"route_id":"19594","agency_id":"70006","route_short_name":"4","route_long_name":"Natural Bridge","route_type":3,"route_color":"#FFFFFF","route_text_color":"#000000"}],"agency_name":"Metro St. Louis"},"geometry":{"type":"Point","coordinates":[-90.21128,38.65262]}},{"type":"Feature","properties":{"stop_id":"9280","stop_code":"9280","stop_name":"PARNELL @ WARREN SB","stop_desc":"FAR SIDE PARNELL @ WARREN SB","wheelchair_boarding":2,"routes":[{"route_id":"19594","agency_id":"70006","route_short_name":"4","route_long_name":"Natural Bridge","route_type":3,"route_color":"#FFFFFF","route_text_color":"#000000"}],"agency_name":"Metro St. Louis"},"geometry":{"type":"Point","coordinates":[-90.21178,38.65116]}},{"type":"Feature","properties":{"stop_id":"9282","stop_code":"9282","stop_name":"PARNELL @ NORTH MARKET SB","stop_desc":"NEAR SIDE PARNELL @ NORTH MARKET SB","wheelchair_boarding":2,"routes":[{"route_id":"19594","agency_id":"70006","route_short_name":"4","route_long_name":"Natural Bridge","route_type":3,"route_color":"#FFFFFF","route_text_color":"#000000"}],"agency_name":"Metro St. Louis"},"geometry":{"type":"Point","coordinates":[-90.2123,38.64973]}},{"type":"Feature","properties":{"stop_id":"9285","stop_code":"9285","stop_name":"JEFFERSON @ CASS SB","stop_desc":"FAR SIDE JEFFERSON @ CASS SB","wheelchair_boarding":1,"routes":[{"route_id":"19594","agency_id":"70006","route_short_name":"4","route_long_name":"Natural Bridge","route_type":3,"route_color":"#FFFFFF","route_text_color":"#000000"}],"agency_name":"Metro St. Louis"},"geometry":{"type":"Point","coordinates":[-90.21291,38.64463]}},{"type":"Feature","properties":{"stop_id":"9288","stop_code":"9288","stop_name":"JEFFERSON @ STODDARD SB","stop_desc":"NEAR SIDE JEFFERSON @ STODDARD SB","wheelchair_boarding":2,"routes":[{"route_id":"19594","agency_id":"70006","route_short_name":"4","route_long_name":"Natural Bridge","route_type":3,"route_color":"#FFFFFF","route_text_color":"#000000"}],"agency_name":"Metro St. Louis"},"geometry":{"type":"Point","coordinates":[-90.21292,38.64013]}},{"type":"Feature","properties":{"stop_id":"9290","stop_code":"9290","stop_name":"JEFFERSON @ DR ML KING SB","stop_desc":"FAR SIDE JEFFERSON @ DR ML KING SB","wheelchair_boarding":2,"routes":[{"route_id":"19594","agency_id":"70006","route_short_name":"4","route_long_name":"Natural Bridge","route_type":3,"route_color":"#FFFFFF","route_text_color":"#000000"}],"agency_name":"Metro St. Louis"},"geometry":{"type":"Point","coordinates":[-90.21289,38.63763]}},{"type":"Feature","properties":{"stop_id":"9291","stop_code":"9291","stop_name":"JEFFERSON @ DELMAR SB","stop_desc":"FAR SIDE JEFFERSON @ DELMAR SB","wheelchair_boarding":2,"routes":[{"route_id":"19594","agency_id":"70006","route_short_name":"4","route_long_name":"Natural Bridge","route_type":3,"route_color":"#FFFFFF","route_text_color":"#000000"}],"agency_name":"Metro St. Louis"},"geometry":{"type":"Point","coordinates":[-90.21295,38.63642]}},{"type":"Feature","properties":{"stop_id":"9292","stop_code":"9292","stop_name":"JEFFERSON @ WASHINGTON SB","stop_desc":"FAR SIDE JEFFERSON @ WASHINGTON SB","wheelchair_boarding":1,"routes":[{"route_id":"19594","agency_id":"70006","route_short_name":"4","route_long_name":"Natural Bridge","route_type":3,"route_color":"#FFFFFF","route_text_color":"#000000"}],"agency_name":"Metro St. Louis"},"geometry":{"type":"Point","coordinates":[-90.2136,38.6346]}}]}