{"type":"FeatureCollection","features":[{"type":"Feature","properties":{"agency_name":"Metro St. Louis","route_id":"19607","agency_id":"70006","route_short_name":"32","route_long_name":"Dr ML King","route_type":3,"route_color":"#FFFFFF","route_text_color":"#000000"},"geometry":{"type":"MultiLineString","coordinates":[[[-90.30172,38.6856],[-90.30161,38.68505],[-90.30172,38.6856],[-90.30182,38.68564],[-90.30225,38.68562],[-90.30256,38.68527],[-90.30272,38.68506],[-90.30271,38.68495],[-90.30255,38.68486],[-90.30283,38.68454],[-90.30149,38.68383],[-90.30114,38.68363],[-90.29861,38.68234],[-90.29631,38.68111],[-90.29402,38.67992],[-90.29209,38.67886],[-90.29023,38.67789],[-90.28708,38.67619],[-90.28522,38.67521],[-90.27939,38.67208],[-90.2784,38.67152],[-90.27236,38.66828],[-90.26565,38.66464],[-90.26466,38.66418],[-90.26369,38.66381],[-90.25971,38.66243],[-90.25503,38.66084],[-90.25458,38.66068],[-90.25417,38.66051],[-90.24571,38.65679],[-90.24513,38.65655],[-90.24331,38.65575],[-90.23767,38.65325],[-90.23662,38.65281],[-90.22961,38.64974],[-90.22889,38.64945],[-90.22782,38.64899],[-90.22464,38.64759],[-90.22412,38.64744],[-90.22381,38.64739],[-90.21992,38.64658],[-90.21871,38.64631],[-90.21589,38.64574],[-90.20538,38.64351],[-90.20248,38.64292],[-90.20058,38.6425],[-90.19517,38.64139],[-90.19188,38.64067],[-90.19064,38.64044],[-90.19148,38.63792],[-90.19196,38.63654],[-90.19251,38.63482],[-90.19457,38.63523],[-90.19496,38.63534],[-90.19529,38.63536],[-90.19552,38.63524],[-90.19585,38.63429],[-90.19613,38.63322],[-90.19633,38.63276],[-90.19673,38.63176],[-90.19692,38.63121],[-90.19712,38.63048],[-90.19743,38.62971],[-90.19784,38.62976],[-90.199,38.63002],[-90.20017,38.63026],[-90.20056,38.62954],[-90.20104,38.62808],[-90.20117,38.62774],[-90.20188,38.62591],[-90.20235,38.62487],[-90.20273,38.62389],[-90.203,38.62398],[-90.20305,38.62403],[-90.20307,38.62409]]]}},{"type":"Feature","properties":{"stop_id":"13276","stop_code":"13276","stop_name":"ST. CHARLES ROCK ROAD @ LULU EB","stop_desc":"NEAR SIDE ST. CHARLES ROCK ROAD @ LULU EB","wheelchair_boarding":1,"routes":[{"route_id":"19603","agency_id":"70006","route_short_name":"19","route_long_name":"St Louis Ave","route_type":3,"route_color":"#FFFFFF","route_text_color":"#000000"},{"route_id":"19607","agency_id":"70006","route_short_name":"32","route_long_name":"Dr ML King","route_type":3,"route_color":"#FFFFFF","route_text_color":"#000000"},{"route_id":"19621","agency_id":"70006","route_short_name":"64","route_long_name":"Lucas-Hunt","route_type":3,"route_color":"#FFFFFF","route_text_color":"#000000"}],"agency_name":"Metro St. Louis"},"geometry":{"type":"Point","coordinates":[-90.29904,38.68248]}},{"type":"Feature","properties":{"stop_id":"13277","stop_code":"13277","stop_name":"ST. CHARLES ROCK ROAD @ LUCAS HUNT EB","stop_desc":"NEAR SIDE ST. CHARLES ROCK ROAD @ LUCAS HUNT EB","wheelchair_boarding":1,"routes":[{"route_id":"19603","agency_id":"70006","route_short_name":"19","route_long_name":"St Louis Ave","route_type":3,"route_color":"#FFFFFF","route_text_color":"#000000"},{"route_id":"19607","agency_id":"70006","route_short_name":"32","route_long_name":"Dr ML King","route_type":3,"route_color":"#FFFFFF","route_text_color":"#000000"}],"agency_name":"Metro St. Louis"},"geometry":{"type":"Point","coordinates":[-90.29632,38.68108]}},{"type":"Feature","properties":{"stop_id":"13283","stop_code":"13283","stop_name":"DR ML KING @ OGDEN EB","stop_desc":"FAR SIDE DR ML KING @ OGDEN EB","wheelchair_boarding":1,"routes":[{"route_id":"19603","agency_id":"70006","route_short_name":"19","route_long_name":"St Louis Ave","route_type":3,"route_color":"#FFFFFF","route_text_color":"#000000"},{"route_id":"19607","agency_id":"70006","route_short_name":"32","route_long_name":"Dr ML King","route_type":3,"route_color":"#FFFFFF","route_text_color":"#000000"}],"agency_name":"Metro St. Louis"},"geometry":{"type":"Point","coordinates":[-90.29193,38.67875]}},{"type":"Feature","properties":{"stop_id":"13285","stop_code":"13285","stop_name":"DR ML KING @ KIENLEN EB","stop_desc":"NEAR SIDE DR ML KING @ KIENLEN EB","wheelchair_boarding":1,"routes":[{"route_id":"19603","agency_id":"70006","route_short_name":"19","route_long_name":"St Louis Ave","route_type":3,"route_color":"#FFFFFF","route_text_color":"#000000"},{"route_id":"19607","agency_id":"70006","route_short_name":"32","route_long_name":"Dr ML King","route_type":3,"route_color":"#FFFFFF","route_text_color":"#000000"}],"agency_name":"Metro St. Louis"},"geometry":{"type":"Point","coordinates":[-90.28744,38.67634]}},{"type":"Feature","properties":{"stop_id":"13469","stop_code":"13469","stop_name":"10TH STREET @ OFALLON SB","stop_desc":"FAR SIDE 10TH STREET @ OFALLON SB","wheelchair_boarding":1,"routes":[{"route_id":"19607","agency_id":"70006","route_short_name":"32","route_long_name":"Dr ML King","route_type":3,"route_color":"#FFFFFF","route_text_color":"#000000"}],"agency_name":"Metro St. Louis"},"geometry":{"type":"Point","coordinates":[-90.19163,38.63776]}},{"type":"Feature","properties":{"stop_id":"13712","stop_code":"13712","stop_name":"CASS @ GRAND EB","stop_desc":"NEAR SIDE CASS @ GRAND EB","wheelchair_boarding":2,"routes":[{"route_id":"19607","agency_id":"70006","route_short_name":"32","route_long_name":"Dr ML King","route_type":3,"route_color":"#FFFFFF","route_text_color":"#000000"}],"agency_name":"Metro St. Louis"},"geometry":{"type":"Point","coordinates":[-90.22616,38.64819]}},{"type":"Feature","properties":{"stop_id":"13815","stop_code":"13815","stop_name":"CASS @ SPRING EB","stop_desc":"NEAR SIDE CASS @ SPRING EB","wheelchair_boarding":1,"routes":[{"route_id":"19607","agency_id":"70006","route_short_name":"32","route_long_name":"Dr ML King","route_type":3,"route_color":"#FFFFFF","route_text_color":"#000000"}],"agency_name":"Metro St. Louis"},"geometry":{"type":"Point","coordinates":[-90.2281,38.64904]}},{"type":"Feature","properties":{"stop_id":"14139","stop_code":"14139","stop_name":"CASS @ WEBSTER EB","stop_desc":"FAR SIDE CASS @ WEBSTER EB","wheelchair_boarding":1,"routes":[{"route_id":"19607","agency_id":"70006","route_short_name":"32","route_long_name":"Dr ML King","route_type":3,"route_color":"#FFFFFF","route_text_color":"#000000"}],"agency_name":"Metro St. Louis"},"geometry":{"type":"Point","coordinates":[-90.222,38.64693]}},{"type":"Feature","properties":{"stop_id":"14304","stop_code":"14304","stop_name":"DR ML KING @ WELLSTON PLACE EB","stop_desc":"FAR SIDE DR ML KING @ WELLSTON PLACE EB","wheelchair_boarding":1,"routes":[{"route_id":"19603","agency_id":"70006","route_short_name":"19","route_long_name":"St Louis Ave","route_type":3,"route_color":"#FFFFFF","route_text_color":"#000000"},{"route_id":"19607","agency_id":"70006","route_short_name":"32","route_long_name":"Dr ML King","route_type":3,"route_color":"#FFFFFF","route_text_color":"#000000"}],"agency_name":"Metro St. Louis"},"geometry":{"type":"Point","coordinates":[-90.28916,38.67728]}},{"type":"Feature","properties":{"stop_id":"14496","stop_code":"14496","stop_name":"CIVIC CENTER TRANSIT CENTER","wheelchair_boarding":1,"routes":[{"route_id":"19598","agency_id":"70006","route_short_name":"10","route_long_name":"Gravois-Lindell","route_type":3,"route_color":"#FFFFFF","route_text_color":"#000000"},{"route_id":"19605","agency_id":"70006","route_short_name":"30","route_long_name":"Arsenal","route_type":3,"route_color":"#FFFFFF","route_text_color":"#000000"},{"route_id":"19606","agency_id":"70006","route_short_name":"31","route_long_name":"Chouteau","route_type":3,"route_color":"#FFFFFF","route_text_color":"#000000"},{"route_id":"19607","agency_id":"70006","route_short_name":"32","route_long_name":"Dr ML King","route_type":3,"route_color":"#FFFFFF","route_text_color":"#000000"}],"agency_name":"Metro St. Louis"},"geometry":{"type":"Point","coordinates":[-90.20298,38.6243]}},{"type":"Feature","properties":{"stop_id":"14499","stop_code":"14499","stop_name":"14TH STREET @ PINE SB","stop_desc":"NEAR SIDE 14TH STREET @ PINE SB","wheelchair_boarding":1,"routes":[{"route_id":"19598","agency_id":"70006","route_short_name":"10","route_long_name":"Gravois-Lindell","route_type":3,"route_color":"#FFFFFF","route_text_color":"#000000"},{"route_id":"19607","agency_id":"70006","route_short_name":"32","route_long_name":"Dr ML King","route_type":3,"route_color":"#FFFFFF","route_text_color":"#000000"},{"route_id":"19611","agency_id":"70006","route_short_name":"40","route_long_name":"Broadway-Halls Ferry","route_type":3,"route_color":"#FFFFFF","route_text_color":"#000000"},{"route_id":"19612","agency_id":"70006","route_short_name":"41","route_long_name":"Lee","route_type":3,"route_color":"#FFFFFF","route_text_color":"#000000"},{"route_id":"19624","agency_id":"70006","route_short_name":"74","route_long_name":"Florissant","route_type":3,"route_color":"#FFFFFF","route_text_color":"#000000"},{"route_id":"19633","agency_id":"70006","route_short_name":"97","route_long_name":"Delmar","route_type":3,"route_color":"#FFFFFF","route_text_color":"#000000"}],"agency_name":"Metro St. Louis"},"geometry":{"type":"Point","coordinates":[-90.20057,38.62983]}},{"type":"Feature","properties":{"stop_id":"16525","stop_code":"16525","stop_name":"10TH STREEET @ COLE SB","stop_desc":"NEAR SIDE 10TH STREEET @ COLE SB","wheelchair_boarding":2,"routes":[{"route_id":"19607","agency_id":"70006","route_short_name":"32","route_long_name":"Dr ML King","route_type":3,"route_color":"#FFFFFF","route_text_color":"#000000"}],"agency_name":"Metro St. Louis"},"geometry":{"type":"Point","coordinates":[-90.19257,38.63499]}},{"type":"Feature","properties":{"stop_id":"1660","stop_code":"1660","stop_name":"TUCKER @ ST. CHARLES SB","stop_desc":"FAR SIDE TUCKER @ ST. CHARLES SB","wheelchair_boarding":1,"routes":[{"route_id":"19603","agency_id":"70006","route_short_name":"19","route_long_name":"St Louis Ave","route_type":3,"route_color":"#FFFFFF","route_text_color":"#000000"},{"route_id":"19607","agency_id":"70006","route_short_name":"32","route_long_name":"Dr ML King","route_type":3,"route_color":"#FFFFFF","route_text_color":"#000000"}],"agency_name":"Metro St. Louis"},"geometry":{"type":"Point","coordinates":[-90.19716,38.63108]}},{"type":"Feature","properties":{"stop_id":"2200","stop_code":"2200","stop_name":"10TH STREET @ CASS SB","stop_desc":"FAR SIDE 10TH STREET @ CASS SB","wheelchair_boarding":2,"routes":[{"route_id":"19607","agency_id":"70006","route_short_name":"32","route_long_name":"Dr ML King","route_type":3,"route_color":"#FFFFFF","route_text_color":"#000000"}],"agency_name":"Metro St. Louis"},"geometry":{"type":"Point","coordinates":[-90.19083,38.64008]}},{"type":"Feature","properties":{"stop_id":"7103","stop_code":"7103","stop_name":"DR ML KING @ GOODFELLOW EB","stop_desc":"FAR SIDE DR ML KING @ GOODFELLOW EB","wheelchair_boarding":1,"routes":[{"route_id":"19607","agency_id":"70006","route_short_name":"32","route_long_name":"Dr ML King","route_type":3,"route_color":"#FFFFFF","route_text_color":"#000000"}],"agency_name":"Metro St. Louis"},"geometry":{"type":"Point","coordinates":[-90.27913,38.67185]}},{"type":"Feature","properties":{"stop_id":"7105","stop_code":"7105","stop_name":"DR ML KING @ CLARA EB","stop_desc":"NEAR SIDE DR ML KING @ CLARA EB","wheelchair_boarding":1,"routes":[{"route_id":"19607","agency_id":"70006","route_short_name":"32","route_long_name":"Dr ML King","route_type":3,"route_color":"#FFFFFF","route_text_color":"#000000"}],"agency_name":"Metro St. Louis"},"geometry":{"type":"Point","coordinates":[-90.2761,38.67018]}},{"type":"Feature","properties":{"stop_id":"7107","stop_code":"7107","stop_name":"DR ML KING @ BELT EB","stop_desc":"NEAR SIDE DR ML KING @ BELT EB","wheelchair_boarding":1,"routes":[{"route_id":"19607","agency_id":"70006","route_short_name":"32","route_long_name":"Dr ML King","route_type":3,"route_color":"#FFFFFF","route_text_color":"#000000"}],"agency_name":"Metro St. Louis"},"geometry":{"type":"Point","coordinates":[-90.2726,38.66838]}},{"type":"Feature","properties":{"stop_id":"7108","stop_code":"7108","stop_name":"DR ML KING @ ARLINGTON EB","stop_desc":"NEAR SIDE DR ML KING @ ARLINGTON EB","wheelchair_boarding":1,"routes":[{"route_id":"19607","agency_id":"70006","route_short_name":"32","route_long_name":"Dr ML King","route_type":3,"route_color":"#FFFFFF","route_text_color":"#000000"}],"agency_name":"Metro St. Louis"},"geometry":{"type":"Point","coordinates":[-90.27083,38.66738]}},{"type":"Feature","properties":{"stop_id":"7109","stop_code":"7109","stop_name":"DR ML KING @ UNION EB","stop_desc":"FAR SIDE DR ML KING @ UNION EB","wheelchair_boarding":1,"routes":[{"route_id":"19607","agency_id":"70006","route_short_name":"32","route_long_name":"Dr ML King","route_type":3,"route_color":"#FFFFFF","route_text_color":"#000000"}],"agency_name":"Metro St. Louis"},"geometry":{"type":"Point","coordinates":[-90.26741,38.66552]}},{"type":"Feature","properties":{"stop_id":"7110","stop_code":"7110","stop_name":"DR ML KING @ ACADEMY EB","stop_desc":"NEAR SIDE DR ML KING @ ACADEMY EB","wheelchair_boarding":1,"routes":[{"route_id":"19607","agency_id":"70006","route_short_name":"32","route_long_name":"Dr ML King","route_type":3,"route_color":"#FFFFFF","route_text_color":"#000000"}],"agency_name":"Metro St. Louis"},"geometry":{"type":"Point","coordinates":[-90.2652,38.66437]}},{"type":"Feature","properties":{"stop_id":"7111","stop_code":"7111","stop_name":"DR ML KING @ KINGSHIGHWAY EB","stop_desc":"NEAR SIDE DR ML KING @ KINGSHIGHWAY EB","wheelchair_boarding":1,"routes":[{"route_id":"19607","agency_id":"70006","route_short_name":"32","route_long_name":"Dr ML King","route_type":3,"route_color":"#FFFFFF","route_text_color":"#000000"}],"agency_name":"Metro St. Louis"},"geometry":{"type":"Point","coordinates":[-90.26217,38.66322]}},{"type":"Feature","properties":{"stop_id":"7112","stop_code":"7112","stop_name":"DR ML KING @ EUCLID EB","stop_desc":"FAR SIDE DR ML KING @ EUCLID EB","wheelchair_boarding":2,"routes":[{"route_id":"19607","agency_id":"70006","route_short_name":"32","route_long_name":"Dr ML King","route_type":3,"route_color":"#FFFFFF","route_text_color":"#000000"}],"agency_name":"Metro St. Louis"},"geometry":{"type":"Point","coordinates":[-90.25829,38.66191]}},{"type":"Feature","properties":{"stop_id":"7114","stop_code":"7114","stop_name":"DR ML KING @ MARCUS EB","stop_desc":"NEAR SIDE DR ML KING @ MARCUS EB","wheelchair_boarding":1,"routes":[{"route_id":"19607","agency_id":"70006","route_short_name":"32","route_long_name":"Dr ML King","route_type":3,"route_color":"#FFFFFF","route_text_color":"#000000"}],"agency_name":"Metro St. Louis"},"geometry":{"type":"Point","coordinates":[-90.25398,38.66037]}},{"type":"Feature","properties":{"stop_id":"7115","stop_code":"7115","stop_name":"DR ML KING @ CORA EB","stop_desc":"FAR SIDE DR ML KING @ CORA EB","wheelchair_boarding":1,"routes":[{"route_id":"19607","agency_id":"70006","route_short_name":"32","route_long_name":"Dr ML King","route_type":3,"route_color":"#FFFFFF","route_text_color":"#000000"}],"agency_name":"Metro St. Louis"},"geometry":{"type":"Point","coordinates":[-90.25136,38.65921]}},{"type":"Feature","properties":{"stop_id":"7116","stop_code":"7116","stop_name":"DR ML KING @ DEER EB","stop_desc":"FAR SIDE DR ML KING @ DEER EB","wheelchair_boarding":1,"routes":[{"route_id":"19607","agency_id":"70006","route_short_name":"32","route_long_name":"Dr ML King","route_type":3,"route_color":"#FFFFFF","route_text_color":"#000000"}],"agency_name":"Metro St. Louis"},"geometry":{"type":"Point","coordinates":[-90.24963,38.65844]}},{"type":"Feature","properties":{"stop_id":"7117","stop_code":"7117","stop_name":"DR ML KING @ TAYLOR EB","stop_desc":"FAR SIDE DR ML KING @ TAYLOR EB","wheelchair_boarding":1,"routes":[{"route_id":"19607","agency_id":"70006","route_short_name":"32","route_long_name":"Dr ML King","route_type":3,"route_color":"#FFFFFF","route_text_color":"#000000"}],"agency_name":"Metro St. Louis"},"geometry":{"type":"Point","coordinates":[-90.2479,38.65768]}},{"type":"Feature","properties":{"stop_id":"7118","stop_code":"7118","stop_name":"DR ML KING @ NEWSTEAD EB","stop_desc":"FAR SIDE DR ML KING @ NEWSTEAD EB","wheelchair_boarding":1,"routes":[{"route_id":"19607","agency_id":"70006","route_short_name":"32","route_long_name":"Dr ML King","route_type":3,"route_color":"#FFFFFF","route_text_color":"#000000"}],"agency_name":"Metro St. Louis"},"geometry":{"type":"Point","coordinates":[-90.24545,38.65662]}},{"type":"Feature","properties":{"stop_id":"7119","stop_code":"7119","stop_name":"DR ML KING @ PENDELTON EB","stop_desc":"NEAR SIDE DR ML KING @ PENDELTON EB","wheelchair_boarding":1,"routes":[{"route_id":"19607","agency_id":"70006","route_short_name":"32","route_long_name":"Dr ML King","route_type":3,"route_color":"#FFFFFF","route_text_color":"#000000"}],"agency_name":"Metro St. Louis"},"geometry":{"type":"Point","coordinates":[-90.24286,38.65549]}},{"type":"Feature","properties":{"stop_id":"7120","stop_code":"7120","stop_name":"DR ML KING @ ANNIE MALONE EB","stop_desc":"NEAR SIDE DR ML KING @ ANNIE MALONE EB","wheelchair_boarding":1,"routes":[{"route_id":"19607","agency_id":"70006","route_short_name":"32","route_long_name":"Dr ML King","route_type":3,"route_color":"#FFFFFF","route_text_color":"#000000"}],"agency_name":"Metro St. Louis"},"geometry":{"type":"Point","coordinates":[-90.2407,38.65454]}},{"type":"Feature","properties":{"stop_id":"7122","stop_code":"7122","stop_name":"DR ML KING @ WHITTIER EB","stop_desc":"NEAR SIDE DR ML KING @ WHITTIER EB","wheelchair_boarding":1,"routes":[{"route_id":"19607","agency_id":"70006","route_short_name":"32","route_long_name":"Dr ML King","route_type":3,"route_color":"#FFFFFF","route_text_color":"#000000"}],"agency_name":"Metro St. Louis"},"geometry":{"type":"Point","coordinates":[-90.23891,38.65375]}},{"type":"Feature","properties":{"stop_id":"7124","stop_code":"7124","stop_name":"DR ML KING @ VANDEVENTER EB","stop_desc":"NEAR SIDE DR ML KING @ VANDEVENTER EB","wheelchair_boarding":1,"routes":[{"route_id":"19607","agency_id":"70006","route_short_name":"32","route_long_name":"Dr ML King","route_type":3,"route_color":"#FFFFFF","route_text_color":"#000000"}],"agency_name":"Metro St. Louis"},"geometry":{"type":"Point","coordinates":[-90.23294,38.65113]}},{"type":"Feature","properties":{"stop_id":"7211","stop_code":"7211","stop_name":"DR ML KING @ HAMILTON EB","stop_desc":"FAR SIDE DR ML KING @ HAMILTON EB","wheelchair_boarding":1,"routes":[{"route_id":"19603","agency_id":"70006","route_short_name":"19","route_long_name":"St Louis Ave","route_type":3,"route_color":"#FFFFFF","route_text_color":"#000000"},{"route_id":"19607","agency_id":"70006","route_short_name":"32","route_long_name":"Dr ML King","route_type":3,"route_color":"#FFFFFF","route_text_color":"#000000"}],"agency_name":"Metro St. Louis"},"geometry":{"type":"Point","coordinates":[-90.28278,38.67383]}},{"type":"Feature","properties":{"stop_id":"7255","stop_code":"7255","stop_name":"CASS @ GLASGOW EB","stop_desc":"FAR SIDE CASS @ GLASGOW EB","wheelchair_boarding":1,"routes":[{"route_id":"19607","agency_id":"70006","route_short_name":"32","route_long_name":"Dr ML King","route_type":3,"route_color":"#FFFFFF","route_text_color":"#000000"}],"agency_name":"Metro St. Louis"},"geometry":{"type":"Point","coordinates":[-90.21728,38.64595]}},{"type":"Feature","properties":{"stop_id":"7258","stop_code":"7258","stop_name":"CASS @ JEFFERSON EB","stop_desc":"NEAR SIDE CASS @ JEFFERSON EB","wheelchair_boarding":1,"routes":[{"route_id":"19607","agency_id":"70006","route_short_name":"32","route_long_name":"Dr ML King","route_type":3,"route_color":"#FFFFFF","route_text_color":"#000000"}],"agency_name":"Metro St. Louis"},"geometry":{"type":"Point","coordinates":[-90.21326,38.64513]}},{"type":"Feature","properties":{"stop_id":"7261","stop_code":"7261","stop_name":"CASS @ 22ND STREET EB","stop_desc":"NEAR SIDE CASS @ 22ND STREET EB","wheelchair_boarding":2,"routes":[{"route_id":"19607","agency_id":"70006","route_short_name":"32","route_long_name":"Dr ML King","route_type":3,"route_color":"#FFFFFF","route_text_color":"#000000"}],"agency_name":"Metro St. Louis"},"geometry":{"type":"Point","coordinates":[-90.20844,38.64409]}},{"type":"Feature","properties":{"stop_id":"7262","stop_code":"7262","stop_name":"CASS @ 20TH STREET EB","stop_desc":"NEAR SIDE CASS @ 20TH STREET EB","wheelchair_boarding":1,"routes":[{"route_id":"19607","agency_id":"70006","route_short_name":"32","route_long_name":"Dr ML King","route_type":3,"route_color":"#FFFFFF","route_text_color":"#000000"}],"agency_name":"Metro St. Louis"},"geometry":{"type":"Point","coordinates":[-90.2056,38.6435]}},{"type":"Feature","properties":{"stop_id":"7265","stop_code":"7265","stop_name":"CASS @ 18TH STREET EB","stop_desc":"FAR SIDE CASS @ 18TH STREET EB","wheelchair_boarding":2,"routes":[{"route_id":"19607","agency_id":"70006","route_short_name":"32","route_long_name":"Dr ML King","route_type":3,"route_color":"#FFFFFF","route_text_color":"#000000"}],"agency_name":"Metro St. Louis"},"geometry":{"type":"Point","coordinates":[-90.20107,38.64253]}},{"type":"Feature","properties":{"stop_id":"7266","stop_code":"7266","stop_name":"CASS @ 16TH STREET EB","stop_desc":"NEAR SIDE CASS @ 16TH STREET EB","wheelchair_boarding":2,"routes":[{"route_id":"19607","agency_id":"70006","route_short_name":"32","route_long_name":"Dr ML King","route_type":3,"route_color":"#FFFFFF","route_text_color":"#000000"}],"agency_name":"Metro St. Louis"},"geometry":{"type":"Point","coordinates":[-90.19892,38.64208]}},{"type":"Feature","properties":{"stop_id":"7267","stop_code":"7267","stop_name":"CASS @ 14TH STREET EB","stop_desc":"FAR SIDE CASS @ 14TH STREET EB","wheelchair_boarding":2,"routes":[{"route_id":"19607","agency_id":"70006","route_short_name":"32","route_long_name":"Dr ML King","route_type":3,"route_color":"#FFFFFF","route_text_color":"#000000"}],"agency_name":"Metro St. Louis"},"geometry":{"type":"Point","coordinates":[-90.196,38.64149]}},{"type":"Feature","properties":{"stop_id":"7269","stop_code":"7269","stop_name":"CASS @ 13TH STREET EB","stop_desc":"NEAR SIDE CASS @ 13TH STREET EB","wheelchair_boarding":1,"routes":[{"route_id":"19607","agency_id":"70006","route_short_name":"32","route_long_name":"Dr ML King","route_type":3,"route_color":"#FFFFFF","route_text_color":"#000000"}],"agency_name":"Metro St. Louis"},"geometry":{"type":"Point","coordinates":[-90.19433,38.64114]}},{"type":"Feature","properties":{"stop_id":"7409","stop_code":"7409","stop_name":"DR ML KING @ HODIAMONT EB","stop_desc":"FAR SIDE DR ML KING @ HODIAMONT EB","wheelchair_boarding":1,"routes":[{"route_id":"19603","agency_id":"70006","route_short_name":"19","route_long_name":"St Louis Ave","route_type":3,"route_color":"#FFFFFF","route_text_color":"#000000"},{"route_id":"19607","agency_id":"70006","route_short_name":"32","route_long_name":"Dr ML King","route_type":3,"route_color":"#FFFFFF","route_text_color":"#000000"}],"agency_name":"Metro St. Louis"},"geometry":{"type":"Point","coordinates":[-90.28557,38.67535]}},{"type":"Feature","properties":{"stop_id":"7424","stop_code":"7424","stop_name":"ROCK ROAD TRANSIT CENTER","wheelchair_boarding":1,"routes":[{"route_id":"19593","agency_id":"70006","route_short_name":"2","route_long_name":"Red","route_type":3,"route_color":"#FFFFFF","route_text_color":"#000000"},{"route_id":"19603","agency_id":"70006","route_short_name":"19","route_long_name":"St Louis Ave","route_type":3,"route_color":"#FFFFFF","route_text_color":"#000000"},{"route_id":"19607","agency_id":"70006","route_short_name":"32","route_long_name":"Dr ML King","route_type":3,"route_color":"#FFFFFF","route_text_color":"#000000"},{"route_id":"19610","agency_id":"70006","route_short_name":"35","route_long_name":"Rock Road","route_type":3,"route_color":"#FFFFFF","route_text_color":"#000000"},{"route_id":"19621","agency_id":"70006","route_short_name":"64","route_long_name":"Lucas-Hunt","route_type":3,"route_color":"#FFFFFF","route_text_color":"#000000"}],"agency_name":"Metro St. Louis"},"geometry":{"type":"Point","coordinates":[-90.30164,38.68516]}},{"type":"Feature","properties":{"stop_id":"7855","stop_code":"7855","stop_name":"14TH STREET @ MARKET SB","stop_desc":"MID-BLOCK 14TH STREET @ MARKET SB","wheelchair_boarding":1,"routes":[{"route_id":"19594","agency_id":"70006","route_short_name":"4","route_long_name":"Natural Bridge","route_type":3,"route_color":"#FFFFFF","route_text_color":"#000000"},{"route_id":"19598","agency_id":"70006","route_short_name":"10","route_long_name":"Gravois-Lindell","route_type":3,"route_color":"#FFFFFF","route_text_color":"#000000"},{"route_id":"19607","agency_id":"70006","route_short_name":"32","route_long_name":"Dr ML King","route_type":3,"route_color":"#FFFFFF","route_text_color":"#000000"},{"route_id":"19611","agency_id":"70006","route_short_name":"40","route_long_name":"Broadway-Halls Ferry","route_type":3,"route_color":"#FFFFFF","route_text_color":"#000000"},{"route_id":"19612","agency_id":"70006","route_short_name":"41","route_long_name":"Lee","route_type":3,"route_color":"#FFFFFF","route_text_color":"#000000"},{"route_id":"19624","agency_id":"70006","route_short_name":"74","route_long_name":"Florissant","route_type":3,"route_color":"#FFFFFF","route_text_color":"#000000"},{"route_id":"19631","agency_id":"70006","route_short_name":"94","route_long_name":"Page","route_type":3,"route_color":"#FFFFFF","route_text_color":"#000000"},{"route_id":"19633","agency_id":"70006","route_short_name":"97","route_long_name":"Delmar","route_type":3,"route_color":"#FFFFFF","route_text_color":"#000000"}],"agency_name":"Metro St. Louis"},"geometry":{"type":"Point","coordinates":[-90.20127,38.62775]}}]}