{"type":"FeatureCollection","features":[{"type":"Feature","properties":{"agency_name":"Metro St. Louis","route_id":"19613","agency_id":"70006","route_short_name":"42","route_long_name":"Sarah","route_type":3,"route_color":"#FFFFFF","route_text_color":"#000000"},"geometry":{"type":"MultiLineString","coordinates":[[[-90.26058,38.6358],[-90.26055,38.6359],[-90.26058,38.6358],[-90.26054,38.63577],[-90.25992,38.63564],[-90.25989,38.63564],[-90.25986,38.63575],[-90.25987,38.63603],[-90.25984,38.63624],[-90.25961,38.63631],[-90.25966,38.63651],[-90.25973,38.63702],[-90.25971,38.6372],[-90.25966,38.63737],[-90.25851,38.6381],[-90.24717,38.63575],[-90.24672,38.63711],[-90.24623,38.63851],[-90.24577,38.63995],[-90.24533,38.64117],[-90.2452,38.64148],[-90.24391,38.6433],[-90.24308,38.64444],[-90.24244,38.64539],[-90.24131,38.64696],[-90.24094,38.64745],[-90.23787,38.65182],[-90.23956,38.65256],[-90.23873,38.65373],[-90.23815,38.6545],[-90.23701,38.65609],[-90.23646,38.6569],[-90.23344,38.66115],[-90.23174,38.66157],[-90.22834,38.66008],[-90.22771,38.66099],[-90.22651,38.66265],[-90.22904,38.66376],[-90.23042,38.66434],[-90.22965,38.66536],[-90.22778,38.66791],[-90.22725,38.6687],[-90.22673,38.66936],[-90.22628,38.67005],[-90.22572,38.67085],[-90.22435,38.6728],[-90.22372,38.67366],[-90.22366,38.67372],[-90.22326,38.6743],[-90.22404,38.67515],[-90.22154,38.67652],[-90.22376,38.67902],[-90.22391,38.67922],[-90.224,38.67937],[-90.22471,38.68073]]]}},{"type":"Feature","properties":{"stop_id":"13812","stop_code":"13812","stop_name":"WHITTIER @ KENNERLY NB","stop_desc":"NEAR SIDE WHITTIER @ KENNERLY NB","wheelchair_boarding":1,"routes":[{"route_id":"19613","agency_id":"70006","route_short_name":"42","route_long_name":"Sarah","route_type":3,"route_color":"#FFFFFF","route_text_color":"#000000"}],"agency_name":"Metro St. Louis"},"geometry":{"type":"Point","coordinates":[-90.23483,38.65913]}},{"type":"Feature","properties":{"stop_id":"16089","stop_code":"16089","stop_name":"CENTRAL WEST END TRANSIT CENTER","wheelchair_boarding":1,"routes":[{"route_id":"19602","agency_id":"70006","route_short_name":"18","route_long_name":"Taylor","route_type":3,"route_color":"#FFFFFF","route_text_color":"#000000"},{"route_id":"19613","agency_id":"70006","route_short_name":"42","route_long_name":"Sarah","route_type":3,"route_color":"#FFFFFF","route_text_color":"#000000"}],"agency_name":"Metro St. Louis"},"geometry":{"type":"Point","coordinates":[-90.26025,38.63592]}},{"type":"Feature","properties":{"stop_id":"16108","stop_code":"16108","stop_name":"WHITTIER @ GARFIELD NB","stop_desc":"NEAR SIDE WHITTIER @ GARFIELD NB","wheelchair_boarding":2,"routes":[{"route_id":"19613","agency_id":"70006","route_short_name":"42","route_long_name":"Sarah","route_type":3,"route_color":"#FFFFFF","route_text_color":"#000000"}],"agency_name":"Metro St. Louis"},"geometry":{"type":"Point","coordinates":[-90.23703,38.65601]}},{"type":"Feature","properties":{"stop_id":"16528","stop_code":"16528","stop_name":"BISHOP SCOTT @ LABADIE NB","stop_desc":"FAR SIDE BISHOP SCOTT @ LABADIE NB","wheelchair_boarding":2,"routes":[{"route_id":"19613","agency_id":"70006","route_short_name":"42","route_long_name":"Sarah","route_type":3,"route_color":"#FFFFFF","route_text_color":"#000000"}],"agency_name":"Metro St. Louis"},"geometry":{"type":"Point","coordinates":[-90.22813,38.6602]}},{"type":"Feature","properties":{"stop_id":"16529","stop_code":"16529","stop_name":"ASHLAND @ CLAY WB","stop_desc":"NEAR SIDE ASHLAND @ CLAY WB","wheelchair_boarding":2,"routes":[{"route_id":"19613","agency_id":"70006","route_short_name":"42","route_long_name":"Sarah","route_type":3,"route_color":"#FFFFFF","route_text_color":"#000000"}],"agency_name":"Metro St. Louis"},"geometry":{"type":"Point","coordinates":[-90.22796,38.66337]}},{"type":"Feature","properties":{"stop_id":"16530","stop_code":"16530","stop_name":"WARNE @ ASHLAND NB","stop_desc":"NEAR SIDE WARNE @ ASHLAND NB","wheelchair_boarding":2,"routes":[{"route_id":"19613","agency_id":"70006","route_short_name":"42","route_long_name":"Sarah","route_type":3,"route_color":"#FFFFFF","route_text_color":"#000000"}],"agency_name":"Metro St. Louis"},"geometry":{"type":"Point","coordinates":[-90.22651,38.66248]}},{"type":"Feature","properties":{"stop_id":"16531","stop_code":"16531","stop_name":"ASHLAND @ FAIR WB","stop_desc":"NEAR SIDE ASHLAND @ FAIR WB","wheelchair_boarding":2,"routes":[{"route_id":"19613","agency_id":"70006","route_short_name":"42","route_long_name":"Sarah","route_type":3,"route_color":"#FFFFFF","route_text_color":"#000000"}],"agency_name":"Metro St. Louis"},"geometry":{"type":"Point","coordinates":[-90.23023,38.66434]}},{"type":"Feature","properties":{"stop_id":"3539","stop_code":"3539","stop_name":"WEST FLORISSANT @ ATHLONE NB","stop_desc":"NEAR SIDE WEST FLORISSANT @ ATHLONE NB","wheelchair_boarding":1,"routes":[{"route_id":"19613","agency_id":"70006","route_short_name":"42","route_long_name":"Sarah","route_type":3,"route_color":"#FFFFFF","route_text_color":"#000000"},{"route_id":"19624","agency_id":"70006","route_short_name":"74","route_long_name":"Florissant","route_type":3,"route_color":"#FFFFFF","route_text_color":"#000000"}],"agency_name":"Metro St. Louis"},"geometry":{"type":"Point","coordinates":[-90.22289,38.67815]}},{"type":"Feature","properties":{"stop_id":"3541","stop_code":"3541","stop_name":"WEST FLORISSANT @ CLARENCE NB","stop_desc":"NEAR SIDE WEST FLORISSANT @ CLARENCE NB","wheelchair_boarding":1,"routes":[{"route_id":"19613","agency_id":"70006","route_short_name":"42","route_long_name":"Sarah","route_type":3,"route_color":"#FFFFFF","route_text_color":"#000000"},{"route_id":"19624","agency_id":"70006","route_short_name":"74","route_long_name":"Florissant","route_type":3,"route_color":"#FFFFFF","route_text_color":"#000000"}],"agency_name":"Metro St. Louis"},"geometry":{"type":"Point","coordinates":[-90.22418,38.67987]}},{"type":"Feature","properties":{"stop_id":"5463","stop_code":"5463","stop_name":"4450 FOREST PARK EB","stop_desc":"MID-BLOCK 4450 FOREST PARK EB","wheelchair_boarding":1,"routes":[{"route_id":"19613","agency_id":"70006","route_short_name":"42","route_long_name":"Sarah","route_type":3,"route_color":"#FFFFFF","route_text_color":"#000000"}],"agency_name":"Metro St. Louis"},"geometry":{"type":"Point","coordinates":[-90.25733,38.6378]}},{"type":"Feature","properties":{"stop_id":"5464","stop_code":"5464","stop_name":"FOREST PARK @ NEWSTEAD EB","stop_desc":"FAR SIDE FOREST PARK @ NEWSTEAD EB","wheelchair_boarding":1,"routes":[{"route_id":"19613","agency_id":"70006","route_short_name":"42","route_long_name":"Sarah","route_type":3,"route_color":"#FFFFFF","route_text_color":"#000000"}],"agency_name":"Metro St. Louis"},"geometry":{"type":"Point","coordinates":[-90.2555,38.63741]}},{"type":"Feature","properties":{"stop_id":"5465","stop_code":"5465","stop_name":"FOREST PARK @ BOYLE EB","stop_desc":"FAR SIDE FOREST PARK @ BOYLE EB","wheelchair_boarding":1,"routes":[{"route_id":"19613","agency_id":"70006","route_short_name":"42","route_long_name":"Sarah","route_type":3,"route_color":"#FFFFFF","route_text_color":"#000000"}],"agency_name":"Metro St. Louis"},"geometry":{"type":"Point","coordinates":[-90.25168,38.63661]}},{"type":"Feature","properties":{"stop_id":"5466","stop_code":"5466","stop_name":"4200 FOREST PARK EB","stop_desc":"MID-BLOCK 4200 FOREST PARK EB","wheelchair_boarding":1,"routes":[{"route_id":"19613","agency_id":"70006","route_short_name":"42","route_long_name":"Sarah","route_type":3,"route_color":"#FFFFFF","route_text_color":"#000000"}],"agency_name":"Metro St. Louis"},"geometry":{"type":"Point","coordinates":[-90.24952,38.63618]}},{"type":"Feature","properties":{"stop_id":"5467","stop_code":"5467","stop_name":"SARAH @ FOREST PARK NB","stop_desc":"FAR SIDE SARAH @ FOREST PARK NB","wheelchair_boarding":1,"routes":[{"route_id":"19613","agency_id":"70006","route_short_name":"42","route_long_name":"Sarah","route_type":3,"route_color":"#FFFFFF","route_text_color":"#000000"}],"agency_name":"Metro St. Louis"},"geometry":{"type":"Point","coordinates":[-90.24698,38.63618]}},{"type":"Feature","properties":{"stop_id":"6148","stop_code":"6148","stop_name":"WHITTIER @ DR ML KING NB","stop_desc":"NEAR SIDE WHITTIER @ DR ML KING NB","wheelchair_boarding":1,"routes":[{"route_id":"19613","agency_id":"70006","route_short_name":"42","route_long_name":"Sarah","route_type":3,"route_color":"#FFFFFF","route_text_color":"#000000"}],"agency_name":"Metro St. Louis"},"geometry":{"type":"Point","coordinates":[-90.23885,38.65349]}},{"type":"Feature","properties":{"stop_id":"6169","stop_code":"6169","stop_name":"SARAH @ WEST PINE NB","stop_desc":"NEAR SIDE SARAH @ WEST PINE NB","wheelchair_boarding":2,"routes":[{"route_id":"19613","agency_id":"70006","route_short_name":"42","route_long_name":"Sarah","route_type":3,"route_color":"#FFFFFF","route_text_color":"#000000"}],"agency_name":"Metro St. Louis"},"geometry":{"type":"Point","coordinates":[-90.24625,38.63838]}},{"type":"Feature","properties":{"stop_id":"6170","stop_code":"6170","stop_name":"SARAH @ LINDELL NB","stop_desc":"FAR SIDE SARAH @ LINDELL NB","wheelchair_boarding":1,"routes":[{"route_id":"19613","agency_id":"70006","route_short_name":"42","route_long_name":"Sarah","route_type":3,"route_color":"#FFFFFF","route_text_color":"#000000"}],"agency_name":"Metro St. Louis"},"geometry":{"type":"Point","coordinates":[-90.2456,38.64022]}},{"type":"Feature","properties":{"stop_id":"6171","stop_code":"6171","stop_name":"SARAH @ MCPHERSON NB","stop_desc":"NEAR SIDE SARAH @ MCPHERSON NB","wheelchair_boarding":1,"routes":[{"route_id":"19613","agency_id":"70006","route_short_name":"42","route_long_name":"Sarah","route_type":3,"route_color":"#FFFFFF","route_text_color":"#000000"}],"agency_name":"Metro St. Louis"},"geometry":{"type":"Point","coordinates":[-90.24521,38.64134]}},{"type":"Feature","properties":{"stop_id":"6173","stop_code":"6173","stop_name":"SARAH @ OLIVE NB","stop_desc":"NEAR SIDE SARAH @ OLIVE NB","wheelchair_boarding":2,"routes":[{"route_id":"19613","agency_id":"70006","route_short_name":"42","route_long_name":"Sarah","route_type":3,"route_color":"#FFFFFF","route_text_color":"#000000"}],"agency_name":"Metro St. Louis"},"geometry":{"type":"Point","coordinates":[-90.24391,38.64318]}},{"type":"Feature","properties":{"stop_id":"6175","stop_code":"6175","stop_name":"SARAH @ DELMAR NB","stop_desc":"FAR SIDE SARAH @ DELMAR NB","wheelchair_boarding":2,"routes":[{"route_id":"19613","agency_id":"70006","route_short_name":"42","route_long_name":"Sarah","route_type":3,"route_color":"#FFFFFF","route_text_color":"#000000"}],"agency_name":"Metro St. Louis"},"geometry":{"type":"Point","coordinates":[-90.24224,38.64559]}},{"type":"Feature","properties":{"stop_id":"6177","stop_code":"6177","stop_name":"SARAH @ WEST BELLE PLACE NB","stop_desc":"NEAR SIDE SARAH @ WEST BELLE PLACE NB","wheelchair_boarding":1,"routes":[{"route_id":"19613","agency_id":"70006","route_short_name":"42","route_long_name":"Sarah","route_type":3,"route_color":"#FFFFFF","route_text_color":"#000000"}],"agency_name":"Metro St. Louis"},"geometry":{"type":"Point","coordinates":[-90.24109,38.64724]}},{"type":"Feature","properties":{"stop_id":"6178","stop_code":"6178","stop_name":"SARAH @ CD BANKS NB","stop_desc":"NEAR SIDE SARAH @ CD BANKS NB","wheelchair_boarding":1,"routes":[{"route_id":"19613","agency_id":"70006","route_short_name":"42","route_long_name":"Sarah","route_type":3,"route_color":"#FFFFFF","route_text_color":"#000000"}],"agency_name":"Metro St. Louis"},"geometry":{"type":"Point","coordinates":[-90.24046,38.64813]}},{"type":"Feature","properties":{"stop_id":"6180","stop_code":"6180","stop_name":"SARAH @ COOK NB","stop_desc":"NEAR SIDE SARAH @ COOK NB","wheelchair_boarding":1,"routes":[{"route_id":"19613","agency_id":"70006","route_short_name":"42","route_long_name":"Sarah","route_type":3,"route_color":"#FFFFFF","route_text_color":"#000000"}],"agency_name":"Metro St. Louis"},"geometry":{"type":"Point","coordinates":[-90.23943,38.64961]}},{"type":"Feature","properties":{"stop_id":"6181","stop_code":"6181","stop_name":"SARAH @ PAGE NB","stop_desc":"NEAR SIDE SARAH @ PAGE NB","wheelchair_boarding":1,"routes":[{"route_id":"19613","agency_id":"70006","route_short_name":"42","route_long_name":"Sarah","route_type":3,"route_color":"#FFFFFF","route_text_color":"#000000"}],"agency_name":"Metro St. Louis"},"geometry":{"type":"Point","coordinates":[-90.23874,38.65055]}},{"type":"Feature","properties":{"stop_id":"6182","stop_code":"6182","stop_name":"SARAH @ EVANS NB","stop_desc":"NEAR SIDE SARAH @ EVANS NB","wheelchair_boarding":2,"routes":[{"route_id":"19613","agency_id":"70006","route_short_name":"42","route_long_name":"Sarah","route_type":3,"route_color":"#FFFFFF","route_text_color":"#000000"}],"agency_name":"Metro St. Louis"},"geometry":{"type":"Point","coordinates":[-90.23808,38.65145]}},{"type":"Feature","properties":{"stop_id":"6186","stop_code":"6186","stop_name":"WHITTIER @ ST LOUIS NB","stop_desc":"NEAR SIDE WHITTIER @ ST LOUIS NB","wheelchair_boarding":2,"routes":[{"route_id":"19613","agency_id":"70006","route_short_name":"42","route_long_name":"Sarah","route_type":3,"route_color":"#FFFFFF","route_text_color":"#000000"}],"agency_name":"Metro St. Louis"},"geometry":{"type":"Point","coordinates":[-90.2335,38.66101]}},{"type":"Feature","properties":{"stop_id":"6194","stop_code":"6194","stop_name":"FAIR @ NATURAL BRIDGE NB","stop_desc":"NEAR SIDE FAIR @ NATURAL BRIDGE NB","wheelchair_boarding":2,"routes":[{"route_id":"19613","agency_id":"70006","route_short_name":"42","route_long_name":"Sarah","route_type":3,"route_color":"#FFFFFF","route_text_color":"#000000"}],"agency_name":"Metro St. Louis"},"geometry":{"type":"Point","coordinates":[-90.22894,38.66625]}},{"type":"Feature","properties":{"stop_id":"6195","stop_code":"6195","stop_name":"FAIR @ SAN FRANCISCO NB","stop_desc":"FAR SIDE FAIR @ SAN FRANCISCO NB","wheelchair_boarding":2,"routes":[{"route_id":"19613","agency_id":"70006","route_short_name":"42","route_long_name":"Sarah","route_type":3,"route_color":"#FFFFFF","route_text_color":"#000000"}],"agency_name":"Metro St. Louis"},"geometry":{"type":"Point","coordinates":[-90.22769,38.66796]}},{"type":"Feature","properties":{"stop_id":"6196","stop_code":"6196","stop_name":"FAIR @ KOSSUTH NB","stop_desc":"NEAR SIDE FAIR @ KOSSUTH NB","wheelchair_boarding":2,"routes":[{"route_id":"19613","agency_id":"70006","route_short_name":"42","route_long_name":"Sarah","route_type":3,"route_color":"#FFFFFF","route_text_color":"#000000"}],"agency_name":"Metro St. Louis"},"geometry":{"type":"Point","coordinates":[-90.22645,38.66971]}},{"type":"Feature","properties":{"stop_id":"6197","stop_code":"6197","stop_name":"FAIR @ LEE NB","stop_desc":"NEAR SIDE FAIR @ LEE NB","wheelchair_boarding":1,"routes":[{"route_id":"19613","agency_id":"70006","route_short_name":"42","route_long_name":"Sarah","route_type":3,"route_color":"#FFFFFF","route_text_color":"#000000"}],"agency_name":"Metro St. Louis"},"geometry":{"type":"Point","coordinates":[-90.22549,38.67113]}},{"type":"Feature","properties":{"stop_id":"6198","stop_code":"6198","stop_name":"FAIR @ GREEN LEA PLACE NB","stop_desc":"NEAR SIDE FAIR @ GREEN LEA PLACE NB","wheelchair_boarding":2,"routes":[{"route_id":"19613","agency_id":"70006","route_short_name":"42","route_long_name":"Sarah","route_type":3,"route_color":"#FFFFFF","route_text_color":"#000000"}],"agency_name":"Metro St. Louis"},"geometry":{"type":"Point","coordinates":[-90.22447,38.67255]}},{"type":"Feature","properties":{"stop_id":"6200","stop_code":"6200","stop_name":"ROSALIE @ FAIR NB","stop_desc":"FAR SIDE ROSALIE @ FAIR NB","wheelchair_boarding":2,"routes":[{"route_id":"19613","agency_id":"70006","route_short_name":"42","route_long_name":"Sarah","route_type":3,"route_color":"#FFFFFF","route_text_color":"#000000"}],"agency_name":"Metro St. Louis"},"geometry":{"type":"Point","coordinates":[-90.22342,38.6745]}},{"type":"Feature","properties":{"stop_id":"6202","stop_code":"6202","stop_name":"HARRIS @ WEST FLORISSANT EB","stop_desc":"NEAR SIDE HARRIS @ WEST FLORISSANT EB","wheelchair_boarding":2,"routes":[{"route_id":"19613","agency_id":"70006","route_short_name":"42","route_long_name":"Sarah","route_type":3,"route_color":"#FFFFFF","route_text_color":"#000000"}],"agency_name":"Metro St. Louis"},"geometry":{"type":"Point","coordinates":[-90.22177,38.67635]}},{"type":"Feature","properties":{"stop_id":"7948","stop_code":"7948","stop_name":"WHITTIER @ ST. FERDINAND NB","stop_desc":"NEAR SIDE WHITTIER @ ST. FERDINAND NB","wheelchair_boarding":1,"routes":[{"route_id":"19613","agency_id":"70006","route_short_name":"42","route_long_name":"Sarah","route_type":3,"route_color":"#FFFFFF","route_text_color":"#000000"}],"agency_name":"Metro St. Louis"},"geometry":{"type":"Point","coordinates":[-90.23596,38.65757]}},{"type":"Feature","properties":{"stop_id":"7976","stop_code":"7976","stop_name":"POPE @ WEST FLORISSANT SB","stop_desc":"FAR SIDE POPE @ WEST FLORISSANT SB","wheelchair_boarding":2,"routes":[{"route_id":"19602","agency_id":"70006","route_short_name":"18","route_long_name":"Taylor","route_type":3,"route_color":"#FFFFFF","route_text_color":"#000000"},{"route_id":"19613","agency_id":"70006","route_short_name":"42","route_long_name":"Sarah","route_type":3,"route_color":"#FFFFFF","route_text_color":"#000000"}],"agency_name":"Metro St. Louis"},"geometry":{"type":"Point","coordinates":[-90.22519,38.68077]}}]}